{"type":"FeatureCollection","features":[{"type":"Feature","geometry":{"type":"Polygon","coordinates":[[[-109.46037,23.48685],[-109.4561,23.48431],[-109.45367,23.48255],[-109.44859,23.47965],[-109.4459,23.47652],[-109.4454,23.4756],[-109.44525,23.47464],[-109.44521,23.47139],[-109.44414,23.46801],[-109.44295,23.46604],[-109.44146,23.4652],[-109.44019,23.46345],[-109.43893,23.46204],[-109.43376,23.45965],[-109.42934,23.458],[-109.42753,23.45464],[-109.42674,23.45219],[-109.42549,23.45084],[-109.42522,23.45025],[-109.42563,23.44853],[-109.42528,23.44697],[-109.42378,23.4456],[-109.42336,23.44561],[-109.42321,23.44541],[-109.42361,23.44512],[-109.42517,23.44506],[-109.42587,23.44451],[-109.42698,23.44118],[-109.42718,23.43985],[-109.42711,23.43877],[-109.42611,23.43548],[-109.42607,23.43487],[-109.42743,23.433],[-109.42861,23.42883],[-109.42931,23.42819],[-109.42979,23.42712],[-109.43012,23.42574],[-109.43016,23.42456],[-109.43056,23.42367],[-109.43108,23.42321],[-109.43181,23.42176],[-109.43214,23.41954],[-109.43217,23.41764],[-109.43197,23.41645],[-109.43214,23.41415],[-109.43164,23.41274],[-109.43123,23.41238],[-109.43131,23.4117],[-109.43062,23.40945],[-109.43033,23.40895],[-109.42892,23.4076],[-109.42897,23.40731],[-109.4287,23.40653],[-109.42777,23.40563],[-109.42728,23.40543],[-109.42618,23.40552],[-109.42579,23.405],[-109.42477,23.40427],[-109.42396,23.40431],[-109.42328,23.40415],[-109.4223,23.40357],[-109.42194,23.40355],[-109.4218,23.40332],[-109.42123,23.40317],[-109.42049,23.40326],[-109.42011,23.40376],[-109.41976,23.40386],[-109.41921,23.40387],[-109.41865,23.4033],[-109.41817,23.40343],[-109.41779,23.40325],[-109.41741,23.40355],[-109.41717,23.40309],[-109.41642,23.40317],[-109.41624,23.40355],[-109.41534,23.40336],[-109.41532,23.40316],[-109.41585,23.40297],[-109.41603,23.40273],[-109.41629,23.40143],[-109.41671,23.40068],[-109.4169,23.39998],[-109.41749,23.39909],[-109.41767,23.39772],[-109.4173,23.39621],[-109.41738,23.39431],[-109.41594,23.39067],[-109.41442,23.38923],[-109.41386,23.3891],[-109.41357,23.38886],[-109.41335,23.38841],[-109.41319,23.38693],[-109.41348,23.38621],[-109.41358,23.38512],[-109.41413,23.38443],[-109.41492,23.38293],[-109.41538,23.38238],[-109.41599,23.38204],[-109.41685,23.38196],[-109.4184,23.38253],[-109.41999,23.38266],[-109.42135,23.38297],[-109.42262,23.38301],[-109.42338,23.38284],[-109.42919,23.37967],[-109.4315,23.37745],[-109.43174,23.37693],[-109.4317,23.37611],[-109.43102004569039,23.372945945945947],[-109.49191151117478,23.372945945945947],[-109.49191151117478,23.487054054054052],[-109.46056477886978,23.487054054054052],[-109.46037,23.48685]]]},"properties":{"name":"baja-north-pacific"}}]}