{"type":"FeatureCollection","features":[{"type":"Feature","geometry":{"type":"Polygon","coordinates":[[[-109.384,23.375],[-109.433,23.376],[-109.433,23.377],[-109.432,23.379],[-109.424,23.384],[-109.417,23.382],[-109.416,23.382],[-109.414,23.387],[-109.414,23.389],[-109.417,23.391],[-109.418,23.394],[-109.418,23.399],[-109.417,23.403],[-109.416,23.403],[-109.417,23.404],[-109.417,23.403],[-109.417,23.403],[-109.418,23.403],[-109.42,23.404],[-109.421,23.403],[-109.424,23.404],[-109.426,23.404],[-109.427,23.405],[-109.429,23.406],[-109.431,23.409],[-109.432,23.412],[-109.433,23.414],[-109.433,23.422],[-109.427,23.435],[-109.428,23.439],[-109.427,23.442],[-109.426,23.445],[-109.424,23.445],[-109.426,23.448],[-109.425,23.451],[-109.43,23.458],[-109.439,23.462],[-109.442,23.465],[-109.444,23.466],[-109.446,23.471],[-109.446,23.474],[-109.446,23.476],[-109.45,23.48],[-109.456,23.482],[-109.458,23.485],[-109.461,23.486],[-109.461,23.487],[-109.461,23.489],[-109.464,23.495],[-109.467,23.498],[-109.469,23.5],[-109.384,23.5],[-109.384,23.375]]]},"properties":{"id":"cabo-pulmo","name":"Cabo Pulmo","type":"Parque Nacional","shortName":"Cabo Pulmo","areaKm2":71.1,"ccrCitation":null}}]}