{"type":"FeatureCollection","features":[{"type":"Feature","geometry":{"type":"Point","coordinates":[-109.44281,23.48405]},"properties":{"depth_ft":10,"depth_m":3.0}},{"type":"Feature","geometry":{"type":"Point","coordinates":[-109.43768,23.48405]},"properties":{"depth_ft":13,"depth_m":3.9}},{"type":"Feature","geometry":{"type":"Point","coordinates":[-109.43256,23.48405]},"properties":{"depth_ft":6,"depth_m":2.0}},{"type":"Feature","geometry":{"type":"Point","coordinates":[-109.42232,23.48405]},"properties":{"depth_ft":4,"depth_m":1.3}},{"type":"Feature","geometry":{"type":"Point","coordinates":[-109.41719,23.48405]},"properties":{"depth_ft":19,"depth_m":5.7}},{"type":"Feature","geometry":{"type":"Point","coordinates":[-109.41207,23.48405]},"properties":{"depth_ft":50,"depth_m":15.3}},{"type":"Feature","geometry":{"type":"Point","coordinates":[-109.40695,23.48405]},"properties":{"depth_ft":101,"depth_m":30.8}},{"type":"Feature","geometry":{"type":"Point","coordinates":[-109.40182,23.48405]},"properties":{"depth_ft":189,"depth_m":57.7}},{"type":"Feature","geometry":{"type":"Point","coordinates":[-109.3967,23.48405]},"properties":{"depth_ft":287,"depth_m":87.5}},{"type":"Feature","geometry":{"type":"Point","coordinates":[-109.44281,23.47935]},"properties":{"depth_ft":5,"depth_m":1.4}},{"type":"Feature","geometry":{"type":"Point","coordinates":[-109.43768,23.47935]},"properties":{"depth_ft":14,"depth_m":4.3}},{"type":"Feature","geometry":{"type":"Point","coordinates":[-109.43256,23.47935]},"properties":{"depth_ft":10,"depth_m":3.0}},{"type":"Feature","geometry":{"type":"Point","coordinates":[-109.42744,23.47935]},"properties":{"depth_ft":5,"depth_m":1.5}},{"type":"Feature","geometry":{"type":"Point","coordinates":[-109.42232,23.47935]},"properties":{"depth_ft":6,"depth_m":1.8}},{"type":"Feature","geometry":{"type":"Point","coordinates":[-109.41719,23.47935]},"properties":{"depth_ft":19,"depth_m":5.7}},{"type":"Feature","geometry":{"type":"Point","coordinates":[-109.41207,23.47935]},"properties":{"depth_ft":45,"depth_m":13.7}},{"type":"Feature","geometry":{"type":"Point","coordinates":[-109.40695,23.47935]},"properties":{"depth_ft":87,"depth_m":26.5}},{"type":"Feature","geometry":{"type":"Point","coordinates":[-109.40182,23.47935]},"properties":{"depth_ft":157,"depth_m":47.9}},{"type":"Feature","geometry":{"type":"Point","coordinates":[-109.3967,23.47935]},"properties":{"depth_ft":238,"depth_m":72.4}},{"type":"Feature","geometry":{"type":"Point","coordinates":[-109.43768,23.47465]},"properties":{"depth_ft":8,"depth_m":2.5}},{"type":"Feature","geometry":{"type":"Point","coordinates":[-109.43256,23.47465]},"properties":{"depth_ft":7,"depth_m":2.1}},{"type":"Feature","geometry":{"type":"Point","coordinates":[-109.42744,23.47465]},"properties":{"depth_ft":7,"depth_m":2.0}},{"type":"Feature","geometry":{"type":"Point","coordinates":[-109.42232,23.47465]},"properties":{"depth_ft":8,"depth_m":2.3}},{"type":"Feature","geometry":{"type":"Point","coordinates":[-109.41719,23.47465]},"properties":{"depth_ft":18,"depth_m":5.5}},{"type":"Feature","geometry":{"type":"Point","coordinates":[-109.41207,23.47465]},"properties":{"depth_ft":39,"depth_m":11.9}},{"type":"Feature","geometry":{"type":"Point","coordinates":[-109.40695,23.47465]},"properties":{"depth_ft":75,"depth_m":22.8}},{"type":"Feature","geometry":{"type":"Point","coordinates":[-109.40182,23.47465]},"properties":{"depth_ft":135,"depth_m":41.1}},{"type":"Feature","geometry":{"type":"Point","coordinates":[-109.3967,23.47465]},"properties":{"depth_ft":209,"depth_m":63.6}},{"type":"Feature","geometry":{"type":"Point","coordinates":[-109.39158,23.47465]},"properties":{"depth_ft":315,"depth_m":96.1}},{"type":"Feature","geometry":{"type":"Point","coordinates":[-109.42232,23.46995]},"properties":{"depth_ft":1,"depth_m":0.4}},{"type":"Feature","geometry":{"type":"Point","coordinates":[-109.41719,23.46995]},"properties":{"depth_ft":13,"depth_m":3.8}},{"type":"Feature","geometry":{"type":"Point","coordinates":[-109.41207,23.46995]},"properties":{"depth_ft":30,"depth_m":9.3}},{"type":"Feature","geometry":{"type":"Point","coordinates":[-109.40695,23.46995]},"properties":{"depth_ft":62,"depth_m":18.8}},{"type":"Feature","geometry":{"type":"Point","coordinates":[-109.40182,23.46995]},"properties":{"depth_ft":122,"depth_m":37.2}},{"type":"Feature","geometry":{"type":"Point","coordinates":[-109.3967,23.46995]},"properties":{"depth_ft":207,"depth_m":63.0}},{"type":"Feature","geometry":{"type":"Point","coordinates":[-109.39158,23.46995]},"properties":{"depth_ft":311,"depth_m":94.9}},{"type":"Feature","geometry":{"type":"Point","coordinates":[-109.41719,23.46525]},"properties":{"depth_ft":6,"depth_m":1.7}},{"type":"Feature","geometry":{"type":"Point","coordinates":[-109.41207,23.46525]},"properties":{"depth_ft":17,"depth_m":5.1}},{"type":"Feature","geometry":{"type":"Point","coordinates":[-109.40695,23.46525]},"properties":{"depth_ft":40,"depth_m":12.1}},{"type":"Feature","geometry":{"type":"Point","coordinates":[-109.40182,23.46525]},"properties":{"depth_ft":87,"depth_m":26.5}},{"type":"Feature","geometry":{"type":"Point","coordinates":[-109.3967,23.46525]},"properties":{"depth_ft":182,"depth_m":55.5}},{"type":"Feature","geometry":{"type":"Point","coordinates":[-109.39158,23.46525]},"properties":{"depth_ft":307,"depth_m":93.4}},{"type":"Feature","geometry":{"type":"Point","coordinates":[-109.41207,23.46055]},"properties":{"depth_ft":7,"depth_m":2.2}},{"type":"Feature","geometry":{"type":"Point","coordinates":[-109.40695,23.46055]},"properties":{"depth_ft":19,"depth_m":5.7}},{"type":"Feature","geometry":{"type":"Point","coordinates":[-109.40182,23.46055]},"properties":{"depth_ft":40,"depth_m":12.3}},{"type":"Feature","geometry":{"type":"Point","coordinates":[-109.3967,23.46055]},"properties":{"depth_ft":165,"depth_m":50.3}},{"type":"Feature","geometry":{"type":"Point","coordinates":[-109.39158,23.46055]},"properties":{"depth_ft":313,"depth_m":95.5}},{"type":"Feature","geometry":{"type":"Point","coordinates":[-109.41207,23.45585]},"properties":{"depth_ft":13,"depth_m":4.0}},{"type":"Feature","geometry":{"type":"Point","coordinates":[-109.40695,23.45585]},"properties":{"depth_ft":31,"depth_m":9.6}},{"type":"Feature","geometry":{"type":"Point","coordinates":[-109.40182,23.45585]},"properties":{"depth_ft":77,"depth_m":23.5}},{"type":"Feature","geometry":{"type":"Point","coordinates":[-109.3967,23.45585]},"properties":{"depth_ft":186,"depth_m":56.7}},{"type":"Feature","geometry":{"type":"Point","coordinates":[-109.41719,23.45115]},"properties":{"depth_ft":8,"depth_m":2.5}},{"type":"Feature","geometry":{"type":"Point","coordinates":[-109.41207,23.45115]},"properties":{"depth_ft":22,"depth_m":6.7}},{"type":"Feature","geometry":{"type":"Point","coordinates":[-109.40695,23.45115]},"properties":{"depth_ft":49,"depth_m":14.8}},{"type":"Feature","geometry":{"type":"Point","coordinates":[-109.40182,23.45115]},"properties":{"depth_ft":112,"depth_m":34.1}},{"type":"Feature","geometry":{"type":"Point","coordinates":[-109.3967,23.45115]},"properties":{"depth_ft":220,"depth_m":67.1}},{"type":"Feature","geometry":{"type":"Point","coordinates":[-109.41719,23.44645]},"properties":{"depth_ft":18,"depth_m":5.6}},{"type":"Feature","geometry":{"type":"Point","coordinates":[-109.41207,23.44645]},"properties":{"depth_ft":33,"depth_m":10.1}},{"type":"Feature","geometry":{"type":"Point","coordinates":[-109.40695,23.44645]},"properties":{"depth_ft":63,"depth_m":19.1}},{"type":"Feature","geometry":{"type":"Point","coordinates":[-109.40182,23.44645]},"properties":{"depth_ft":137,"depth_m":41.9}},{"type":"Feature","geometry":{"type":"Point","coordinates":[-109.3967,23.44645]},"properties":{"depth_ft":258,"depth_m":78.7}},{"type":"Feature","geometry":{"type":"Point","coordinates":[-109.42232,23.44175]},"properties":{"depth_ft":7,"depth_m":2.2}},{"type":"Feature","geometry":{"type":"Point","coordinates":[-109.41719,23.44175]},"properties":{"depth_ft":24,"depth_m":7.4}},{"type":"Feature","geometry":{"type":"Point","coordinates":[-109.41207,23.44175]},"properties":{"depth_ft":40,"depth_m":12.0}},{"type":"Feature","geometry":{"type":"Point","coordinates":[-109.40695,23.44175]},"properties":{"depth_ft":75,"depth_m":22.8}},{"type":"Feature","geometry":{"type":"Point","coordinates":[-109.40182,23.44175]},"properties":{"depth_ft":159,"depth_m":48.4}},{"type":"Feature","geometry":{"type":"Point","coordinates":[-109.3967,23.44175]},"properties":{"depth_ft":284,"depth_m":86.6}},{"type":"Feature","geometry":{"type":"Point","coordinates":[-109.42232,23.43705]},"properties":{"depth_ft":14,"depth_m":4.4}},{"type":"Feature","geometry":{"type":"Point","coordinates":[-109.41719,23.43705]},"properties":{"depth_ft":30,"depth_m":9.1}},{"type":"Feature","geometry":{"type":"Point","coordinates":[-109.41207,23.43705]},"properties":{"depth_ft":44,"depth_m":13.4}},{"type":"Feature","geometry":{"type":"Point","coordinates":[-109.40695,23.43705]},"properties":{"depth_ft":89,"depth_m":27.1}},{"type":"Feature","geometry":{"type":"Point","coordinates":[-109.40182,23.43705]},"properties":{"depth_ft":175,"depth_m":53.4}},{"type":"Feature","geometry":{"type":"Point","coordinates":[-109.3967,23.43705]},"properties":{"depth_ft":294,"depth_m":89.6}},{"type":"Feature","geometry":{"type":"Point","coordinates":[-109.42232,23.43235]},"properties":{"depth_ft":24,"depth_m":7.3}},{"type":"Feature","geometry":{"type":"Point","coordinates":[-109.41719,23.43235]},"properties":{"depth_ft":45,"depth_m":13.7}},{"type":"Feature","geometry":{"type":"Point","coordinates":[-109.41207,23.43235]},"properties":{"depth_ft":64,"depth_m":19.4}},{"type":"Feature","geometry":{"type":"Point","coordinates":[-109.40695,23.43235]},"properties":{"depth_ft":108,"depth_m":32.9}},{"type":"Feature","geometry":{"type":"Point","coordinates":[-109.40182,23.43235]},"properties":{"depth_ft":181,"depth_m":55.1}},{"type":"Feature","geometry":{"type":"Point","coordinates":[-109.3967,23.43235]},"properties":{"depth_ft":283,"depth_m":86.4}},{"type":"Feature","geometry":{"type":"Point","coordinates":[-109.42232,23.42765]},"properties":{"depth_ft":32,"depth_m":9.8}},{"type":"Feature","geometry":{"type":"Point","coordinates":[-109.41719,23.42765]},"properties":{"depth_ft":59,"depth_m":17.9}},{"type":"Feature","geometry":{"type":"Point","coordinates":[-109.41207,23.42765]},"properties":{"depth_ft":87,"depth_m":26.5}},{"type":"Feature","geometry":{"type":"Point","coordinates":[-109.40695,23.42765]},"properties":{"depth_ft":124,"depth_m":37.9}},{"type":"Feature","geometry":{"type":"Point","coordinates":[-109.40182,23.42765]},"properties":{"depth_ft":180,"depth_m":54.8}},{"type":"Feature","geometry":{"type":"Point","coordinates":[-109.3967,23.42765]},"properties":{"depth_ft":245,"depth_m":74.6}},{"type":"Feature","geometry":{"type":"Point","coordinates":[-109.42232,23.42295]},"properties":{"depth_ft":33,"depth_m":10.1}},{"type":"Feature","geometry":{"type":"Point","coordinates":[-109.41719,23.42295]},"properties":{"depth_ft":64,"depth_m":19.5}},{"type":"Feature","geometry":{"type":"Point","coordinates":[-109.41207,23.42295]},"properties":{"depth_ft":105,"depth_m":31.9}},{"type":"Feature","geometry":{"type":"Point","coordinates":[-109.40695,23.42295]},"properties":{"depth_ft":154,"depth_m":46.8}},{"type":"Feature","geometry":{"type":"Point","coordinates":[-109.40182,23.42295]},"properties":{"depth_ft":174,"depth_m":53.1}},{"type":"Feature","geometry":{"type":"Point","coordinates":[-109.3967,23.42295]},"properties":{"depth_ft":185,"depth_m":56.4}},{"type":"Feature","geometry":{"type":"Point","coordinates":[-109.39158,23.42295]},"properties":{"depth_ft":221,"depth_m":67.3}},{"type":"Feature","geometry":{"type":"Point","coordinates":[-109.38646,23.42295]},"properties":{"depth_ft":305,"depth_m":93.0}},{"type":"Feature","geometry":{"type":"Point","coordinates":[-109.42232,23.41825]},"properties":{"depth_ft":8,"depth_m":2.3}},{"type":"Feature","geometry":{"type":"Point","coordinates":[-109.41719,23.41825]},"properties":{"depth_ft":47,"depth_m":14.4}},{"type":"Feature","geometry":{"type":"Point","coordinates":[-109.41207,23.41825]},"properties":{"depth_ft":103,"depth_m":31.4}},{"type":"Feature","geometry":{"type":"Point","coordinates":[-109.40695,23.41825]},"properties":{"depth_ft":165,"depth_m":50.4}},{"type":"Feature","geometry":{"type":"Point","coordinates":[-109.40182,23.41825]},"properties":{"depth_ft":171,"depth_m":52.0}},{"type":"Feature","geometry":{"type":"Point","coordinates":[-109.3967,23.41825]},"properties":{"depth_ft":132,"depth_m":40.4}},{"type":"Feature","geometry":{"type":"Point","coordinates":[-109.39158,23.41825]},"properties":{"depth_ft":102,"depth_m":30.9}},{"type":"Feature","geometry":{"type":"Point","coordinates":[-109.38646,23.41825]},"properties":{"depth_ft":67,"depth_m":20.5}},{"type":"Feature","geometry":{"type":"Point","coordinates":[-109.38133,23.41825]},"properties":{"depth_ft":35,"depth_m":10.8}},{"type":"Feature","geometry":{"type":"Point","coordinates":[-109.41719,23.41355]},"properties":{"depth_ft":25,"depth_m":7.6}},{"type":"Feature","geometry":{"type":"Point","coordinates":[-109.41207,23.41355]},"properties":{"depth_ft":93,"depth_m":28.3}},{"type":"Feature","geometry":{"type":"Point","coordinates":[-109.40695,23.41355]},"properties":{"depth_ft":178,"depth_m":54.2}},{"type":"Feature","geometry":{"type":"Point","coordinates":[-109.40182,23.41355]},"properties":{"depth_ft":188,"depth_m":57.3}},{"type":"Feature","geometry":{"type":"Point","coordinates":[-109.3967,23.41355]},"properties":{"depth_ft":131,"depth_m":39.9}},{"type":"Feature","geometry":{"type":"Point","coordinates":[-109.39158,23.41355]},"properties":{"depth_ft":101,"depth_m":30.6}},{"type":"Feature","geometry":{"type":"Point","coordinates":[-109.38646,23.41355]},"properties":{"depth_ft":121,"depth_m":37.0}},{"type":"Feature","geometry":{"type":"Point","coordinates":[-109.38133,23.41355]},"properties":{"depth_ft":218,"depth_m":66.3}},{"type":"Feature","geometry":{"type":"Point","coordinates":[-109.41719,23.40885]},"properties":{"depth_ft":4,"depth_m":1.2}},{"type":"Feature","geometry":{"type":"Point","coordinates":[-109.41207,23.40885]},"properties":{"depth_ft":72,"depth_m":22.1}},{"type":"Feature","geometry":{"type":"Point","coordinates":[-109.40695,23.40885]},"properties":{"depth_ft":168,"depth_m":51.1}},{"type":"Feature","geometry":{"type":"Point","coordinates":[-109.40182,23.40885]},"properties":{"depth_ft":226,"depth_m":68.8}},{"type":"Feature","geometry":{"type":"Point","coordinates":[-109.3967,23.40885]},"properties":{"depth_ft":188,"depth_m":57.2}},{"type":"Feature","geometry":{"type":"Point","coordinates":[-109.39158,23.40885]},"properties":{"depth_ft":194,"depth_m":59.1}},{"type":"Feature","geometry":{"type":"Point","coordinates":[-109.38646,23.40885]},"properties":{"depth_ft":270,"depth_m":82.4}},{"type":"Feature","geometry":{"type":"Point","coordinates":[-109.41207,23.40415]},"properties":{"depth_ft":38,"depth_m":11.7}},{"type":"Feature","geometry":{"type":"Point","coordinates":[-109.40695,23.40415]},"properties":{"depth_ft":113,"depth_m":34.4}},{"type":"Feature","geometry":{"type":"Point","coordinates":[-109.40182,23.40415]},"properties":{"depth_ft":196,"depth_m":59.8}},{"type":"Feature","geometry":{"type":"Point","coordinates":[-109.3967,23.40415]},"properties":{"depth_ft":231,"depth_m":70.5}},{"type":"Feature","geometry":{"type":"Point","coordinates":[-109.39158,23.40415]},"properties":{"depth_ft":312,"depth_m":95.2}},{"type":"Feature","geometry":{"type":"Point","coordinates":[-109.41207,23.39945]},"properties":{"depth_ft":24,"depth_m":7.2}},{"type":"Feature","geometry":{"type":"Point","coordinates":[-109.40695,23.39945]},"properties":{"depth_ft":34,"depth_m":10.2}},{"type":"Feature","geometry":{"type":"Point","coordinates":[-109.40182,23.39945]},"properties":{"depth_ft":94,"depth_m":28.5}},{"type":"Feature","geometry":{"type":"Point","coordinates":[-109.3967,23.39945]},"properties":{"depth_ft":263,"depth_m":80.1}},{"type":"Feature","geometry":{"type":"Point","coordinates":[-109.41207,23.39475]},"properties":{"depth_ft":93,"depth_m":28.2}},{"type":"Feature","geometry":{"type":"Point","coordinates":[-109.40695,23.39475]},"properties":{"depth_ft":133,"depth_m":40.6}},{"type":"Feature","geometry":{"type":"Point","coordinates":[-109.40182,23.39475]},"properties":{"depth_ft":207,"depth_m":63.0}},{"type":"Feature","geometry":{"type":"Point","coordinates":[-109.41207,23.39005]},"properties":{"depth_ft":99,"depth_m":30.3}},{"type":"Feature","geometry":{"type":"Point","coordinates":[-109.41207,23.38535]},"properties":{"depth_ft":153,"depth_m":46.8}},{"type":"Feature","geometry":{"type":"Point","coordinates":[-109.42232,23.38065]},"properties":{"depth_ft":64,"depth_m":19.4}},{"type":"Feature","geometry":{"type":"Point","coordinates":[-109.42744,23.37595]},"properties":{"depth_ft":116,"depth_m":35.3}}]}