{"type":"FeatureCollection","features":[{"type":"Feature","geometry":{"type":"Polygon","coordinates":[[[-111.33238,25.85393],[-111.33232,25.85329],[-111.33174,25.85227],[-111.33183,25.85137],[-111.33157,25.85094],[-111.3317,25.85019],[-111.33155,25.84814],[-111.33165,25.8472],[-111.33124,25.84439],[-111.33196,25.84363],[-111.33193,25.84314],[-111.3324,25.84259],[-111.33123,25.83952],[-111.33164,25.83894],[-111.33225,25.83844],[-111.33326,25.83794],[-111.3334,25.83729],[-111.33322,25.83633],[-111.33246,25.83494],[-111.33125,25.83364],[-111.33039,25.83314],[-111.32982,25.83235],[-111.32779,25.83148],[-111.3252,25.83081],[-111.32461,25.83098],[-111.32448,25.8313],[-111.32472,25.83149],[-111.32458,25.83166],[-111.32418,25.83142],[-111.32356,25.83133],[-111.32272,25.8317],[-111.32202,25.83166],[-111.3219,25.83191],[-111.32153,25.832],[-111.32141,25.83187],[-111.3209,25.83191],[-111.32049,25.8326],[-111.31965,25.83163],[-111.31908,25.83131],[-111.31782,25.83152],[-111.31764,25.83172],[-111.31761,25.83257],[-111.31792,25.83361],[-111.3166,25.83546],[-111.31661,25.83655],[-111.31595,25.83708],[-111.31532,25.83645],[-111.31506,25.83579],[-111.31445,25.8352],[-111.31417,25.83452],[-111.31378,25.83418],[-111.31327,25.83416],[-111.31266,25.83391],[-111.31203,25.83316],[-111.31123,25.83265],[-111.31013,25.83121],[-111.30921,25.83069],[-111.30842,25.8305],[-111.30706,25.82986],[-111.30645,25.82927],[-111.30618,25.82871],[-111.30615,25.82719],[-111.30566,25.82625],[-111.30564,25.82592],[-111.30637,25.82682],[-111.30694,25.82675],[-111.3073,25.82639],[-111.30729,25.82671],[-111.30842,25.82776],[-111.30889,25.83028],[-111.31029,25.83095],[-111.31094,25.83168],[-111.31131,25.83164],[-111.31219,25.83113],[-111.31229,25.83086],[-111.31267,25.83063],[-111.31453,25.83141],[-111.31494,25.83144],[-111.31518,25.8313],[-111.31608,25.82971],[-111.31701,25.83016],[-111.31732,25.83007],[-111.31751,25.82937],[-111.31737,25.82795],[-111.3169,25.82773],[-111.31645,25.82808],[-111.31586,25.82804],[-111.3148,25.82737],[-111.3141,25.82589],[-111.31394,25.82502],[-111.31432,25.82456],[-111.31617,25.82467],[-111.31664,25.82447],[-111.31628,25.82353],[-111.31659,25.82269],[-111.31598,25.8219],[-111.31553,25.82016],[-111.31635,25.81871],[-111.31708,25.81827],[-111.31716,25.81751],[-111.31648,25.81677],[-111.31571,25.81654],[-111.31662,25.81625],[-111.31698,25.81592],[-111.31698,25.81551],[-111.31736,25.81539],[-111.31794,25.81551],[-111.3189,25.8161],[-111.31974,25.81596],[-111.31965,25.81576],[-111.31893,25.81571],[-111.31835,25.8152],[-111.31838,25.81503],[-111.31698,25.81492],[-111.31689,25.81458],[-111.31737,25.81392],[-111.31724,25.81371],[-111.31705,25.81378],[-111.31695,25.81418],[-111.31673,25.81426],[-111.3163,25.81377],[-111.31644,25.81369],[-111.31625,25.81356],[-111.31629,25.81303],[-111.31612,25.81298],[-111.31607,25.81312],[-111.31568,25.81317],[-111.31596,25.81341],[-111.31656,25.81501],[-111.31646,25.81554],[-111.31597,25.81567],[-111.31557,25.81431],[-111.315,25.81357],[-111.31541,25.81282],[-111.31517,25.81275],[-111.31509,25.81305],[-111.31473,25.81331],[-111.31415,25.81298],[-111.3143,25.81252],[-111.31375,25.81237],[-111.3135,25.81313],[-111.31417,25.81334],[-111.31441,25.81377],[-111.31462,25.81373],[-111.31514,25.81419],[-111.31538,25.81507],[-111.31527,25.8157],[-111.315,25.81573],[-111.31516,25.81594],[-111.31443,25.81632],[-111.31426,25.81627],[-111.31463,25.81612],[-111.31462,25.81568],[-111.31417,25.81543],[-111.31325,25.81526],[-111.31325,25.81546],[-111.31312,25.81547],[-111.3131,25.81504],[-111.31335,25.81457],[-111.31406,25.81402],[-111.31394,25.81387],[-111.31265,25.81471],[-111.31087,25.81424],[-111.31073,25.81395],[-111.31116,25.8136],[-111.31124,25.81302],[-111.3109,25.8125],[-111.31041,25.81216],[-111.30974,25.81197],[-111.30911,25.81208],[-111.30845,25.81257],[-111.30832,25.81253],[-111.30841,25.81266],[-111.30825,25.81285],[-111.30771,25.81261],[-111.30724,25.81087],[-111.30756,25.81048],[-111.30743,25.81002],[-111.30748,25.80991],[-111.30784,25.80992],[-111.30807,25.80951],[-111.30858,25.80751],[-111.30877,25.80575],[-111.30909,25.80488],[-111.31041,25.80268],[-111.311,25.80121],[-111.31093,25.80048],[-111.31143,25.79828],[-111.31135,25.79482],[-111.31122,25.79379],[-111.31099,25.79329],[-111.3113,25.79142],[-111.31103,25.79047],[-111.31071,25.78997],[-111.3103,25.78966],[-111.30975,25.78956],[-111.30958,25.78901],[-111.31016,25.78791],[-111.31036,25.78713],[-111.31031,25.78616],[-111.3096,25.78467],[-111.3089,25.78225],[-111.30721,25.78003],[-111.30709,25.77918],[-111.30736,25.77859],[-111.30738,25.77813],[-111.30665,25.77623],[-111.30658,25.77459],[-111.30615,25.77328],[-111.30507,25.77213],[-111.30416,25.77152],[-111.30378,25.77143],[-111.30365,25.77062],[-111.30247,25.76984],[-111.2979,25.76795],[-111.29771,25.76733],[-111.29736,25.76754],[-111.2941,25.76633],[-111.29238,25.76561],[-111.29069,25.7646],[-111.28941,25.76346],[-111.28928,25.76319],[-111.28933,25.76252],[-111.28911,25.76202],[-111.28727,25.76102],[-111.28613,25.75989],[-111.28592,25.75846],[-111.28451,25.7563],[-111.2822,25.75537],[-111.28156,25.75504],[-111.28135,25.75475],[-111.28066,25.75462],[-111.27999,25.75398],[-111.27971,25.75339],[-111.27964,25.7523],[-111.27978,25.7521],[-111.27949,25.75124],[-111.27904,25.7506],[-111.27852,25.75019],[-111.27547,25.74867],[-111.27077,25.74673],[-111.26752,25.74597],[-111.26598,25.74574],[-111.26442,25.74573],[-111.26328,25.74528],[-111.26018,25.74464],[-111.26081,25.74351],[-111.26079,25.74294],[-111.26034,25.74296],[-111.25948,25.74361],[-111.25941,25.74296],[-111.25916,25.74257],[-111.25656,25.74074],[-111.25557,25.74039],[-111.2552,25.74049],[-111.25442,25.74023],[-111.25378,25.7393],[-111.25158,25.73759],[-111.25133,25.73722],[-111.25096,25.73587],[-111.25031,25.73468],[-111.24909,25.73279],[-111.24803,25.73155],[-111.2473,25.73103],[-111.24647,25.73094],[-111.24601,25.73063],[-111.24591,25.72894],[-111.24513,25.7276],[-111.24449,25.72736],[-111.24436,25.72682],[-111.24481,25.72652],[-111.24485,25.72604],[-111.24505,25.72586],[-111.24601,25.72609],[-111.24631,25.72599],[-111.24642,25.72523],[-111.24625,25.72436],[-111.24525,25.72296],[-111.24447,25.72225],[-111.24267,25.72106],[-111.24053,25.72024],[-111.2386,25.71984],[-111.23753,25.71976],[-111.23531,25.71994],[-111.23407,25.72032],[-111.23318,25.72087],[-111.23215,25.72196],[-111.23234,25.72244],[-111.23228,25.72289],[-111.23285,25.72316],[-111.23307,25.72374],[-111.23358,25.72368],[-111.23394,25.72392],[-111.23406,25.72451],[-111.23453,25.72474],[-111.23443,25.72554],[-111.23392,25.72617],[-111.23343,25.72645],[-111.23318,25.72611],[-111.23274,25.72598],[-111.23236,25.72531],[-111.23138,25.72488],[-111.23057,25.72504],[-111.2299,25.72573],[-111.22965,25.72567],[-111.22971,25.72549],[-111.2295,25.72542],[-111.22846,25.72567],[-111.22776,25.72528],[-111.22706,25.72553],[-111.22637,25.72535],[-111.22571,25.72586],[-111.22535,25.72596],[-111.22422,25.7255],[-111.22397,25.72494],[-111.22416,25.72452],[-111.22381,25.72436],[-111.22403,25.72401],[-111.2239,25.7232],[-111.22372,25.72295],[-111.22329,25.72285],[-111.22307,25.72226],[-111.2228,25.72222],[-111.22269,25.72171],[-111.22219,25.72103],[-111.22171,25.72067],[-111.22138,25.72072],[-111.22113,25.72],[-111.22079,25.72007],[-111.22051,25.71988],[-111.22089,25.71909],[-111.22083,25.71876],[-111.22065,25.71863],[-111.22013,25.7188],[-111.21999,25.71835],[-111.21978,25.71837],[-111.21973,25.71814],[-111.21951,25.71805],[-111.21975,25.71664],[-111.22032,25.7164],[-111.22047,25.71561],[-111.21998,25.71439],[-111.21911,25.7142],[-111.21903,25.71385],[-111.21876,25.71365],[-111.21857,25.71257],[-111.21805,25.71227],[-111.21821,25.7117],[-111.21765,25.71036],[-111.21708,25.7101],[-111.2163,25.70876],[-111.21618,25.70837],[-111.2164,25.70782],[-111.21628,25.70737],[-111.21679,25.70717],[-111.21703,25.70613],[-111.21666,25.7058],[-111.21597,25.70553],[-111.21509,25.70555],[-111.21475,25.70595],[-111.21405,25.70589],[-111.21349,25.70551],[-111.21305,25.70511],[-111.21305888156449,25.70492792792793],[-111.3530382253474,25.70492792792793],[-111.3530382253474,25.855072072072073],[-111.33323388566136,25.855072072072073],[-111.33238,25.85393]]]},"properties":{"name":"baja-north-pacific"}},{"type":"Feature","geometry":{"type":"Polygon","coordinates":[[[-111.19862,25.85422],[-111.20038,25.85208],[-111.201,25.85205],[-111.20174,25.85149],[-111.20233,25.85035],[-111.20304,25.8496],[-111.20371,25.84801],[-111.20369,25.84771],[-111.20326,25.84748],[-111.20373,25.84598],[-111.2036,25.84368],[-111.2029,25.84227],[-111.20352,25.84017],[-111.20325,25.83895],[-111.20358,25.83856],[-111.20323,25.83726],[-111.20358,25.83651],[-111.20326,25.8356],[-111.20316,25.83461],[-111.20329,25.83407],[-111.20377,25.83335],[-111.20404,25.83226],[-111.20396,25.82492],[-111.20359,25.82109],[-111.20264,25.8178],[-111.20231,25.81429],[-111.2012,25.81231],[-111.20107,25.81139],[-111.20142,25.80891],[-111.20222,25.80733],[-111.20392,25.80638],[-111.20446,25.80623],[-111.2049,25.80672],[-111.2053,25.80682],[-111.20538,25.80719],[-111.2062,25.80825],[-111.20636,25.80904],[-111.20711,25.80938],[-111.20797,25.81047],[-111.20824,25.81129],[-111.20939,25.81223],[-111.20967,25.81353],[-111.20949,25.81405],[-111.21126,25.81582],[-111.21316,25.81669],[-111.21552,25.81736],[-111.2181,25.8173],[-111.22103,25.81784],[-111.22126,25.81819],[-111.22127,25.81896],[-111.22244,25.81944],[-111.22389,25.81961],[-111.22455,25.81984],[-111.22693,25.82179],[-111.22753,25.82213],[-111.2289,25.82241],[-111.22851,25.82351],[-111.2287,25.82505],[-111.22984,25.82769],[-111.23003,25.82903],[-111.23072,25.83012],[-111.23066,25.83467],[-111.23107,25.836],[-111.23115,25.83758],[-111.23188,25.83959],[-111.23203,25.84133],[-111.23261,25.84238],[-111.23226,25.84481],[-111.23246,25.84539],[-111.23242,25.84653],[-111.23313,25.84731],[-111.23321,25.84841],[-111.23256,25.84942],[-111.23129,25.84942],[-111.23087,25.84967],[-111.23074,25.84997],[-111.23103,25.85051],[-111.23052,25.85129],[-111.23062,25.85191],[-111.2299,25.85366],[-111.22947,25.8536],[-111.2285,25.854],[-111.22829,25.85443],[-111.22753593861303,25.855072072072073],[-111.19778991688463,25.855072072072073],[-111.19862,25.85422]]]},"properties":{"name":"unnamed-land"}},{"type":"Feature","geometry":{"type":"Polygon","coordinates":[[[-111.25968,25.81183],[-111.25918,25.81168],[-111.25908,25.81129],[-111.25842,25.81101],[-111.25793,25.81113],[-111.25704,25.81196],[-111.25678,25.81169],[-111.25613,25.81152],[-111.25534,25.81175],[-111.2553,25.81218],[-111.25499,25.81206],[-111.25472,25.81168],[-111.25474,25.81143],[-111.25396,25.81062],[-111.25439,25.81062],[-111.25452,25.81001],[-111.25386,25.8092],[-111.25367,25.8085],[-111.25337,25.80826],[-111.25376,25.80757],[-111.25405,25.80651],[-111.25376,25.80428],[-111.25279,25.80245],[-111.25229,25.80211],[-111.25235,25.80198],[-111.25199,25.80138],[-111.25149,25.80106],[-111.25157,25.80024],[-111.25113,25.79988],[-111.25092,25.79931],[-111.25036,25.79904],[-111.24972,25.79845],[-111.24926,25.79841],[-111.24912,25.79862],[-111.24897,25.79851],[-111.24871,25.79874],[-111.24827,25.79883],[-111.24783,25.79848],[-111.24757,25.79861],[-111.24738,25.79901],[-111.24715,25.79855],[-111.24731,25.79812],[-111.24764,25.79814],[-111.24794,25.79792],[-111.24766,25.79682],[-111.24819,25.79631],[-111.24826,25.7956],[-111.24888,25.79543],[-111.24909,25.79453],[-111.24989,25.79382],[-111.24995,25.79328],[-111.24981,25.79295],[-111.24942,25.7929],[-111.24922,25.79271],[-111.24873,25.79292],[-111.24864,25.79206],[-111.24838,25.79148],[-111.24759,25.79085],[-111.24714,25.7907],[-111.24646,25.79072],[-111.24581,25.79003],[-111.24558,25.79016],[-111.24496,25.78984],[-111.24465,25.79002],[-111.24424,25.78996],[-111.24398,25.78959],[-111.24319,25.78916],[-111.24338,25.78843],[-111.24374,25.78808],[-111.24374,25.78791],[-111.24345,25.78779],[-111.24392,25.78711],[-111.24387,25.78687],[-111.24432,25.78685],[-111.24442,25.78617],[-111.24466,25.78599],[-111.2459,25.78571],[-111.24658,25.78482],[-111.24707,25.78387],[-111.24783,25.78163],[-111.24774,25.78066],[-111.24768,25.78035],[-111.24734,25.78002],[-111.24691,25.77995],[-111.24677,25.78013],[-111.24661,25.77968],[-111.24686,25.77953],[-111.24697,25.77986],[-111.24714,25.7799],[-111.24712,25.7797],[-111.24762,25.7796],[-111.2479,25.77921],[-111.24811,25.77825],[-111.24803,25.77775],[-111.24773,25.77775],[-111.24763,25.77759],[-111.24774,25.77727],[-111.24723,25.7769],[-111.24732,25.77598],[-111.2466,25.77468],[-111.24594,25.77438],[-111.24476,25.77473],[-111.24452,25.77424],[-111.24357,25.77388],[-111.24325,25.77332],[-111.24328,25.77268],[-111.243,25.77222],[-111.24301,25.77162],[-111.24254,25.77123],[-111.24237,25.77069],[-111.24287,25.77021],[-111.24289,25.77002],[-111.24251,25.76966],[-111.24278,25.76922],[-111.24301,25.76813],[-111.24317,25.76816],[-111.24345,25.76773],[-111.24389,25.76556],[-111.2442,25.76512],[-111.24488,25.76462],[-111.24581,25.7646],[-111.24682,25.76602],[-111.24717,25.76628],[-111.24735,25.76725],[-111.24764,25.76763],[-111.24825,25.76798],[-111.24846,25.76902],[-111.24924,25.76989],[-111.2499,25.77033],[-111.24983,25.77113],[-111.25018,25.77153],[-111.25091,25.77188],[-111.25139,25.77242],[-111.25161,25.77328],[-111.25227,25.77386],[-111.25242,25.77445],[-111.25322,25.77537],[-111.25436,25.77606],[-111.25478,25.77691],[-111.25584,25.77787],[-111.25731,25.77867],[-111.25724,25.78031],[-111.25799,25.78171],[-111.25896,25.78251],[-111.25929,25.78305],[-111.25928,25.78349],[-111.25901,25.78407],[-111.25916,25.78462],[-111.2586,25.7853],[-111.25846,25.78657],[-111.25787,25.78776],[-111.2578,25.78915],[-111.25807,25.79024],[-111.2587,25.79072],[-111.25887,25.79126],[-111.25929,25.79168],[-111.25904,25.79214],[-111.2582,25.79221],[-111.25779,25.79275],[-111.25777,25.79303],[-111.25804,25.79348],[-111.25865,25.79365],[-111.25864,25.79405],[-111.259,25.79456],[-111.25882,25.79486],[-111.25833,25.79466],[-111.25729,25.7935],[-111.25669,25.79367],[-111.25615,25.79407],[-111.25637,25.79471],[-111.25611,25.79541],[-111.25618,25.79647],[-111.25587,25.79739],[-111.25608,25.79791],[-111.25656,25.79819],[-111.25639,25.79862],[-111.25677,25.79892],[-111.25679,25.79933],[-111.2571,25.79966],[-111.25702,25.80015],[-111.25738,25.80088],[-111.25709,25.80124],[-111.25645,25.80131],[-111.25609,25.80153],[-111.25566,25.80211],[-111.25585,25.8025],[-111.25584,25.80312],[-111.25642,25.8035],[-111.25679,25.80411],[-111.2574,25.80427],[-111.25771,25.80518],[-111.2576,25.80561],[-111.25735,25.8058],[-111.25686,25.80572],[-111.25631,25.80596],[-111.25606,25.80645],[-111.2561,25.80696],[-111.25716,25.80744],[-111.25713,25.80802],[-111.2565,25.80852],[-111.25674,25.80904],[-111.2575,25.80958],[-111.25821,25.80985],[-111.25854,25.80981],[-111.25877,25.80934],[-111.25908,25.80959],[-111.25932,25.80947],[-111.25955,25.80991],[-111.25947,25.8102],[-111.25994,25.81046],[-111.26032,25.81031],[-111.26019,25.80924],[-111.26048,25.80894],[-111.26051,25.80807],[-111.26069,25.8081],[-111.26102,25.80871],[-111.26128,25.8095],[-111.26119,25.80996],[-111.26049,25.81065],[-111.26055,25.81149],[-111.26027,25.81174],[-111.25968,25.81183]]]},"properties":{"name":"unnamed-land"}},{"type":"Feature","geometry":{"type":"Polygon","coordinates":[[[-111.30201,25.80798],[-111.30215,25.80815],[-111.30217,25.80868],[-111.30194,25.80884],[-111.30175,25.80842],[-111.30159,25.80838],[-111.301,25.80969],[-111.29961,25.81138],[-111.29953,25.81257],[-111.29979,25.81306],[-111.30025,25.81323],[-111.30102,25.81319],[-111.30187,25.81337],[-111.30422,25.813],[-111.30637,25.81288],[-111.30832,25.81351],[-111.309,25.81476],[-111.30903,25.81614],[-111.30938,25.817],[-111.30918,25.81767],[-111.30871,25.81839],[-111.30805,25.81871],[-111.30717,25.8188],[-111.30653,25.81864],[-111.30605,25.81875],[-111.30532,25.81909],[-111.30515,25.8195],[-111.30633,25.82085],[-111.30643,25.82131],[-111.30697,25.82206],[-111.30632,25.82279],[-111.3055,25.82296],[-111.3055,25.82605],[-111.30275,25.82491],[-111.30245,25.8245],[-111.3013,25.82263],[-111.30075,25.82024],[-111.3,25.81953],[-111.29977,25.81773],[-111.29911,25.81722],[-111.29881,25.81726],[-111.29854,25.81704],[-111.29787,25.81692],[-111.29701,25.8156],[-111.29558,25.81448],[-111.29564,25.8141],[-111.29533,25.81371],[-111.29478,25.8142],[-111.29429,25.81356],[-111.29398,25.81344],[-111.29339,25.8137],[-111.29278,25.81351],[-111.2925,25.81331],[-111.29256,25.81319],[-111.29208,25.81293],[-111.29224,25.81262],[-111.29218,25.81138],[-111.29277,25.81134],[-111.29372,25.8117],[-111.294,25.81162],[-111.29463,25.81114],[-111.29548,25.80962],[-111.29751,25.80781],[-111.29804,25.80755],[-111.29912,25.80742],[-111.30201,25.80798]]]},"properties":{"name":"unnamed-land"}},{"type":"Feature","geometry":{"type":"Polygon","coordinates":[[[-111.26176,25.81404],[-111.26214,25.81539],[-111.26137,25.8155],[-111.26077,25.81541],[-111.26042,25.81514],[-111.26063,25.81437],[-111.26032,25.81399],[-111.26038,25.81356],[-111.26014,25.81313],[-111.26029,25.8122],[-111.26176,25.81404]]]},"properties":{"name":"unnamed-land"}},{"type":"Feature","geometry":{"type":"Polygon","coordinates":[[[-111.22792,25.7442],[-111.22784,25.74454],[-111.22686,25.74494],[-111.226,25.74449],[-111.22623,25.74441],[-111.22642,25.74389],[-111.22615,25.74347],[-111.22717,25.74331],[-111.22792,25.7442]]]},"properties":{"name":"unnamed-land"}},{"type":"Feature","geometry":{"type":"Polygon","coordinates":[[[-111.22477,25.73023],[-111.22544,25.73057],[-111.22475,25.73177],[-111.22414,25.73156],[-111.22403,25.7311],[-111.22396,25.72962],[-111.22431,25.72954],[-111.22477,25.73023]]]},"properties":{"name":"unnamed-land"}},{"type":"Feature","geometry":{"type":"Polygon","coordinates":[[[-111.27532,25.75777],[-111.27471,25.75779],[-111.27441,25.75798],[-111.27405,25.75783],[-111.27422,25.75687],[-111.27491,25.75631],[-111.27532,25.75777]]]},"properties":{"name":"unnamed-land"}},{"type":"Feature","geometry":{"type":"Polygon","coordinates":[[[-111.31747,25.84118],[-111.31648,25.84172],[-111.31649,25.84226],[-111.31635,25.84237],[-111.31612,25.84171],[-111.31636,25.84156],[-111.31678,25.84048],[-111.31708,25.84021],[-111.31749,25.84017],[-111.31747,25.84118]]]},"properties":{"name":"unnamed-land"}},{"type":"Feature","geometry":{"type":"Polygon","coordinates":[[[-111.21437,25.70717],[-111.21451,25.70742],[-111.21432,25.70741],[-111.21419,25.70759],[-111.21404,25.70826],[-111.21371,25.70867],[-111.21357,25.7078],[-111.21405,25.70682],[-111.21399,25.70651],[-111.21444,25.70641],[-111.21458,25.70654],[-111.21437,25.70717]]]},"properties":{"name":"unnamed-land"}}]}