{"type":"FeatureCollection","features":[{"type":"Feature","geometry":{"type":"Polygon","coordinates":[[[-111.001,25.75],[-110.751,25.75],[-110.751,25.589],[-111.1,25.589],[-111.1,25.721],[-111.221,25.721],[-111.224,25.723],[-111.224,25.725],[-111.225,25.726],[-111.23,25.726],[-111.231,25.725],[-111.234,25.726],[-111.234,25.725],[-111.234,25.724],[-111.232,25.723],[-111.232,25.722],[-111.235,25.72],[-111.24,25.72],[-111.244,25.722],[-111.246,25.724],[-111.246,25.726],[-111.245,25.726],[-111.244,25.727],[-111.246,25.729],[-111.246,25.73],[-111.249,25.733],[-111.251,25.737],[-111.254,25.74],[-111.26,25.743],[-111.262,25.741],[-111.263,25.741],[-111.26,25.745],[-111.271,25.747],[-111.278,25.75],[-111.28,25.751],[-111.28,25.754],[-111.284,25.756],[-111.286,25.759],[-111.286,25.76],[-111.289,25.762],[-111.29,25.764],[-111.303,25.771],[-111.304,25.772],[-111.306,25.774],[-111.307,25.779],[-111.307,25.78],[-111.309,25.782],[-111.31,25.786],[-111.31,25.788],[-111.309,25.789],[-111.31,25.79],[-111.311,25.791],[-111.311,25.801],[-111.309,25.805],[-111.308,25.809],[-111.307,25.81],[-111.307,25.812],[-111.308,25.813],[-111.309,25.812],[-111.311,25.813],[-111.311,25.814],[-111.309,25.814],[-111.312,25.815],[-111.314,25.814],[-111.313,25.815],[-111.313,25.815],[-111.314,25.816],[-111.314,25.816],[-111.315,25.815],[-111.315,25.814],[-111.313,25.814],[-111.314,25.814],[-111.313,25.813],[-111.314,25.812],[-111.314,25.813],[-111.315,25.813],[-111.315,25.813],[-111.316,25.816],[-111.316,25.815],[-111.316,25.813],[-111.316,25.814],[-111.317,25.814],[-111.317,25.815],[-111.319,25.816],[-111.319,25.816],[-111.317,25.815],[-111.316,25.816],[-111.316,25.817],[-111.317,25.818],[-111.315,25.82],[-111.316,25.823],[-111.316,25.825],[-111.314,25.824],[-111.314,25.825],[-111.315,25.828],[-111.317,25.828],[-111.317,25.83],[-111.316,25.83],[-111.315,25.831],[-111.313,25.831],[-111.311,25.832],[-111.309,25.83],[-111.308,25.828],[-111.307,25.826],[-111.306,25.827],[-111.305,25.826],[-111.305,25.823],[-111.307,25.822],[-111.305,25.82],[-111.309,25.818],[-111.309,25.817],[-111.309,25.815],[-111.308,25.813],[-111.306,25.813],[-111.3,25.813],[-111.3,25.811],[-111.301,25.808],[-111.302,25.809],[-111.302,25.808],[-111.299,25.807],[-111.297,25.808],[-111.294,25.811],[-111.292,25.811],[-111.292,25.813],[-111.294,25.814],[-111.295,25.813],[-111.296,25.815],[-111.3,25.818],[-111.3,25.819],[-111.302,25.825],[-111.306,25.826],[-111.307,25.83],[-111.31,25.831],[-111.315,25.837],[-111.316,25.837],[-111.316,25.836],[-111.318,25.834],[-111.318,25.831],[-111.319,25.831],[-111.32,25.833],[-111.323,25.831],[-111.324,25.832],[-111.325,25.831],[-111.33,25.832],[-111.333,25.836],[-111.333,25.838],[-111.331,25.839],[-111.332,25.843],[-111.331,25.845],[-111.332,25.852],[-111.334,25.857],[-111.334,25.863],[-111.335,25.865],[-111.341,25.873],[-111.342,25.878],[-111.341,25.88],[-111.339,25.882],[-111.338,25.883],[-111.336,25.886],[-111.336,25.89],[-111.336,25.893],[-111.339,25.897],[-111.337,25.9],[-111.338,25.903],[-111.337,25.905],[-111.337,25.908],[-111.34,25.912],[-111.34,25.914],[-111.342,25.915],[-111.343,25.92],[-111.345,25.92],[-111.345,25.919],[-111.344,25.918],[-111.345,25.917],[-111.345,25.915],[-111.348,25.916],[-111.346,25.917],[-111.346,25.918],[-111.347,25.918],[-111.347,25.918],[-111.345,25.918],[-111.346,25.92],[-111.344,25.921],[-111.344,25.922],[-111.345,25.923],[-111.345,25.921],[-111.347,25.921],[-111.352,25.925],[-111.355,25.928],[-111.356,25.932],[-111.356,25.934],[-111.355,25.934],[-111.356,25.935],[-111.355,25.935],[-111.355,25.936],[-111.355,25.936],[-111.355,25.936],[-111.354,25.936],[-111.355,25.937],[-111.353,25.938],[-111.354,25.943],[-111.353,25.945],[-111.355,25.947],[-111.355,25.949],[-111.358,25.956],[-111.358,25.962],[-111.357,25.967],[-111.354,25.971],[-111.35,25.975],[-111.341,25.983],[-111.338,25.987],[-111.338,25.989],[-111.338,25.996],[-111.337,26.001],[-111.338,26.003],[-111.339,26.004],[-111.337,26.006],[-111.339,26.007],[-111.339,26.014],[-111.339,26.014],[-111.339,26.014],[-111.34,26.015],[-111.339,26.016],[-111.338,26.014],[-111.338,26.015],[-111.339,26.016],[-111.34,26.015],[-111.345,26.022],[-111.346,26.026],[-111.345,26.03],[-111.341,26.037],[-111.331,26.045],[-111.329,26.048],[-111.328,26.049],[-111.329,26.056],[-111.328,26.059],[-111.325,26.063],[-111.323,26.063],[-111.322,26.064],[-111.319,26.069],[-111.318,26.073],[-111.319,26.077],[-111.324,26.082],[-111.325,26.084],[-111.324,26.085],[-111.325,26.088],[-111.325,26.09],[-111.324,26.091],[-111.325,26.095],[-111.325,26.098],[-111.324,26.1],[-111.325,26.101],[-111.329,26.102],[-111.33,26.103],[-111.335,26.105],[-111.337,26.107],[-111.344,26.111],[-111.345,26.113],[-111.345,26.115],[-111.348,26.119],[-111.348,26.123],[-111.349,26.123],[-111.349,26.125],[-111.351,26.127],[-111.353,26.127],[-111.354,26.128],[-111.354,26.131],[-111.001,26.131],[-111.001,25.75]]]},"properties":{"id":"bah-a-de-loreto","name":"Bah\u00eda de Loreto","type":"Parque Nacional","shortName":"Bah\u00eda de Loreto","areaKm2":2065.8,"ccrCitation":null}},{"type":"Feature","geometry":{"type":"Polygon","coordinates":[[[-111.224,25.73],[-111.226,25.731],[-111.225,25.732],[-111.224,25.732],[-111.224,25.73],[-111.224,25.73]]]},"properties":{"id":"islas-del-golfo-de-california-259","name":"Islas del Golfo de California","type":"\u00c1rea de Protecci\u00f3n de Flora y Fauna","shortName":"Islas del Golfo de California","areaKm2":3745.5,"ccrCitation":null}},{"type":"Feature","geometry":{"type":"Polygon","coordinates":[[[-111.233,25.734],[-111.234,25.734],[-111.234,25.734],[-111.233,25.734]]]},"properties":{"id":"islas-del-golfo-de-california-260","name":"Islas del Golfo de California","type":"\u00c1rea de Protecci\u00f3n de Flora y Fauna","shortName":"Islas del Golfo de California","areaKm2":3745.5,"ccrCitation":null}},{"type":"Feature","geometry":{"type":"Polygon","coordinates":[[[-111.227,25.745],[-111.226,25.744],[-111.227,25.744],[-111.228,25.745],[-111.227,25.745]]]},"properties":{"id":"islas-del-golfo-de-california-265","name":"Islas del Golfo de California","type":"\u00c1rea de Protecci\u00f3n de Flora y Fauna","shortName":"Islas del Golfo de California","areaKm2":3745.5,"ccrCitation":null}},{"type":"Feature","geometry":{"type":"Polygon","coordinates":[[[-111.241,25.751],[-111.241,25.752],[-111.24,25.752],[-111.24,25.752],[-111.241,25.751]]]},"properties":{"id":"islas-del-golfo-de-california-266","name":"Islas del Golfo de California","type":"\u00c1rea de Protecci\u00f3n de Flora y Fauna","shortName":"Islas del Golfo de California","areaKm2":3745.5,"ccrCitation":null}},{"type":"Feature","geometry":{"type":"Polygon","coordinates":[[[-111.274,25.758],[-111.276,25.756],[-111.276,25.756],[-111.275,25.757],[-111.276,25.758],[-111.274,25.758]]]},"properties":{"id":"islas-del-golfo-de-california-267","name":"Islas del Golfo de California","type":"\u00c1rea de Protecci\u00f3n de Flora y Fauna","shortName":"Islas del Golfo de California","areaKm2":3745.5,"ccrCitation":null}},{"type":"Feature","geometry":{"type":"Polygon","coordinates":[[[-111.278,25.766],[-111.279,25.766],[-111.279,25.766],[-111.278,25.766]]]},"properties":{"id":"islas-del-golfo-de-california-268","name":"Islas del Golfo de California","type":"\u00c1rea de Protecci\u00f3n de Flora y Fauna","shortName":"Islas del Golfo de California","areaKm2":3745.5,"ccrCitation":null}},{"type":"Feature","geometry":{"type":"Polygon","coordinates":[[[-111.282,25.769],[-111.281,25.769],[-111.281,25.767],[-111.282,25.768],[-111.282,25.769]]]},"properties":{"id":"islas-del-golfo-de-california-269","name":"Islas del Golfo de California","type":"\u00c1rea de Protecci\u00f3n de Flora y Fauna","shortName":"Islas del Golfo de California","areaKm2":3745.5,"ccrCitation":null}},{"type":"Feature","geometry":{"type":"Polygon","coordinates":[[[-111.261,25.816],[-111.26,25.814],[-111.26,25.812],[-111.259,25.812],[-111.259,25.812],[-111.258,25.812],[-111.256,25.812],[-111.256,25.812],[-111.254,25.811],[-111.255,25.81],[-111.254,25.809],[-111.254,25.805],[-111.254,25.804],[-111.252,25.802],[-111.251,25.8],[-111.25,25.799],[-111.247,25.799],[-111.248,25.796],[-111.25,25.794],[-111.25,25.793],[-111.249,25.793],[-111.248,25.791],[-111.244,25.79],[-111.245,25.787],[-111.246,25.786],[-111.248,25.782],[-111.248,25.781],[-111.247,25.78],[-111.248,25.779],[-111.247,25.777],[-111.247,25.776],[-111.247,25.775],[-111.245,25.775],[-111.244,25.774],[-111.243,25.772],[-111.242,25.771],[-111.244,25.765],[-111.245,25.765],[-111.246,25.765],[-111.246,25.766],[-111.247,25.767],[-111.247,25.767],[-111.248,25.768],[-111.248,25.77],[-111.25,25.77],[-111.25,25.772],[-111.251,25.772],[-111.253,25.775],[-111.254,25.776],[-111.255,25.777],[-111.258,25.779],[-111.258,25.781],[-111.26,25.783],[-111.26,25.785],[-111.259,25.785],[-111.258,25.788],[-111.258,25.791],[-111.26,25.792],[-111.258,25.793],[-111.259,25.795],[-111.259,25.795],[-111.258,25.794],[-111.257,25.794],[-111.256,25.798],[-111.258,25.801],[-111.257,25.802],[-111.256,25.802],[-111.256,25.803],[-111.258,25.806],[-111.256,25.807],[-111.257,25.808],[-111.257,25.81],[-111.258,25.81],[-111.26,25.81],[-111.26,25.811],[-111.26,25.808],[-111.261,25.808],[-111.262,25.81],[-111.261,25.812],[-111.262,25.816],[-111.261,25.816]]]},"properties":{"id":"islas-del-golfo-de-california-273","name":"Islas del Golfo de California","type":"\u00c1rea de Protecci\u00f3n de Flora y Fauna","shortName":"Islas del Golfo de California","areaKm2":3745.5,"ccrCitation":null}},{"type":"Feature","geometry":{"type":"Polygon","coordinates":[[[-111.06,26.073],[-111.06,26.071],[-111.061,26.071],[-111.06,26.07],[-111.063,26.07],[-111.063,26.068],[-111.064,26.068],[-111.065,26.065],[-111.07,26.06],[-111.07,26.057],[-111.071,26.056],[-111.072,26.053],[-111.073,26.052],[-111.072,26.051],[-111.073,26.051],[-111.075,26.046],[-111.077,26.043],[-111.079,26.038],[-111.081,26.034],[-111.08,26.033],[-111.081,26.033],[-111.082,26.03],[-111.082,26.027],[-111.083,26.024],[-111.084,26.022],[-111.083,26.021],[-111.084,26.021],[-111.083,26.02],[-111.084,26.016],[-111.084,26.015],[-111.083,26.014],[-111.083,26.011],[-111.082,26.01],[-111.082,26.009],[-111.083,26.008],[-111.083,26.005],[-111.082,26.004],[-111.082,26.002],[-111.081,25.999],[-111.078,25.997],[-111.076,25.997],[-111.075,25.996],[-111.074,25.995],[-111.073,25.995],[-111.071,25.998],[-111.069,25.998],[-111.071,25.996],[-111.07,25.994],[-111.071,25.993],[-111.072,25.988],[-111.072,25.987],[-111.072,25.984],[-111.072,25.982],[-111.069,25.981],[-111.067,25.982],[-111.065,25.982],[-111.067,25.979],[-111.067,25.977],[-111.066,25.975],[-111.066,25.972],[-111.065,25.97],[-111.067,25.97],[-111.067,25.969],[-111.066,25.969],[-111.068,25.967],[-111.067,25.966],[-111.068,25.965],[-111.07,25.968],[-111.071,25.969],[-111.073,25.973],[-111.074,25.973],[-111.077,25.974],[-111.079,25.972],[-111.08,25.976],[-111.082,25.977],[-111.082,25.978],[-111.087,25.982],[-111.087,25.984],[-111.094,25.986],[-111.095,25.988],[-111.096,25.988],[-111.099,25.995],[-111.101,25.998],[-111.106,25.999],[-111.109,25.999],[-111.118,25.996],[-111.12,25.994],[-111.121,25.992],[-111.121,25.986],[-111.122,25.983],[-111.122,25.979],[-111.124,25.976],[-111.125,25.974],[-111.128,25.97],[-111.128,25.968],[-111.132,25.964],[-111.132,25.962],[-111.135,25.96],[-111.138,25.958],[-111.139,25.956],[-111.14,25.956],[-111.142,25.954],[-111.143,25.952],[-111.145,25.951],[-111.144,25.949],[-111.145,25.949],[-111.147,25.946],[-111.148,25.945],[-111.149,25.942],[-111.15,25.941],[-111.152,25.939],[-111.154,25.937],[-111.155,25.932],[-111.158,25.93],[-111.158,25.928],[-111.162,25.927],[-111.166,25.921],[-111.172,25.917],[-111.175,25.912],[-111.179,25.908],[-111.181,25.904],[-111.181,25.9],[-111.179,25.897],[-111.179,25.896],[-111.182,25.894],[-111.182,25.892],[-111.183,25.891],[-111.182,25.89],[-111.182,25.888],[-111.182,25.888],[-111.183,25.888],[-111.184,25.885],[-111.185,25.883],[-111.185,25.882],[-111.184,25.881],[-111.185,25.881],[-111.185,25.878],[-111.184,25.877],[-111.184,25.873],[-111.182,25.868],[-111.186,25.862],[-111.187,25.861],[-111.188,25.859],[-111.189,25.858],[-111.191,25.858],[-111.193,25.858],[-111.194,25.859],[-111.196,25.858],[-111.196,25.857],[-111.197,25.856],[-111.2,25.853],[-111.202,25.852],[-111.204,25.849],[-111.204,25.845],[-111.203,25.843],[-111.204,25.84],[-111.203,25.835],[-111.204,25.832],[-111.204,25.824],[-111.203,25.819],[-111.203,25.815],[-111.201,25.813],[-111.201,25.81],[-111.202,25.808],[-111.205,25.806],[-111.21,25.812],[-111.21,25.815],[-111.211,25.816],[-111.216,25.818],[-111.221,25.818],[-111.222,25.82],[-111.225,25.82],[-111.226,25.821],[-111.229,25.823],[-111.229,25.826],[-111.231,25.831],[-111.231,25.835],[-111.231,25.835],[-111.231,25.836],[-111.232,25.842],[-111.233,25.843],[-111.232,25.845],[-111.234,25.849],[-111.233,25.85],[-111.231,25.85],[-111.231,25.854],[-111.229,25.854],[-111.228,25.856],[-111.227,25.858],[-111.228,25.858],[-111.226,25.86],[-111.227,25.862],[-111.225,25.864],[-111.224,25.865],[-111.222,25.866],[-111.222,25.865],[-111.221,25.865],[-111.218,25.866],[-111.216,25.867],[-111.216,25.868],[-111.215,25.871],[-111.216,25.873],[-111.215,25.875],[-111.218,25.877],[-111.218,25.881],[-111.22,25.882],[-111.22,25.885],[-111.219,25.886],[-111.218,25.887],[-111.218,25.89],[-111.216,25.895],[-111.216,25.895],[-111.214,25.896],[-111.213,25.897],[-111.213,25.9],[-111.214,25.9],[-111.213,25.902],[-111.214,25.904],[-111.213,25.908],[-111.212,25.909],[-111.213,25.91],[-111.212,25.911],[-111.21,25.912],[-111.207,25.914],[-111.208,25.918],[-111.208,25.921],[-111.209,25.923],[-111.208,25.924],[-111.208,25.926],[-111.21,25.927],[-111.21,25.93],[-111.208,25.931],[-111.207,25.933],[-111.204,25.935],[-111.204,25.938],[-111.202,25.939],[-111.202,25.941],[-111.2,25.941],[-111.199,25.944],[-111.2,25.946],[-111.199,25.954],[-111.198,25.956],[-111.195,25.958],[-111.194,25.961],[-111.19,25.961],[-111.188,25.964],[-111.188,25.969],[-111.186,25.97],[-111.185,25.973],[-111.183,25.973],[-111.183,25.974],[-111.182,25.974],[-111.181,25.976],[-111.179,25.978],[-111.176,25.978],[-111.174,25.98],[-111.173,25.979],[-111.172,25.981],[-111.171,25.982],[-111.17,25.985],[-111.17,25.985],[-111.17,25.987],[-111.169,25.989],[-111.168,25.989],[-111.168,25.99],[-111.169,25.99],[-111.168,25.991],[-111.169,25.994],[-111.171,25.997],[-111.172,26.003],[-111.172,26.003],[-111.173,26.004],[-111.173,26.006],[-111.172,26.006],[-111.17,26.008],[-111.17,26.009],[-111.171,26.009],[-111.171,26.01],[-111.17,26.011],[-111.17,26.011],[-111.17,26.011],[-111.169,26.012],[-111.169,26.017],[-111.165,26.016],[-111.163,26.019],[-111.163,26.021],[-111.165,26.023],[-111.166,26.022],[-111.168,26.02],[-111.169,26.021],[-111.168,26.025],[-111.169,26.026],[-111.169,26.027],[-111.171,26.028],[-111.175,26.036],[-111.176,26.038],[-111.176,26.043],[-111.172,26.042],[-111.169,26.043],[-111.166,26.043],[-111.164,26.044],[-111.161,26.044],[-111.156,26.046],[-111.154,26.047],[-111.152,26.048],[-111.15,26.048],[-111.148,26.047],[-111.146,26.049],[-111.145,26.048],[-111.143,26.049],[-111.142,26.05],[-111.14,26.05],[-111.135,26.052],[-111.133,26.054],[-111.132,26.055],[-111.133,26.059],[-111.135,26.061],[-111.133,26.064],[-111.131,26.064],[-111.13,26.065],[-111.129,26.067],[-111.128,26.066],[-111.127,26.067],[-111.125,26.066],[-111.125,26.065],[-111.124,26.061],[-111.122,26.061],[-111.122,26.06],[-111.121,26.06],[-111.121,26.06],[-111.119,26.059],[-111.117,26.059],[-111.115,26.058],[-111.114,26.058],[-111.112,26.057],[-111.106,26.057],[-111.106,26.053],[-111.104,26.052],[-111.104,26.053],[-111.103,26.053],[-111.102,26.054],[-111.102,26.055],[-111.1,26.054],[-111.098,26.054],[-111.097,26.056],[-111.095,26.056],[-111.095,26.057],[-111.093,26.059],[-111.088,26.059],[-111.087,26.06],[-111.087,26.06],[-111.086,26.059],[-111.087,26.057],[-111.086,26.057],[-111.083,26.059],[-111.081,26.059],[-111.08,26.061],[-111.078,26.06],[-111.077,26.062],[-111.075,26.063],[-111.074,26.064],[-111.074,26.065],[-111.073,26.067],[-111.073,26.068],[-111.071,26.068],[-111.07,26.066],[-111.068,26.066],[-111.067,26.068],[-111.066,26.068],[-111.064,26.07],[-111.062,26.07],[-111.062,26.072],[-111.061,26.072],[-111.061,26.073],[-111.06,26.073]]]},"properties":{"id":"islas-del-golfo-de-california-285","name":"Islas del Golfo de California","type":"\u00c1rea de Protecci\u00f3n de Flora y Fauna","shortName":"Islas del Golfo de California","areaKm2":3745.5,"ccrCitation":null}}]}