{"type":"FeatureCollection","features":[{"type":"Feature","geometry":{"type":"Point","coordinates":[-111.3222,25.85207]},"properties":{"depth_ft":82,"depth_m":25.0}},{"type":"Feature","geometry":{"type":"Point","coordinates":[-111.31524,25.85207]},"properties":{"depth_ft":187,"depth_m":57.0}},{"type":"Feature","geometry":{"type":"Point","coordinates":[-111.30828,25.85207]},"properties":{"depth_ft":269,"depth_m":82.1}},{"type":"Feature","geometry":{"type":"Point","coordinates":[-111.30132,25.85207]},"properties":{"depth_ft":326,"depth_m":99.4}},{"type":"Feature","geometry":{"type":"Point","coordinates":[-111.23868,25.85207]},"properties":{"depth_ft":283,"depth_m":86.3}},{"type":"Feature","geometry":{"type":"Point","coordinates":[-111.23172,25.85207]},"properties":{"depth_ft":46,"depth_m":14.1}},{"type":"Feature","geometry":{"type":"Point","coordinates":[-111.19692,25.85207]},"properties":{"depth_ft":36,"depth_m":11.1}},{"type":"Feature","geometry":{"type":"Point","coordinates":[-111.3222,25.8458]},"properties":{"depth_ft":78,"depth_m":23.7}},{"type":"Feature","geometry":{"type":"Point","coordinates":[-111.31524,25.8458]},"properties":{"depth_ft":192,"depth_m":58.6}},{"type":"Feature","geometry":{"type":"Point","coordinates":[-111.30828,25.8458]},"properties":{"depth_ft":269,"depth_m":82.1}},{"type":"Feature","geometry":{"type":"Point","coordinates":[-111.30132,25.8458]},"properties":{"depth_ft":302,"depth_m":92.0}},{"type":"Feature","geometry":{"type":"Point","coordinates":[-111.19692,25.8458]},"properties":{"depth_ft":246,"depth_m":75.0}},{"type":"Feature","geometry":{"type":"Point","coordinates":[-111.3222,25.83954]},"properties":{"depth_ft":65,"depth_m":19.7}},{"type":"Feature","geometry":{"type":"Point","coordinates":[-111.31524,25.83954]},"properties":{"depth_ft":170,"depth_m":51.7}},{"type":"Feature","geometry":{"type":"Point","coordinates":[-111.30828,25.83954]},"properties":{"depth_ft":256,"depth_m":78.1}},{"type":"Feature","geometry":{"type":"Point","coordinates":[-111.30132,25.83954]},"properties":{"depth_ft":262,"depth_m":79.8}},{"type":"Feature","geometry":{"type":"Point","coordinates":[-111.29436,25.83954]},"properties":{"depth_ft":273,"depth_m":83.3}},{"type":"Feature","geometry":{"type":"Point","coordinates":[-111.2874,25.83954]},"properties":{"depth_ft":316,"depth_m":96.4}},{"type":"Feature","geometry":{"type":"Point","coordinates":[-111.19692,25.83954]},"properties":{"depth_ft":220,"depth_m":67.0}},{"type":"Feature","geometry":{"type":"Point","coordinates":[-111.30828,25.83327]},"properties":{"depth_ft":122,"depth_m":37.3}},{"type":"Feature","geometry":{"type":"Point","coordinates":[-111.30132,25.83327]},"properties":{"depth_ft":206,"depth_m":62.8}},{"type":"Feature","geometry":{"type":"Point","coordinates":[-111.29436,25.83327]},"properties":{"depth_ft":222,"depth_m":67.8}},{"type":"Feature","geometry":{"type":"Point","coordinates":[-111.2874,25.83327]},"properties":{"depth_ft":263,"depth_m":80.1}},{"type":"Feature","geometry":{"type":"Point","coordinates":[-111.19692,25.83327]},"properties":{"depth_ft":257,"depth_m":78.4}},{"type":"Feature","geometry":{"type":"Point","coordinates":[-111.30132,25.827]},"properties":{"depth_ft":132,"depth_m":40.3}},{"type":"Feature","geometry":{"type":"Point","coordinates":[-111.29436,25.827]},"properties":{"depth_ft":182,"depth_m":55.3}},{"type":"Feature","geometry":{"type":"Point","coordinates":[-111.2874,25.827]},"properties":{"depth_ft":221,"depth_m":67.4}},{"type":"Feature","geometry":{"type":"Point","coordinates":[-111.28044,25.827]},"properties":{"depth_ft":277,"depth_m":84.4}},{"type":"Feature","geometry":{"type":"Point","coordinates":[-111.27348,25.827]},"properties":{"depth_ft":299,"depth_m":91.1}},{"type":"Feature","geometry":{"type":"Point","coordinates":[-111.26652,25.827]},"properties":{"depth_ft":292,"depth_m":89.1}},{"type":"Feature","geometry":{"type":"Point","coordinates":[-111.29436,25.82074]},"properties":{"depth_ft":154,"depth_m":47.0}},{"type":"Feature","geometry":{"type":"Point","coordinates":[-111.2874,25.82074]},"properties":{"depth_ft":198,"depth_m":60.4}},{"type":"Feature","geometry":{"type":"Point","coordinates":[-111.28044,25.82074]},"properties":{"depth_ft":228,"depth_m":69.5}},{"type":"Feature","geometry":{"type":"Point","coordinates":[-111.27348,25.82074]},"properties":{"depth_ft":235,"depth_m":71.5}},{"type":"Feature","geometry":{"type":"Point","coordinates":[-111.26652,25.82074]},"properties":{"depth_ft":198,"depth_m":60.3}},{"type":"Feature","geometry":{"type":"Point","coordinates":[-111.25956,25.82074]},"properties":{"depth_ft":178,"depth_m":54.3}},{"type":"Feature","geometry":{"type":"Point","coordinates":[-111.2526,25.82074]},"properties":{"depth_ft":216,"depth_m":65.8}},{"type":"Feature","geometry":{"type":"Point","coordinates":[-111.23172,25.82074]},"properties":{"depth_ft":247,"depth_m":75.3}},{"type":"Feature","geometry":{"type":"Point","coordinates":[-111.2874,25.81447]},"properties":{"depth_ft":195,"depth_m":59.4}},{"type":"Feature","geometry":{"type":"Point","coordinates":[-111.28044,25.81447]},"properties":{"depth_ft":218,"depth_m":66.4}},{"type":"Feature","geometry":{"type":"Point","coordinates":[-111.27348,25.81447]},"properties":{"depth_ft":226,"depth_m":69.0}},{"type":"Feature","geometry":{"type":"Point","coordinates":[-111.26652,25.81447]},"properties":{"depth_ft":214,"depth_m":65.2}},{"type":"Feature","geometry":{"type":"Point","coordinates":[-111.25956,25.81447]},"properties":{"depth_ft":191,"depth_m":58.3}},{"type":"Feature","geometry":{"type":"Point","coordinates":[-111.2526,25.81447]},"properties":{"depth_ft":281,"depth_m":85.8}},{"type":"Feature","geometry":{"type":"Point","coordinates":[-111.22476,25.81447]},"properties":{"depth_ft":191,"depth_m":58.1}},{"type":"Feature","geometry":{"type":"Point","coordinates":[-111.19692,25.81447]},"properties":{"depth_ft":271,"depth_m":82.6}},{"type":"Feature","geometry":{"type":"Point","coordinates":[-111.29436,25.8082]},"properties":{"depth_ft":121,"depth_m":36.9}},{"type":"Feature","geometry":{"type":"Point","coordinates":[-111.2874,25.8082]},"properties":{"depth_ft":188,"depth_m":57.4}},{"type":"Feature","geometry":{"type":"Point","coordinates":[-111.28044,25.8082]},"properties":{"depth_ft":222,"depth_m":67.8}},{"type":"Feature","geometry":{"type":"Point","coordinates":[-111.27348,25.8082]},"properties":{"depth_ft":248,"depth_m":75.6}},{"type":"Feature","geometry":{"type":"Point","coordinates":[-111.26652,25.8082]},"properties":{"depth_ft":278,"depth_m":84.9}},{"type":"Feature","geometry":{"type":"Point","coordinates":[-111.25956,25.8082]},"properties":{"depth_ft":132,"depth_m":40.4}},{"type":"Feature","geometry":{"type":"Point","coordinates":[-111.2178,25.8082]},"properties":{"depth_ft":324,"depth_m":98.9}},{"type":"Feature","geometry":{"type":"Point","coordinates":[-111.21084,25.8082]},"properties":{"depth_ft":112,"depth_m":34.1}},{"type":"Feature","geometry":{"type":"Point","coordinates":[-111.19692,25.8082]},"properties":{"depth_ft":253,"depth_m":77.0}},{"type":"Feature","geometry":{"type":"Point","coordinates":[-111.30828,25.80193]},"properties":{"depth_ft":50,"depth_m":15.1}},{"type":"Feature","geometry":{"type":"Point","coordinates":[-111.30132,25.80193]},"properties":{"depth_ft":85,"depth_m":25.8}},{"type":"Feature","geometry":{"type":"Point","coordinates":[-111.29436,25.80193]},"properties":{"depth_ft":137,"depth_m":41.7}},{"type":"Feature","geometry":{"type":"Point","coordinates":[-111.2874,25.80193]},"properties":{"depth_ft":183,"depth_m":55.7}},{"type":"Feature","geometry":{"type":"Point","coordinates":[-111.28044,25.80193]},"properties":{"depth_ft":224,"depth_m":68.3}},{"type":"Feature","geometry":{"type":"Point","coordinates":[-111.27348,25.80193]},"properties":{"depth_ft":269,"depth_m":81.9}},{"type":"Feature","geometry":{"type":"Point","coordinates":[-111.21084,25.80193]},"properties":{"depth_ft":228,"depth_m":69.6}},{"type":"Feature","geometry":{"type":"Point","coordinates":[-111.20388,25.80193]},"properties":{"depth_ft":213,"depth_m":65.0}},{"type":"Feature","geometry":{"type":"Point","coordinates":[-111.19692,25.80193]},"properties":{"depth_ft":242,"depth_m":73.6}},{"type":"Feature","geometry":{"type":"Point","coordinates":[-111.18996,25.80193]},"properties":{"depth_ft":266,"depth_m":81.2}},{"type":"Feature","geometry":{"type":"Point","coordinates":[-111.30828,25.79567]},"properties":{"depth_ft":51,"depth_m":15.6}},{"type":"Feature","geometry":{"type":"Point","coordinates":[-111.30132,25.79567]},"properties":{"depth_ft":85,"depth_m":25.9}},{"type":"Feature","geometry":{"type":"Point","coordinates":[-111.29436,25.79567]},"properties":{"depth_ft":124,"depth_m":37.7}},{"type":"Feature","geometry":{"type":"Point","coordinates":[-111.2874,25.79567]},"properties":{"depth_ft":165,"depth_m":50.4}},{"type":"Feature","geometry":{"type":"Point","coordinates":[-111.28044,25.79567]},"properties":{"depth_ft":212,"depth_m":64.6}},{"type":"Feature","geometry":{"type":"Point","coordinates":[-111.27348,25.79567]},"properties":{"depth_ft":267,"depth_m":81.5}},{"type":"Feature","geometry":{"type":"Point","coordinates":[-111.25956,25.79567]},"properties":{"depth_ft":326,"depth_m":99.4}},{"type":"Feature","geometry":{"type":"Point","coordinates":[-111.21084,25.79567]},"properties":{"depth_ft":225,"depth_m":68.7}},{"type":"Feature","geometry":{"type":"Point","coordinates":[-111.20388,25.79567]},"properties":{"depth_ft":256,"depth_m":78.0}},{"type":"Feature","geometry":{"type":"Point","coordinates":[-111.19692,25.79567]},"properties":{"depth_ft":279,"depth_m":85.2}},{"type":"Feature","geometry":{"type":"Point","coordinates":[-111.18996,25.79567]},"properties":{"depth_ft":260,"depth_m":79.1}},{"type":"Feature","geometry":{"type":"Point","coordinates":[-111.30828,25.7894]},"properties":{"depth_ft":30,"depth_m":9.2}},{"type":"Feature","geometry":{"type":"Point","coordinates":[-111.30132,25.7894]},"properties":{"depth_ft":85,"depth_m":26.0}},{"type":"Feature","geometry":{"type":"Point","coordinates":[-111.29436,25.7894]},"properties":{"depth_ft":110,"depth_m":33.5}},{"type":"Feature","geometry":{"type":"Point","coordinates":[-111.2874,25.7894]},"properties":{"depth_ft":142,"depth_m":43.3}},{"type":"Feature","geometry":{"type":"Point","coordinates":[-111.28044,25.7894]},"properties":{"depth_ft":189,"depth_m":57.6}},{"type":"Feature","geometry":{"type":"Point","coordinates":[-111.27348,25.7894]},"properties":{"depth_ft":250,"depth_m":76.2}},{"type":"Feature","geometry":{"type":"Point","coordinates":[-111.25956,25.7894]},"properties":{"depth_ft":273,"depth_m":83.2}},{"type":"Feature","geometry":{"type":"Point","coordinates":[-111.21084,25.7894]},"properties":{"depth_ft":310,"depth_m":94.5}},{"type":"Feature","geometry":{"type":"Point","coordinates":[-111.30828,25.78313]},"properties":{"depth_ft":32,"depth_m":9.9}},{"type":"Feature","geometry":{"type":"Point","coordinates":[-111.30132,25.78313]},"properties":{"depth_ft":84,"depth_m":25.8}},{"type":"Feature","geometry":{"type":"Point","coordinates":[-111.29436,25.78313]},"properties":{"depth_ft":94,"depth_m":28.6}},{"type":"Feature","geometry":{"type":"Point","coordinates":[-111.2874,25.78313]},"properties":{"depth_ft":116,"depth_m":35.5}},{"type":"Feature","geometry":{"type":"Point","coordinates":[-111.28044,25.78313]},"properties":{"depth_ft":160,"depth_m":48.9}},{"type":"Feature","geometry":{"type":"Point","coordinates":[-111.27348,25.78313]},"properties":{"depth_ft":221,"depth_m":67.4}},{"type":"Feature","geometry":{"type":"Point","coordinates":[-111.26652,25.78313]},"properties":{"depth_ft":298,"depth_m":90.8}},{"type":"Feature","geometry":{"type":"Point","coordinates":[-111.25956,25.78313]},"properties":{"depth_ft":219,"depth_m":66.8}},{"type":"Feature","geometry":{"type":"Point","coordinates":[-111.24564,25.78313]},"properties":{"depth_ft":146,"depth_m":44.6}},{"type":"Feature","geometry":{"type":"Point","coordinates":[-111.30132,25.77687]},"properties":{"depth_ft":73,"depth_m":22.2}},{"type":"Feature","geometry":{"type":"Point","coordinates":[-111.29436,25.77687]},"properties":{"depth_ft":67,"depth_m":20.5}},{"type":"Feature","geometry":{"type":"Point","coordinates":[-111.2874,25.77687]},"properties":{"depth_ft":85,"depth_m":25.9}},{"type":"Feature","geometry":{"type":"Point","coordinates":[-111.28044,25.77687]},"properties":{"depth_ft":126,"depth_m":38.3}},{"type":"Feature","geometry":{"type":"Point","coordinates":[-111.27348,25.77687]},"properties":{"depth_ft":183,"depth_m":55.9}},{"type":"Feature","geometry":{"type":"Point","coordinates":[-111.26652,25.77687]},"properties":{"depth_ft":251,"depth_m":76.4}},{"type":"Feature","geometry":{"type":"Point","coordinates":[-111.25956,25.77687]},"properties":{"depth_ft":326,"depth_m":99.4}},{"type":"Feature","geometry":{"type":"Point","coordinates":[-111.24564,25.77687]},"properties":{"depth_ft":125,"depth_m":38.2}},{"type":"Feature","geometry":{"type":"Point","coordinates":[-111.30132,25.7706]},"properties":{"depth_ft":18,"depth_m":5.4}},{"type":"Feature","geometry":{"type":"Point","coordinates":[-111.29436,25.7706]},"properties":{"depth_ft":24,"depth_m":7.4}},{"type":"Feature","geometry":{"type":"Point","coordinates":[-111.2874,25.7706]},"properties":{"depth_ft":42,"depth_m":12.8}},{"type":"Feature","geometry":{"type":"Point","coordinates":[-111.28044,25.7706]},"properties":{"depth_ft":84,"depth_m":25.5}},{"type":"Feature","geometry":{"type":"Point","coordinates":[-111.27348,25.7706]},"properties":{"depth_ft":139,"depth_m":42.3}},{"type":"Feature","geometry":{"type":"Point","coordinates":[-111.26652,25.7706]},"properties":{"depth_ft":199,"depth_m":60.7}},{"type":"Feature","geometry":{"type":"Point","coordinates":[-111.25956,25.7706]},"properties":{"depth_ft":259,"depth_m":78.9}},{"type":"Feature","geometry":{"type":"Point","coordinates":[-111.2526,25.7706]},"properties":{"depth_ft":211,"depth_m":64.2}},{"type":"Feature","geometry":{"type":"Point","coordinates":[-111.18996,25.7706]},"properties":{"depth_ft":284,"depth_m":86.7}},{"type":"Feature","geometry":{"type":"Point","coordinates":[-111.28044,25.76433]},"properties":{"depth_ft":42,"depth_m":12.9}},{"type":"Feature","geometry":{"type":"Point","coordinates":[-111.27348,25.76433]},"properties":{"depth_ft":98,"depth_m":29.8}},{"type":"Feature","geometry":{"type":"Point","coordinates":[-111.26652,25.76433]},"properties":{"depth_ft":149,"depth_m":45.5}},{"type":"Feature","geometry":{"type":"Point","coordinates":[-111.25956,25.76433]},"properties":{"depth_ft":199,"depth_m":60.8}},{"type":"Feature","geometry":{"type":"Point","coordinates":[-111.2526,25.76433]},"properties":{"depth_ft":240,"depth_m":73.3}},{"type":"Feature","geometry":{"type":"Point","coordinates":[-111.24564,25.76433]},"properties":{"depth_ft":270,"depth_m":82.3}},{"type":"Feature","geometry":{"type":"Point","coordinates":[-111.23868,25.76433]},"properties":{"depth_ft":290,"depth_m":88.3}},{"type":"Feature","geometry":{"type":"Point","coordinates":[-111.23172,25.76433]},"properties":{"depth_ft":300,"depth_m":91.3}},{"type":"Feature","geometry":{"type":"Point","coordinates":[-111.19692,25.76433]},"properties":{"depth_ft":285,"depth_m":86.7}},{"type":"Feature","geometry":{"type":"Point","coordinates":[-111.18996,25.76433]},"properties":{"depth_ft":100,"depth_m":30.5}},{"type":"Feature","geometry":{"type":"Point","coordinates":[-111.27348,25.75807]},"properties":{"depth_ft":55,"depth_m":16.7}},{"type":"Feature","geometry":{"type":"Point","coordinates":[-111.26652,25.75807]},"properties":{"depth_ft":103,"depth_m":31.5}},{"type":"Feature","geometry":{"type":"Point","coordinates":[-111.25956,25.75807]},"properties":{"depth_ft":149,"depth_m":45.3}},{"type":"Feature","geometry":{"type":"Point","coordinates":[-111.2526,25.75807]},"properties":{"depth_ft":184,"depth_m":56.1}},{"type":"Feature","geometry":{"type":"Point","coordinates":[-111.24564,25.75807]},"properties":{"depth_ft":206,"depth_m":62.9}},{"type":"Feature","geometry":{"type":"Point","coordinates":[-111.23868,25.75807]},"properties":{"depth_ft":232,"depth_m":70.8}},{"type":"Feature","geometry":{"type":"Point","coordinates":[-111.23172,25.75807]},"properties":{"depth_ft":267,"depth_m":81.5}},{"type":"Feature","geometry":{"type":"Point","coordinates":[-111.18996,25.75807]},"properties":{"depth_ft":64,"depth_m":19.5}},{"type":"Feature","geometry":{"type":"Point","coordinates":[-111.26652,25.7518]},"properties":{"depth_ft":60,"depth_m":18.3}},{"type":"Feature","geometry":{"type":"Point","coordinates":[-111.25956,25.7518]},"properties":{"depth_ft":105,"depth_m":31.9}},{"type":"Feature","geometry":{"type":"Point","coordinates":[-111.2526,25.7518]},"properties":{"depth_ft":135,"depth_m":41.1}},{"type":"Feature","geometry":{"type":"Point","coordinates":[-111.24564,25.7518]},"properties":{"depth_ft":151,"depth_m":46.0}},{"type":"Feature","geometry":{"type":"Point","coordinates":[-111.23868,25.7518]},"properties":{"depth_ft":180,"depth_m":54.9}},{"type":"Feature","geometry":{"type":"Point","coordinates":[-111.23172,25.7518]},"properties":{"depth_ft":222,"depth_m":67.5}},{"type":"Feature","geometry":{"type":"Point","coordinates":[-111.22476,25.7518]},"properties":{"depth_ft":283,"depth_m":86.2}},{"type":"Feature","geometry":{"type":"Point","coordinates":[-111.18996,25.7518]},"properties":{"depth_ft":233,"depth_m":70.9}},{"type":"Feature","geometry":{"type":"Point","coordinates":[-111.25956,25.74553]},"properties":{"depth_ft":43,"depth_m":13.0}},{"type":"Feature","geometry":{"type":"Point","coordinates":[-111.2526,25.74553]},"properties":{"depth_ft":96,"depth_m":29.2}},{"type":"Feature","geometry":{"type":"Point","coordinates":[-111.24564,25.74553]},"properties":{"depth_ft":106,"depth_m":32.2}},{"type":"Feature","geometry":{"type":"Point","coordinates":[-111.23868,25.74553]},"properties":{"depth_ft":132,"depth_m":40.3}},{"type":"Feature","geometry":{"type":"Point","coordinates":[-111.23172,25.74553]},"properties":{"depth_ft":172,"depth_m":52.4}},{"type":"Feature","geometry":{"type":"Point","coordinates":[-111.22476,25.74553]},"properties":{"depth_ft":173,"depth_m":52.7}},{"type":"Feature","geometry":{"type":"Point","coordinates":[-111.2178,25.74553]},"properties":{"depth_ft":297,"depth_m":90.4}},{"type":"Feature","geometry":{"type":"Point","coordinates":[-111.18996,25.74553]},"properties":{"depth_ft":287,"depth_m":87.5}},{"type":"Feature","geometry":{"type":"Point","coordinates":[-111.2526,25.73926]},"properties":{"depth_ft":52,"depth_m":15.8}},{"type":"Feature","geometry":{"type":"Point","coordinates":[-111.24564,25.73926]},"properties":{"depth_ft":78,"depth_m":23.9}},{"type":"Feature","geometry":{"type":"Point","coordinates":[-111.23868,25.73926]},"properties":{"depth_ft":93,"depth_m":28.3}},{"type":"Feature","geometry":{"type":"Point","coordinates":[-111.23172,25.73926]},"properties":{"depth_ft":123,"depth_m":37.4}},{"type":"Feature","geometry":{"type":"Point","coordinates":[-111.22476,25.73926]},"properties":{"depth_ft":166,"depth_m":50.6}},{"type":"Feature","geometry":{"type":"Point","coordinates":[-111.2178,25.73926]},"properties":{"depth_ft":230,"depth_m":70.0}},{"type":"Feature","geometry":{"type":"Point","coordinates":[-111.21084,25.73926]},"properties":{"depth_ft":304,"depth_m":92.7}},{"type":"Feature","geometry":{"type":"Point","coordinates":[-111.18996,25.73926]},"properties":{"depth_ft":247,"depth_m":75.3}},{"type":"Feature","geometry":{"type":"Point","coordinates":[-111.23868,25.733]},"properties":{"depth_ft":43,"depth_m":13.2}},{"type":"Feature","geometry":{"type":"Point","coordinates":[-111.23172,25.733]},"properties":{"depth_ft":62,"depth_m":19.0}},{"type":"Feature","geometry":{"type":"Point","coordinates":[-111.22476,25.733]},"properties":{"depth_ft":100,"depth_m":30.3}},{"type":"Feature","geometry":{"type":"Point","coordinates":[-111.2178,25.733]},"properties":{"depth_ft":152,"depth_m":46.3}},{"type":"Feature","geometry":{"type":"Point","coordinates":[-111.21084,25.733]},"properties":{"depth_ft":227,"depth_m":69.1}},{"type":"Feature","geometry":{"type":"Point","coordinates":[-111.20388,25.733]},"properties":{"depth_ft":278,"depth_m":84.7}},{"type":"Feature","geometry":{"type":"Point","coordinates":[-111.19692,25.733]},"properties":{"depth_ft":307,"depth_m":93.6}},{"type":"Feature","geometry":{"type":"Point","coordinates":[-111.18996,25.733]},"properties":{"depth_ft":317,"depth_m":96.6}},{"type":"Feature","geometry":{"type":"Point","coordinates":[-111.2178,25.72673]},"properties":{"depth_ft":71,"depth_m":21.6}},{"type":"Feature","geometry":{"type":"Point","coordinates":[-111.21084,25.72673]},"properties":{"depth_ft":160,"depth_m":48.6}},{"type":"Feature","geometry":{"type":"Point","coordinates":[-111.20388,25.72673]},"properties":{"depth_ft":218,"depth_m":66.5}},{"type":"Feature","geometry":{"type":"Point","coordinates":[-111.19692,25.72673]},"properties":{"depth_ft":273,"depth_m":83.1}},{"type":"Feature","geometry":{"type":"Point","coordinates":[-111.2178,25.72046]},"properties":{"depth_ft":25,"depth_m":7.5}},{"type":"Feature","geometry":{"type":"Point","coordinates":[-111.21084,25.72046]},"properties":{"depth_ft":105,"depth_m":32.1}},{"type":"Feature","geometry":{"type":"Point","coordinates":[-111.20388,25.72046]},"properties":{"depth_ft":164,"depth_m":49.9}},{"type":"Feature","geometry":{"type":"Point","coordinates":[-111.19692,25.72046]},"properties":{"depth_ft":225,"depth_m":68.5}},{"type":"Feature","geometry":{"type":"Point","coordinates":[-111.18996,25.72046]},"properties":{"depth_ft":299,"depth_m":91.0}},{"type":"Feature","geometry":{"type":"Point","coordinates":[-111.21084,25.7142]},"properties":{"depth_ft":46,"depth_m":13.9}},{"type":"Feature","geometry":{"type":"Point","coordinates":[-111.20388,25.7142]},"properties":{"depth_ft":110,"depth_m":33.6}},{"type":"Feature","geometry":{"type":"Point","coordinates":[-111.19692,25.7142]},"properties":{"depth_ft":165,"depth_m":50.2}},{"type":"Feature","geometry":{"type":"Point","coordinates":[-111.18996,25.7142]},"properties":{"depth_ft":230,"depth_m":70.1}},{"type":"Feature","geometry":{"type":"Point","coordinates":[-111.21084,25.70793]},"properties":{"depth_ft":4,"depth_m":1.3}},{"type":"Feature","geometry":{"type":"Point","coordinates":[-111.20388,25.70793]},"properties":{"depth_ft":64,"depth_m":19.4}},{"type":"Feature","geometry":{"type":"Point","coordinates":[-111.19692,25.70793]},"properties":{"depth_ft":104,"depth_m":31.6}},{"type":"Feature","geometry":{"type":"Point","coordinates":[-111.18996,25.70793]},"properties":{"depth_ft":147,"depth_m":44.9}}]}