{"type":"FeatureCollection","features":[{"type":"Feature","geometry":{"type":"Point","coordinates":[-110.41936,24.49505]},"properties":{"depth_ft":289,"depth_m":88.0}},{"type":"Feature","geometry":{"type":"Point","coordinates":[-110.41506,24.49505]},"properties":{"depth_ft":214,"depth_m":65.1}},{"type":"Feature","geometry":{"type":"Point","coordinates":[-110.41076,24.49505]},"properties":{"depth_ft":153,"depth_m":46.6}},{"type":"Feature","geometry":{"type":"Point","coordinates":[-110.40645,24.49505]},"properties":{"depth_ft":110,"depth_m":33.4}},{"type":"Feature","geometry":{"type":"Point","coordinates":[-110.40215,24.49505]},"properties":{"depth_ft":96,"depth_m":29.4}},{"type":"Feature","geometry":{"type":"Point","coordinates":[-110.39785,24.49505]},"properties":{"depth_ft":94,"depth_m":28.7}},{"type":"Feature","geometry":{"type":"Point","coordinates":[-110.41936,24.49113]},"properties":{"depth_ft":287,"depth_m":87.4}},{"type":"Feature","geometry":{"type":"Point","coordinates":[-110.41506,24.49113]},"properties":{"depth_ft":211,"depth_m":64.5}},{"type":"Feature","geometry":{"type":"Point","coordinates":[-110.41076,24.49113]},"properties":{"depth_ft":148,"depth_m":45.1}},{"type":"Feature","geometry":{"type":"Point","coordinates":[-110.40645,24.49113]},"properties":{"depth_ft":101,"depth_m":30.6}},{"type":"Feature","geometry":{"type":"Point","coordinates":[-110.40215,24.49113]},"properties":{"depth_ft":85,"depth_m":25.9}},{"type":"Feature","geometry":{"type":"Point","coordinates":[-110.39785,24.49113]},"properties":{"depth_ft":84,"depth_m":25.5}},{"type":"Feature","geometry":{"type":"Point","coordinates":[-110.39355,24.49113]},"properties":{"depth_ft":29,"depth_m":8.8}},{"type":"Feature","geometry":{"type":"Point","coordinates":[-110.41936,24.48721]},"properties":{"depth_ft":282,"depth_m":86.0}},{"type":"Feature","geometry":{"type":"Point","coordinates":[-110.41506,24.48721]},"properties":{"depth_ft":205,"depth_m":62.4}},{"type":"Feature","geometry":{"type":"Point","coordinates":[-110.41076,24.48721]},"properties":{"depth_ft":137,"depth_m":41.8}},{"type":"Feature","geometry":{"type":"Point","coordinates":[-110.40645,24.48721]},"properties":{"depth_ft":46,"depth_m":13.9}},{"type":"Feature","geometry":{"type":"Point","coordinates":[-110.39785,24.48721]},"properties":{"depth_ft":67,"depth_m":20.3}},{"type":"Feature","geometry":{"type":"Point","coordinates":[-110.39355,24.48721]},"properties":{"depth_ft":30,"depth_m":9.1}},{"type":"Feature","geometry":{"type":"Point","coordinates":[-110.41936,24.48329]},"properties":{"depth_ft":273,"depth_m":83.2}},{"type":"Feature","geometry":{"type":"Point","coordinates":[-110.41506,24.48329]},"properties":{"depth_ft":196,"depth_m":59.7}},{"type":"Feature","geometry":{"type":"Point","coordinates":[-110.41076,24.48329]},"properties":{"depth_ft":78,"depth_m":23.8}},{"type":"Feature","geometry":{"type":"Point","coordinates":[-110.39785,24.48329]},"properties":{"depth_ft":70,"depth_m":21.3}},{"type":"Feature","geometry":{"type":"Point","coordinates":[-110.39355,24.48329]},"properties":{"depth_ft":41,"depth_m":12.5}},{"type":"Feature","geometry":{"type":"Point","coordinates":[-110.42367,24.47938]},"properties":{"depth_ft":327,"depth_m":99.7}},{"type":"Feature","geometry":{"type":"Point","coordinates":[-110.41936,24.47938]},"properties":{"depth_ft":257,"depth_m":78.2}},{"type":"Feature","geometry":{"type":"Point","coordinates":[-110.41506,24.47938]},"properties":{"depth_ft":186,"depth_m":56.7}},{"type":"Feature","geometry":{"type":"Point","coordinates":[-110.41076,24.47938]},"properties":{"depth_ft":65,"depth_m":19.8}},{"type":"Feature","geometry":{"type":"Point","coordinates":[-110.40215,24.47938]},"properties":{"depth_ft":73,"depth_m":22.1}},{"type":"Feature","geometry":{"type":"Point","coordinates":[-110.39785,24.47938]},"properties":{"depth_ft":92,"depth_m":28.2}},{"type":"Feature","geometry":{"type":"Point","coordinates":[-110.39355,24.47938]},"properties":{"depth_ft":97,"depth_m":29.6}},{"type":"Feature","geometry":{"type":"Point","coordinates":[-110.42367,24.47546]},"properties":{"depth_ft":290,"depth_m":88.3}},{"type":"Feature","geometry":{"type":"Point","coordinates":[-110.41936,24.47546]},"properties":{"depth_ft":236,"depth_m":71.9}},{"type":"Feature","geometry":{"type":"Point","coordinates":[-110.41506,24.47546]},"properties":{"depth_ft":178,"depth_m":54.2}},{"type":"Feature","geometry":{"type":"Point","coordinates":[-110.41076,24.47546]},"properties":{"depth_ft":124,"depth_m":37.9}},{"type":"Feature","geometry":{"type":"Point","coordinates":[-110.40645,24.47546]},"properties":{"depth_ft":83,"depth_m":25.4}},{"type":"Feature","geometry":{"type":"Point","coordinates":[-110.40215,24.47546]},"properties":{"depth_ft":88,"depth_m":26.9}},{"type":"Feature","geometry":{"type":"Point","coordinates":[-110.39785,24.47546]},"properties":{"depth_ft":110,"depth_m":33.6}},{"type":"Feature","geometry":{"type":"Point","coordinates":[-110.39355,24.47546]},"properties":{"depth_ft":117,"depth_m":35.6}},{"type":"Feature","geometry":{"type":"Point","coordinates":[-110.38924,24.47546]},"properties":{"depth_ft":8,"depth_m":2.5}},{"type":"Feature","geometry":{"type":"Point","coordinates":[-110.42797,24.47154]},"properties":{"depth_ft":299,"depth_m":91.0}},{"type":"Feature","geometry":{"type":"Point","coordinates":[-110.42367,24.47154]},"properties":{"depth_ft":256,"depth_m":78.1}},{"type":"Feature","geometry":{"type":"Point","coordinates":[-110.41936,24.47154]},"properties":{"depth_ft":221,"depth_m":67.5}},{"type":"Feature","geometry":{"type":"Point","coordinates":[-110.41506,24.47154]},"properties":{"depth_ft":176,"depth_m":53.6}},{"type":"Feature","geometry":{"type":"Point","coordinates":[-110.41076,24.47154]},"properties":{"depth_ft":132,"depth_m":40.4}},{"type":"Feature","geometry":{"type":"Point","coordinates":[-110.40645,24.47154]},"properties":{"depth_ft":100,"depth_m":30.6}},{"type":"Feature","geometry":{"type":"Point","coordinates":[-110.40215,24.47154]},"properties":{"depth_ft":103,"depth_m":31.3}},{"type":"Feature","geometry":{"type":"Point","coordinates":[-110.39785,24.47154]},"properties":{"depth_ft":123,"depth_m":37.4}},{"type":"Feature","geometry":{"type":"Point","coordinates":[-110.39355,24.47154]},"properties":{"depth_ft":130,"depth_m":39.6}},{"type":"Feature","geometry":{"type":"Point","coordinates":[-110.38924,24.47154]},"properties":{"depth_ft":104,"depth_m":31.7}},{"type":"Feature","geometry":{"type":"Point","coordinates":[-110.38494,24.47154]},"properties":{"depth_ft":54,"depth_m":16.5}},{"type":"Feature","geometry":{"type":"Point","coordinates":[-110.43227,24.46763]},"properties":{"depth_ft":301,"depth_m":91.6}},{"type":"Feature","geometry":{"type":"Point","coordinates":[-110.42797,24.46763]},"properties":{"depth_ft":279,"depth_m":84.9}},{"type":"Feature","geometry":{"type":"Point","coordinates":[-110.42367,24.46763]},"properties":{"depth_ft":256,"depth_m":78.1}},{"type":"Feature","geometry":{"type":"Point","coordinates":[-110.41936,24.46763]},"properties":{"depth_ft":225,"depth_m":68.4}},{"type":"Feature","geometry":{"type":"Point","coordinates":[-110.41506,24.46763]},"properties":{"depth_ft":182,"depth_m":55.6}},{"type":"Feature","geometry":{"type":"Point","coordinates":[-110.41076,24.46763]},"properties":{"depth_ft":142,"depth_m":43.4}},{"type":"Feature","geometry":{"type":"Point","coordinates":[-110.40645,24.46763]},"properties":{"depth_ft":110,"depth_m":33.4}},{"type":"Feature","geometry":{"type":"Point","coordinates":[-110.40215,24.46763]},"properties":{"depth_ft":115,"depth_m":35.1}},{"type":"Feature","geometry":{"type":"Point","coordinates":[-110.39785,24.46763]},"properties":{"depth_ft":135,"depth_m":41.2}},{"type":"Feature","geometry":{"type":"Point","coordinates":[-110.39355,24.46763]},"properties":{"depth_ft":142,"depth_m":43.2}},{"type":"Feature","geometry":{"type":"Point","coordinates":[-110.38924,24.46763]},"properties":{"depth_ft":114,"depth_m":34.9}},{"type":"Feature","geometry":{"type":"Point","coordinates":[-110.38494,24.46763]},"properties":{"depth_ft":69,"depth_m":20.9}},{"type":"Feature","geometry":{"type":"Point","coordinates":[-110.44948,24.46371]},"properties":{"depth_ft":301,"depth_m":91.6}},{"type":"Feature","geometry":{"type":"Point","coordinates":[-110.44518,24.46371]},"properties":{"depth_ft":309,"depth_m":94.1}},{"type":"Feature","geometry":{"type":"Point","coordinates":[-110.44088,24.46371]},"properties":{"depth_ft":305,"depth_m":92.8}},{"type":"Feature","geometry":{"type":"Point","coordinates":[-110.43657,24.46371]},"properties":{"depth_ft":300,"depth_m":91.6}},{"type":"Feature","geometry":{"type":"Point","coordinates":[-110.43227,24.46371]},"properties":{"depth_ft":287,"depth_m":87.6}},{"type":"Feature","geometry":{"type":"Point","coordinates":[-110.42797,24.46371]},"properties":{"depth_ft":277,"depth_m":84.5}},{"type":"Feature","geometry":{"type":"Point","coordinates":[-110.42367,24.46371]},"properties":{"depth_ft":265,"depth_m":80.6}},{"type":"Feature","geometry":{"type":"Point","coordinates":[-110.41936,24.46371]},"properties":{"depth_ft":239,"depth_m":72.7}},{"type":"Feature","geometry":{"type":"Point","coordinates":[-110.41506,24.46371]},"properties":{"depth_ft":201,"depth_m":61.1}},{"type":"Feature","geometry":{"type":"Point","coordinates":[-110.41076,24.46371]},"properties":{"depth_ft":159,"depth_m":48.4}},{"type":"Feature","geometry":{"type":"Point","coordinates":[-110.40645,24.46371]},"properties":{"depth_ft":124,"depth_m":37.7}},{"type":"Feature","geometry":{"type":"Point","coordinates":[-110.40215,24.46371]},"properties":{"depth_ft":130,"depth_m":39.5}},{"type":"Feature","geometry":{"type":"Point","coordinates":[-110.39785,24.46371]},"properties":{"depth_ft":148,"depth_m":45.0}},{"type":"Feature","geometry":{"type":"Point","coordinates":[-110.39355,24.46371]},"properties":{"depth_ft":156,"depth_m":47.4}},{"type":"Feature","geometry":{"type":"Point","coordinates":[-110.38924,24.46371]},"properties":{"depth_ft":124,"depth_m":37.7}},{"type":"Feature","geometry":{"type":"Point","coordinates":[-110.38494,24.46371]},"properties":{"depth_ft":82,"depth_m":25.0}},{"type":"Feature","geometry":{"type":"Point","coordinates":[-110.38064,24.46371]},"properties":{"depth_ft":39,"depth_m":11.9}},{"type":"Feature","geometry":{"type":"Point","coordinates":[-110.44948,24.45979]},"properties":{"depth_ft":279,"depth_m":85.0}},{"type":"Feature","geometry":{"type":"Point","coordinates":[-110.44518,24.45979]},"properties":{"depth_ft":292,"depth_m":89.0}},{"type":"Feature","geometry":{"type":"Point","coordinates":[-110.44088,24.45979]},"properties":{"depth_ft":294,"depth_m":89.6}},{"type":"Feature","geometry":{"type":"Point","coordinates":[-110.43657,24.45979]},"properties":{"depth_ft":294,"depth_m":89.5}},{"type":"Feature","geometry":{"type":"Point","coordinates":[-110.43227,24.45979]},"properties":{"depth_ft":289,"depth_m":88.1}},{"type":"Feature","geometry":{"type":"Point","coordinates":[-110.42797,24.45979]},"properties":{"depth_ft":279,"depth_m":84.9}},{"type":"Feature","geometry":{"type":"Point","coordinates":[-110.42367,24.45979]},"properties":{"depth_ft":274,"depth_m":83.4}},{"type":"Feature","geometry":{"type":"Point","coordinates":[-110.41936,24.45979]},"properties":{"depth_ft":260,"depth_m":79.2}},{"type":"Feature","geometry":{"type":"Point","coordinates":[-110.41506,24.45979]},"properties":{"depth_ft":228,"depth_m":69.5}},{"type":"Feature","geometry":{"type":"Point","coordinates":[-110.41076,24.45979]},"properties":{"depth_ft":186,"depth_m":56.8}},{"type":"Feature","geometry":{"type":"Point","coordinates":[-110.40645,24.45979]},"properties":{"depth_ft":151,"depth_m":45.9}},{"type":"Feature","geometry":{"type":"Point","coordinates":[-110.40215,24.45979]},"properties":{"depth_ft":151,"depth_m":45.9}},{"type":"Feature","geometry":{"type":"Point","coordinates":[-110.39785,24.45979]},"properties":{"depth_ft":159,"depth_m":48.5}},{"type":"Feature","geometry":{"type":"Point","coordinates":[-110.39355,24.45979]},"properties":{"depth_ft":156,"depth_m":47.7}},{"type":"Feature","geometry":{"type":"Point","coordinates":[-110.38924,24.45979]},"properties":{"depth_ft":124,"depth_m":37.8}},{"type":"Feature","geometry":{"type":"Point","coordinates":[-110.38494,24.45979]},"properties":{"depth_ft":85,"depth_m":25.9}},{"type":"Feature","geometry":{"type":"Point","coordinates":[-110.38064,24.45979]},"properties":{"depth_ft":45,"depth_m":13.8}},{"type":"Feature","geometry":{"type":"Point","coordinates":[-110.37633,24.45979]},"properties":{"depth_ft":7,"depth_m":2.0}},{"type":"Feature","geometry":{"type":"Point","coordinates":[-110.44948,24.45588]},"properties":{"depth_ft":276,"depth_m":84.1}},{"type":"Feature","geometry":{"type":"Point","coordinates":[-110.44518,24.45588]},"properties":{"depth_ft":292,"depth_m":89.1}},{"type":"Feature","geometry":{"type":"Point","coordinates":[-110.44088,24.45588]},"properties":{"depth_ft":302,"depth_m":92.0}},{"type":"Feature","geometry":{"type":"Point","coordinates":[-110.43657,24.45588]},"properties":{"depth_ft":307,"depth_m":93.5}},{"type":"Feature","geometry":{"type":"Point","coordinates":[-110.43227,24.45588]},"properties":{"depth_ft":307,"depth_m":93.5}},{"type":"Feature","geometry":{"type":"Point","coordinates":[-110.42797,24.45588]},"properties":{"depth_ft":291,"depth_m":88.7}},{"type":"Feature","geometry":{"type":"Point","coordinates":[-110.42367,24.45588]},"properties":{"depth_ft":286,"depth_m":87.0}},{"type":"Feature","geometry":{"type":"Point","coordinates":[-110.41936,24.45588]},"properties":{"depth_ft":296,"depth_m":90.3}},{"type":"Feature","geometry":{"type":"Point","coordinates":[-110.41506,24.45588]},"properties":{"depth_ft":267,"depth_m":81.3}},{"type":"Feature","geometry":{"type":"Point","coordinates":[-110.41076,24.45588]},"properties":{"depth_ft":222,"depth_m":67.6}},{"type":"Feature","geometry":{"type":"Point","coordinates":[-110.40645,24.45588]},"properties":{"depth_ft":183,"depth_m":55.6}},{"type":"Feature","geometry":{"type":"Point","coordinates":[-110.40215,24.45588]},"properties":{"depth_ft":173,"depth_m":52.7}},{"type":"Feature","geometry":{"type":"Point","coordinates":[-110.39785,24.45588]},"properties":{"depth_ft":171,"depth_m":52.3}},{"type":"Feature","geometry":{"type":"Point","coordinates":[-110.39355,24.45588]},"properties":{"depth_ft":162,"depth_m":49.3}},{"type":"Feature","geometry":{"type":"Point","coordinates":[-110.38924,24.45588]},"properties":{"depth_ft":124,"depth_m":37.7}},{"type":"Feature","geometry":{"type":"Point","coordinates":[-110.38494,24.45588]},"properties":{"depth_ft":85,"depth_m":25.9}},{"type":"Feature","geometry":{"type":"Point","coordinates":[-110.38064,24.45588]},"properties":{"depth_ft":51,"depth_m":15.5}},{"type":"Feature","geometry":{"type":"Point","coordinates":[-110.37633,24.45588]},"properties":{"depth_ft":14,"depth_m":4.3}},{"type":"Feature","geometry":{"type":"Point","coordinates":[-110.44948,24.45196]},"properties":{"depth_ft":289,"depth_m":88.0}},{"type":"Feature","geometry":{"type":"Point","coordinates":[-110.44518,24.45196]},"properties":{"depth_ft":309,"depth_m":94.2}},{"type":"Feature","geometry":{"type":"Point","coordinates":[-110.44088,24.45196]},"properties":{"depth_ft":325,"depth_m":99.0}},{"type":"Feature","geometry":{"type":"Point","coordinates":[-110.41506,24.45196]},"properties":{"depth_ft":318,"depth_m":96.8}},{"type":"Feature","geometry":{"type":"Point","coordinates":[-110.41076,24.45196]},"properties":{"depth_ft":265,"depth_m":80.9}},{"type":"Feature","geometry":{"type":"Point","coordinates":[-110.40645,24.45196]},"properties":{"depth_ft":220,"depth_m":67.1}},{"type":"Feature","geometry":{"type":"Point","coordinates":[-110.40215,24.45196]},"properties":{"depth_ft":198,"depth_m":60.4}},{"type":"Feature","geometry":{"type":"Point","coordinates":[-110.39785,24.45196]},"properties":{"depth_ft":184,"depth_m":56.0}},{"type":"Feature","geometry":{"type":"Point","coordinates":[-110.39355,24.45196]},"properties":{"depth_ft":162,"depth_m":49.4}},{"type":"Feature","geometry":{"type":"Point","coordinates":[-110.38924,24.45196]},"properties":{"depth_ft":123,"depth_m":37.6}},{"type":"Feature","geometry":{"type":"Point","coordinates":[-110.38494,24.45196]},"properties":{"depth_ft":80,"depth_m":24.2}},{"type":"Feature","geometry":{"type":"Point","coordinates":[-110.38064,24.45196]},"properties":{"depth_ft":36,"depth_m":11.0}},{"type":"Feature","geometry":{"type":"Point","coordinates":[-110.44948,24.44804]},"properties":{"depth_ft":312,"depth_m":95.0}},{"type":"Feature","geometry":{"type":"Point","coordinates":[-110.41076,24.44804]},"properties":{"depth_ft":296,"depth_m":90.1}},{"type":"Feature","geometry":{"type":"Point","coordinates":[-110.40645,24.44804]},"properties":{"depth_ft":254,"depth_m":77.5}},{"type":"Feature","geometry":{"type":"Point","coordinates":[-110.40215,24.44804]},"properties":{"depth_ft":226,"depth_m":68.9}},{"type":"Feature","geometry":{"type":"Point","coordinates":[-110.39785,24.44804]},"properties":{"depth_ft":199,"depth_m":60.7}},{"type":"Feature","geometry":{"type":"Point","coordinates":[-110.39355,24.44804]},"properties":{"depth_ft":168,"depth_m":51.3}},{"type":"Feature","geometry":{"type":"Point","coordinates":[-110.38924,24.44804]},"properties":{"depth_ft":130,"depth_m":39.7}},{"type":"Feature","geometry":{"type":"Point","coordinates":[-110.38494,24.44804]},"properties":{"depth_ft":80,"depth_m":24.3}},{"type":"Feature","geometry":{"type":"Point","coordinates":[-110.41076,24.44412]},"properties":{"depth_ft":320,"depth_m":97.4}},{"type":"Feature","geometry":{"type":"Point","coordinates":[-110.40645,24.44412]},"properties":{"depth_ft":285,"depth_m":86.8}},{"type":"Feature","geometry":{"type":"Point","coordinates":[-110.40215,24.44412]},"properties":{"depth_ft":251,"depth_m":76.6}},{"type":"Feature","geometry":{"type":"Point","coordinates":[-110.39785,24.44412]},"properties":{"depth_ft":214,"depth_m":65.4}},{"type":"Feature","geometry":{"type":"Point","coordinates":[-110.39355,24.44412]},"properties":{"depth_ft":174,"depth_m":53.2}},{"type":"Feature","geometry":{"type":"Point","coordinates":[-110.38924,24.44412]},"properties":{"depth_ft":136,"depth_m":41.6}},{"type":"Feature","geometry":{"type":"Point","coordinates":[-110.38494,24.44412]},"properties":{"depth_ft":95,"depth_m":29.1}},{"type":"Feature","geometry":{"type":"Point","coordinates":[-110.38064,24.44412]},"properties":{"depth_ft":26,"depth_m":8.0}},{"type":"Feature","geometry":{"type":"Point","coordinates":[-110.40645,24.44021]},"properties":{"depth_ft":315,"depth_m":96.2}},{"type":"Feature","geometry":{"type":"Point","coordinates":[-110.40215,24.44021]},"properties":{"depth_ft":276,"depth_m":84.2}},{"type":"Feature","geometry":{"type":"Point","coordinates":[-110.39785,24.44021]},"properties":{"depth_ft":230,"depth_m":70.0}},{"type":"Feature","geometry":{"type":"Point","coordinates":[-110.39355,24.44021]},"properties":{"depth_ft":180,"depth_m":54.9}},{"type":"Feature","geometry":{"type":"Point","coordinates":[-110.38924,24.44021]},"properties":{"depth_ft":133,"depth_m":40.5}},{"type":"Feature","geometry":{"type":"Point","coordinates":[-110.38494,24.44021]},"properties":{"depth_ft":82,"depth_m":25.0}},{"type":"Feature","geometry":{"type":"Point","coordinates":[-110.38064,24.44021]},"properties":{"depth_ft":16,"depth_m":5.0}},{"type":"Feature","geometry":{"type":"Point","coordinates":[-110.40215,24.43629]},"properties":{"depth_ft":295,"depth_m":89.9}},{"type":"Feature","geometry":{"type":"Point","coordinates":[-110.39785,24.43629]},"properties":{"depth_ft":242,"depth_m":73.7}},{"type":"Feature","geometry":{"type":"Point","coordinates":[-110.39355,24.43629]},"properties":{"depth_ft":183,"depth_m":55.8}},{"type":"Feature","geometry":{"type":"Point","coordinates":[-110.38924,24.43629]},"properties":{"depth_ft":130,"depth_m":39.5}},{"type":"Feature","geometry":{"type":"Point","coordinates":[-110.38494,24.43629]},"properties":{"depth_ft":74,"depth_m":22.5}},{"type":"Feature","geometry":{"type":"Point","coordinates":[-110.38064,24.43629]},"properties":{"depth_ft":3,"depth_m":1.0}},{"type":"Feature","geometry":{"type":"Point","coordinates":[-110.40215,24.43237]},"properties":{"depth_ft":309,"depth_m":94.2}},{"type":"Feature","geometry":{"type":"Point","coordinates":[-110.39785,24.43237]},"properties":{"depth_ft":252,"depth_m":76.8}},{"type":"Feature","geometry":{"type":"Point","coordinates":[-110.39355,24.43237]},"properties":{"depth_ft":191,"depth_m":58.2}},{"type":"Feature","geometry":{"type":"Point","coordinates":[-110.38924,24.43237]},"properties":{"depth_ft":136,"depth_m":41.4}},{"type":"Feature","geometry":{"type":"Point","coordinates":[-110.38494,24.43237]},"properties":{"depth_ft":80,"depth_m":24.2}},{"type":"Feature","geometry":{"type":"Point","coordinates":[-110.38064,24.43237]},"properties":{"depth_ft":10,"depth_m":3.0}},{"type":"Feature","geometry":{"type":"Point","coordinates":[-110.36343,24.43237]},"properties":{"depth_ft":2,"depth_m":0.6}},{"type":"Feature","geometry":{"type":"Point","coordinates":[-110.35912,24.43237]},"properties":{"depth_ft":31,"depth_m":9.5}},{"type":"Feature","geometry":{"type":"Point","coordinates":[-110.35482,24.43237]},"properties":{"depth_ft":32,"depth_m":9.9}},{"type":"Feature","geometry":{"type":"Point","coordinates":[-110.40215,24.42846]},"properties":{"depth_ft":317,"depth_m":96.6}},{"type":"Feature","geometry":{"type":"Point","coordinates":[-110.39785,24.42846]},"properties":{"depth_ft":259,"depth_m":79.0}},{"type":"Feature","geometry":{"type":"Point","coordinates":[-110.39355,24.42846]},"properties":{"depth_ft":200,"depth_m":61.1}},{"type":"Feature","geometry":{"type":"Point","coordinates":[-110.38924,24.42846]},"properties":{"depth_ft":150,"depth_m":45.8}},{"type":"Feature","geometry":{"type":"Point","coordinates":[-110.38494,24.42846]},"properties":{"depth_ft":101,"depth_m":30.6}},{"type":"Feature","geometry":{"type":"Point","coordinates":[-110.38064,24.42846]},"properties":{"depth_ft":38,"depth_m":11.7}},{"type":"Feature","geometry":{"type":"Point","coordinates":[-110.36343,24.42846]},"properties":{"depth_ft":14,"depth_m":4.1}},{"type":"Feature","geometry":{"type":"Point","coordinates":[-110.35912,24.42846]},"properties":{"depth_ft":34,"depth_m":10.3}},{"type":"Feature","geometry":{"type":"Point","coordinates":[-110.35482,24.42846]},"properties":{"depth_ft":28,"depth_m":8.6}},{"type":"Feature","geometry":{"type":"Point","coordinates":[-110.40215,24.42454]},"properties":{"depth_ft":315,"depth_m":96.0}},{"type":"Feature","geometry":{"type":"Point","coordinates":[-110.39785,24.42454]},"properties":{"depth_ft":266,"depth_m":80.9}},{"type":"Feature","geometry":{"type":"Point","coordinates":[-110.39355,24.42454]},"properties":{"depth_ft":216,"depth_m":65.9}},{"type":"Feature","geometry":{"type":"Point","coordinates":[-110.38924,24.42454]},"properties":{"depth_ft":173,"depth_m":52.7}},{"type":"Feature","geometry":{"type":"Point","coordinates":[-110.38494,24.42454]},"properties":{"depth_ft":135,"depth_m":41.1}},{"type":"Feature","geometry":{"type":"Point","coordinates":[-110.38064,24.42454]},"properties":{"depth_ft":87,"depth_m":26.6}},{"type":"Feature","geometry":{"type":"Point","coordinates":[-110.37633,24.42454]},"properties":{"depth_ft":43,"depth_m":13.0}},{"type":"Feature","geometry":{"type":"Point","coordinates":[-110.37203,24.42454]},"properties":{"depth_ft":12,"depth_m":3.5}},{"type":"Feature","geometry":{"type":"Point","coordinates":[-110.36773,24.42454]},"properties":{"depth_ft":8,"depth_m":2.4}},{"type":"Feature","geometry":{"type":"Point","coordinates":[-110.40215,24.42062]},"properties":{"depth_ft":310,"depth_m":94.6}},{"type":"Feature","geometry":{"type":"Point","coordinates":[-110.39785,24.42062]},"properties":{"depth_ft":274,"depth_m":83.4}},{"type":"Feature","geometry":{"type":"Point","coordinates":[-110.39355,24.42062]},"properties":{"depth_ft":234,"depth_m":71.3}},{"type":"Feature","geometry":{"type":"Point","coordinates":[-110.38924,24.42062]},"properties":{"depth_ft":203,"depth_m":61.8}},{"type":"Feature","geometry":{"type":"Point","coordinates":[-110.38494,24.42062]},"properties":{"depth_ft":176,"depth_m":53.5}},{"type":"Feature","geometry":{"type":"Point","coordinates":[-110.38064,24.42062]},"properties":{"depth_ft":147,"depth_m":44.8}},{"type":"Feature","geometry":{"type":"Point","coordinates":[-110.37633,24.42062]},"properties":{"depth_ft":125,"depth_m":38.1}},{"type":"Feature","geometry":{"type":"Point","coordinates":[-110.37203,24.42062]},"properties":{"depth_ft":100,"depth_m":30.4}},{"type":"Feature","geometry":{"type":"Point","coordinates":[-110.36773,24.42062]},"properties":{"depth_ft":44,"depth_m":13.5}},{"type":"Feature","geometry":{"type":"Point","coordinates":[-110.40645,24.41671]},"properties":{"depth_ft":328,"depth_m":100.1}},{"type":"Feature","geometry":{"type":"Point","coordinates":[-110.40215,24.41671]},"properties":{"depth_ft":310,"depth_m":94.6}},{"type":"Feature","geometry":{"type":"Point","coordinates":[-110.39785,24.41671]},"properties":{"depth_ft":285,"depth_m":86.9}},{"type":"Feature","geometry":{"type":"Point","coordinates":[-110.39355,24.41671]},"properties":{"depth_ft":255,"depth_m":77.7}},{"type":"Feature","geometry":{"type":"Point","coordinates":[-110.38924,24.41671]},"properties":{"depth_ft":233,"depth_m":71.0}},{"type":"Feature","geometry":{"type":"Point","coordinates":[-110.38494,24.41671]},"properties":{"depth_ft":214,"depth_m":65.2}},{"type":"Feature","geometry":{"type":"Point","coordinates":[-110.38064,24.41671]},"properties":{"depth_ft":197,"depth_m":60.2}},{"type":"Feature","geometry":{"type":"Point","coordinates":[-110.37633,24.41671]},"properties":{"depth_ft":184,"depth_m":56.1}},{"type":"Feature","geometry":{"type":"Point","coordinates":[-110.37203,24.41671]},"properties":{"depth_ft":151,"depth_m":46.0}},{"type":"Feature","geometry":{"type":"Point","coordinates":[-110.36773,24.41671]},"properties":{"depth_ft":63,"depth_m":19.3}},{"type":"Feature","geometry":{"type":"Point","coordinates":[-110.40645,24.41279]},"properties":{"depth_ft":327,"depth_m":99.6}},{"type":"Feature","geometry":{"type":"Point","coordinates":[-110.40215,24.41279]},"properties":{"depth_ft":313,"depth_m":95.5}},{"type":"Feature","geometry":{"type":"Point","coordinates":[-110.39785,24.41279]},"properties":{"depth_ft":296,"depth_m":90.1}},{"type":"Feature","geometry":{"type":"Point","coordinates":[-110.39355,24.41279]},"properties":{"depth_ft":277,"depth_m":84.6}},{"type":"Feature","geometry":{"type":"Point","coordinates":[-110.38924,24.41279]},"properties":{"depth_ft":259,"depth_m":78.8}},{"type":"Feature","geometry":{"type":"Point","coordinates":[-110.38494,24.41279]},"properties":{"depth_ft":244,"depth_m":74.4}},{"type":"Feature","geometry":{"type":"Point","coordinates":[-110.38064,24.41279]},"properties":{"depth_ft":231,"depth_m":70.3}},{"type":"Feature","geometry":{"type":"Point","coordinates":[-110.37633,24.41279]},"properties":{"depth_ft":216,"depth_m":65.7}},{"type":"Feature","geometry":{"type":"Point","coordinates":[-110.37203,24.41279]},"properties":{"depth_ft":171,"depth_m":52.2}},{"type":"Feature","geometry":{"type":"Point","coordinates":[-110.36773,24.41279]},"properties":{"depth_ft":68,"depth_m":20.7}},{"type":"Feature","geometry":{"type":"Point","coordinates":[-110.41076,24.40887]},"properties":{"depth_ft":330,"depth_m":100.5}},{"type":"Feature","geometry":{"type":"Point","coordinates":[-110.40645,24.40887]},"properties":{"depth_ft":323,"depth_m":98.4}},{"type":"Feature","geometry":{"type":"Point","coordinates":[-110.40215,24.40887]},"properties":{"depth_ft":315,"depth_m":96.0}},{"type":"Feature","geometry":{"type":"Point","coordinates":[-110.39785,24.40887]},"properties":{"depth_ft":304,"depth_m":92.7}},{"type":"Feature","geometry":{"type":"Point","coordinates":[-110.39355,24.40887]},"properties":{"depth_ft":295,"depth_m":89.8}},{"type":"Feature","geometry":{"type":"Point","coordinates":[-110.38924,24.40887]},"properties":{"depth_ft":280,"depth_m":85.4}},{"type":"Feature","geometry":{"type":"Point","coordinates":[-110.38494,24.40887]},"properties":{"depth_ft":267,"depth_m":81.4}},{"type":"Feature","geometry":{"type":"Point","coordinates":[-110.38064,24.40887]},"properties":{"depth_ft":253,"depth_m":77.2}},{"type":"Feature","geometry":{"type":"Point","coordinates":[-110.37633,24.40887]},"properties":{"depth_ft":234,"depth_m":71.2}},{"type":"Feature","geometry":{"type":"Point","coordinates":[-110.37203,24.40887]},"properties":{"depth_ft":184,"depth_m":56.2}},{"type":"Feature","geometry":{"type":"Point","coordinates":[-110.36773,24.40887]},"properties":{"depth_ft":77,"depth_m":23.6}},{"type":"Feature","geometry":{"type":"Point","coordinates":[-110.41076,24.40495]},"properties":{"depth_ft":330,"depth_m":100.5}},{"type":"Feature","geometry":{"type":"Point","coordinates":[-110.40645,24.40495]},"properties":{"depth_ft":319,"depth_m":97.2}},{"type":"Feature","geometry":{"type":"Point","coordinates":[-110.40215,24.40495]},"properties":{"depth_ft":314,"depth_m":95.7}},{"type":"Feature","geometry":{"type":"Point","coordinates":[-110.39785,24.40495]},"properties":{"depth_ft":308,"depth_m":94.0}},{"type":"Feature","geometry":{"type":"Point","coordinates":[-110.39355,24.40495]},"properties":{"depth_ft":304,"depth_m":92.7}},{"type":"Feature","geometry":{"type":"Point","coordinates":[-110.38924,24.40495]},"properties":{"depth_ft":294,"depth_m":89.6}},{"type":"Feature","geometry":{"type":"Point","coordinates":[-110.38494,24.40495]},"properties":{"depth_ft":282,"depth_m":85.8}},{"type":"Feature","geometry":{"type":"Point","coordinates":[-110.38064,24.40495]},"properties":{"depth_ft":266,"depth_m":81.1}},{"type":"Feature","geometry":{"type":"Point","coordinates":[-110.37633,24.40495]},"properties":{"depth_ft":241,"depth_m":73.3}},{"type":"Feature","geometry":{"type":"Point","coordinates":[-110.37203,24.40495]},"properties":{"depth_ft":187,"depth_m":56.9}},{"type":"Feature","geometry":{"type":"Point","coordinates":[-110.36773,24.40495]},"properties":{"depth_ft":92,"depth_m":28.1}}]}