{"type":"FeatureCollection","features":[{"type":"Feature","geometry":{"type":"Polygon","coordinates":[[[-113.5707,29.11462],[-113.56909,29.11176],[-113.56718,29.10782],[-113.56695,29.10678],[-113.56681,29.10294],[-113.56692,29.1021],[-113.56752,29.10072],[-113.56747,29.09958],[-113.56684,29.09811],[-113.56711,29.09701],[-113.56723,29.09457],[-113.56693,29.09394],[-113.56576,29.09241],[-113.56413,29.09131],[-113.56337,29.09058],[-113.56337,29.08774],[-113.56282,29.08576],[-113.55995,29.08335],[-113.55836,29.08248],[-113.55736,29.08216],[-113.55709,29.0805],[-113.55605,29.07992],[-113.5556,29.07931],[-113.55568,29.07739],[-113.55554,29.07703],[-113.55248,29.07473],[-113.55198,29.07394],[-113.55117,29.07207],[-113.55148,29.07087],[-113.55191,29.07001],[-113.55092,29.06877],[-113.55067,29.0679],[-113.54932,29.06686],[-113.54857,29.06562],[-113.54759,29.06503],[-113.54569,29.06421],[-113.54296,29.06387],[-113.54295,29.063],[-113.54315,29.06242],[-113.54299,29.06201],[-113.54145,29.06085],[-113.54054,29.06062],[-113.54035,29.06014],[-113.53977,29.05979],[-113.53972,29.05912],[-113.53876,29.05811],[-113.53884,29.05765],[-113.53965,29.05654],[-113.53975,29.05605],[-113.53938,29.05538],[-113.53855,29.05462],[-113.53832,29.05408],[-113.53829,29.05352],[-113.53872,29.05264],[-113.53828,29.05164],[-113.53773,29.05099],[-113.53785,29.05027],[-113.53745,29.04893],[-113.53757,29.0483],[-113.53867,29.04587],[-113.53874,29.04535],[-113.5387,29.04471],[-113.53765,29.04214],[-113.53833,29.04191],[-113.5386,29.04154],[-113.53891,29.04081],[-113.53899,29.03988],[-113.53876,29.03924],[-113.5381,29.03854],[-113.5359,29.03728],[-113.53424,29.03587],[-113.53463,29.03408],[-113.53447,29.03237],[-113.53571,29.03144],[-113.53625,29.03142],[-113.53774,29.03092],[-113.53833,29.03114],[-113.53848,29.03167],[-113.53822,29.03242],[-113.53696,29.0344],[-113.53698,29.03648],[-113.53958,29.03838],[-113.5413,29.0394],[-113.54325,29.04025],[-113.5448,29.04057],[-113.54756,29.04057],[-113.5482,29.04044],[-113.549,29.04003],[-113.54918,29.03922],[-113.54879,29.03822],[-113.55089,29.0375],[-113.55217,29.03643],[-113.5528,29.03564],[-113.55344,29.03419],[-113.55386,29.03196],[-113.55458,29.03074],[-113.55553,29.02844],[-113.55662,29.02719],[-113.55798,29.02624],[-113.56004,29.02429],[-113.56082,29.02304],[-113.561,29.02208],[-113.56158,29.021],[-113.56217,29.01884],[-113.56236,29.01646],[-113.56291,29.01397],[-113.5632,29.01104],[-113.56303,29.00711],[-113.56276,29.00489],[-113.56222,29.00256],[-113.56038,28.99891],[-113.55791,28.99627],[-113.55595,28.99477],[-113.55194,28.99212],[-113.55084,28.99109],[-113.54996,28.98983],[-113.54971,28.98909],[-113.54839,28.98699],[-113.54817,28.98631],[-113.54723,28.98517],[-113.54718,28.98481],[-113.5475,28.98357],[-113.54712,28.98259],[-113.54684,28.98126],[-113.54683,28.98025],[-113.54661,28.97969],[-113.5464,28.9756],[-113.54594,28.97436],[-113.54629,28.97317],[-113.54585,28.96877],[-113.54638,28.96801],[-113.54652,28.96664],[-113.54575,28.96442],[-113.54475,28.96331],[-113.54283,28.95792],[-113.54177,28.95599],[-113.54183,28.95505],[-113.5423,28.95391],[-113.54256,28.95383],[-113.54309,28.95535],[-113.54327,28.95751],[-113.54436,28.95984],[-113.54467,28.96007],[-113.54533,28.96005],[-113.54666,28.95958],[-113.55143,28.95627],[-113.55438,28.95455],[-113.55594,28.95384],[-113.5569,28.95292],[-113.55744,28.95202],[-113.55769,28.95084],[-113.55759,28.95011],[-113.55775,28.94853],[-113.55732,28.94666],[-113.55695,28.94634],[-113.55693,28.94577],[-113.55637,28.94451],[-113.55455,28.94272],[-113.55324,28.94074],[-113.55266,28.94019],[-113.55112,28.93636],[-113.54997,28.93532],[-113.54832,28.93427],[-113.5475,28.93326],[-113.5472,28.93233],[-113.54729,28.93146],[-113.54804,28.93048],[-113.54816,28.9299],[-113.54669,28.92816],[-113.54612,28.92658],[-113.5461,28.92523],[-113.54544,28.92421],[-113.54536,28.92345],[-113.54463,28.92246],[-113.54458,28.92201],[-113.54401,28.92137],[-113.5419,28.9203],[-113.54033,28.91879],[-113.53965,28.91783],[-113.53946,28.91614],[-113.53811,28.91396],[-113.53817,28.91343],[-113.53763,28.91246],[-113.53642,28.91132],[-113.53582,28.91034],[-113.53572,28.90894],[-113.53533,28.90787],[-113.53535,28.90698],[-113.5349,28.90617],[-113.53367,28.90529],[-113.53132,28.90456],[-113.53119,28.90414],[-113.53033,28.90328],[-113.52906,28.90236],[-113.52877,28.90156],[-113.52818,28.90125],[-113.52794,28.90071],[-113.52708,28.90005],[-113.52663,28.8987],[-113.52684,28.89712],[-113.52645,28.89645],[-113.5268,28.89586],[-113.52679,28.89561],[-113.52594,28.89441],[-113.5263,28.89354],[-113.52626,28.89318],[-113.52557,28.89266],[-113.52397,28.89197],[-113.51663,28.88987],[-113.51113,28.8894],[-113.5045,28.88931],[-113.50073,28.88942],[-113.49625,28.88979],[-113.4891,28.89101],[-113.48377,28.89242],[-113.48062,28.89362],[-113.47933,28.89428],[-113.47879,28.89523],[-113.47764,28.89626],[-113.47745,28.89685],[-113.47757,28.89806],[-113.47836,28.89876],[-113.47891,28.8998],[-113.4786,28.90119],[-113.47801,28.90239],[-113.47639,28.90341],[-113.47488,28.90525],[-113.47463,28.90591],[-113.47466,28.90644],[-113.47532,28.90674],[-113.4757,28.90724],[-113.47572,28.9075],[-113.4753,28.90829],[-113.47403,28.90948],[-113.47331,28.91043],[-113.47261,28.91155],[-113.47269,28.91198],[-113.47192,28.91214],[-113.47171,28.91239],[-113.47131,28.91403],[-113.47145,28.91489],[-113.47193,28.9153],[-113.47215,28.91636],[-113.47267,28.91687],[-113.47467,28.91752],[-113.47704,28.91806],[-113.47739,28.91781],[-113.47786,28.91789],[-113.47764,28.91845],[-113.47719,28.91824],[-113.47701,28.91839],[-113.47666,28.9195],[-113.47685,28.92008],[-113.47726,28.92015],[-113.47776,28.91969],[-113.4794,28.91941],[-113.48087,28.91896],[-113.48095,28.91928],[-113.48049,28.9202],[-113.48047,28.92082],[-113.48068,28.92108],[-113.48295,28.92062],[-113.48383,28.92189],[-113.48429,28.9232],[-113.48327,28.92348],[-113.48331,28.92502],[-113.48565,28.92524],[-113.48568,28.92652],[-113.48627,28.92651],[-113.48747,28.92803],[-113.48689,28.92804],[-113.48722,28.92958],[-113.48575,28.92935],[-113.4861,28.93191],[-113.48113,28.93149],[-113.48111,28.93098],[-113.48011,28.93177],[-113.48096,28.93689],[-113.48213,28.93687],[-113.48289,28.93789],[-113.48191,28.93983],[-113.48134,28.94017],[-113.48137,28.94164],[-113.48111,28.94186],[-113.47973,28.9417],[-113.47888,28.94213],[-113.47495,28.94227],[-113.47458,28.94306],[-113.47416,28.94339],[-113.47406,28.94413],[-113.47418,28.94441],[-113.47523,28.94507],[-113.47541,28.94549],[-113.47972,28.9472],[-113.47984,28.94755],[-113.47917,28.94749],[-113.47852,28.94769],[-113.47255,28.94736],[-113.47138,28.94767],[-113.47136,28.94798],[-113.47098,28.94815],[-113.47064,28.94884],[-113.47009,28.9492],[-113.46973,28.94902],[-113.46931,28.94837],[-113.46836,28.94767],[-113.4667,28.94731],[-113.46593,28.94696],[-113.46561,28.9466],[-113.4643,28.94589],[-113.46369,28.94575],[-113.46275,28.94493],[-113.46024,28.94354],[-113.45714,28.94389],[-113.45525,28.9446],[-113.45469,28.94499],[-113.45443,28.94546],[-113.45349,28.9472],[-113.45278,28.94917],[-113.44984,28.94991],[-113.44832,28.95088],[-113.44682,28.95107],[-113.44642,28.95084],[-113.44622,28.95049],[-113.44632,28.95032],[-113.44753,28.94967],[-113.44789,28.94902],[-113.4484,28.94866],[-113.44949,28.94811],[-113.45095,28.94786],[-113.45138,28.94669],[-113.45196,28.94625],[-113.45298,28.94475],[-113.45443,28.94497],[-113.45547,28.94431],[-113.45549,28.94412],[-113.45503,28.94331],[-113.45504,28.94288],[-113.45474,28.94247],[-113.45479,28.94182],[-113.4543,28.94104],[-113.45353,28.94052],[-113.45267,28.93921],[-113.45178,28.93884],[-113.44946,28.93953],[-113.44934,28.94011],[-113.44917,28.94022],[-113.44833,28.9397],[-113.44792,28.93989],[-113.44712,28.93957],[-113.44645,28.94002],[-113.44568,28.94114],[-113.44611,28.94154],[-113.44583,28.94251],[-113.44597,28.94275],[-113.4465,28.94278],[-113.44723,28.94227],[-113.44723,28.94319],[-113.44747,28.94346],[-113.44716,28.94396],[-113.44726,28.94489],[-113.44599,28.94605],[-113.44717,28.9459],[-113.44737,28.94566],[-113.44734,28.9452],[-113.44784,28.94521],[-113.44727,28.94612],[-113.44494,28.94642],[-113.44061,28.94843],[-113.44064,28.94972],[-113.44005,28.94973],[-113.43858,28.95541],[-113.43906,28.95746],[-113.43906,28.9578],[-113.43879,28.95809],[-113.43881,28.95897],[-113.43837,28.95934],[-113.43761,28.9593],[-113.43651,28.95862],[-113.43536,28.95766],[-113.43447,28.95665],[-113.43423,28.95659],[-113.4344,28.95607],[-113.43383,28.95528],[-113.43394,28.95501],[-113.43336,28.95445],[-113.43303,28.95446],[-113.43307,28.95371],[-113.43357,28.95291],[-113.43305,28.95203],[-113.43228,28.95173],[-113.43032,28.95158],[-113.42761,28.95083],[-113.42472,28.94959],[-113.4241,28.94891],[-113.42359,28.94775],[-113.4235,28.9471],[-113.42364,28.94649],[-113.42421,28.94584],[-113.42584,28.94476],[-113.42607,28.94434],[-113.42602,28.9394],[-113.42649,28.93879],[-113.4286,28.93727],[-113.42885,28.93655],[-113.42876,28.93522],[-113.42812,28.93415],[-113.42711,28.93347],[-113.42687,28.93266],[-113.42522,28.93203],[-113.42359,28.93092],[-113.42346,28.93049],[-113.42361,28.92935],[-113.42329,28.9282],[-113.42253,28.92768],[-113.42085,28.92707],[-113.41677,28.92414],[-113.41429,28.92338],[-113.41165,28.92346],[-113.40767,28.92434],[-113.40475,28.9256],[-113.40389,28.9263],[-113.40371,28.92687],[-113.40411,28.92733],[-113.40402,28.92765],[-113.40444,28.92951],[-113.40486,28.93017],[-113.40559,28.93067],[-113.4053,28.93103],[-113.40578,28.93153],[-113.40572,28.93166],[-113.40521,28.93151],[-113.40495,28.93179],[-113.40484,28.93247],[-113.40508,28.93306],[-113.40321,28.93378],[-113.40233,28.93385],[-113.40218,28.93425],[-113.40147,28.93436],[-113.40068,28.93509],[-113.39974,28.93509],[-113.39877,28.9354],[-113.39781,28.93531],[-113.39716,28.93677],[-113.39677,28.93718],[-113.396,28.9375],[-113.39534,28.9374],[-113.39446,28.93758],[-113.3934,28.93847],[-113.39139,28.93858],[-113.39105,28.93891],[-113.39044,28.93889],[-113.38995,28.93931],[-113.38814,28.93971],[-113.38655,28.9398],[-113.38557,28.93938],[-113.38524,28.93879],[-113.38545,28.93831],[-113.38606,28.93775],[-113.38602,28.93712],[-113.38565,28.93642],[-113.38527,28.93613],[-113.38479,28.93608],[-113.38452,28.93624],[-113.38447,28.93665],[-113.38433,28.93666],[-113.38316,28.93592],[-113.38479,28.93202],[-113.38551,28.9322],[-113.38624,28.9316],[-113.38646,28.92993],[-113.38667,28.92951],[-113.3872,28.92949],[-113.38898,28.93056],[-113.38951,28.93069],[-113.39032,28.93039],[-113.39136,28.92892],[-113.39228,28.92603],[-113.39405,28.9215],[-113.39438,28.91988],[-113.39451,28.91802],[-113.39428,28.91562],[-113.39374,28.91371],[-113.39261,28.91239],[-113.39195,28.91198],[-113.39102,28.91182],[-113.38997,28.91238],[-113.38816,28.91069],[-113.38762,28.91037],[-113.38705,28.91019],[-113.38533,28.91009],[-113.38402,28.90945],[-113.38321,28.90924],[-113.38121,28.90918],[-113.38077,28.90978],[-113.38012,28.91001],[-113.37957,28.90976],[-113.37893,28.90906],[-113.37433,28.90841],[-113.37354,28.90789],[-113.37335,28.907],[-113.37309,28.90661],[-113.37228,28.90632],[-113.37128,28.90553],[-113.37018,28.90502],[-113.36885,28.90489],[-113.36834,28.90461],[-113.36785,28.90366],[-113.36856,28.90357],[-113.36905,28.90333],[-113.36959,28.90222],[-113.37027,28.90254],[-113.37084,28.90245],[-113.37201,28.90154],[-113.37252,28.90135],[-113.37415,28.90135],[-113.37528,28.90108],[-113.37707,28.90251],[-113.37743,28.90252],[-113.37825,28.90208],[-113.37943,28.90068],[-113.38031,28.89866],[-113.38078,28.89538],[-113.38062,28.89335],[-113.37942,28.89141],[-113.37873,28.89062],[-113.37724,28.88956],[-113.37479,28.88883],[-113.37413,28.88759],[-113.37237,28.88598],[-113.37099,28.88344],[-113.37005,28.88207],[-113.36897,28.87902],[-113.36786,28.87716],[-113.36525,28.87574],[-113.36381,28.87533],[-113.36168080535548,28.87604849366605],[-113.36168080535548,28.87185528678728],[-113.36598,28.8706],[-113.36665,28.86789],[-113.36702,28.8671],[-113.36779,28.86619],[-113.36822,28.86538],[-113.36885,28.86293],[-113.3691,28.86267],[-113.36981,28.86255],[-113.36995,28.86239],[-113.37043,28.86096],[-113.37036,28.85892],[-113.36951,28.85483],[-113.36934,28.85262],[-113.36882,28.85012],[-113.36908,28.84822],[-113.36912,28.84408],[-113.37071,28.839],[-113.37082,28.83748],[-113.37059,28.83616],[-113.36989,28.83449],[-113.36963,28.83343],[-113.36811,28.83025],[-113.36729,28.82772],[-113.36649,28.82617],[-113.36526,28.82439],[-113.36494,28.82328],[-113.36412,28.82234],[-113.36298,28.82138],[-113.36168080535548,28.82071880272556],[-113.36168080535548,28.784837837837838],[-113.73831919464452,28.784837837837838],[-113.73831919464452,29.11516216216216],[-113.57084709826105,29.11516216216216],[-113.5707,29.11462]]]},"properties":{"name":"baja-north-pacific"}},{"type":"Feature","geometry":{"type":"Polygon","coordinates":[[[-113.5138,29.06836],[-113.51408,29.06904],[-113.51504,29.06933],[-113.51534,29.07015],[-113.5157,29.07058],[-113.51551,29.07173],[-113.51611,29.07298],[-113.51587,29.07312],[-113.51516,29.07311],[-113.51433,29.07434],[-113.5143,29.07543],[-113.51456,29.07662],[-113.51507,29.07728],[-113.51642,29.07757],[-113.51935,29.07867],[-113.52129,29.07997],[-113.52172,29.07997],[-113.52182,29.07975],[-113.5216,29.07858],[-113.52111,29.07795],[-113.52014,29.07733],[-113.51944,29.07745],[-113.51917,29.07805],[-113.51891,29.07759],[-113.51921,29.07718],[-113.5201,29.07716],[-113.52091,29.07758],[-113.52179,29.07852],[-113.52242,29.08209],[-113.52367,29.08408],[-113.524,29.0858],[-113.52529,29.08891],[-113.52666,29.09049],[-113.52718,29.09164],[-113.52746,29.09289],[-113.52749,29.09424],[-113.52729,29.09525],[-113.52688,29.09565],[-113.52616,29.09581],[-113.52506,29.09541],[-113.52378,29.09531],[-113.51989,29.09588],[-113.51466,29.09615],[-113.51318,29.09616],[-113.51216,29.09593],[-113.51128,29.09604],[-113.5095,29.09584],[-113.50754,29.09517],[-113.50654,29.09456],[-113.50521,29.09354],[-113.50342,29.09164],[-113.50231,29.09083],[-113.50211,29.08985],[-113.50242,29.08865],[-113.50613,29.084],[-113.50744,29.08176],[-113.50798,29.08013],[-113.50784,29.0796],[-113.50679,29.07888],[-113.50388,29.07771],[-113.50336,29.07741],[-113.50311,29.07705],[-113.50281,29.07549],[-113.50292,29.07376],[-113.50549,29.07026],[-113.50594,29.06926],[-113.50586,29.06892],[-113.50458,29.06775],[-113.50427,29.06669],[-113.50442,29.06589],[-113.50502,29.06518],[-113.50523,29.06467],[-113.5054,29.06306],[-113.50526,29.06253],[-113.50479,29.062],[-113.50487,29.06155],[-113.50474,29.06119],[-113.50395,29.06048],[-113.50334,29.05945],[-113.50265,29.05889],[-113.50183,29.05754],[-113.50065,29.05699],[-113.50042,29.05654],[-113.49954,29.05567],[-113.49924,29.05487],[-113.49928,29.05435],[-113.49972,29.05322],[-113.50039,29.05252],[-113.50087,29.0517],[-113.50275,29.0507],[-113.50278,29.04965],[-113.50257,29.04918],[-113.50173,29.04842],[-113.50081,29.04842],[-113.50011,29.04894],[-113.49976,29.04903],[-113.49887,29.0486],[-113.4982,29.04781],[-113.49707,29.04752],[-113.49605,29.04636],[-113.49602,29.04586],[-113.49626,29.04559],[-113.4964,29.04474],[-113.49638,29.04319],[-113.49608,29.04269],[-113.49568,29.04108],[-113.49456,29.04044],[-113.49357,29.0406],[-113.49316,29.0397],[-113.49221,29.03866],[-113.49103,29.03814],[-113.4896,29.03804],[-113.48926,29.03784],[-113.48927,29.0377],[-113.49128,29.03765],[-113.49228,29.03699],[-113.49424,29.03653],[-113.49476,29.03656],[-113.4952,29.03671],[-113.49662,29.03811],[-113.49727,29.03815],[-113.49804,29.03784],[-113.49925,29.03794],[-113.49965,29.0381],[-113.50103,29.03931],[-113.50198,29.03924],[-113.50269,29.03878],[-113.50329,29.03906],[-113.50477,29.03924],[-113.5054,29.04006],[-113.50681,29.0412],[-113.50731,29.04194],[-113.50695,29.0426],[-113.50662,29.04375],[-113.50605,29.04395],[-113.50468,29.04348],[-113.50439,29.04351],[-113.50391,29.04416],[-113.5038,29.04502],[-113.50309,29.04513],[-113.50301,29.04528],[-113.50325,29.04583],[-113.50405,29.04586],[-113.50457,29.04535],[-113.50535,29.04613],[-113.50559,29.04615],[-113.50583,29.04595],[-113.50616,29.04604],[-113.50695,29.04707],[-113.50697,29.0474],[-113.50627,29.0474],[-113.50575,29.04708],[-113.50541,29.04738],[-113.50531,29.04797],[-113.5045,29.04804],[-113.50327,29.04776],[-113.50277,29.0475],[-113.50255,29.04759],[-113.5024,29.04799],[-113.50284,29.04893],[-113.5031,29.04912],[-113.50367,29.04883],[-113.50412,29.04903],[-113.50473,29.0489],[-113.50524,29.04923],[-113.50548,29.04904],[-113.50535,29.0488],[-113.50549,29.04861],[-113.50619,29.04887],[-113.50652,29.04922],[-113.50681,29.04913],[-113.50733,29.04845],[-113.50706,29.04839],[-113.50679,29.04869],[-113.50643,29.04846],[-113.50676,29.04822],[-113.50669,29.04771],[-113.507,29.04769],[-113.50813,29.04855],[-113.50843,29.04841],[-113.50927,29.04856],[-113.50948,29.04938],[-113.51027,29.05029],[-113.51175,29.0512],[-113.51349,29.0518],[-113.51384,29.05209],[-113.51442,29.05327],[-113.51381,29.0546],[-113.5138,29.05586],[-113.51322,29.05696],[-113.51328,29.05746],[-113.51305,29.05764],[-113.51212,29.05752],[-113.51148,29.0578],[-113.51106,29.05762],[-113.51064,29.05774],[-113.50986,29.05867],[-113.50968,29.05938],[-113.50931,29.05955],[-113.50923,29.06006],[-113.5093,29.06047],[-113.50989,29.06108],[-113.50954,29.06151],[-113.50993,29.06272],[-113.5101,29.06288],[-113.51075,29.06291],[-113.51057,29.0633],[-113.51062,29.0637],[-113.51097,29.06378],[-113.51111,29.06359],[-113.51141,29.0638],[-113.51149,29.06353],[-113.51173,29.06359],[-113.51198,29.0633],[-113.51229,29.06364],[-113.51279,29.06368],[-113.51302,29.06393],[-113.51313,29.06471],[-113.51291,29.06486],[-113.5125,29.06478],[-113.51245,29.06499],[-113.51354,29.06536],[-113.51402,29.06676],[-113.51367,29.06738],[-113.51382,29.06764],[-113.5138,29.06836]]]},"properties":{"name":"unnamed-land"}},{"type":"Feature","geometry":{"type":"Polygon","coordinates":[[[-113.51075,29.00155],[-113.50889,29.00178],[-113.50788,29.00142],[-113.50724,29.00013],[-113.50574,28.99822],[-113.5054,28.99787],[-113.50399,28.99728],[-113.50356,28.99676],[-113.50323,28.99669],[-113.50289,28.99468],[-113.50275,28.99447],[-113.50179,28.99408],[-113.50173,28.99393],[-113.502,28.99396],[-113.50272,28.99327],[-113.50425,28.99305],[-113.50494,28.99167],[-113.50651,28.99186],[-113.50694,28.99214],[-113.50745,28.99286],[-113.50841,28.99299],[-113.5087,28.99325],[-113.50897,28.99324],[-113.50955,28.99269],[-113.50947,28.9917],[-113.50993,28.99113],[-113.51006,28.9906],[-113.51044,28.99055],[-113.51084,28.99009],[-113.51137,28.98879],[-113.51161,28.9888],[-113.51337,28.99143],[-113.51402,28.99132],[-113.51423,28.99144],[-113.51459,28.99272],[-113.51505,28.99288],[-113.51553,28.99347],[-113.5169,28.99383],[-113.51679,28.99402],[-113.5164,28.99395],[-113.51615,28.99428],[-113.51597,28.99519],[-113.51611,28.99587],[-113.51565,28.99636],[-113.51579,28.99728],[-113.51545,28.9988],[-113.51551,28.99945],[-113.5157,28.9997],[-113.51404,28.99857],[-113.51344,28.99879],[-113.51291,28.99865],[-113.51231,28.9995],[-113.51274,29.00051],[-113.51352,29.00086],[-113.51434,29.00146],[-113.51504,29.00148],[-113.51555,29.00191],[-113.51554,29.00206],[-113.51493,29.00243],[-113.51411,29.00261],[-113.51334,29.00311],[-113.51297,29.00307],[-113.51075,29.00155]]]},"properties":{"name":"unnamed-land"}},{"type":"Feature","geometry":{"type":"Polygon","coordinates":[[[-113.4766,28.967],[-113.4787,28.96635],[-113.47955,28.967],[-113.48107,28.96712],[-113.48138,28.9673],[-113.48135,28.96854],[-113.48202,28.97126],[-113.48199,28.9717],[-113.48173,28.9724],[-113.4809,28.9735],[-113.48077,28.97411],[-113.48101,28.97452],[-113.48251,28.97526],[-113.4835,28.97606],[-113.48422,28.97631],[-113.48493,28.97684],[-113.48516,28.97739],[-113.48529,28.97887],[-113.48462,28.97895],[-113.48387,28.97865],[-113.48059,28.97681],[-113.47788,28.97564],[-113.47709,28.9749],[-113.47624,28.97346],[-113.47497,28.96956],[-113.47501,28.96892],[-113.47562,28.96789],[-113.4766,28.967]]]},"properties":{"name":"unnamed-land"}},{"type":"Feature","geometry":{"type":"Polygon","coordinates":[[[-113.46877,29.02391],[-113.46838,29.02404],[-113.46846,29.02383],[-113.46831,29.0237],[-113.46752,29.0237],[-113.46742,29.02325],[-113.46722,29.02309],[-113.46606,29.02299],[-113.46427,29.02146],[-113.46432,29.02056],[-113.46416,29.01981],[-113.46332,29.01886],[-113.46291,29.01804],[-113.46217,29.01742],[-113.4613,29.01637],[-113.46115,29.01519],[-113.46067,29.01447],[-113.46026,29.01426],[-113.46049,29.01404],[-113.4604,29.01323],[-113.46122,29.01332],[-113.46271,29.01229],[-113.46302,29.01167],[-113.46369,29.01179],[-113.46463,29.01338],[-113.46564,29.01347],[-113.46623,29.01385],[-113.46707,29.01502],[-113.4674,29.01525],[-113.46726,29.0163],[-113.46759,29.01686],[-113.46788,29.01787],[-113.46888,29.01964],[-113.46881,29.02017],[-113.46847,29.02085],[-113.46933,29.02239],[-113.46945,29.02281],[-113.46937,29.02309],[-113.46977,29.02425],[-113.4701,29.02438],[-113.46989,29.02449],[-113.46926,29.02428],[-113.46877,29.02391]]]},"properties":{"name":"unnamed-land"}},{"type":"Feature","geometry":{"type":"Polygon","coordinates":[[[-113.52182,29.06966],[-113.52153,29.06965],[-113.52135,29.06935],[-113.52099,29.06918],[-113.51927,29.06911],[-113.51901,29.06892],[-113.519,29.0686],[-113.51862,29.06814],[-113.51637,29.0676],[-113.51585,29.06674],[-113.51542,29.06652],[-113.51558,29.06631],[-113.51522,29.06568],[-113.51535,29.06537],[-113.51512,29.06503],[-113.51564,29.06484],[-113.51739,29.06493],[-113.51859,29.06593],[-113.5196,29.06787],[-113.52039,29.06852],[-113.5213,29.06888],[-113.52182,29.06966]]]},"properties":{"name":"unnamed-land"}},{"type":"Feature","geometry":{"type":"Polygon","coordinates":[[[-113.51082,29.01422],[-113.51086,29.01372],[-113.51143,29.01328],[-113.51199,29.0132],[-113.51212,29.01354],[-113.51245,29.01379],[-113.51298,29.01355],[-113.51339,29.01359],[-113.51412,29.01312],[-113.51485,29.01331],[-113.51572,29.01313],[-113.51617,29.01333],[-113.51648,29.01396],[-113.51624,29.01472],[-113.51567,29.01517],[-113.51564,29.01562],[-113.51475,29.01575],[-113.51454,29.01598],[-113.51453,29.01651],[-113.51418,29.01666],[-113.51379,29.01625],[-113.5138,29.01595],[-113.51309,29.01555],[-113.51296,29.01492],[-113.51271,29.01464],[-113.51082,29.01422]]]},"properties":{"name":"unnamed-land"}},{"type":"Feature","geometry":{"type":"Polygon","coordinates":[[[-113.52198,29.00699],[-113.52166,29.00715],[-113.52149,29.00689],[-113.5214,29.00696],[-113.52109,29.00594],[-113.52082,29.00563],[-113.52146,29.00447],[-113.52197,29.00408],[-113.52271,29.00396],[-113.523,29.0037],[-113.52318,29.00309],[-113.52303,29.00292],[-113.52308,29.00264],[-113.52362,29.00259],[-113.52414,29.00231],[-113.52436,29.00158],[-113.52439,29.00271],[-113.52426,29.00302],[-113.52441,29.00368],[-113.52404,29.00484],[-113.52373,29.00481],[-113.52387,29.00545],[-113.52375,29.00574],[-113.52344,29.00592],[-113.52339,29.00666],[-113.52283,29.00723],[-113.52225,29.00662],[-113.52198,29.00699]]]},"properties":{"name":"unnamed-land"}},{"type":"Feature","geometry":{"type":"Polygon","coordinates":[[[-113.51083,29.01179],[-113.51073,29.01159],[-113.5111,29.01121],[-113.51291,29.01062],[-113.51407,29.00973],[-113.51538,29.00955],[-113.51573,29.00961],[-113.51593,29.00986],[-113.51608,29.0107],[-113.51517,29.01161],[-113.51456,29.01172],[-113.51281,29.0114],[-113.51261,29.01153],[-113.51223,29.01122],[-113.51198,29.01148],[-113.51131,29.01172],[-113.51203,29.01188],[-113.51205,29.01212],[-113.51137,29.01211],[-113.51107,29.01177],[-113.51083,29.01179]]]},"properties":{"name":"unnamed-land"}},{"type":"Feature","geometry":{"type":"Polygon","coordinates":[[[-113.52811,29.09907],[-113.52752,29.09872],[-113.52728,29.09826],[-113.52767,29.09787],[-113.52904,29.09713],[-113.5296,29.09709],[-113.52911,29.09637],[-113.53074,29.09634],[-113.53039,29.09666],[-113.53044,29.09739],[-113.52992,29.0978],[-113.52994,29.09837],[-113.52947,29.09868],[-113.52811,29.09907]]]},"properties":{"name":"unnamed-land"}},{"type":"Feature","geometry":{"type":"Polygon","coordinates":[[[-113.38383,28.92237],[-113.38426,28.92276],[-113.38514,28.92468],[-113.38469,28.92599],[-113.38371,28.92425],[-113.38358,28.9224],[-113.38383,28.92237]]]},"properties":{"name":"unnamed-land"}},{"type":"Feature","geometry":{"type":"Polygon","coordinates":[[[-113.51835,28.99772],[-113.51856,28.99746],[-113.51846,28.99684],[-113.51879,28.99653],[-113.51824,28.99596],[-113.51807,28.99513],[-113.51859,28.99532],[-113.51902,28.99606],[-113.51986,28.99616],[-113.52007,28.99671],[-113.52062,28.99688],[-113.52071,28.99704],[-113.52067,28.99727],[-113.51998,28.99738],[-113.52008,28.99703],[-113.51976,28.99682],[-113.51944,28.99716],[-113.51953,28.99765],[-113.51899,28.99797],[-113.51835,28.99772]]]},"properties":{"name":"unnamed-land"}},{"type":"Feature","geometry":{"type":"Polygon","coordinates":[[[-113.47372,28.95655],[-113.47382,28.95641],[-113.47359,28.95647],[-113.47357,28.95616],[-113.47425,28.9559],[-113.47596,28.95572],[-113.47644,28.95537],[-113.47718,28.95564],[-113.47741,28.95589],[-113.47726,28.9561],[-113.4753,28.95634],[-113.47446,28.95684],[-113.47372,28.95655]]]},"properties":{"name":"unnamed-land"}},{"type":"Feature","geometry":{"type":"Polygon","coordinates":[[[-113.52483,29.01075],[-113.5251,29.01078],[-113.5253,29.01133],[-113.52529,29.01192],[-113.52486,29.01251],[-113.52509,29.0133],[-113.52468,29.01348],[-113.52438,29.0134],[-113.52401,29.01242],[-113.52421,29.01158],[-113.52483,29.01075]]]},"properties":{"name":"unnamed-land"}},{"type":"Feature","geometry":{"type":"Polygon","coordinates":[[[-113.51966,28.9989],[-113.51967,28.99868],[-113.51993,28.99853],[-113.51997,28.99791],[-113.52013,28.99788],[-113.52059,28.99841],[-113.52124,28.9984],[-113.5209,28.99877],[-113.5211,28.99943],[-113.52034,28.99957],[-113.51966,28.9989]]]},"properties":{"name":"unnamed-land"}},{"type":"Feature","geometry":{"type":"Polygon","coordinates":[[[-113.48297,28.95589],[-113.48309,28.95609],[-113.48284,28.95643],[-113.48229,28.95644],[-113.48062,28.95552],[-113.48099,28.95527],[-113.48297,28.95589]]]},"properties":{"name":"unnamed-land"}}]}