{"type":"FeatureCollection","features":[{"type":"Feature","geometry":{"type":"Polygon","coordinates":[[[-113.339,29.467],[-113.067,29.241],[-113.067,28.767],[-112.784,28.55],[-112.848,28.441],[-112.849,28.442],[-112.85,28.442],[-112.855,28.44],[-112.859,28.44],[-112.859,28.438],[-112.86,28.436],[-112.86,28.434],[-112.863,28.432],[-112.865,28.433],[-112.866,28.432],[-112.862,28.427],[-112.864,28.426],[-112.867,28.425],[-112.868,28.429],[-112.867,28.43],[-112.869,28.431],[-112.869,28.432],[-112.871,28.431],[-112.881,28.434],[-112.883,28.438],[-112.883,28.44],[-112.882,28.441],[-112.88,28.441],[-112.88,28.443],[-112.878,28.447],[-112.875,28.448],[-112.875,28.45],[-112.876,28.45],[-112.877,28.452],[-112.878,28.451],[-112.879,28.451],[-112.881,28.45],[-112.883,28.451],[-112.884,28.452],[-112.883,28.454],[-112.884,28.455],[-112.884,28.456],[-112.884,28.456],[-112.885,28.455],[-112.886,28.455],[-112.888,28.455],[-112.889,28.457],[-112.889,28.457],[-112.888,28.457],[-112.887,28.459],[-112.886,28.463],[-112.888,28.464],[-112.889,28.464],[-112.89,28.465],[-112.894,28.467],[-112.894,28.467],[-112.893,28.468],[-112.894,28.469],[-112.894,28.469],[-112.896,28.47],[-112.896,28.471],[-112.897,28.472],[-112.903,28.474],[-112.903,28.475],[-112.909,28.472],[-112.911,28.471],[-112.915,28.471],[-112.915,28.47],[-112.913,28.47],[-112.913,28.468],[-112.912,28.468],[-112.912,28.466],[-112.911,28.464],[-112.913,28.463],[-112.913,28.463],[-112.915,28.462],[-112.918,28.463],[-112.918,28.465],[-112.919,28.468],[-112.919,28.469],[-112.916,28.47],[-112.915,28.471],[-112.94,28.463],[-112.94,28.463],[-112.94,28.46],[-112.941,28.458],[-112.941,28.456],[-112.944,28.458],[-112.944,28.46],[-112.945,28.461],[-112.944,28.462],[-112.945,28.462],[-112.963,28.458],[-112.975,28.456],[-112.975,28.456],[-112.976,28.455],[-112.975,28.455],[-112.976,28.454],[-112.976,28.454],[-112.979,28.453],[-112.978,28.452],[-112.979,28.45],[-112.979,28.449],[-112.981,28.449],[-112.982,28.451],[-112.981,28.451],[-112.985,28.452],[-112.987,28.453],[-112.986,28.453],[-112.985,28.454],[-112.982,28.454],[-112.983,28.455],[-112.989,28.455],[-112.99,28.455],[-113.002,28.454],[-113.005,28.456],[-113.009,28.456],[-113.016,28.457],[-113.02,28.46],[-113.028,28.461],[-113.029,28.462],[-113.029,28.463],[-113.031,28.464],[-113.036,28.467],[-113.039,28.474],[-113.042,28.476],[-113.057,28.478],[-113.059,28.478],[-113.061,28.48],[-113.075,28.485],[-113.077,28.486],[-113.081,28.49],[-113.081,28.491],[-113.08,28.492],[-113.081,28.494],[-113.087,28.495],[-113.092,28.497],[-113.095,28.5],[-113.097,28.501],[-113.105,28.506],[-113.108,28.512],[-113.11,28.52],[-113.111,28.521],[-113.114,28.526],[-113.114,28.531],[-113.113,28.535],[-113.114,28.539],[-113.113,28.54],[-113.113,28.542],[-113.113,28.548],[-113.115,28.556],[-113.115,28.558],[-113.115,28.558],[-113.115,28.559],[-113.118,28.565],[-113.12,28.567],[-113.121,28.577],[-113.122,28.582],[-113.123,28.583],[-113.125,28.583],[-113.126,28.585],[-113.127,28.583],[-113.133,28.58],[-113.128,28.583],[-113.128,28.584],[-113.128,28.584],[-113.127,28.586],[-113.129,28.592],[-113.131,28.601],[-113.131,28.614],[-113.128,28.629],[-113.131,28.637],[-113.133,28.64],[-113.136,28.637],[-113.138,28.636],[-113.138,28.635],[-113.139,28.635],[-113.143,28.637],[-113.143,28.638],[-113.143,28.639],[-113.143,28.639],[-113.143,28.64],[-113.144,28.641],[-113.143,28.642],[-113.146,28.643],[-113.145,28.644],[-113.144,28.645],[-113.145,28.648],[-113.146,28.648],[-113.148,28.647],[-113.147,28.649],[-113.146,28.65],[-113.151,28.652],[-113.155,28.655],[-113.159,28.66],[-113.161,28.666],[-113.163,28.669],[-113.165,28.673],[-113.165,28.677],[-113.166,28.677],[-113.167,28.678],[-113.169,28.684],[-113.17,28.687],[-113.169,28.689],[-113.169,28.691],[-113.172,28.693],[-113.172,28.694],[-113.173,28.695],[-113.174,28.698],[-113.175,28.7],[-113.175,28.703],[-113.176,28.704],[-113.177,28.704],[-113.178,28.706],[-113.178,28.706],[-113.178,28.707],[-113.177,28.707],[-113.177,28.708],[-113.176,28.709],[-113.177,28.71],[-113.176,28.71],[-113.176,28.712],[-113.176,28.712],[-113.177,28.713],[-113.178,28.714],[-113.182,28.714],[-113.184,28.716],[-113.183,28.718],[-113.186,28.72],[-113.186,28.724],[-113.187,28.725],[-113.186,28.727],[-113.187,28.729],[-113.19,28.73],[-113.19,28.732],[-113.189,28.733],[-113.191,28.737],[-113.193,28.739],[-113.192,28.74],[-113.192,28.741],[-113.194,28.743],[-113.195,28.745],[-113.195,28.748],[-113.195,28.75],[-113.195,28.754],[-113.193,28.757],[-113.193,28.759],[-113.192,28.765],[-113.193,28.766],[-113.195,28.773],[-113.198,28.775],[-113.199,28.779],[-113.199,28.783],[-113.198,28.786],[-113.197,28.792],[-113.199,28.794],[-113.201,28.797],[-113.202,28.798],[-113.203,28.796],[-113.204,28.795],[-113.205,28.794],[-113.206,28.794],[-113.205,28.795],[-113.206,28.796],[-113.206,28.797],[-113.204,28.798],[-113.207,28.799],[-113.213,28.803],[-113.215,28.808],[-113.214,28.812],[-113.216,28.813],[-113.215,28.815],[-113.215,28.815],[-113.216,28.816],[-113.216,28.819],[-113.221,28.825],[-113.223,28.826],[-113.226,28.827],[-113.231,28.828],[-113.233,28.831],[-113.234,28.835],[-113.236,28.835],[-113.239,28.835],[-113.24,28.834],[-113.241,28.834],[-113.243,28.834],[-113.245,28.835],[-113.244,28.837],[-113.246,28.839],[-113.247,28.838],[-113.247,28.836],[-113.25,28.837],[-113.251,28.838],[-113.25,28.839],[-113.252,28.84],[-113.254,28.839],[-113.26,28.841],[-113.261,28.839],[-113.264,28.837],[-113.266,28.833],[-113.27,28.831],[-113.273,28.83],[-113.274,28.831],[-113.276,28.83],[-113.277,28.831],[-113.283,28.828],[-113.284,28.827],[-113.287,28.826],[-113.287,28.825],[-113.286,28.825],[-113.286,28.824],[-113.285,28.821],[-113.285,28.82],[-113.289,28.818],[-113.291,28.819],[-113.295,28.818],[-113.295,28.818],[-113.295,28.814],[-113.3,28.811],[-113.302,28.812],[-113.302,28.809],[-113.307,28.808],[-113.308,28.805],[-113.312,28.803],[-113.31,28.799],[-113.308,28.796],[-113.309,28.794],[-113.308,28.793],[-113.308,28.791],[-113.31,28.791],[-113.31,28.79],[-113.308,28.789],[-113.307,28.787],[-113.308,28.787],[-113.31,28.787],[-113.31,28.785],[-113.312,28.786],[-113.313,28.784],[-113.312,28.782],[-113.312,28.781],[-113.314,28.784],[-113.315,28.783],[-113.316,28.785],[-113.317,28.786],[-113.318,28.788],[-113.319,28.787],[-113.32,28.787],[-113.319,28.788],[-113.321,28.79],[-113.321,28.791],[-113.322,28.793],[-113.321,28.794],[-113.322,28.795],[-113.322,28.796],[-113.323,28.795],[-113.324,28.796],[-113.326,28.794],[-113.327,28.794],[-113.326,28.796],[-113.322,28.798],[-113.325,28.8],[-113.333,28.8],[-113.333,28.797],[-113.333,28.797],[-113.334,28.798],[-113.334,28.798],[-113.335,28.795],[-113.335,28.789],[-113.336,28.792],[-113.336,28.791],[-113.337,28.791],[-113.337,28.793],[-113.337,28.797],[-113.335,28.799],[-113.337,28.8],[-113.346,28.8],[-113.345,28.8],[-113.343,28.799],[-113.341,28.799],[-113.339,28.797],[-113.339,28.797],[-113.342,28.797],[-113.342,28.797],[-113.341,28.795],[-113.341,28.793],[-113.342,28.792],[-113.343,28.792],[-113.344,28.794],[-113.346,28.795],[-113.346,28.794],[-113.347,28.793],[-113.347,28.794],[-113.348,28.794],[-113.349,28.795],[-113.35,28.794],[-113.351,28.797],[-113.351,28.798],[-113.35,28.797],[-113.349,28.798],[-113.354,28.799],[-113.356,28.801],[-113.355,28.806],[-113.355,28.808],[-113.359,28.811],[-113.362,28.817],[-113.365,28.818],[-113.366,28.82],[-113.367,28.821],[-113.367,28.822],[-113.365,28.823],[-113.367,28.827],[-113.371,28.837],[-113.37,28.844],[-113.369,28.85],[-113.371,28.86],[-113.371,28.862],[-113.369,28.863],[-113.369,28.865],[-113.367,28.868],[-113.366,28.871],[-113.359,28.873],[-113.358,28.874],[-113.362,28.876],[-113.364,28.875],[-113.368,28.877],[-113.373,28.886],[-113.375,28.889],[-113.379,28.891],[-113.381,28.894],[-113.381,28.899],[-113.379,28.902],[-113.378,28.903],[-113.376,28.901],[-113.373,28.902],[-113.371,28.903],[-113.37,28.902],[-113.37,28.904],[-113.368,28.904],[-113.369,28.905],[-113.372,28.905],[-113.373,28.907],[-113.374,28.908],[-113.375,28.909],[-113.376,28.908],[-113.379,28.909],[-113.38,28.91],[-113.381,28.909],[-113.383,28.909],[-113.386,28.91],[-113.387,28.91],[-113.39,28.912],[-113.392,28.912],[-113.394,28.913],[-113.395,28.915],[-113.395,28.921],[-113.392,28.929],[-113.391,28.931],[-113.39,28.931],[-113.387,28.929],[-113.386,28.93],[-113.387,28.931],[-113.386,28.933],[-113.385,28.933],[-113.383,28.936],[-113.386,28.936],[-113.386,28.938],[-113.386,28.939],[-113.387,28.94],[-113.391,28.938],[-113.393,28.938],[-113.394,28.937],[-113.396,28.937],[-113.397,28.937],[-113.398,28.935],[-113.401,28.935],[-113.405,28.933],[-113.405,28.931],[-113.404,28.93],[-113.404,28.929],[-113.403,28.926],[-113.405,28.925],[-113.412,28.923],[-113.417,28.924],[-113.424,28.928],[-113.424,28.931],[-113.427,28.932],[-113.429,28.935],[-113.429,28.936],[-113.43,28.935],[-113.432,28.936],[-113.431,28.937],[-113.43,28.937],[-113.43,28.938],[-113.428,28.938],[-113.426,28.939],[-113.427,28.944],[-113.426,28.945],[-113.426,28.946],[-113.426,28.948],[-113.426,28.949],[-113.428,28.951],[-113.434,28.952],[-113.433,28.954],[-113.434,28.955],[-113.434,28.957],[-113.438,28.959],[-113.439,28.959],[-113.438,28.956],[-113.439,28.954],[-113.44,28.95],[-113.441,28.948],[-113.446,28.946],[-113.447,28.945],[-113.447,28.943],[-113.446,28.943],[-113.446,28.942],[-113.445,28.941],[-113.448,28.939],[-113.449,28.94],[-113.45,28.939],[-113.453,28.939],[-113.455,28.942],[-113.456,28.944],[-113.46,28.943],[-113.47,28.949],[-113.473,28.947],[-113.476,28.948],[-113.48,28.947],[-113.476,28.946],[-113.474,28.944],[-113.474,28.943],[-113.475,28.942],[-113.481,28.942],[-113.481,28.94],[-113.483,28.938],[-113.481,28.937],[-113.48,28.932],[-113.481,28.931],[-113.486,28.932],[-113.486,28.929],[-113.487,28.929],[-113.487,28.928],[-113.486,28.927],[-113.486,28.926],[-113.483,28.925],[-113.484,28.923],[-113.483,28.921],[-113.481,28.921],[-113.48,28.92],[-113.481,28.919],[-113.477,28.92],[-113.477,28.918],[-113.472,28.917],[-113.471,28.914],[-113.471,28.913],[-113.473,28.912],[-113.473,28.91],[-113.475,28.907],[-113.474,28.906],[-113.475,28.905],[-113.478,28.902],[-113.479,28.9],[-113.477,28.898],[-113.477,28.896],[-113.48,28.893],[-113.482,28.892],[-113.481,28.892],[-113.482,28.89],[-113.486,28.884],[-113.49,28.883],[-113.491,28.884],[-113.492,28.884],[-113.493,28.884],[-113.494,28.883],[-113.495,28.883],[-113.496,28.885],[-113.497,28.885],[-113.497,28.886],[-113.498,28.886],[-113.497,28.888],[-113.492,28.89],[-113.504,28.889],[-113.515,28.889],[-113.522,28.891],[-113.527,28.893],[-113.527,28.9],[-113.532,28.904],[-113.534,28.905],[-113.536,28.907],[-113.536,28.91],[-113.538,28.912],[-113.54,28.918],[-113.542,28.92],[-113.544,28.921],[-113.546,28.923],[-113.547,28.928],[-113.549,28.93],[-113.548,28.931],[-113.548,28.933],[-113.551,28.936],[-113.553,28.94],[-113.557,28.945],[-113.558,28.947],[-113.558,28.951],[-113.558,28.954],[-113.55,28.959],[-113.547,28.963],[-113.547,28.964],[-113.546,28.965],[-113.547,28.967],[-113.546,28.969],[-113.546,28.974],[-113.548,28.985],[-113.549,28.987],[-113.551,28.991],[-113.558,28.996],[-113.561,28.999],[-113.563,29.003],[-113.563,29.007],[-113.563,29.013],[-113.562,29.02],[-113.56,29.024],[-113.556,29.029],[-113.553,29.036],[-113.553,29.036],[-113.551,29.039],[-113.549,29.041],[-113.546,29.041],[-113.546,29.041],[-113.544,29.042],[-113.543,29.043],[-113.539,29.041],[-113.538,29.043],[-113.539,29.046],[-113.538,29.049],[-113.538,29.051],[-113.539,29.052],[-113.539,29.054],[-113.54,29.056],[-113.539,29.058],[-113.541,29.06],[-113.543,29.062],[-113.543,29.064],[-113.546,29.064],[-113.548,29.065],[-113.551,29.068],[-113.552,29.07],[-113.551,29.072],[-113.552,29.074],[-113.556,29.077],[-113.556,29.08],[-113.557,29.08],[-113.558,29.082],[-113.56,29.083],[-113.563,29.086],[-113.564,29.09],[-113.566,29.092],[-113.567,29.095],[-113.567,29.098],[-113.568,29.1],[-113.567,29.106],[-113.568,29.107],[-113.571,29.107],[-113.572,29.11],[-113.573,29.113],[-113.572,29.116],[-113.577,29.119],[-113.58,29.121],[-113.581,29.125],[-113.583,29.127],[-113.586,29.128],[-113.59,29.128],[-113.593,29.13],[-113.598,29.138],[-113.604,29.144],[-113.606,29.147],[-113.606,29.149],[-113.609,29.156],[-113.608,29.162],[-113.61,29.164],[-113.611,29.164],[-113.611,29.161],[-113.613,29.159],[-113.62,29.16],[-113.623,29.161],[-113.625,29.164],[-113.625,29.167],[-113.625,29.167],[-113.625,29.168],[-113.626,29.168],[-113.625,29.17],[-113.628,29.175],[-113.629,29.175],[-113.63,29.173],[-113.63,29.17],[-113.632,29.169],[-113.632,29.171],[-113.633,29.171],[-113.636,29.173],[-113.636,29.176],[-113.638,29.176],[-113.64,29.175],[-113.639,29.173],[-113.642,29.174],[-113.641,29.175],[-113.643,29.176],[-113.644,29.176],[-113.644,29.175],[-113.646,29.176],[-113.647,29.174],[-113.648,29.176],[-113.649,29.174],[-113.649,29.175],[-113.649,29.176],[-113.647,29.177],[-113.647,29.182],[-113.648,29.183],[-113.647,29.184],[-113.647,29.184],[-113.646,29.185],[-113.646,29.186],[-113.644,29.187],[-113.643,29.186],[-113.641,29.188],[-113.641,29.19],[-113.64,29.191],[-113.639,29.194],[-113.64,29.195],[-113.64,29.198],[-113.641,29.199],[-113.641,29.2],[-113.643,29.2],[-113.645,29.201],[-113.646,29.203],[-113.649,29.203],[-113.656,29.206],[-113.658,29.212],[-113.657,29.217],[-113.655,29.223],[-113.653,29.225],[-113.648,29.228],[-113.644,29.232],[-113.641,29.239],[-113.637,29.243],[-113.634,29.247],[-113.626,29.253],[-113.626,29.256],[-113.627,29.255],[-113.63,29.251],[-113.631,29.25],[-113.632,29.251],[-113.633,29.254],[-113.631,29.255],[-113.63,29.257],[-113.63,29.259],[-113.631,29.261],[-113.632,29.264],[-113.632,29.269],[-113.633,29.272],[-113.633,29.274],[-113.637,29.28],[-113.638,29.283],[-113.644,29.286],[-113.647,29.292],[-113.651,29.295],[-113.657,29.297],[-113.659,29.3],[-113.658,29.302],[-113.659,29.301],[-113.661,29.302],[-113.662,29.302],[-113.664,29.303],[-113.668,29.304],[-113.675,29.308],[-113.674,29.309],[-113.677,29.311],[-113.678,29.313],[-113.681,29.316],[-113.684,29.317],[-113.685,29.319],[-113.69,29.32],[-113.691,29.322],[-113.693,29.323],[-113.697,29.325],[-113.699,29.33],[-113.704,29.335],[-113.706,29.339],[-113.708,29.34],[-113.708,29.341],[-113.71,29.342],[-113.711,29.345],[-113.715,29.346],[-113.715,29.348],[-113.717,29.349],[-113.718,29.351],[-113.72,29.353],[-113.72,29.355],[-113.722,29.357],[-113.724,29.362],[-113.726,29.364],[-113.727,29.366],[-113.731,29.367],[-113.735,29.371],[-113.742,29.375],[-113.742,29.377],[-113.745,29.378],[-113.747,29.38],[-113.751,29.381],[-113.755,29.386],[-113.762,29.391],[-113.764,29.395],[-113.767,29.397],[-113.767,29.398],[-113.769,29.399],[-113.771,29.404],[-113.771,29.407],[-113.772,29.409],[-113.773,29.409],[-113.774,29.41],[-113.774,29.411],[-113.778,29.412],[-113.779,29.412],[-113.786,29.413],[-113.787,29.414],[-113.787,29.416],[-113.788,29.417],[-113.795,29.417],[-113.798,29.417],[-113.8,29.419],[-113.802,29.423],[-113.806,29.425],[-113.81,29.426],[-113.812,29.427],[-113.823,29.428],[-113.826,29.429],[-113.832,29.435],[-113.832,29.438],[-113.833,29.442],[-113.832,29.445],[-113.833,29.446],[-113.832,29.449],[-113.833,29.452],[-113.835,29.453],[-113.836,29.455],[-113.594,29.678],[-113.339,29.467]],[[-113.568,29.564],[-113.572,29.563],[-113.573,29.563],[-113.579,29.561],[-113.579,29.558],[-113.577,29.556],[-113.575,29.549],[-113.576,29.546],[-113.575,29.547],[-113.573,29.548],[-113.572,29.549],[-113.571,29.549],[-113.569,29.55],[-113.566,29.55],[-113.565,29.552],[-113.564,29.553],[-113.563,29.555],[-113.564,29.557],[-113.563,29.557],[-113.563,29.558],[-113.562,29.559],[-113.562,29.559],[-113.562,29.557],[-113.561,29.557],[-113.562,29.559],[-113.56,29.561],[-113.565,29.562],[-113.566,29.566],[-113.568,29.564]],[[-113.539,29.566],[-113.541,29.565],[-113.543,29.566],[-113.545,29.565],[-113.544,29.565],[-113.544,29.564],[-113.54,29.564],[-113.538,29.563],[-113.535,29.563],[-113.534,29.562],[-113.534,29.564],[-113.535,29.564],[-113.539,29.566]],[[-113.561,29.557],[-113.561,29.557],[-113.561,29.557],[-113.561,29.557]],[[-113.561,29.555],[-113.56,29.556],[-113.561,29.557],[-113.561,29.556],[-113.561,29.555]],[[-113.558,29.555],[-113.559,29.554],[-113.558,29.553],[-113.558,29.551],[-113.56,29.551],[-113.56,29.55],[-113.559,29.549],[-113.559,29.547],[-113.558,29.548],[-113.557,29.552],[-113.558,29.555]],[[-113.517,29.552],[-113.526,29.55],[-113.524,29.549],[-113.524,29.547],[-113.525,29.546],[-113.524,29.544],[-113.525,29.543],[-113.527,29.543],[-113.526,29.542],[-113.528,29.541],[-113.529,29.542],[-113.531,29.54],[-113.532,29.541],[-113.534,29.54],[-113.535,29.538],[-113.537,29.538],[-113.538,29.539],[-113.539,29.539],[-113.539,29.538],[-113.541,29.538],[-113.54,29.537],[-113.541,29.536],[-113.542,29.535],[-113.544,29.534],[-113.549,29.534],[-113.553,29.534],[-113.553,29.535],[-113.553,29.538],[-113.554,29.535],[-113.556,29.534],[-113.557,29.534],[-113.557,29.535],[-113.559,29.535],[-113.561,29.537],[-113.56,29.538],[-113.561,29.539],[-113.561,29.541],[-113.56,29.541],[-113.558,29.544],[-113.559,29.546],[-113.56,29.545],[-113.563,29.543],[-113.565,29.543],[-113.565,29.542],[-113.567,29.54],[-113.569,29.541],[-113.571,29.539],[-113.572,29.538],[-113.572,29.537],[-113.572,29.535],[-113.569,29.533],[-113.568,29.529],[-113.568,29.528],[-113.57,29.526],[-113.57,29.525],[-113.571,29.525],[-113.572,29.522],[-113.572,29.522],[-113.571,29.522],[-113.569,29.522],[-113.568,29.519],[-113.569,29.517],[-113.57,29.517],[-113.57,29.516],[-113.567,29.514],[-113.564,29.512],[-113.563,29.505],[-113.564,29.503],[-113.566,29.503],[-113.566,29.501],[-113.568,29.498],[-113.567,29.496],[-113.568,29.494],[-113.567,29.492],[-113.568,29.491],[-113.568,29.489],[-113.57,29.487],[-113.57,29.485],[-113.572,29.484],[-113.572,29.484],[-113.573,29.483],[-113.574,29.482],[-113.575,29.481],[-113.575,29.478],[-113.576,29.477],[-113.575,29.476],[-113.576,29.473],[-113.576,29.472],[-113.577,29.469],[-113.582,29.465],[-113.584,29.464],[-113.584,29.463],[-113.585,29.462],[-113.585,29.461],[-113.584,29.461],[-113.585,29.46],[-113.586,29.459],[-113.589,29.456],[-113.589,29.455],[-113.591,29.454],[-113.592,29.451],[-113.591,29.447],[-113.594,29.438],[-113.591,29.436],[-113.591,29.433],[-113.589,29.429],[-113.589,29.426],[-113.59,29.424],[-113.591,29.423],[-113.591,29.42],[-113.592,29.418],[-113.59,29.417],[-113.591,29.415],[-113.59,29.413],[-113.59,29.412],[-113.589,29.41],[-113.589,29.409],[-113.58,29.404],[-113.573,29.402],[-113.57,29.4],[-113.566,29.392],[-113.562,29.389],[-113.561,29.387],[-113.557,29.386],[-113.557,29.379],[-113.556,29.377],[-113.552,29.376],[-113.549,29.373],[-113.545,29.372],[-113.545,29.37],[-113.543,29.369],[-113.544,29.368],[-113.542,29.367],[-113.541,29.364],[-113.54,29.362],[-113.539,29.357],[-113.538,29.356],[-113.538,29.356],[-113.535,29.355],[-113.534,29.354],[-113.532,29.353],[-113.531,29.352],[-113.53,29.347],[-113.529,29.346],[-113.528,29.342],[-113.526,29.337],[-113.526,29.335],[-113.52,29.333],[-113.516,29.33],[-113.514,29.33],[-113.512,29.327],[-113.509,29.326],[-113.507,29.323],[-113.506,29.319],[-113.505,29.317],[-113.505,29.315],[-113.506,29.314],[-113.504,29.313],[-113.505,29.31],[-113.502,29.307],[-113.502,29.298],[-113.501,29.295],[-113.501,29.293],[-113.5,29.293],[-113.499,29.291],[-113.497,29.29],[-113.496,29.288],[-113.497,29.284],[-113.494,29.284],[-113.486,29.281],[-113.48,29.282],[-113.476,29.28],[-113.474,29.278],[-113.472,29.278],[-113.469,29.28],[-113.464,29.281],[-113.462,29.281],[-113.46,29.279],[-113.458,29.279],[-113.457,29.278],[-113.455,29.278],[-113.454,29.28],[-113.45,29.28],[-113.448,29.279],[-113.444,29.276],[-113.443,29.276],[-113.439,29.27],[-113.436,29.264],[-113.435,29.261],[-113.434,29.26],[-113.434,29.259],[-113.433,29.259],[-113.431,29.26],[-113.428,29.258],[-113.427,29.251],[-113.428,29.248],[-113.429,29.247],[-113.431,29.247],[-113.43,29.243],[-113.428,29.241],[-113.422,29.237],[-113.422,29.232],[-113.419,29.23],[-113.418,29.227],[-113.415,29.226],[-113.414,29.223],[-113.412,29.222],[-113.411,29.22],[-113.41,29.217],[-113.404,29.213],[-113.404,29.209],[-113.399,29.207],[-113.398,29.205],[-113.396,29.204],[-113.394,29.202],[-113.387,29.198],[-113.386,29.196],[-113.381,29.196],[-113.374,29.192],[-113.37,29.192],[-113.367,29.189],[-113.364,29.188],[-113.36,29.184],[-113.359,29.18],[-113.356,29.177],[-113.356,29.174],[-113.355,29.173],[-113.353,29.171],[-113.351,29.17],[-113.351,29.169],[-113.347,29.167],[-113.345,29.167],[-113.343,29.164],[-113.337,29.164],[-113.335,29.162],[-113.333,29.16],[-113.332,29.16],[-113.333,29.161],[-113.333,29.162],[-113.332,29.163],[-113.331,29.163],[-113.33,29.161],[-113.329,29.162],[-113.328,29.161],[-113.327,29.159],[-113.325,29.158],[-113.325,29.158],[-113.324,29.157],[-113.321,29.158],[-113.319,29.157],[-113.318,29.154],[-113.317,29.154],[-113.315,29.15],[-113.313,29.148],[-113.308,29.147],[-113.305,29.147],[-113.3,29.145],[-113.299,29.142],[-113.298,29.137],[-113.297,29.137],[-113.295,29.137],[-113.294,29.136],[-113.293,29.133],[-113.291,29.131],[-113.286,29.129],[-113.286,29.128],[-113.28,29.122],[-113.279,29.12],[-113.277,29.119],[-113.276,29.116],[-113.274,29.115],[-113.274,29.113],[-113.271,29.11],[-113.269,29.109],[-113.267,29.108],[-113.265,29.107],[-113.265,29.105],[-113.264,29.105],[-113.263,29.103],[-113.263,29.101],[-113.262,29.098],[-113.262,29.097],[-113.261,29.095],[-113.26,29.093],[-113.259,29.092],[-113.257,29.089],[-113.256,29.087],[-113.253,29.087],[-113.251,29.085],[-113.25,29.084],[-113.25,29.082],[-113.249,29.082],[-113.25,29.081],[-113.25,29.08],[-113.249,29.078],[-113.247,29.077],[-113.249,29.073],[-113.247,29.072],[-113.245,29.069],[-113.244,29.069],[-113.244,29.067],[-113.241,29.067],[-113.239,29.065],[-113.235,29.063],[-113.234,29.062],[-113.232,29.061],[-113.23,29.059],[-113.225,29.06],[-113.222,29.06],[-113.219,29.056],[-113.216,29.055],[-113.213,29.052],[-113.207,29.051],[-113.204,29.049],[-113.201,29.048],[-113.198,29.046],[-113.197,29.04],[-113.194,29.037],[-113.192,29.032],[-113.19,29.031],[-113.19,29.03],[-113.188,29.029],[-113.186,29.029],[-113.18,29.027],[-113.177,29.026],[-113.176,29.024],[-113.167,29.02],[-113.162,29.019],[-113.159,29.017],[-113.157,29.016],[-113.154,29.014],[-113.152,29.011],[-113.15,29.006],[-113.15,29.006],[-113.148,29.004],[-113.142,29.004],[-113.136,29.001],[-113.133,28.996],[-113.124,28.991],[-113.123,28.989],[-113.123,28.988],[-113.122,28.987],[-113.116,28.987],[-113.117,28.993],[-113.116,29.002],[-113.117,29.002],[-113.117,29.003],[-113.115,29.012],[-113.116,29.022],[-113.115,29.03],[-113.113,29.035],[-113.108,29.043],[-113.106,29.048],[-113.103,29.053],[-113.102,29.055],[-113.101,29.056],[-113.101,29.056],[-113.103,29.055],[-113.107,29.056],[-113.11,29.055],[-113.121,29.056],[-113.123,29.058],[-113.124,29.057],[-113.126,29.058],[-113.125,29.06],[-113.126,29.061],[-113.133,29.062],[-113.142,29.063],[-113.145,29.064],[-113.15,29.067],[-113.15,29.069],[-113.152,29.071],[-113.154,29.073],[-113.157,29.08],[-113.156,29.083],[-113.157,29.089],[-113.154,29.094],[-113.156,29.099],[-113.163,29.105],[-113.165,29.109],[-113.165,29.11],[-113.165,29.113],[-113.167,29.114],[-113.17,29.118],[-113.171,29.12],[-113.172,29.121],[-113.175,29.128],[-113.175,29.137],[-113.174,29.139],[-113.173,29.146],[-113.174,29.147],[-113.174,29.153],[-113.175,29.157],[-113.174,29.16],[-113.175,29.162],[-113.173,29.17],[-113.173,29.176],[-113.171,29.183],[-113.167,29.189],[-113.167,29.191],[-113.172,29.194],[-113.173,29.197],[-113.173,29.205],[-113.172,29.209],[-113.175,29.215],[-113.175,29.219],[-113.174,29.22],[-113.173,29.226],[-113.173,29.227],[-113.175,29.228],[-113.177,29.232],[-113.178,29.235],[-113.178,29.239],[-113.179,29.241],[-113.179,29.248],[-113.177,29.253],[-113.178,29.254],[-113.178,29.258],[-113.178,29.26],[-113.178,29.263],[-113.177,29.264],[-113.177,29.264],[-113.174,29.269],[-113.172,29.273],[-113.168,29.276],[-113.168,29.279],[-113.169,29.28],[-113.172,29.282],[-113.174,29.283],[-113.176,29.284],[-113.178,29.285],[-113.179,29.285],[-113.181,29.288],[-113.181,29.289],[-113.183,29.289],[-113.185,29.288],[-113.186,29.289],[-113.186,29.288],[-113.189,29.288],[-113.189,29.288],[-113.192,29.289],[-113.193,29.288],[-113.194,29.288],[-113.194,29.288],[-113.196,29.288],[-113.199,29.285],[-113.201,29.286],[-113.202,29.287],[-113.203,29.285],[-113.208,29.285],[-113.217,29.287],[-113.22,29.288],[-113.229,29.289],[-113.234,29.289],[-113.238,29.289],[-113.24,29.289],[-113.244,29.286],[-113.249,29.286],[-113.25,29.285],[-113.253,29.285],[-113.256,29.283],[-113.26,29.283],[-113.261,29.284],[-113.261,29.29],[-113.264,29.288],[-113.265,29.289],[-113.267,29.289],[-113.268,29.287],[-113.268,29.286],[-113.27,29.285],[-113.275,29.285],[-113.276,29.287],[-113.275,29.29],[-113.276,29.29],[-113.276,29.288],[-113.277,29.288],[-113.281,29.287],[-113.281,29.289],[-113.282,29.289],[-113.284,29.285],[-113.286,29.285],[-113.289,29.281],[-113.29,29.282],[-113.296,29.281],[-113.298,29.283],[-113.299,29.285],[-113.301,29.287],[-113.304,29.291],[-113.313,29.29],[-113.325,29.293],[-113.338,29.294],[-113.347,29.296],[-113.35,29.298],[-113.351,29.299],[-113.355,29.301],[-113.36,29.305],[-113.365,29.307],[-113.368,29.309],[-113.371,29.312],[-113.369,29.315],[-113.37,29.318],[-113.372,29.32],[-113.371,29.322],[-113.37,29.322],[-113.37,29.324],[-113.371,29.325],[-113.372,29.329],[-113.371,29.331],[-113.372,29.335],[-113.376,29.344],[-113.376,29.35],[-113.375,29.354],[-113.373,29.355],[-113.37,29.359],[-113.367,29.361],[-113.367,29.363],[-113.364,29.366],[-113.364,29.371],[-113.362,29.374],[-113.361,29.374],[-113.36,29.377],[-113.358,29.377],[-113.357,29.38],[-113.355,29.381],[-113.352,29.383],[-113.352,29.387],[-113.361,29.393],[-113.363,29.396],[-113.364,29.397],[-113.362,29.398],[-113.362,29.401],[-113.363,29.402],[-113.364,29.404],[-113.366,29.406],[-113.367,29.407],[-113.366,29.408],[-113.369,29.412],[-113.37,29.417],[-113.371,29.419],[-113.373,29.42],[-113.373,29.422],[-113.374,29.424],[-113.379,29.429],[-113.381,29.43],[-113.384,29.433],[-113.384,29.437],[-113.385,29.439],[-113.385,29.444],[-113.392,29.448],[-113.394,29.451],[-113.393,29.455],[-113.393,29.459],[-113.395,29.46],[-113.4,29.46],[-113.407,29.461],[-113.407,29.462],[-113.409,29.463],[-113.41,29.465],[-113.414,29.465],[-113.417,29.467],[-113.417,29.47],[-113.421,29.472],[-113.426,29.474],[-113.426,29.477],[-113.428,29.484],[-113.428,29.487],[-113.43,29.49],[-113.431,29.492],[-113.435,29.493],[-113.437,29.497],[-113.438,29.498],[-113.44,29.5],[-113.442,29.5],[-113.442,29.502],[-113.443,29.502],[-113.443,29.503],[-113.444,29.503],[-113.445,29.504],[-113.445,29.504],[-113.446,29.506],[-113.447,29.507],[-113.453,29.508],[-113.454,29.511],[-113.456,29.511],[-113.456,29.513],[-113.458,29.514],[-113.46,29.517],[-113.461,29.517],[-113.462,29.518],[-113.468,29.519],[-113.468,29.52],[-113.47,29.52],[-113.47,29.521],[-113.471,29.521],[-113.472,29.525],[-113.472,29.524],[-113.474,29.524],[-113.477,29.526],[-113.477,29.527],[-113.476,29.531],[-113.479,29.532],[-113.479,29.532],[-113.485,29.532],[-113.487,29.533],[-113.488,29.533],[-113.49,29.534],[-113.492,29.533],[-113.494,29.533],[-113.497,29.534],[-113.498,29.535],[-113.502,29.536],[-113.503,29.536],[-113.505,29.538],[-113.508,29.537],[-113.511,29.537],[-113.513,29.539],[-113.513,29.542],[-113.511,29.547],[-113.512,29.549],[-113.512,29.55],[-113.517,29.552]],[[-113.478,29.532],[-113.478,29.532],[-113.478,29.532],[-113.478,29.532]],[[-113.201,29.287],[-113.201,29.287],[-113.201,29.287],[-113.201,29.287]],[[-113.083,29.069],[-113.095,29.067],[-113.097,29.066],[-113.098,29.064],[-113.097,29.064],[-113.097,29.065],[-113.096,29.066],[-113.093,29.065],[-113.093,29.065],[-113.094,29.063],[-113.095,29.062],[-113.096,29.062],[-113.097,29.062],[-113.097,29.062],[-113.095,29.062],[-113.093,29.063],[-113.089,29.062],[-113.087,29.062],[-113.085,29.063],[-113.083,29.067],[-113.083,29.068],[-113.083,29.069]],[[-113.097,29.062],[-113.098,29.061],[-113.098,29.061],[-113.097,29.062]],[[-113.478,28.966],[-113.476,28.967],[-113.475,28.969],[-113.477,28.974],[-113.478,28.976],[-113.485,28.979],[-113.485,28.977],[-113.481,28.974],[-113.482,28.972],[-113.481,28.967],[-113.478,28.966]],[[-113.483,28.967],[-113.483,28.967],[-113.483,28.967],[-113.483,28.967]],[[-113.511,28.989],[-113.509,28.992],[-113.509,28.993],[-113.509,28.992],[-113.508,28.993],[-113.508,28.993],[-113.509,28.993],[-113.507,28.993],[-113.506,28.992],[-113.508,28.991],[-113.508,28.99],[-113.507,28.991],[-113.507,28.99],[-113.506,28.991],[-113.505,28.992],[-113.505,28.992],[-113.504,28.993],[-113.502,28.994],[-113.503,28.995],[-113.503,28.997],[-113.506,28.998],[-113.508,29.001],[-113.511,29.002],[-113.513,29.003],[-113.516,29.002],[-113.513,29.001],[-113.512,29.0],[-113.513,28.999],[-113.514,28.998],[-113.516,29.0],[-113.515,28.996],[-113.516,28.996],[-113.516,28.994],[-113.515,28.993],[-113.514,28.993],[-113.514,28.991],[-113.513,28.992],[-113.511,28.989]],[[-113.518,28.995],[-113.519,28.998],[-113.519,28.998],[-113.52,28.997],[-113.521,28.997],[-113.518,28.995]],[[-113.52,28.998],[-113.52,28.999],[-113.521,28.999],[-113.521,28.998],[-113.52,28.998]],[[-113.524,29.002],[-113.524,29.002],[-113.524,29.002],[-113.524,29.002]],[[-113.524,29.002],[-113.523,29.003],[-113.523,29.004],[-113.521,29.004],[-113.521,29.006],[-113.522,29.007],[-113.523,29.007],[-113.524,29.004],[-113.524,29.002]],[[-113.463,29.012],[-113.461,29.014],[-113.46,29.013],[-113.46,29.014],[-113.461,29.016],[-113.464,29.02],[-113.464,29.021],[-113.466,29.023],[-113.47,29.024],[-113.468,29.021],[-113.469,29.019],[-113.468,29.019],[-113.468,29.017],[-113.467,29.016],[-113.467,29.014],[-113.465,29.013],[-113.465,29.014],[-113.464,29.014],[-113.463,29.012]],[[-113.515,29.009],[-113.511,29.011],[-113.511,29.012],[-113.515,29.012],[-113.516,29.011],[-113.515,29.009]],[[-113.525,29.011],[-113.524,29.012],[-113.525,29.013],[-113.525,29.013],[-113.525,29.011],[-113.525,29.011]],[[-113.516,29.013],[-113.512,29.014],[-113.512,29.013],[-113.511,29.014],[-113.513,29.015],[-113.514,29.017],[-113.516,29.015],[-113.516,29.013]],[[-113.522,29.014],[-113.522,29.014],[-113.522,29.014],[-113.522,29.014]],[[-113.505,29.015],[-113.507,29.014],[-113.507,29.014],[-113.505,29.014],[-113.505,29.015]],[[-113.495,29.037],[-113.491,29.038],[-113.489,29.038],[-113.492,29.038],[-113.491,29.038],[-113.494,29.039],[-113.493,29.039],[-113.494,29.04],[-113.494,29.04],[-113.496,29.041],[-113.497,29.043],[-113.496,29.044],[-113.496,29.046],[-113.497,29.047],[-113.5,29.049],[-113.501,29.048],[-113.503,29.049],[-113.503,29.051],[-113.5,29.052],[-113.499,29.055],[-113.503,29.059],[-113.505,29.063],[-113.504,29.067],[-113.506,29.069],[-113.503,29.074],[-113.503,29.076],[-113.503,29.077],[-113.507,29.079],[-113.508,29.08],[-113.506,29.084],[-113.502,29.088],[-113.502,29.09],[-113.506,29.094],[-113.508,29.095],[-113.509,29.095],[-113.509,29.096],[-113.51,29.095],[-113.51,29.096],[-113.512,29.096],[-113.513,29.096],[-113.524,29.095],[-113.527,29.096],[-113.527,29.094],[-113.527,29.092],[-113.524,29.087],[-113.524,29.084],[-113.522,29.082],[-113.522,29.078],[-113.52,29.077],[-113.519,29.077],[-113.518,29.078],[-113.515,29.077],[-113.514,29.074],[-113.515,29.073],[-113.516,29.073],[-113.515,29.072],[-113.516,29.071],[-113.515,29.069],[-113.514,29.068],[-113.514,29.067],[-113.513,29.065],[-113.512,29.065],[-113.513,29.065],[-113.513,29.064],[-113.512,29.063],[-113.511,29.064],[-113.511,29.063],[-113.51,29.062],[-113.509,29.06],[-113.511,29.058],[-113.513,29.057],[-113.514,29.054],[-113.514,29.052],[-113.51,29.05],[-113.509,29.048],[-113.507,29.048],[-113.506,29.046],[-113.503,29.046],[-113.504,29.044],[-113.506,29.044],[-113.507,29.042],[-113.507,29.042],[-113.506,29.041],[-113.507,29.041],[-113.505,29.039],[-113.503,29.039],[-113.501,29.039],[-113.499,29.038],[-113.497,29.038],[-113.495,29.037]],[[-113.513,29.062],[-113.513,29.061],[-113.513,29.061],[-113.512,29.062],[-113.513,29.062]],[[-113.511,29.063],[-113.511,29.063],[-113.511,29.063],[-113.511,29.063]],[[-113.513,29.064],[-113.513,29.064],[-113.513,29.064],[-113.513,29.064]],[[-113.519,29.068],[-113.519,29.069],[-113.522,29.07],[-113.52,29.068],[-113.518,29.065],[-113.515,29.065],[-113.516,29.067],[-113.519,29.068]],[[-113.497,29.054],[-113.497,29.054],[-113.497,29.055],[-113.497,29.054]],[[-113.531,29.096],[-113.529,29.096],[-113.53,29.097],[-113.528,29.098],[-113.527,29.099],[-113.528,29.099],[-113.53,29.098],[-113.531,29.096]],[[-113.607,29.168],[-113.608,29.168],[-113.607,29.166],[-113.606,29.167],[-113.607,29.168]],[[-113.589,29.409],[-113.589,29.409],[-113.59,29.408],[-113.589,29.409]],[[-113.616,29.439],[-113.616,29.439],[-113.616,29.439],[-113.616,29.439]],[[-113.586,29.459],[-113.587,29.459],[-113.587,29.459],[-113.586,29.459]],[[-113.585,29.464],[-113.585,29.464],[-113.585,29.464],[-113.585,29.464]],[[-113.575,29.513],[-113.573,29.514],[-113.573,29.515],[-113.574,29.515],[-113.575,29.513]],[[-113.571,29.515],[-113.57,29.515],[-113.571,29.515],[-113.571,29.515]],[[-113.597,29.532],[-113.598,29.532],[-113.597,29.531],[-113.597,29.532]],[[-113.527,29.544],[-113.527,29.544],[-113.527,29.544],[-113.527,29.544]],[[-113.535,29.543],[-113.536,29.541],[-113.535,29.54],[-113.535,29.543],[-113.535,29.543]],[[-113.474,28.957],[-113.477,28.956],[-113.477,28.956],[-113.476,28.955],[-113.473,28.956],[-113.474,28.957]],[[-113.483,28.957],[-113.483,28.956],[-113.481,28.955],[-113.481,28.956],[-113.483,28.957]],[[-113.478,28.918],[-113.477,28.918],[-113.477,28.918],[-113.478,28.918]],[[-113.384,28.922],[-113.384,28.924],[-113.385,28.926],[-113.385,28.925],[-113.384,28.922]],[[-113.36,28.883],[-113.358,28.883],[-113.358,28.883],[-113.359,28.883],[-113.36,28.883]],[[-113.358,28.826],[-113.357,28.827],[-113.358,28.828],[-113.359,28.827],[-113.358,28.826]]]},"properties":{"id":"zona-marina-bah-a-de-los-ngeles-canales-de-ballenas-y-de-salsipuedes","name":"Zona marina Bah\u00eda de los \u00c1ngeles, canales de Ballenas y de Salsipuedes","type":"Reserva de la Biosfera","shortName":"Zona marina Bah\u00eda de los \u00c1ngeles, canales de Ballenas y de Salsipuedes","areaKm2":3879.6,"ccrCitation":null}},{"type":"Feature","geometry":{"type":"Polygon","coordinates":[[[-113.477,28.918],[-113.478,28.918],[-113.477,28.918],[-113.477,28.918]]]},"properties":{"id":"islas-del-golfo-de-california-441","name":"Islas del Golfo de California","type":"\u00c1rea de Protecci\u00f3n de Flora y Fauna","shortName":"Islas del Golfo de California","areaKm2":3745.5,"ccrCitation":null}},{"type":"Feature","geometry":{"type":"Polygon","coordinates":[[[-113.481,28.919],[-113.481,28.919],[-113.481,28.919],[-113.481,28.919]]]},"properties":{"id":"islas-del-golfo-de-california-442","name":"Islas del Golfo de California","type":"\u00c1rea de Protecci\u00f3n de Flora y Fauna","shortName":"Islas del Golfo de California","areaKm2":3745.5,"ccrCitation":null}},{"type":"Feature","geometry":{"type":"Polygon","coordinates":[[[-113.384,28.922],[-113.385,28.925],[-113.385,28.926],[-113.383,28.924],[-113.384,28.922]]]},"properties":{"id":"islas-del-golfo-de-california-443","name":"Islas del Golfo de California","type":"\u00c1rea de Protecci\u00f3n de Flora y Fauna","shortName":"Islas del Golfo de California","areaKm2":3745.5,"ccrCitation":null}},{"type":"Feature","geometry":{"type":"Polygon","coordinates":[[[-113.481,28.955],[-113.483,28.956],[-113.483,28.956],[-113.482,28.956],[-113.481,28.955]]]},"properties":{"id":"islas-del-golfo-de-california-444","name":"Islas del Golfo de California","type":"\u00c1rea de Protecci\u00f3n de Flora y Fauna","shortName":"Islas del Golfo de California","areaKm2":3745.5,"ccrCitation":null}},{"type":"Feature","geometry":{"type":"Polygon","coordinates":[[[-113.476,28.955],[-113.477,28.956],[-113.475,28.957],[-113.473,28.956],[-113.476,28.955]]]},"properties":{"id":"islas-del-golfo-de-california-445","name":"Islas del Golfo de California","type":"\u00c1rea de Protecci\u00f3n de Flora y Fauna","shortName":"Islas del Golfo de California","areaKm2":3745.5,"ccrCitation":null}},{"type":"Feature","geometry":{"type":"Polygon","coordinates":[[[-113.483,28.967],[-113.483,28.967],[-113.483,28.967],[-113.483,28.967]]]},"properties":{"id":"islas-del-golfo-de-california-446","name":"Islas del Golfo de California","type":"\u00c1rea de Protecci\u00f3n de Flora y Fauna","shortName":"Islas del Golfo de California","areaKm2":3745.5,"ccrCitation":null}},{"type":"Feature","geometry":{"type":"Polygon","coordinates":[[[-113.478,28.966],[-113.481,28.967],[-113.482,28.972],[-113.481,28.974],[-113.485,28.977],[-113.485,28.979],[-113.478,28.976],[-113.477,28.974],[-113.475,28.969],[-113.476,28.967],[-113.478,28.966]]]},"properties":{"id":"islas-del-golfo-de-california-447","name":"Islas del Golfo de California","type":"\u00c1rea de Protecci\u00f3n de Flora y Fauna","shortName":"Islas del Golfo de California","areaKm2":3745.5,"ccrCitation":null}},{"type":"Feature","geometry":{"type":"Polygon","coordinates":[[[-113.518,28.998],[-113.518,28.995],[-113.521,28.997],[-113.52,28.997],[-113.519,28.998],[-113.518,28.998]]]},"properties":{"id":"islas-del-golfo-de-california-448","name":"Islas del Golfo de California","type":"\u00c1rea de Protecci\u00f3n de Flora y Fauna","shortName":"Islas del Golfo de California","areaKm2":3745.5,"ccrCitation":null}},{"type":"Feature","geometry":{"type":"Polygon","coordinates":[[[-113.521,28.999],[-113.52,28.999],[-113.52,28.998],[-113.521,28.998],[-113.521,28.999]]]},"properties":{"id":"islas-del-golfo-de-california-449","name":"Islas del Golfo de California","type":"\u00c1rea de Protecci\u00f3n de Flora y Fauna","shortName":"Islas del Golfo de California","areaKm2":3745.5,"ccrCitation":null}},{"type":"Feature","geometry":{"type":"Polygon","coordinates":[[[-113.524,29.002],[-113.524,29.002],[-113.524,29.002],[-113.524,29.002]]]},"properties":{"id":"islas-del-golfo-de-california-450","name":"Islas del Golfo de California","type":"\u00c1rea de Protecci\u00f3n de Flora y Fauna","shortName":"Islas del Golfo de California","areaKm2":3745.5,"ccrCitation":null}},{"type":"Feature","geometry":{"type":"Polygon","coordinates":[[[-113.513,29.003],[-113.511,29.002],[-113.508,29.001],[-113.506,28.998],[-113.503,28.997],[-113.503,28.995],[-113.502,28.994],[-113.504,28.993],[-113.505,28.992],[-113.505,28.992],[-113.506,28.991],[-113.507,28.99],[-113.507,28.991],[-113.508,28.99],[-113.508,28.991],[-113.506,28.992],[-113.507,28.993],[-113.509,28.993],[-113.508,28.992],[-113.507,28.993],[-113.508,28.992],[-113.509,28.993],[-113.509,28.992],[-113.511,28.989],[-113.513,28.991],[-113.514,28.991],[-113.514,28.993],[-113.515,28.993],[-113.516,28.994],[-113.516,28.996],[-113.515,28.996],[-113.516,29.0],[-113.514,28.998],[-113.513,28.999],[-113.512,29.0],[-113.516,29.002],[-113.513,29.003]]]},"properties":{"id":"islas-del-golfo-de-california-451","name":"Islas del Golfo de California","type":"\u00c1rea de Protecci\u00f3n de Flora y Fauna","shortName":"Islas del Golfo de California","areaKm2":3745.5,"ccrCitation":null}},{"type":"Feature","geometry":{"type":"Polygon","coordinates":[[[-113.523,29.007],[-113.522,29.007],[-113.521,29.006],[-113.521,29.004],[-113.523,29.004],[-113.523,29.003],[-113.524,29.002],[-113.524,29.004],[-113.524,29.006],[-113.523,29.007]]]},"properties":{"id":"islas-del-golfo-de-california-452","name":"Islas del Golfo de California","type":"\u00c1rea de Protecci\u00f3n de Flora y Fauna","shortName":"Islas del Golfo de California","areaKm2":3745.5,"ccrCitation":null}},{"type":"Feature","geometry":{"type":"Polygon","coordinates":[[[-113.511,29.012],[-113.514,29.01],[-113.516,29.01],[-113.516,29.011],[-113.515,29.012],[-113.511,29.012],[-113.512,29.012],[-113.511,29.012]]]},"properties":{"id":"islas-del-golfo-de-california-453","name":"Islas del Golfo de California","type":"\u00c1rea de Protecci\u00f3n de Flora y Fauna","shortName":"Islas del Golfo de California","areaKm2":3745.5,"ccrCitation":null}},{"type":"Feature","geometry":{"type":"Polygon","coordinates":[[[-113.525,29.011],[-113.525,29.013],[-113.524,29.013],[-113.524,29.012],[-113.525,29.011]]]},"properties":{"id":"islas-del-golfo-de-california-454","name":"Islas del Golfo de California","type":"\u00c1rea de Protecci\u00f3n de Flora y Fauna","shortName":"Islas del Golfo de California","areaKm2":3745.5,"ccrCitation":null}},{"type":"Feature","geometry":{"type":"Polygon","coordinates":[[[-113.522,29.014],[-113.522,29.014],[-113.522,29.014],[-113.522,29.014]]]},"properties":{"id":"islas-del-golfo-de-california-455","name":"Islas del Golfo de California","type":"\u00c1rea de Protecci\u00f3n de Flora y Fauna","shortName":"Islas del Golfo de California","areaKm2":3745.5,"ccrCitation":null}},{"type":"Feature","geometry":{"type":"Polygon","coordinates":[[[-113.505,29.014],[-113.506,29.014],[-113.507,29.014],[-113.505,29.015],[-113.505,29.014]]]},"properties":{"id":"islas-del-golfo-de-california-456","name":"Islas del Golfo de California","type":"\u00c1rea de Protecci\u00f3n de Flora y Fauna","shortName":"Islas del Golfo de California","areaKm2":3745.5,"ccrCitation":null}},{"type":"Feature","geometry":{"type":"Polygon","coordinates":[[[-113.514,29.016],[-113.513,29.015],[-113.511,29.014],[-113.511,29.013],[-113.516,29.013],[-113.516,29.014],[-113.516,29.015],[-113.514,29.016]]]},"properties":{"id":"islas-del-golfo-de-california-457","name":"Islas del Golfo de California","type":"\u00c1rea de Protecci\u00f3n de Flora y Fauna","shortName":"Islas del Golfo de California","areaKm2":3745.5,"ccrCitation":null}},{"type":"Feature","geometry":{"type":"Polygon","coordinates":[[[-113.47,29.024],[-113.466,29.023],[-113.464,29.021],[-113.464,29.02],[-113.461,29.016],[-113.46,29.013],[-113.462,29.013],[-113.463,29.012],[-113.464,29.014],[-113.464,29.014],[-113.465,29.014],[-113.464,29.013],[-113.466,29.014],[-113.466,29.015],[-113.467,29.014],[-113.467,29.016],[-113.468,29.017],[-113.468,29.019],[-113.469,29.019],[-113.468,29.021],[-113.47,29.024]]]},"properties":{"id":"islas-del-golfo-de-california-458","name":"Islas del Golfo de California","type":"\u00c1rea de Protecci\u00f3n de Flora y Fauna","shortName":"Islas del Golfo de California","areaKm2":3745.5,"ccrCitation":null}},{"type":"Feature","geometry":{"type":"Polygon","coordinates":[[[-113.497,29.054],[-113.497,29.054],[-113.497,29.054],[-113.497,29.054]]]},"properties":{"id":"islas-del-golfo-de-california-459","name":"Islas del Golfo de California","type":"\u00c1rea de Protecci\u00f3n de Flora y Fauna","shortName":"Islas del Golfo de California","areaKm2":3745.5,"ccrCitation":null}},{"type":"Feature","geometry":{"type":"Polygon","coordinates":[[[-113.513,29.061],[-113.513,29.061],[-113.513,29.062],[-113.512,29.062],[-113.513,29.061]]]},"properties":{"id":"islas-del-golfo-de-california-461","name":"Islas del Golfo de California","type":"\u00c1rea de Protecci\u00f3n de Flora y Fauna","shortName":"Islas del Golfo de California","areaKm2":3745.5,"ccrCitation":null}},{"type":"Feature","geometry":{"type":"Polygon","coordinates":[[[-113.511,29.063],[-113.511,29.063],[-113.511,29.063],[-113.511,29.063]]]},"properties":{"id":"islas-del-golfo-de-california-462","name":"Islas del Golfo de California","type":"\u00c1rea de Protecci\u00f3n de Flora y Fauna","shortName":"Islas del Golfo de California","areaKm2":3745.5,"ccrCitation":null}},{"type":"Feature","geometry":{"type":"Polygon","coordinates":[[[-113.513,29.064],[-113.513,29.064],[-113.513,29.064],[-113.513,29.064]]]},"properties":{"id":"islas-del-golfo-de-california-463","name":"Islas del Golfo de California","type":"\u00c1rea de Protecci\u00f3n de Flora y Fauna","shortName":"Islas del Golfo de California","areaKm2":3745.5,"ccrCitation":null}},{"type":"Feature","geometry":{"type":"Polygon","coordinates":[[[-113.522,29.07],[-113.519,29.069],[-113.519,29.068],[-113.516,29.067],[-113.515,29.065],[-113.518,29.065],[-113.52,29.068],[-113.522,29.07]]]},"properties":{"id":"islas-del-golfo-de-california-465","name":"Islas del Golfo de California","type":"\u00c1rea de Protecci\u00f3n de Flora y Fauna","shortName":"Islas del Golfo de California","areaKm2":3745.5,"ccrCitation":null}},{"type":"Feature","geometry":{"type":"Polygon","coordinates":[[[-113.513,29.096],[-113.511,29.096],[-113.51,29.096],[-113.51,29.095],[-113.509,29.096],[-113.509,29.095],[-113.508,29.095],[-113.502,29.09],[-113.502,29.088],[-113.506,29.084],[-113.508,29.08],[-113.507,29.079],[-113.503,29.077],[-113.503,29.075],[-113.503,29.074],[-113.506,29.069],[-113.504,29.067],[-113.505,29.063],[-113.505,29.061],[-113.499,29.055],[-113.5,29.052],[-113.503,29.051],[-113.503,29.05],[-113.502,29.048],[-113.5,29.049],[-113.497,29.047],[-113.496,29.046],[-113.496,29.044],[-113.497,29.043],[-113.496,29.041],[-113.494,29.04],[-113.494,29.04],[-113.493,29.039],[-113.494,29.039],[-113.491,29.038],[-113.492,29.038],[-113.49,29.038],[-113.489,29.038],[-113.491,29.038],[-113.494,29.037],[-113.497,29.038],[-113.5,29.038],[-113.501,29.039],[-113.503,29.039],[-113.505,29.039],[-113.507,29.041],[-113.506,29.041],[-113.507,29.042],[-113.507,29.042],[-113.506,29.044],[-113.504,29.044],[-113.503,29.046],[-113.506,29.046],[-113.507,29.048],[-113.509,29.048],[-113.51,29.05],[-113.514,29.052],[-113.514,29.053],[-113.513,29.057],[-113.511,29.058],[-113.509,29.06],[-113.51,29.062],[-113.511,29.063],[-113.511,29.064],[-113.512,29.063],[-113.513,29.064],[-113.513,29.065],[-113.512,29.065],[-113.513,29.065],[-113.514,29.067],[-113.514,29.068],[-113.515,29.069],[-113.516,29.071],[-113.515,29.072],[-113.516,29.073],[-113.515,29.073],[-113.514,29.074],[-113.515,29.077],[-113.518,29.078],[-113.519,29.077],[-113.52,29.077],[-113.521,29.078],[-113.524,29.087],[-113.527,29.091],[-113.527,29.094],[-113.526,29.096],[-113.524,29.095],[-113.513,29.096]]]},"properties":{"id":"islas-del-golfo-de-california-466","name":"Islas del Golfo de California","type":"\u00c1rea de Protecci\u00f3n de Flora y Fauna","shortName":"Islas del Golfo de California","areaKm2":3745.5,"ccrCitation":null}},{"type":"Feature","geometry":{"type":"Polygon","coordinates":[[[-113.528,29.099],[-113.527,29.098],[-113.53,29.097],[-113.529,29.096],[-113.531,29.096],[-113.53,29.098],[-113.528,29.099]]]},"properties":{"id":"islas-del-golfo-de-california-467","name":"Islas del Golfo de California","type":"\u00c1rea de Protecci\u00f3n de Flora y Fauna","shortName":"Islas del Golfo de California","areaKm2":3745.5,"ccrCitation":null}},{"type":"Feature","geometry":{"type":"Polygon","coordinates":[[[-113.517,29.552],[-113.512,29.55],[-113.512,29.549],[-113.511,29.547],[-113.513,29.542],[-113.513,29.539],[-113.511,29.538],[-113.508,29.537],[-113.505,29.538],[-113.503,29.536],[-113.502,29.536],[-113.498,29.535],[-113.497,29.534],[-113.494,29.533],[-113.492,29.533],[-113.49,29.534],[-113.488,29.533],[-113.487,29.533],[-113.485,29.532],[-113.479,29.532],[-113.479,29.532],[-113.476,29.531],[-113.477,29.527],[-113.477,29.526],[-113.474,29.524],[-113.472,29.524],[-113.472,29.525],[-113.471,29.521],[-113.47,29.52],[-113.47,29.52],[-113.468,29.52],[-113.468,29.519],[-113.462,29.518],[-113.461,29.517],[-113.46,29.517],[-113.458,29.514],[-113.456,29.513],[-113.456,29.511],[-113.454,29.511],[-113.453,29.508],[-113.451,29.507],[-113.45,29.508],[-113.447,29.507],[-113.446,29.506],[-113.444,29.503],[-113.443,29.503],[-113.443,29.502],[-113.442,29.502],[-113.442,29.5],[-113.44,29.5],[-113.438,29.498],[-113.437,29.497],[-113.435,29.493],[-113.431,29.492],[-113.43,29.49],[-113.428,29.486],[-113.428,29.484],[-113.426,29.477],[-113.426,29.474],[-113.421,29.472],[-113.417,29.47],[-113.417,29.467],[-113.417,29.466],[-113.414,29.465],[-113.41,29.464],[-113.409,29.463],[-113.407,29.462],[-113.407,29.46],[-113.4,29.459],[-113.395,29.46],[-113.393,29.459],[-113.393,29.455],[-113.394,29.451],[-113.392,29.448],[-113.385,29.444],[-113.385,29.439],[-113.384,29.437],[-113.384,29.433],[-113.381,29.43],[-113.379,29.429],[-113.374,29.424],[-113.373,29.422],[-113.373,29.42],[-113.371,29.419],[-113.37,29.416],[-113.369,29.412],[-113.366,29.408],[-113.366,29.407],[-113.366,29.406],[-113.364,29.404],[-113.363,29.401],[-113.362,29.401],[-113.362,29.398],[-113.364,29.397],[-113.363,29.396],[-113.361,29.393],[-113.352,29.387],[-113.352,29.383],[-113.355,29.381],[-113.357,29.38],[-113.358,29.377],[-113.36,29.377],[-113.361,29.374],[-113.362,29.373],[-113.363,29.371],[-113.364,29.366],[-113.367,29.363],[-113.367,29.361],[-113.37,29.359],[-113.373,29.355],[-113.375,29.354],[-113.376,29.35],[-113.376,29.343],[-113.372,29.335],[-113.371,29.331],[-113.372,29.329],[-113.371,29.325],[-113.37,29.324],[-113.37,29.322],[-113.371,29.322],[-113.372,29.32],[-113.37,29.318],[-113.369,29.315],[-113.371,29.312],[-113.368,29.309],[-113.365,29.307],[-113.36,29.304],[-113.355,29.301],[-113.351,29.299],[-113.35,29.298],[-113.347,29.296],[-113.338,29.294],[-113.325,29.293],[-113.313,29.29],[-113.304,29.291],[-113.301,29.287],[-113.299,29.285],[-113.298,29.283],[-113.296,29.281],[-113.29,29.282],[-113.289,29.281],[-113.286,29.285],[-113.284,29.285],[-113.282,29.288],[-113.281,29.289],[-113.281,29.287],[-113.277,29.288],[-113.276,29.288],[-113.276,29.29],[-113.275,29.29],[-113.276,29.286],[-113.274,29.285],[-113.27,29.285],[-113.268,29.286],[-113.268,29.287],[-113.267,29.289],[-113.265,29.289],[-113.264,29.288],[-113.261,29.29],[-113.261,29.284],[-113.26,29.283],[-113.256,29.283],[-113.253,29.285],[-113.25,29.285],[-113.249,29.286],[-113.244,29.286],[-113.24,29.289],[-113.238,29.289],[-113.234,29.288],[-113.229,29.289],[-113.22,29.288],[-113.217,29.287],[-113.208,29.285],[-113.203,29.285],[-113.202,29.287],[-113.201,29.286],[-113.199,29.285],[-113.196,29.288],[-113.194,29.288],[-113.194,29.288],[-113.193,29.288],[-113.192,29.289],[-113.189,29.287],[-113.189,29.288],[-113.186,29.288],[-113.186,29.289],[-113.185,29.288],[-113.183,29.289],[-113.181,29.289],[-113.181,29.288],[-113.179,29.285],[-113.178,29.285],[-113.176,29.284],[-113.174,29.283],[-113.172,29.282],[-113.169,29.279],[-113.168,29.279],[-113.168,29.276],[-113.172,29.273],[-113.174,29.269],[-113.177,29.264],[-113.177,29.264],[-113.177,29.263],[-113.178,29.26],[-113.178,29.258],[-113.178,29.254],[-113.177,29.253],[-113.179,29.248],[-113.179,29.241],[-113.178,29.239],[-113.178,29.235],[-113.177,29.232],[-113.175,29.228],[-113.173,29.227],[-113.173,29.226],[-113.174,29.22],[-113.175,29.219],[-113.175,29.215],[-113.172,29.209],[-113.173,29.205],[-113.173,29.197],[-113.172,29.194],[-113.167,29.191],[-113.167,29.189],[-113.171,29.183],[-113.173,29.176],[-113.173,29.17],[-113.175,29.162],[-113.174,29.16],[-113.175,29.157],[-113.174,29.153],[-113.174,29.147],[-113.173,29.146],[-113.174,29.139],[-113.175,29.137],[-113.175,29.128],[-113.172,29.121],[-113.17,29.12],[-113.17,29.118],[-113.167,29.114],[-113.165,29.112],[-113.165,29.11],[-113.165,29.109],[-113.163,29.105],[-113.156,29.099],[-113.154,29.094],[-113.157,29.089],[-113.156,29.083],[-113.157,29.08],[-113.154,29.073],[-113.152,29.071],[-113.15,29.069],[-113.15,29.067],[-113.145,29.064],[-113.142,29.063],[-113.133,29.062],[-113.125,29.061],[-113.125,29.06],[-113.126,29.058],[-113.124,29.057],[-113.123,29.058],[-113.121,29.056],[-113.11,29.055],[-113.107,29.055],[-113.103,29.055],[-113.101,29.056],[-113.102,29.055],[-113.103,29.053],[-113.106,29.048],[-113.108,29.043],[-113.113,29.035],[-113.115,29.03],[-113.116,29.022],[-113.114,29.012],[-113.117,29.003],[-113.117,29.002],[-113.116,29.002],[-113.117,28.993],[-113.116,28.987],[-113.122,28.987],[-113.123,28.988],[-113.123,28.989],[-113.124,28.991],[-113.133,28.996],[-113.136,29.001],[-113.142,29.004],[-113.148,29.004],[-113.15,29.006],[-113.15,29.006],[-113.151,29.011],[-113.154,29.014],[-113.157,29.016],[-113.159,29.017],[-113.162,29.019],[-113.167,29.02],[-113.176,29.024],[-113.177,29.026],[-113.18,29.027],[-113.186,29.029],[-113.188,29.029],[-113.19,29.03],[-113.19,29.031],[-113.192,29.032],[-113.194,29.037],[-113.197,29.04],[-113.198,29.046],[-113.201,29.048],[-113.204,29.049],[-113.207,29.051],[-113.213,29.052],[-113.216,29.055],[-113.219,29.056],[-113.222,29.06],[-113.225,29.06],[-113.23,29.059],[-113.232,29.061],[-113.234,29.061],[-113.235,29.063],[-113.239,29.065],[-113.241,29.067],[-113.244,29.067],[-113.244,29.069],[-113.245,29.069],[-113.247,29.072],[-113.249,29.073],[-113.247,29.077],[-113.249,29.077],[-113.25,29.08],[-113.25,29.081],[-113.249,29.082],[-113.25,29.082],[-113.25,29.084],[-113.251,29.085],[-113.253,29.087],[-113.256,29.087],[-113.257,29.089],[-113.259,29.092],[-113.26,29.093],[-113.261,29.095],[-113.262,29.097],[-113.262,29.098],[-113.263,29.101],[-113.263,29.103],[-113.264,29.105],[-113.265,29.105],[-113.265,29.107],[-113.267,29.107],[-113.269,29.109],[-113.271,29.11],[-113.273,29.113],[-113.274,29.115],[-113.276,29.116],[-113.277,29.119],[-113.279,29.12],[-113.28,29.122],[-113.286,29.127],[-113.286,29.129],[-113.291,29.131],[-113.293,29.133],[-113.294,29.136],[-113.295,29.137],[-113.297,29.137],[-113.298,29.137],[-113.298,29.142],[-113.3,29.145],[-113.305,29.147],[-113.308,29.147],[-113.313,29.148],[-113.315,29.15],[-113.317,29.154],[-113.318,29.154],[-113.319,29.157],[-113.321,29.158],[-113.324,29.157],[-113.325,29.158],[-113.325,29.158],[-113.327,29.159],[-113.328,29.161],[-113.329,29.162],[-113.33,29.161],[-113.331,29.163],[-113.332,29.163],[-113.333,29.162],[-113.333,29.161],[-113.332,29.16],[-113.333,29.16],[-113.335,29.162],[-113.337,29.164],[-113.343,29.164],[-113.344,29.167],[-113.347,29.167],[-113.351,29.169],[-113.351,29.17],[-113.353,29.171],[-113.355,29.173],[-113.356,29.174],[-113.356,29.176],[-113.359,29.18],[-113.36,29.184],[-113.364,29.188],[-113.367,29.189],[-113.37,29.192],[-113.374,29.192],[-113.381,29.196],[-113.386,29.196],[-113.387,29.198],[-113.394,29.202],[-113.396,29.204],[-113.397,29.205],[-113.399,29.207],[-113.404,29.209],[-113.404,29.213],[-113.41,29.217],[-113.411,29.219],[-113.412,29.222],[-113.414,29.223],[-113.415,29.226],[-113.418,29.227],[-113.419,29.23],[-113.422,29.232],[-113.422,29.236],[-113.428,29.241],[-113.43,29.243],[-113.431,29.247],[-113.428,29.247],[-113.428,29.248],[-113.427,29.251],[-113.428,29.258],[-113.431,29.26],[-113.433,29.259],[-113.434,29.259],[-113.434,29.26],[-113.435,29.261],[-113.436,29.264],[-113.439,29.27],[-113.443,29.276],[-113.444,29.276],[-113.448,29.279],[-113.45,29.28],[-113.454,29.28],[-113.455,29.278],[-113.457,29.278],[-113.458,29.279],[-113.46,29.279],[-113.462,29.281],[-113.464,29.281],[-113.469,29.28],[-113.472,29.278],[-113.474,29.278],[-113.476,29.28],[-113.48,29.282],[-113.486,29.28],[-113.494,29.284],[-113.497,29.284],[-113.496,29.288],[-113.497,29.29],[-113.499,29.291],[-113.5,29.293],[-113.501,29.293],[-113.501,29.295],[-113.502,29.298],[-113.502,29.307],[-113.505,29.31],[-113.504,29.313],[-113.506,29.314],[-113.505,29.315],[-113.505,29.317],[-113.506,29.319],[-113.507,29.323],[-113.509,29.325],[-113.512,29.327],[-113.514,29.33],[-113.516,29.33],[-113.52,29.333],[-113.525,29.335],[-113.526,29.337],[-113.528,29.342],[-113.529,29.346],[-113.53,29.347],[-113.531,29.352],[-113.532,29.353],[-113.534,29.354],[-113.535,29.355],[-113.538,29.356],[-113.538,29.356],[-113.539,29.357],[-113.54,29.362],[-113.541,29.364],[-113.542,29.367],[-113.544,29.368],[-113.543,29.369],[-113.545,29.37],[-113.545,29.371],[-113.549,29.373],[-113.552,29.376],[-113.556,29.377],[-113.557,29.379],[-113.557,29.386],[-113.561,29.387],[-113.562,29.389],[-113.566,29.392],[-113.57,29.4],[-113.573,29.402],[-113.58,29.404],[-113.589,29.409],[-113.589,29.41],[-113.59,29.412],[-113.59,29.413],[-113.591,29.415],[-113.59,29.417],[-113.592,29.418],[-113.591,29.42],[-113.591,29.423],[-113.59,29.424],[-113.589,29.426],[-113.589,29.429],[-113.591,29.433],[-113.591,29.435],[-113.594,29.438],[-113.591,29.447],[-113.592,29.451],[-113.591,29.454],[-113.589,29.455],[-113.589,29.456],[-113.586,29.459],[-113.585,29.46],[-113.584,29.461],[-113.585,29.461],[-113.585,29.462],[-113.584,29.463],[-113.584,29.464],[-113.582,29.465],[-113.577,29.469],[-113.576,29.472],[-113.576,29.473],[-113.575,29.475],[-113.576,29.477],[-113.575,29.478],[-113.575,29.481],[-113.574,29.482],[-113.573,29.483],[-113.572,29.484],[-113.572,29.484],[-113.57,29.485],[-113.57,29.487],[-113.568,29.489],[-113.568,29.491],[-113.567,29.492],[-113.568,29.494],[-113.567,29.496],[-113.568,29.498],[-113.566,29.501],[-113.566,29.503],[-113.564,29.503],[-113.563,29.505],[-113.564,29.512],[-113.567,29.514],[-113.57,29.516],[-113.57,29.517],[-113.569,29.517],[-113.568,29.519],[-113.569,29.522],[-113.571,29.522],[-113.572,29.522],[-113.572,29.522],[-113.571,29.525],[-113.57,29.525],[-113.57,29.526],[-113.568,29.528],[-113.568,29.529],[-113.569,29.533],[-113.572,29.535],[-113.572,29.537],[-113.572,29.538],[-113.571,29.539],[-113.569,29.541],[-113.567,29.54],[-113.565,29.542],[-113.565,29.543],[-113.563,29.543],[-113.56,29.545],[-113.559,29.546],[-113.558,29.544],[-113.56,29.541],[-113.561,29.541],[-113.561,29.539],[-113.56,29.538],[-113.561,29.537],[-113.559,29.535],[-113.557,29.535],[-113.557,29.534],[-113.556,29.534],[-113.554,29.535],[-113.553,29.538],[-113.553,29.535],[-113.553,29.534],[-113.549,29.534],[-113.544,29.534],[-113.542,29.535],[-113.541,29.536],[-113.54,29.537],[-113.54,29.538],[-113.539,29.538],[-113.539,29.539],[-113.538,29.539],[-113.537,29.538],[-113.535,29.538],[-113.534,29.54],[-113.532,29.541],[-113.531,29.54],[-113.529,29.541],[-113.528,29.541],[-113.526,29.542],[-113.526,29.543],[-113.525,29.543],[-113.524,29.545],[-113.525,29.546],[-113.524,29.547],[-113.524,29.549],[-113.526,29.55],[-113.517,29.552]]]},"properties":{"id":"islas-del-golfo-de-california-484","name":"Islas del Golfo de California","type":"\u00c1rea de Protecci\u00f3n de Flora y Fauna","shortName":"Islas del Golfo de California","areaKm2":3745.5,"ccrCitation":null}}]}