{"type":"FeatureCollection","features":[{"type":"Feature","geometry":{"type":"Point","coordinates":[-113.55806,29.09806]},"properties":{"depth_ft":202,"depth_m":61.5}},{"type":"Feature","geometry":{"type":"Point","coordinates":[-113.54194,29.09806]},"properties":{"depth_ft":279,"depth_m":85.2}},{"type":"Feature","geometry":{"type":"Point","coordinates":[-113.52583,29.09806]},"properties":{"depth_ft":147,"depth_m":44.8}},{"type":"Feature","geometry":{"type":"Point","coordinates":[-113.55806,29.08396]},"properties":{"depth_ft":92,"depth_m":28.1}},{"type":"Feature","geometry":{"type":"Point","coordinates":[-113.54194,29.08396]},"properties":{"depth_ft":156,"depth_m":47.6}},{"type":"Feature","geometry":{"type":"Point","coordinates":[-113.54194,29.06986]},"properties":{"depth_ft":128,"depth_m":38.9}},{"type":"Feature","geometry":{"type":"Point","coordinates":[-113.52583,29.06986]},"properties":{"depth_ft":93,"depth_m":28.2}},{"type":"Feature","geometry":{"type":"Point","coordinates":[-113.52583,29.05576]},"properties":{"depth_ft":42,"depth_m":12.8}},{"type":"Feature","geometry":{"type":"Point","coordinates":[-113.4936,29.05576]},"properties":{"depth_ft":103,"depth_m":31.4}},{"type":"Feature","geometry":{"type":"Point","coordinates":[-113.52583,29.04166]},"properties":{"depth_ft":32,"depth_m":9.7}},{"type":"Feature","geometry":{"type":"Point","coordinates":[-113.54194,29.02756]},"properties":{"depth_ft":164,"depth_m":49.9}},{"type":"Feature","geometry":{"type":"Point","coordinates":[-113.52583,29.02756]},"properties":{"depth_ft":46,"depth_m":13.9}},{"type":"Feature","geometry":{"type":"Point","coordinates":[-113.50971,29.02756]},"properties":{"depth_ft":20,"depth_m":6.0}},{"type":"Feature","geometry":{"type":"Point","coordinates":[-113.4936,29.02756]},"properties":{"depth_ft":14,"depth_m":4.3}},{"type":"Feature","geometry":{"type":"Point","coordinates":[-113.47748,29.02756]},"properties":{"depth_ft":272,"depth_m":82.8}},{"type":"Feature","geometry":{"type":"Point","coordinates":[-113.55806,29.01345]},"properties":{"depth_ft":224,"depth_m":68.4}},{"type":"Feature","geometry":{"type":"Point","coordinates":[-113.54194,29.01345]},"properties":{"depth_ft":105,"depth_m":32.2}},{"type":"Feature","geometry":{"type":"Point","coordinates":[-113.52583,29.01345]},"properties":{"depth_ft":76,"depth_m":23.1}},{"type":"Feature","geometry":{"type":"Point","coordinates":[-113.50971,29.01345]},"properties":{"depth_ft":105,"depth_m":32.0}},{"type":"Feature","geometry":{"type":"Point","coordinates":[-113.4936,29.01345]},"properties":{"depth_ft":170,"depth_m":51.7}},{"type":"Feature","geometry":{"type":"Point","coordinates":[-113.55806,28.99935]},"properties":{"depth_ft":51,"depth_m":15.4}},{"type":"Feature","geometry":{"type":"Point","coordinates":[-113.54194,28.99935]},"properties":{"depth_ft":48,"depth_m":14.6}},{"type":"Feature","geometry":{"type":"Point","coordinates":[-113.52583,28.99935]},"properties":{"depth_ft":94,"depth_m":28.7}},{"type":"Feature","geometry":{"type":"Point","coordinates":[-113.4936,28.99935]},"properties":{"depth_ft":284,"depth_m":86.7}},{"type":"Feature","geometry":{"type":"Point","coordinates":[-113.54194,28.98525]},"properties":{"depth_ft":17,"depth_m":5.3}},{"type":"Feature","geometry":{"type":"Point","coordinates":[-113.52583,28.98525]},"properties":{"depth_ft":96,"depth_m":29.1}},{"type":"Feature","geometry":{"type":"Point","coordinates":[-113.50971,28.98525]},"properties":{"depth_ft":191,"depth_m":58.3}},{"type":"Feature","geometry":{"type":"Point","coordinates":[-113.4936,28.98525]},"properties":{"depth_ft":314,"depth_m":95.6}},{"type":"Feature","geometry":{"type":"Point","coordinates":[-113.54194,28.97115]},"properties":{"depth_ft":17,"depth_m":5.3}},{"type":"Feature","geometry":{"type":"Point","coordinates":[-113.52583,28.97115]},"properties":{"depth_ft":64,"depth_m":19.4}},{"type":"Feature","geometry":{"type":"Point","coordinates":[-113.50971,28.97115]},"properties":{"depth_ft":154,"depth_m":46.9}},{"type":"Feature","geometry":{"type":"Point","coordinates":[-113.4936,28.97115]},"properties":{"depth_ft":238,"depth_m":72.6}},{"type":"Feature","geometry":{"type":"Point","coordinates":[-113.54194,28.95705]},"properties":{"depth_ft":24,"depth_m":7.4}},{"type":"Feature","geometry":{"type":"Point","coordinates":[-113.52583,28.95705]},"properties":{"depth_ft":41,"depth_m":12.5}},{"type":"Feature","geometry":{"type":"Point","coordinates":[-113.50971,28.95705]},"properties":{"depth_ft":102,"depth_m":31.2}},{"type":"Feature","geometry":{"type":"Point","coordinates":[-113.4936,28.95705]},"properties":{"depth_ft":104,"depth_m":31.6}},{"type":"Feature","geometry":{"type":"Point","coordinates":[-113.46137,28.95705]},"properties":{"depth_ft":50,"depth_m":15.2}},{"type":"Feature","geometry":{"type":"Point","coordinates":[-113.44525,28.95705]},"properties":{"depth_ft":154,"depth_m":47.0}},{"type":"Feature","geometry":{"type":"Point","coordinates":[-113.42914,28.95705]},"properties":{"depth_ft":293,"depth_m":89.2}},{"type":"Feature","geometry":{"type":"Point","coordinates":[-113.54194,28.94295]},"properties":{"depth_ft":78,"depth_m":23.6}},{"type":"Feature","geometry":{"type":"Point","coordinates":[-113.52583,28.94295]},"properties":{"depth_ft":115,"depth_m":35.0}},{"type":"Feature","geometry":{"type":"Point","coordinates":[-113.50971,28.94295]},"properties":{"depth_ft":115,"depth_m":35.1}},{"type":"Feature","geometry":{"type":"Point","coordinates":[-113.4936,28.94295]},"properties":{"depth_ft":10,"depth_m":3.1}},{"type":"Feature","geometry":{"type":"Point","coordinates":[-113.41302,28.94295]},"properties":{"depth_ft":175,"depth_m":53.2}},{"type":"Feature","geometry":{"type":"Point","coordinates":[-113.54194,28.92885]},"properties":{"depth_ft":30,"depth_m":9.2}},{"type":"Feature","geometry":{"type":"Point","coordinates":[-113.52583,28.92885]},"properties":{"depth_ft":113,"depth_m":34.6}},{"type":"Feature","geometry":{"type":"Point","coordinates":[-113.50971,28.92885]},"properties":{"depth_ft":115,"depth_m":35.0}},{"type":"Feature","geometry":{"type":"Point","coordinates":[-113.4936,28.92885]},"properties":{"depth_ft":9,"depth_m":2.8}},{"type":"Feature","geometry":{"type":"Point","coordinates":[-113.3808,28.92885]},"properties":{"depth_ft":250,"depth_m":76.1}},{"type":"Feature","geometry":{"type":"Point","coordinates":[-113.52583,28.91475]},"properties":{"depth_ft":7,"depth_m":2.2}},{"type":"Feature","geometry":{"type":"Point","coordinates":[-113.50971,28.91475]},"properties":{"depth_ft":53,"depth_m":16.1}},{"type":"Feature","geometry":{"type":"Point","coordinates":[-113.4936,28.91475]},"properties":{"depth_ft":4,"depth_m":1.4}},{"type":"Feature","geometry":{"type":"Point","coordinates":[-113.36468,28.91475]},"properties":{"depth_ft":101,"depth_m":30.6}},{"type":"Feature","geometry":{"type":"Point","coordinates":[-113.50971,28.90065]},"properties":{"depth_ft":8,"depth_m":2.3}},{"type":"Feature","geometry":{"type":"Point","coordinates":[-113.4936,28.90065]},"properties":{"depth_ft":40,"depth_m":12.1}},{"type":"Feature","geometry":{"type":"Point","coordinates":[-113.36468,28.85834]},"properties":{"depth_ft":41,"depth_m":12.5}},{"type":"Feature","geometry":{"type":"Point","coordinates":[-113.36468,28.84424]},"properties":{"depth_ft":25,"depth_m":7.8}}]}