{"type":"FeatureCollection","features":[{"type":"Feature","geometry":{"type":"Polygon","coordinates":[[[-123.30352,38.54735],[-123.30374,38.54741],[-123.30379,38.54779],[-123.30423,38.54783],[-123.30473,38.54928],[-123.30523,38.54949],[-123.30522,38.54985],[-123.30549,38.54978],[-123.30532,38.55055],[-123.30551,38.55071],[-123.30615,38.55075],[-123.30563,38.55136],[-123.30614,38.55163],[-123.30598,38.55189],[-123.30607,38.55203],[-123.30645,38.55206],[-123.30645,38.55231],[-123.30619,38.55256],[-123.30648,38.55275],[-123.30584,38.55317],[-123.30523,38.55327],[-123.30501,38.55447],[-123.30449,38.55464],[-123.30374,38.55457],[-123.30352,38.55505],[-123.30374,38.55543],[-123.30477,38.55601],[-123.30541,38.55602],[-123.30628,38.55572],[-123.30721,38.55617],[-123.30768,38.556],[-123.31069,38.5562],[-123.31096,38.55641],[-123.31107,38.55692],[-123.31126,38.55706],[-123.3127,38.55722],[-123.31313,38.55741],[-123.31364,38.55734],[-123.31412,38.55779],[-123.31529,38.55818],[-123.31536,38.55861],[-123.31572,38.55879],[-123.31673,38.55858],[-123.31706,38.55879],[-123.31742,38.55866],[-123.31793,38.55962],[-123.31777,38.56001],[-123.31787,38.56006],[-123.31871,38.55971],[-123.31926,38.55969],[-123.32048,38.56044],[-123.32089,38.56048],[-123.32122,38.56023],[-123.32185,38.56017],[-123.32279,38.56071],[-123.32371,38.56067],[-123.32402,38.56094],[-123.32352,38.56107],[-123.32327,38.56131],[-123.32386,38.562],[-123.32391,38.56269],[-123.32374,38.56299],[-123.32393,38.56395],[-123.32549,38.56393],[-123.32589,38.56427],[-123.32683,38.56457],[-123.32732,38.56516],[-123.32806,38.56558],[-123.3293,38.56562],[-123.32956,38.56595],[-123.32909,38.56645],[-123.33016,38.5674],[-123.33056,38.56735],[-123.33082,38.5664],[-123.33147,38.5662],[-123.33201,38.5655],[-123.33289,38.56534],[-123.33393,38.56589],[-123.33418,38.56644],[-123.33454,38.56675],[-123.33459,38.56723],[-123.33492,38.56747],[-123.33503,38.56808],[-123.33563,38.56873],[-123.33602,38.56889],[-123.33595,38.56931],[-123.33614,38.5698],[-123.33574,38.57016],[-123.33584,38.57036],[-123.33626,38.57064],[-123.33718,38.57062],[-123.33772,38.57096],[-123.33817,38.57072],[-123.3386,38.57076],[-123.33867,38.57091],[-123.33838,38.57146],[-123.33857,38.57186],[-123.33912,38.57208],[-123.33963,38.57189],[-123.34023,38.57233],[-123.33931,38.5729],[-123.33924,38.57318],[-123.33888,38.57319],[-123.33859,38.57349],[-123.33893,38.57419],[-123.33959,38.57428],[-123.33921,38.57475],[-123.33992,38.57601],[-123.33987,38.57622],[-123.34037,38.57641],[-123.34051,38.5769],[-123.34037,38.57824],[-123.3401,38.5783],[-123.3399,38.57856],[-123.33978,38.57944],[-123.33921,38.57989],[-123.33937,38.58084],[-123.33891,38.58105],[-123.339,38.58133],[-123.33852,38.58141],[-123.33824,38.58173],[-123.33758,38.58133],[-123.3372,38.58141],[-123.33702,38.58166],[-123.33602,38.5814],[-123.33555,38.58189],[-123.33558,38.58255],[-123.33621,38.58256],[-123.33944,38.58346],[-123.34006,38.58444],[-123.34055,38.58455],[-123.34049,38.58508],[-123.34119,38.58555],[-123.34183,38.58672],[-123.34216,38.58691],[-123.34291,38.58655],[-123.34324,38.58687],[-123.34332,38.5872],[-123.34202,38.5876],[-123.34256,38.58781],[-123.34254,38.58841],[-123.34355,38.58923],[-123.3436,38.58977],[-123.34332,38.58997],[-123.34332,38.59016],[-123.34546,38.59132],[-123.34582,38.59181],[-123.34553,38.59243],[-123.34565,38.59272],[-123.34648,38.59307],[-123.34777,38.59429],[-123.34938,38.59537],[-123.34947,38.59585],[-123.34932,38.59632],[-123.34962,38.59682],[-123.35037,38.59698],[-123.35077,38.59724],[-123.35169,38.59693],[-123.35254,38.59798],[-123.35308,38.59787],[-123.35334,38.59803],[-123.35345,38.59838],[-123.35386,38.59852],[-123.35452,38.59826],[-123.35567,38.59845],[-123.3573,38.5971],[-123.35806,38.59724],[-123.35904,38.59775],[-123.35935,38.5977],[-123.35954,38.59737],[-123.36067,38.59829],[-123.36058,38.59845],[-123.36036,38.59844],[-123.36023,38.59885],[-123.36032,38.59911],[-123.36088,38.59952],[-123.36117,38.6002],[-123.36117,38.60053],[-123.36088,38.60069],[-123.36095,38.6009],[-123.36121,38.6009],[-123.36136,38.60056],[-123.36206,38.601],[-123.36268,38.60094],[-123.36278701158301,38.601036036036035],[-123.30291422720322,38.601036036036035],[-123.30291422720322,38.54786525502255],[-123.30352,38.54735]]]},"properties":{"name":"ca-mainland"}}]}