{"type":"FeatureCollection","features":[{"type":"Feature","properties":{"id":"saltpoint-kelp-canopy","name":"Salt Point recent kelp canopy","className":"Kelp Canopy"},"geometry":{"type":"MultiPolygon","coordinates":[[[[-123.3403,38.56936],[-123.33995,38.56964],[-123.33995,38.56936],[-123.3403,38.56936]]],[[[-123.33788,38.56937],[-123.33823,38.56937],[-123.33788,38.56964],[-123.33788,38.56937]]],[[[-123.34203,38.57179],[-123.34238,38.57179],[-123.34203,38.57206],[-123.34203,38.57179]]],[[[-123.34169,38.57206],[-123.341,38.57207],[-123.34169,38.57179],[-123.34169,38.57206]]],[[[-123.34238,38.57341],[-123.34274,38.57341],[-123.34238,38.57368],[-123.34238,38.57341]]],[[[-123.3417,38.57395],[-123.34205,38.57395],[-123.3417,38.57477],[-123.3417,38.57395]]],[[[-123.34239,38.57503],[-123.34309,38.57503],[-123.34343,38.57558],[-123.34239,38.57531],[-123.34239,38.57503]]],[[[-123.3431,38.57909],[-123.34345,38.57909],[-123.3431,38.5799],[-123.3431,38.57909]]],[[[-123.34414,38.5799],[-123.34449,38.5799],[-123.34414,38.58017],[-123.34414,38.5799]]],[[[-123.34174,38.5845],[-123.34174,38.58422],[-123.34244,38.5845],[-123.34174,38.5845]]],[[[-123.34383,38.58557],[-123.34417,38.58584],[-123.34244,38.58585],[-123.34244,38.58558],[-123.34383,38.58557]]],[[[-123.35178,38.59339],[-123.35178,38.59393],[-123.35143,38.59339],[-123.35178,38.59339]]],[[[-123.3511,38.59447],[-123.35179,38.59447],[-123.35179,38.59529],[-123.35075,38.59529],[-123.3511,38.59447]]],[[[-123.35419,38.59501],[-123.35455,38.59501],[-123.3542,38.59555],[-123.35419,38.59501]]],[[[-123.35248,38.59528],[-123.35283,38.59528],[-123.35248,38.59555],[-123.35248,38.59528]]],[[[-123.35868,38.5958],[-123.35903,38.5958],[-123.35868,38.59608],[-123.35868,38.5958]]],[[[-123.30577,38.54783],[-123.30647,38.5481],[-123.30577,38.5481],[-123.30577,38.54783]]],[[[-123.3082,38.55133],[-123.30855,38.55133],[-123.3082,38.55161],[-123.3082,38.55133]]],[[[-123.30786,38.55458],[-123.30821,38.55458],[-123.30786,38.55486],[-123.30786,38.55458]]],[[[-123.30717,38.55512],[-123.30753,38.55512],[-123.30717,38.5554],[-123.30717,38.55512]]],[[[-123.31236,38.55647],[-123.31166,38.55647],[-123.31236,38.55619],[-123.31236,38.55647]]],[[[-123.312,38.55673],[-123.31236,38.55673],[-123.312,38.55701],[-123.312,38.55673]]],[[[-123.3151,38.557],[-123.31545,38.557],[-123.3151,38.55727],[-123.3151,38.557]]],[[[-123.3158,38.55726],[-123.31615,38.55726],[-123.3158,38.55754],[-123.3158,38.55726]]],[[[-123.3189,38.55861],[-123.31925,38.55861],[-123.3189,38.55888],[-123.3189,38.55861]]],[[[-123.32063,38.55914],[-123.32098,38.55914],[-123.32063,38.55942],[-123.32063,38.55914]]],[[[-123.3189,38.55915],[-123.31925,38.55915],[-123.3189,38.55942],[-123.3189,38.55915]]],[[[-123.3258,38.5621],[-123.32615,38.5621],[-123.3258,38.56238],[-123.3258,38.5621]]],[[[-123.32512,38.56319],[-123.32547,38.56319],[-123.32512,38.56346],[-123.32512,38.56319]]],[[[-123.33304,38.56425],[-123.33304,38.56371],[-123.33408,38.56425],[-123.33304,38.56425]]],[[[-123.33718,38.56639],[-123.33753,38.56639],[-123.33823,38.56748],[-123.33718,38.56639]]]]}}]}