{"type":"FeatureCollection","features":[{"type":"Feature","geometry":{"type":"Polygon","coordinates":[[[-123.329,38.567],[-123.329,38.567],[-123.329,38.567],[-123.329,38.567],[-123.329,38.567],[-123.329,38.567],[-123.329,38.567],[-123.329,38.567],[-123.329,38.566],[-123.329,38.566],[-123.329,38.566],[-123.329,38.566],[-123.329,38.566],[-123.329,38.566],[-123.329,38.566],[-123.329,38.566],[-123.329,38.566],[-123.329,38.566],[-123.329,38.566],[-123.329,38.566],[-123.329,38.566],[-123.329,38.566],[-123.329,38.566],[-123.329,38.566],[-123.329,38.566],[-123.329,38.566],[-123.329,38.566],[-123.332,38.566],[-123.332,38.566],[-123.332,38.566],[-123.332,38.566],[-123.332,38.566],[-123.332,38.566],[-123.332,38.566],[-123.332,38.566],[-123.331,38.566],[-123.331,38.566],[-123.331,38.566],[-123.331,38.566],[-123.331,38.566],[-123.331,38.566],[-123.331,38.566],[-123.331,38.567],[-123.331,38.567],[-123.331,38.567],[-123.331,38.567],[-123.331,38.567],[-123.331,38.567],[-123.331,38.567],[-123.331,38.567],[-123.331,38.567],[-123.331,38.567],[-123.331,38.567],[-123.331,38.567],[-123.331,38.567],[-123.331,38.567],[-123.331,38.567],[-123.331,38.567],[-123.331,38.567],[-123.33,38.567],[-123.33,38.567],[-123.33,38.567],[-123.33,38.567],[-123.33,38.567],[-123.33,38.567],[-123.33,38.567],[-123.33,38.567],[-123.33,38.567],[-123.33,38.567],[-123.33,38.567],[-123.33,38.567],[-123.33,38.567],[-123.33,38.567],[-123.33,38.567],[-123.33,38.567],[-123.33,38.567],[-123.33,38.567],[-123.33,38.567],[-123.33,38.567],[-123.329,38.567],[-123.329,38.567]]]},"properties":{"id":"gerstle-cove-state-marine-reserve","name":"Gerstle Cove State Marine Reserve","type":"SMR","shortName":"Gerstle Cove","areaKm2":null,"ccrCitation":null}},{"type":"Feature","geometry":{"type":"Polygon","coordinates":[[[-123.345,38.592],[-123.345,38.592],[-123.346,38.592],[-123.346,38.592],[-123.346,38.592],[-123.346,38.592],[-123.346,38.592],[-123.346,38.592],[-123.346,38.592],[-123.346,38.592],[-123.346,38.592],[-123.346,38.592],[-123.346,38.592],[-123.346,38.592],[-123.346,38.591],[-123.346,38.591],[-123.345,38.591],[-123.345,38.591],[-123.345,38.591],[-123.345,38.591],[-123.345,38.591],[-123.345,38.591],[-123.345,38.591],[-123.345,38.591],[-123.344,38.591],[-123.344,38.591],[-123.344,38.591],[-123.344,38.591],[-123.344,38.591],[-123.344,38.59],[-123.344,38.59],[-123.344,38.59],[-123.343,38.59],[-123.343,38.59],[-123.343,38.59],[-123.343,38.59],[-123.343,38.59],[-123.343,38.59],[-123.343,38.59],[-123.343,38.59],[-123.343,38.59],[-123.343,38.59],[-123.343,38.59],[-123.344,38.59],[-123.344,38.59],[-123.344,38.59],[-123.344,38.589],[-123.344,38.589],[-123.344,38.589],[-123.344,38.589],[-123.343,38.589],[-123.343,38.589],[-123.343,38.589],[-123.343,38.589],[-123.343,38.589],[-123.343,38.589],[-123.343,38.589],[-123.343,38.589],[-123.343,38.589],[-123.343,38.589],[-123.343,38.589],[-123.342,38.588],[-123.342,38.588],[-123.342,38.588],[-123.342,38.588],[-123.342,38.588],[-123.342,38.588],[-123.342,38.588],[-123.342,38.588],[-123.342,38.588],[-123.342,38.588],[-123.342,38.588],[-123.342,38.588],[-123.342,38.588],[-123.342,38.588],[-123.342,38.588],[-123.342,38.588],[-123.342,38.588],[-123.342,38.587],[-123.342,38.587],[-123.342,38.587],[-123.342,38.587],[-123.342,38.587],[-123.342,38.587],[-123.343,38.587],[-123.343,38.587],[-123.343,38.587],[-123.343,38.587],[-123.343,38.587],[-123.343,38.587],[-123.343,38.587],[-123.343,38.587],[-123.343,38.587],[-123.343,38.587],[-123.343,38.587],[-123.343,38.587],[-123.343,38.587],[-123.343,38.587],[-123.343,38.587],[-123.343,38.587],[-123.343,38.587],[-123.343,38.587],[-123.343,38.587],[-123.343,38.587],[-123.343,38.587],[-123.343,38.587],[-123.342,38.587],[-123.342,38.587],[-123.342,38.587],[-123.342,38.587],[-123.342,38.587],[-123.342,38.587],[-123.342,38.587],[-123.342,38.587],[-123.342,38.587],[-123.342,38.587],[-123.342,38.586],[-123.341,38.586],[-123.341,38.586],[-123.341,38.586],[-123.341,38.586],[-123.341,38.586],[-123.341,38.586],[-123.341,38.586],[-123.341,38.586],[-123.341,38.586],[-123.341,38.586],[-123.341,38.586],[-123.341,38.586],[-123.341,38.586],[-123.341,38.586],[-123.341,38.585],[-123.341,38.585],[-123.341,38.585],[-123.341,38.585],[-123.341,38.585],[-123.341,38.585],[-123.341,38.585],[-123.341,38.585],[-123.341,38.585],[-123.34,38.585],[-123.34,38.585],[-123.34,38.585],[-123.34,38.585],[-123.34,38.585],[-123.34,38.585],[-123.34,38.585],[-123.34,38.585],[-123.34,38.585],[-123.34,38.585],[-123.34,38.585],[-123.34,38.585],[-123.34,38.584],[-123.34,38.584],[-123.34,38.584],[-123.34,38.584],[-123.34,38.584],[-123.34,38.584],[-123.34,38.584],[-123.34,38.584],[-123.339,38.584],[-123.339,38.584],[-123.339,38.583],[-123.339,38.583],[-123.339,38.583],[-123.339,38.583],[-123.339,38.583],[-123.338,38.583],[-123.338,38.583],[-123.338,38.583],[-123.338,38.583],[-123.338,38.583],[-123.338,38.583],[-123.338,38.583],[-123.338,38.583],[-123.337,38.583],[-123.337,38.583],[-123.337,38.583],[-123.337,38.583],[-123.337,38.583],[-123.337,38.583],[-123.337,38.583],[-123.337,38.583],[-123.337,38.583],[-123.337,38.583],[-123.336,38.583],[-123.336,38.583],[-123.336,38.583],[-123.336,38.583],[-123.336,38.583],[-123.336,38.583],[-123.336,38.583],[-123.336,38.583],[-123.336,38.583],[-123.336,38.583],[-123.336,38.583],[-123.336,38.583],[-123.336,38.583],[-123.336,38.583],[-123.336,38.583],[-123.336,38.583],[-123.336,38.583],[-123.335,38.583],[-123.335,38.582],[-123.335,38.582],[-123.335,38.582],[-123.335,38.582],[-123.335,38.582],[-123.336,38.581],[-123.336,38.581],[-123.336,38.581],[-123.336,38.581],[-123.336,38.581],[-123.337,38.581],[-123.337,38.581],[-123.337,38.581],[-123.337,38.581],[-123.337,38.581],[-123.337,38.581],[-123.337,38.581],[-123.337,38.581],[-123.338,38.581],[-123.338,38.581],[-123.338,38.581],[-123.338,38.581],[-123.338,38.581],[-123.338,38.581],[-123.338,38.581],[-123.338,38.581],[-123.338,38.582],[-123.338,38.582],[-123.338,38.582],[-123.338,38.582],[-123.338,38.581],[-123.338,38.581],[-123.339,38.581],[-123.339,38.581],[-123.339,38.581],[-123.339,38.581],[-123.339,38.581],[-123.339,38.581],[-123.339,38.581],[-123.339,38.581],[-123.339,38.581],[-123.339,38.581],[-123.339,38.581],[-123.339,38.581],[-123.339,38.581],[-123.339,38.581],[-123.339,38.58],[-123.339,38.58],[-123.339,38.58],[-123.339,38.58],[-123.339,38.58],[-123.339,38.58],[-123.339,38.58],[-123.339,38.58],[-123.339,38.58],[-123.339,38.58],[-123.339,38.58],[-123.34,38.579],[-123.34,38.579],[-123.34,38.579],[-123.34,38.579],[-123.34,38.579],[-123.34,38.579],[-123.34,38.579],[-123.34,38.579],[-123.34,38.578],[-123.34,38.578],[-123.34,38.578],[-123.34,38.578],[-123.34,38.578],[-123.34,38.578],[-123.34,38.578],[-123.34,38.578],[-123.34,38.578],[-123.34,38.578],[-123.34,38.578],[-123.34,38.578],[-123.34,38.578],[-123.34,38.578],[-123.34,38.578],[-123.34,38.578],[-123.34,38.578],[-123.34,38.578],[-123.34,38.578],[-123.34,38.578],[-123.34,38.578],[-123.34,38.577],[-123.34,38.577],[-123.34,38.577],[-123.34,38.577],[-123.34,38.577],[-123.34,38.577],[-123.34,38.577],[-123.34,38.577],[-123.34,38.577],[-123.34,38.577],[-123.34,38.577],[-123.34,38.576],[-123.34,38.576],[-123.34,38.576],[-123.34,38.577],[-123.34,38.577],[-123.34,38.577],[-123.34,38.576],[-123.34,38.576],[-123.34,38.576],[-123.34,38.576],[-123.34,38.576],[-123.34,38.576],[-123.34,38.576],[-123.34,38.576],[-123.34,38.576],[-123.339,38.576],[-123.339,38.576],[-123.339,38.576],[-123.339,38.576],[-123.339,38.575],[-123.339,38.575],[-123.339,38.575],[-123.339,38.575],[-123.339,38.575],[-123.339,38.575],[-123.339,38.575],[-123.339,38.575],[-123.339,38.575],[-123.339,38.575],[-123.339,38.575],[-123.339,38.575],[-123.339,38.575],[-123.339,38.574],[-123.339,38.574],[-123.339,38.574],[-123.339,38.574],[-123.339,38.574],[-123.339,38.574],[-123.339,38.574],[-123.339,38.574],[-123.339,38.574],[-123.339,38.574],[-123.338,38.574],[-123.338,38.574],[-123.338,38.574],[-123.338,38.574],[-123.338,38.574],[-123.338,38.574],[-123.339,38.574],[-123.339,38.573],[-123.339,38.573],[-123.339,38.573],[-123.339,38.573],[-123.339,38.573],[-123.339,38.573],[-123.339,38.573],[-123.339,38.573],[-123.339,38.573],[-123.339,38.573],[-123.339,38.573],[-123.339,38.573],[-123.339,38.573],[-123.339,38.573],[-123.339,38.573],[-123.34,38.573],[-123.34,38.573],[-123.34,38.572],[-123.34,38.572],[-123.34,38.572],[-123.34,38.572],[-123.34,38.572],[-123.34,38.572],[-123.34,38.572],[-123.34,38.572],[-123.34,38.572],[-123.339,38.572],[-123.339,38.572],[-123.339,38.572],[-123.339,38.572],[-123.339,38.572],[-123.339,38.572],[-123.339,38.572],[-123.339,38.572],[-123.338,38.572],[-123.338,38.572],[-123.338,38.572],[-123.338,38.572],[-123.338,38.572],[-123.338,38.571],[-123.338,38.571],[-123.338,38.571],[-123.338,38.571],[-123.338,38.571],[-123.338,38.571],[-123.338,38.571],[-123.338,38.571],[-123.338,38.571],[-123.338,38.571],[-123.338,38.571],[-123.338,38.571],[-123.338,38.571],[-123.338,38.571],[-123.338,38.571],[-123.338,38.571],[-123.338,38.571],[-123.338,38.571],[-123.338,38.571],[-123.338,38.571],[-123.338,38.571],[-123.338,38.571],[-123.338,38.571],[-123.337,38.571],[-123.337,38.571],[-123.337,38.571],[-123.337,38.571],[-123.337,38.571],[-123.337,38.571],[-123.337,38.571],[-123.337,38.571],[-123.337,38.571],[-123.337,38.571],[-123.337,38.571],[-123.337,38.571],[-123.337,38.571],[-123.337,38.571],[-123.336,38.571],[-123.336,38.571],[-123.336,38.571],[-123.336,38.571],[-123.336,38.571],[-123.336,38.571],[-123.336,38.571],[-123.336,38.571],[-123.336,38.571],[-123.336,38.571],[-123.336,38.571],[-123.336,38.571],[-123.336,38.57],[-123.335,38.57],[-123.335,38.57],[-123.336,38.57],[-123.336,38.57],[-123.336,38.57],[-123.336,38.57],[-123.336,38.57],[-123.336,38.57],[-123.336,38.57],[-123.336,38.57],[-123.336,38.57],[-123.336,38.57],[-123.336,38.57],[-123.336,38.57],[-123.336,38.569],[-123.336,38.569],[-123.336,38.569],[-123.336,38.569],[-123.336,38.569],[-123.336,38.569],[-123.336,38.569],[-123.336,38.569],[-123.336,38.569],[-123.336,38.569],[-123.336,38.569],[-123.336,38.569],[-123.336,38.569],[-123.336,38.569],[-123.336,38.569],[-123.336,38.569],[-123.336,38.569],[-123.336,38.569],[-123.336,38.569],[-123.336,38.569],[-123.335,38.569],[-123.335,38.569],[-123.335,38.569],[-123.335,38.568],[-123.335,38.568],[-123.335,38.568],[-123.335,38.568],[-123.335,38.568],[-123.335,38.568],[-123.335,38.568],[-123.335,38.568],[-123.335,38.568],[-123.335,38.568],[-123.335,38.568],[-123.335,38.568],[-123.335,38.567],[-123.335,38.567],[-123.335,38.567],[-123.335,38.567],[-123.334,38.567],[-123.334,38.567],[-123.334,38.567],[-123.334,38.567],[-123.334,38.567],[-123.334,38.567],[-123.334,38.567],[-123.334,38.567],[-123.334,38.567],[-123.334,38.567],[-123.334,38.567],[-123.334,38.566],[-123.334,38.566],[-123.334,38.566],[-123.334,38.566],[-123.334,38.566],[-123.334,38.566],[-123.334,38.566],[-123.333,38.566],[-123.333,38.566],[-123.333,38.566],[-123.333,38.566],[-123.333,38.566],[-123.333,38.565],[-123.333,38.565],[-123.333,38.565],[-123.332,38.565],[-123.332,38.566],[-123.332,38.566],[-123.332,38.566],[-123.332,38.566],[-123.332,38.566],[-123.332,38.566],[-123.332,38.566],[-123.329,38.566],[-123.329,38.566],[-123.329,38.566],[-123.329,38.566],[-123.329,38.566],[-123.329,38.566],[-123.329,38.566],[-123.329,38.566],[-123.329,38.566],[-123.329,38.566],[-123.329,38.566],[-123.329,38.566],[-123.329,38.566],[-123.328,38.566],[-123.328,38.566],[-123.328,38.566],[-123.328,38.566],[-123.328,38.566],[-123.328,38.566],[-123.328,38.566],[-123.328,38.566],[-123.328,38.566],[-123.328,38.566],[-123.328,38.565],[-123.328,38.565],[-123.327,38.565],[-123.327,38.565],[-123.327,38.565],[-123.327,38.565],[-123.327,38.565],[-123.327,38.565],[-123.327,38.565],[-123.327,38.565],[-123.327,38.565],[-123.327,38.565],[-123.327,38.565],[-123.327,38.565],[-123.327,38.565],[-123.327,38.565],[-123.327,38.565],[-123.327,38.565],[-123.327,38.565],[-123.327,38.565],[-123.327,38.565],[-123.327,38.565],[-123.327,38.564],[-123.327,38.564],[-123.326,38.564],[-123.326,38.564],[-123.326,38.564],[-123.326,38.564],[-123.326,38.564],[-123.326,38.564],[-123.326,38.564],[-123.326,38.564],[-123.326,38.564],[-123.326,38.564],[-123.326,38.564],[-123.326,38.564],[-123.326,38.564],[-123.326,38.564],[-123.326,38.564],[-123.326,38.564],[-123.325,38.564],[-123.325,38.564],[-123.325,38.564],[-123.325,38.564],[-123.325,38.564],[-123.325,38.564],[-123.325,38.564],[-123.325,38.564],[-123.325,38.564],[-123.325,38.564],[-123.325,38.564],[-123.325,38.564],[-123.325,38.564],[-123.325,38.564],[-123.324,38.564],[-123.324,38.564],[-123.324,38.564],[-123.324,38.564],[-123.324,38.564],[-123.324,38.564],[-123.324,38.564],[-123.324,38.564],[-123.324,38.564],[-123.324,38.564],[-123.324,38.564],[-123.324,38.564],[-123.324,38.564],[-123.324,38.564],[-123.324,38.564],[-123.324,38.564],[-123.324,38.564],[-123.324,38.564],[-123.324,38.564],[-123.324,38.563],[-123.324,38.563],[-123.324,38.563],[-123.324,38.563],[-123.324,38.563],[-123.324,38.563],[-123.324,38.563],[-123.324,38.563],[-123.324,38.563],[-123.324,38.563],[-123.324,38.563],[-123.324,38.563],[-123.324,38.563],[-123.324,38.563],[-123.324,38.563],[-123.324,38.563],[-123.324,38.563],[-123.324,38.563],[-123.324,38.563],[-123.324,38.563],[-123.324,38.563],[-123.324,38.563],[-123.324,38.563],[-123.324,38.562],[-123.324,38.562],[-123.324,38.562],[-123.324,38.562],[-123.324,38.562],[-123.324,38.562],[-123.324,38.562],[-123.324,38.562],[-123.324,38.562],[-123.324,38.562],[-123.324,38.562],[-123.324,38.562],[-123.324,38.562],[-123.324,38.562],[-123.324,38.562],[-123.324,38.562],[-123.324,38.562],[-123.324,38.562],[-123.324,38.562],[-123.324,38.562],[-123.324,38.562],[-123.324,38.562],[-123.324,38.562],[-123.324,38.562],[-123.324,38.562],[-123.324,38.562],[-123.323,38.562],[-123.323,38.561],[-123.323,38.561],[-123.323,38.561],[-123.323,38.561],[-123.323,38.561],[-123.323,38.561],[-123.323,38.561],[-123.324,38.561],[-123.324,38.561],[-123.324,38.561],[-123.324,38.561],[-123.324,38.561],[-123.324,38.561],[-123.324,38.561],[-123.324,38.561],[-123.324,38.561],[-123.324,38.561],[-123.324,38.561],[-123.324,38.561],[-123.324,38.561],[-123.324,38.561],[-123.324,38.561],[-123.324,38.561],[-123.324,38.561],[-123.324,38.561],[-123.324,38.561],[-123.324,38.561],[-123.324,38.561],[-123.324,38.561],[-123.324,38.561],[-123.324,38.561],[-123.323,38.561],[-123.323,38.561],[-123.323,38.561],[-123.323,38.561],[-123.323,38.561],[-123.323,38.561],[-123.323,38.561],[-123.323,38.561],[-123.323,38.561],[-123.323,38.561],[-123.323,38.561],[-123.323,38.561],[-123.323,38.561],[-123.322,38.561],[-123.322,38.561],[-123.322,38.561],[-123.322,38.561],[-123.322,38.561],[-123.322,38.561],[-123.322,38.561],[-123.322,38.561],[-123.322,38.561],[-123.322,38.561],[-123.322,38.561],[-123.322,38.561],[-123.322,38.56],[-123.322,38.56],[-123.322,38.56],[-123.322,38.56],[-123.322,38.56],[-123.322,38.56],[-123.322,38.56],[-123.322,38.56],[-123.321,38.56],[-123.321,38.56],[-123.321,38.56],[-123.321,38.56],[-123.321,38.56],[-123.321,38.56],[-123.321,38.56],[-123.321,38.56],[-123.321,38.561],[-123.321,38.561],[-123.321,38.561],[-123.321,38.561],[-123.321,38.561],[-123.321,38.561],[-123.321,38.561],[-123.321,38.561],[-123.321,38.561],[-123.32,38.561],[-123.32,38.561],[-123.32,38.56],[-123.32,38.56],[-123.32,38.56],[-123.32,38.56],[-123.32,38.56],[-123.32,38.56],[-123.32,38.56],[-123.32,38.56],[-123.32,38.56],[-123.32,38.56],[-123.32,38.56],[-123.32,38.56],[-123.32,38.56],[-123.319,38.56],[-123.319,38.56],[-123.319,38.56],[-123.319,38.56],[-123.319,38.56],[-123.319,38.56],[-123.319,38.56],[-123.319,38.56],[-123.32,38.56],[-123.32,38.56],[-123.32,38.56],[-123.319,38.56],[-123.319,38.56],[-123.319,38.56],[-123.319,38.56],[-123.319,38.56],[-123.319,38.56],[-123.319,38.56],[-123.319,38.56],[-123.319,38.56],[-123.319,38.56],[-123.319,38.56],[-123.319,38.56],[-123.319,38.56],[-123.319,38.56],[-123.319,38.56],[-123.319,38.56],[-123.319,38.56],[-123.319,38.56],[-123.319,38.56],[-123.319,38.56],[-123.319,38.56],[-123.319,38.56],[-123.319,38.56],[-123.319,38.56],[-123.319,38.56],[-123.319,38.56],[-123.319,38.56],[-123.319,38.56],[-123.319,38.56],[-123.319,38.56],[-123.319,38.56],[-123.318,38.56],[-123.318,38.56],[-123.318,38.56],[-123.318,38.56],[-123.318,38.56],[-123.318,38.56],[-123.318,38.56],[-123.318,38.56],[-123.318,38.56],[-123.318,38.56],[-123.318,38.56],[-123.318,38.56],[-123.318,38.56],[-123.318,38.56],[-123.318,38.56],[-123.318,38.56],[-123.318,38.56],[-123.318,38.56],[-123.318,38.56],[-123.318,38.56],[-123.318,38.559],[-123.317,38.559],[-123.317,38.559],[-123.317,38.559],[-123.317,38.559],[-123.317,38.559],[-123.317,38.559],[-123.317,38.559],[-123.317,38.559],[-123.317,38.559],[-123.317,38.559],[-123.317,38.559],[-123.317,38.559],[-123.317,38.559],[-123.317,38.559],[-123.317,38.559],[-123.317,38.559],[-123.317,38.559],[-123.317,38.559],[-123.316,38.559],[-123.316,38.559],[-123.316,38.559],[-123.316,38.559],[-123.316,38.559],[-123.317,38.559],[-123.316,38.559],[-123.316,38.559],[-123.316,38.559],[-123.316,38.559],[-123.316,38.559],[-123.316,38.559],[-123.316,38.559],[-123.316,38.559],[-123.316,38.559],[-123.316,38.559],[-123.316,38.559],[-123.315,38.559],[-123.315,38.559],[-123.315,38.559],[-123.315,38.559],[-123.315,38.559],[-123.315,38.558],[-123.315,38.558],[-123.315,38.558],[-123.35,38.558],[-123.35,38.593],[-123.347,38.593],[-123.347,38.593],[-123.347,38.593],[-123.347,38.593],[-123.347,38.593],[-123.347,38.593],[-123.346,38.593],[-123.346,38.593],[-123.346,38.593],[-123.346,38.593],[-123.346,38.593],[-123.346,38.593],[-123.346,38.593],[-123.346,38.593],[-123.346,38.593],[-123.346,38.593],[-123.346,38.593],[-123.346,38.593],[-123.346,38.593],[-123.346,38.593],[-123.346,38.593],[-123.346,38.593],[-123.345,38.593],[-123.345,38.593],[-123.345,38.592],[-123.345,38.592]],[[-123.317,38.559],[-123.317,38.559],[-123.317,38.559],[-123.317,38.559],[-123.317,38.559],[-123.317,38.559],[-123.317,38.559],[-123.317,38.559],[-123.317,38.559],[-123.317,38.559],[-123.317,38.559],[-123.317,38.559]]]},"properties":{"id":"salt-point-state-marine-conservation-area","name":"Salt Point State Marine Conservation Area","type":"SMCA","shortName":"Salt Point","areaKm2":null,"ccrCitation":null}},{"type":"Feature","geometry":{"type":"Polygon","coordinates":[[[-123.386,38.616],[-123.374,38.616],[-123.374,38.616],[-123.374,38.616],[-123.374,38.616],[-123.374,38.616],[-123.374,38.616],[-123.374,38.616],[-123.374,38.616],[-123.374,38.616],[-123.373,38.616],[-123.373,38.616],[-123.373,38.616],[-123.373,38.616],[-123.373,38.616],[-123.373,38.615],[-123.373,38.615],[-123.372,38.615],[-123.372,38.615],[-123.372,38.615],[-123.372,38.615],[-123.372,38.615],[-123.372,38.615],[-123.372,38.615],[-123.372,38.615],[-123.372,38.615],[-123.372,38.615],[-123.372,38.615],[-123.371,38.615],[-123.371,38.615],[-123.371,38.615],[-123.371,38.615],[-123.371,38.615],[-123.371,38.615],[-123.371,38.615],[-123.371,38.615],[-123.371,38.615],[-123.37,38.615],[-123.37,38.615],[-123.37,38.615],[-123.37,38.615],[-123.37,38.615],[-123.37,38.615],[-123.37,38.615],[-123.37,38.615],[-123.37,38.615],[-123.37,38.614],[-123.37,38.614],[-123.37,38.614],[-123.37,38.614],[-123.369,38.614],[-123.369,38.614],[-123.369,38.614],[-123.369,38.614],[-123.369,38.614],[-123.369,38.614],[-123.369,38.614],[-123.368,38.614],[-123.368,38.614],[-123.368,38.614],[-123.368,38.614],[-123.368,38.614],[-123.368,38.614],[-123.368,38.614],[-123.368,38.614],[-123.368,38.614],[-123.367,38.614],[-123.367,38.614],[-123.367,38.613],[-123.367,38.613],[-123.367,38.613],[-123.367,38.613],[-123.367,38.613],[-123.367,38.613],[-123.366,38.613],[-123.366,38.613],[-123.366,38.612],[-123.366,38.612],[-123.366,38.612],[-123.366,38.612],[-123.366,38.612],[-123.366,38.612],[-123.366,38.612],[-123.366,38.612],[-123.366,38.611],[-123.366,38.611],[-123.366,38.611],[-123.366,38.612],[-123.366,38.612],[-123.366,38.611],[-123.366,38.611],[-123.366,38.611],[-123.366,38.611],[-123.367,38.611],[-123.367,38.611],[-123.367,38.611],[-123.367,38.611],[-123.367,38.611],[-123.367,38.611],[-123.367,38.611],[-123.367,38.611],[-123.367,38.611],[-123.367,38.611],[-123.367,38.611],[-123.367,38.611],[-123.367,38.611],[-123.367,38.611],[-123.367,38.611],[-123.367,38.611],[-123.367,38.611],[-123.367,38.611],[-123.367,38.611],[-123.367,38.611],[-123.367,38.611],[-123.367,38.611],[-123.367,38.611],[-123.367,38.611],[-123.367,38.611],[-123.367,38.611],[-123.367,38.611],[-123.367,38.61],[-123.367,38.61],[-123.367,38.61],[-123.367,38.61],[-123.367,38.61],[-123.367,38.61],[-123.367,38.61],[-123.367,38.61],[-123.367,38.61],[-123.367,38.61],[-123.367,38.61],[-123.367,38.61],[-123.367,38.61],[-123.367,38.61],[-123.367,38.61],[-123.367,38.609],[-123.367,38.609],[-123.367,38.609],[-123.367,38.609],[-123.367,38.609],[-123.367,38.609],[-123.367,38.609],[-123.367,38.609],[-123.367,38.609],[-123.367,38.609],[-123.367,38.609],[-123.367,38.609],[-123.367,38.609],[-123.367,38.608],[-123.367,38.608],[-123.367,38.608],[-123.367,38.608],[-123.367,38.608],[-123.367,38.608],[-123.367,38.608],[-123.367,38.608],[-123.367,38.608],[-123.367,38.608],[-123.368,38.608],[-123.368,38.608],[-123.368,38.608],[-123.368,38.608],[-123.368,38.608],[-123.368,38.608],[-123.368,38.608],[-123.368,38.608],[-123.368,38.608],[-123.368,38.608],[-123.368,38.608],[-123.368,38.608],[-123.368,38.608],[-123.368,38.608],[-123.368,38.608],[-123.368,38.608],[-123.368,38.608],[-123.368,38.608],[-123.368,38.608],[-123.368,38.608],[-123.368,38.608],[-123.368,38.608],[-123.368,38.608],[-123.368,38.608],[-123.368,38.608],[-123.368,38.608],[-123.368,38.608],[-123.368,38.608],[-123.369,38.608],[-123.369,38.608],[-123.369,38.608],[-123.369,38.608],[-123.369,38.608],[-123.369,38.608],[-123.369,38.608],[-123.369,38.608],[-123.369,38.608],[-123.369,38.608],[-123.369,38.608],[-123.369,38.608],[-123.369,38.608],[-123.369,38.608],[-123.369,38.608],[-123.369,38.608],[-123.369,38.608],[-123.369,38.608],[-123.369,38.608],[-123.369,38.608],[-123.369,38.608],[-123.369,38.608],[-123.369,38.608],[-123.369,38.608],[-123.369,38.608],[-123.369,38.608],[-123.369,38.608],[-123.369,38.608],[-123.369,38.608],[-123.369,38.608],[-123.369,38.608],[-123.369,38.608],[-123.369,38.608],[-123.369,38.608],[-123.369,38.608],[-123.37,38.608],[-123.37,38.608],[-123.37,38.608],[-123.37,38.608],[-123.37,38.608],[-123.37,38.608],[-123.37,38.608],[-123.37,38.608],[-123.37,38.608],[-123.37,38.608],[-123.37,38.608],[-123.371,38.608],[-123.371,38.608],[-123.371,38.608],[-123.371,38.608],[-123.371,38.608],[-123.371,38.608],[-123.371,38.608],[-123.371,38.607],[-123.371,38.607],[-123.371,38.607],[-123.372,38.607],[-123.372,38.607],[-123.372,38.607],[-123.372,38.607],[-123.372,38.607],[-123.372,38.607],[-123.372,38.607],[-123.372,38.607],[-123.371,38.607],[-123.371,38.607],[-123.371,38.607],[-123.371,38.607],[-123.371,38.607],[-123.371,38.607],[-123.371,38.607],[-123.371,38.606],[-123.371,38.606],[-123.371,38.606],[-123.371,38.606],[-123.371,38.606],[-123.37,38.606],[-123.37,38.606],[-123.37,38.606],[-123.37,38.606],[-123.37,38.606],[-123.37,38.606],[-123.37,38.605],[-123.37,38.605],[-123.37,38.605],[-123.37,38.605],[-123.37,38.605],[-123.37,38.605],[-123.37,38.605],[-123.37,38.605],[-123.37,38.605],[-123.37,38.605],[-123.37,38.605],[-123.37,38.605],[-123.37,38.605],[-123.37,38.605],[-123.37,38.605],[-123.37,38.605],[-123.37,38.605],[-123.37,38.605],[-123.37,38.605],[-123.37,38.605],[-123.37,38.604],[-123.37,38.604],[-123.37,38.604],[-123.37,38.604],[-123.369,38.604],[-123.369,38.604],[-123.369,38.604],[-123.369,38.604],[-123.369,38.604],[-123.369,38.604],[-123.369,38.604],[-123.369,38.604],[-123.369,38.604],[-123.369,38.604],[-123.369,38.604],[-123.369,38.604],[-123.369,38.604],[-123.369,38.604],[-123.369,38.604],[-123.369,38.604],[-123.369,38.604],[-123.369,38.604],[-123.369,38.604],[-123.369,38.604],[-123.369,38.604],[-123.369,38.604],[-123.369,38.604],[-123.369,38.604],[-123.369,38.604],[-123.369,38.604],[-123.369,38.604],[-123.369,38.604],[-123.369,38.604],[-123.369,38.604],[-123.369,38.604],[-123.369,38.604],[-123.369,38.604],[-123.369,38.604],[-123.369,38.604],[-123.369,38.604],[-123.369,38.604],[-123.369,38.604],[-123.369,38.604],[-123.369,38.604],[-123.368,38.604],[-123.368,38.604],[-123.368,38.604],[-123.368,38.604],[-123.368,38.604],[-123.368,38.604],[-123.368,38.604],[-123.368,38.604],[-123.368,38.604],[-123.368,38.604],[-123.368,38.604],[-123.368,38.604],[-123.368,38.604],[-123.368,38.604],[-123.368,38.604],[-123.368,38.604],[-123.368,38.604],[-123.368,38.604],[-123.368,38.604],[-123.367,38.604],[-123.367,38.604],[-123.367,38.604],[-123.367,38.604],[-123.367,38.603],[-123.367,38.603],[-123.367,38.603],[-123.367,38.603],[-123.367,38.603],[-123.367,38.603],[-123.367,38.603],[-123.367,38.603],[-123.367,38.603],[-123.366,38.603],[-123.366,38.603],[-123.366,38.603],[-123.366,38.603],[-123.366,38.603],[-123.366,38.603],[-123.366,38.603],[-123.366,38.603],[-123.366,38.603],[-123.366,38.602],[-123.366,38.602],[-123.366,38.602],[-123.365,38.602],[-123.365,38.602],[-123.365,38.602],[-123.365,38.602],[-123.365,38.602],[-123.365,38.602],[-123.365,38.602],[-123.365,38.602],[-123.365,38.602],[-123.365,38.602],[-123.365,38.602],[-123.364,38.602],[-123.364,38.602],[-123.364,38.602],[-123.364,38.602],[-123.364,38.602],[-123.364,38.602],[-123.364,38.602],[-123.364,38.602],[-123.364,38.602],[-123.364,38.602],[-123.364,38.602],[-123.364,38.602],[-123.363,38.602],[-123.363,38.602],[-123.363,38.602],[-123.363,38.602],[-123.363,38.602],[-123.363,38.602],[-123.363,38.602],[-123.363,38.602],[-123.363,38.601],[-123.363,38.601],[-123.363,38.601],[-123.363,38.601],[-123.363,38.601],[-123.363,38.601],[-123.362,38.601],[-123.362,38.601],[-123.362,38.601],[-123.362,38.601],[-123.362,38.601],[-123.362,38.601],[-123.362,38.601],[-123.362,38.601],[-123.362,38.601],[-123.362,38.601],[-123.362,38.601],[-123.362,38.601],[-123.362,38.601],[-123.362,38.601],[-123.362,38.601],[-123.362,38.601],[-123.362,38.601],[-123.362,38.601],[-123.362,38.601],[-123.362,38.601],[-123.362,38.601],[-123.362,38.601],[-123.361,38.601],[-123.361,38.601],[-123.361,38.601],[-123.361,38.601],[-123.361,38.601],[-123.361,38.601],[-123.361,38.601],[-123.361,38.601],[-123.361,38.601],[-123.361,38.601],[-123.361,38.601],[-123.361,38.601],[-123.361,38.601],[-123.361,38.601],[-123.361,38.601],[-123.361,38.601],[-123.361,38.601],[-123.361,38.601],[-123.361,38.601],[-123.361,38.6],[-123.361,38.6],[-123.361,38.6],[-123.361,38.6],[-123.361,38.6],[-123.361,38.6],[-123.361,38.6],[-123.361,38.6],[-123.361,38.6],[-123.361,38.6],[-123.361,38.6],[-123.361,38.6],[-123.361,38.6],[-123.361,38.599],[-123.361,38.599],[-123.36,38.599],[-123.36,38.599],[-123.36,38.599],[-123.36,38.599],[-123.36,38.599],[-123.36,38.599],[-123.36,38.599],[-123.36,38.599],[-123.36,38.599],[-123.36,38.599],[-123.36,38.599],[-123.36,38.599],[-123.36,38.599],[-123.36,38.598],[-123.36,38.598],[-123.36,38.598],[-123.36,38.598],[-123.36,38.598],[-123.36,38.598],[-123.361,38.598],[-123.36,38.598],[-123.36,38.598],[-123.36,38.598],[-123.36,38.598],[-123.36,38.598],[-123.36,38.598],[-123.36,38.598],[-123.36,38.598],[-123.36,38.598],[-123.36,38.598],[-123.36,38.597],[-123.36,38.597],[-123.36,38.597],[-123.36,38.597],[-123.359,38.597],[-123.36,38.597],[-123.36,38.598],[-123.36,38.598],[-123.36,38.598],[-123.36,38.598],[-123.36,38.598],[-123.36,38.598],[-123.36,38.598],[-123.359,38.598],[-123.359,38.598],[-123.359,38.598],[-123.359,38.598],[-123.359,38.598],[-123.359,38.598],[-123.359,38.598],[-123.359,38.598],[-123.359,38.598],[-123.359,38.598],[-123.359,38.598],[-123.359,38.598],[-123.358,38.598],[-123.358,38.597],[-123.358,38.597],[-123.358,38.597],[-123.358,38.597],[-123.358,38.597],[-123.358,38.597],[-123.358,38.597],[-123.357,38.597],[-123.357,38.597],[-123.357,38.597],[-123.357,38.597],[-123.357,38.597],[-123.357,38.597],[-123.357,38.597],[-123.357,38.598],[-123.357,38.598],[-123.357,38.598],[-123.357,38.598],[-123.357,38.598],[-123.357,38.598],[-123.357,38.598],[-123.357,38.598],[-123.357,38.598],[-123.357,38.598],[-123.356,38.598],[-123.356,38.598],[-123.356,38.598],[-123.356,38.598],[-123.356,38.598],[-123.356,38.598],[-123.356,38.599],[-123.355,38.599],[-123.355,38.598],[-123.355,38.598],[-123.355,38.598],[-123.355,38.598],[-123.355,38.598],[-123.355,38.598],[-123.355,38.598],[-123.355,38.598],[-123.355,38.598],[-123.354,38.598],[-123.354,38.598],[-123.354,38.598],[-123.354,38.598],[-123.354,38.598],[-123.354,38.598],[-123.354,38.598],[-123.354,38.598],[-123.354,38.598],[-123.354,38.598],[-123.353,38.598],[-123.353,38.598],[-123.353,38.598],[-123.353,38.598],[-123.353,38.598],[-123.353,38.598],[-123.353,38.598],[-123.353,38.598],[-123.353,38.598],[-123.353,38.598],[-123.353,38.598],[-123.353,38.598],[-123.353,38.598],[-123.353,38.598],[-123.352,38.598],[-123.352,38.598],[-123.352,38.598],[-123.352,38.598],[-123.352,38.597],[-123.352,38.597],[-123.352,38.597],[-123.352,38.597],[-123.352,38.597],[-123.352,38.597],[-123.352,38.597],[-123.352,38.597],[-123.352,38.597],[-123.352,38.597],[-123.352,38.597],[-123.352,38.597],[-123.351,38.597],[-123.351,38.597],[-123.351,38.597],[-123.351,38.597],[-123.351,38.597],[-123.351,38.597],[-123.351,38.597],[-123.351,38.597],[-123.351,38.597],[-123.351,38.597],[-123.35,38.597],[-123.35,38.597],[-123.35,38.597],[-123.35,38.597],[-123.35,38.597],[-123.35,38.597],[-123.35,38.597],[-123.349,38.597],[-123.349,38.597],[-123.349,38.597],[-123.349,38.596],[-123.349,38.596],[-123.349,38.596],[-123.349,38.596],[-123.349,38.596],[-123.349,38.596],[-123.349,38.596],[-123.349,38.596],[-123.349,38.595],[-123.349,38.595],[-123.349,38.595],[-123.349,38.595],[-123.349,38.595],[-123.349,38.595],[-123.349,38.595],[-123.349,38.595],[-123.349,38.595],[-123.349,38.595],[-123.348,38.595],[-123.348,38.595],[-123.348,38.595],[-123.348,38.595],[-123.348,38.594],[-123.348,38.594],[-123.348,38.594],[-123.348,38.594],[-123.348,38.594],[-123.348,38.594],[-123.348,38.594],[-123.348,38.594],[-123.348,38.594],[-123.348,38.594],[-123.348,38.594],[-123.347,38.594],[-123.347,38.594],[-123.347,38.594],[-123.347,38.594],[-123.347,38.594],[-123.347,38.594],[-123.347,38.594],[-123.347,38.594],[-123.347,38.594],[-123.347,38.594],[-123.347,38.593],[-123.347,38.593],[-123.347,38.593],[-123.347,38.593],[-123.35,38.593],[-123.433,38.593],[-123.434,38.593],[-123.434,38.593],[-123.434,38.593],[-123.434,38.593],[-123.434,38.594],[-123.434,38.594],[-123.434,38.594],[-123.434,38.594],[-123.434,38.594],[-123.434,38.594],[-123.434,38.594],[-123.435,38.594],[-123.435,38.595],[-123.436,38.595],[-123.437,38.596],[-123.438,38.597],[-123.438,38.597],[-123.439,38.598],[-123.439,38.598],[-123.44,38.599],[-123.441,38.599],[-123.442,38.6],[-123.443,38.601],[-123.443,38.601],[-123.444,38.602],[-123.445,38.603],[-123.445,38.603],[-123.446,38.604],[-123.447,38.605],[-123.447,38.605],[-123.448,38.606],[-123.449,38.607],[-123.449,38.607],[-123.449,38.607],[-123.45,38.608],[-123.451,38.609],[-123.451,38.61],[-123.452,38.61],[-123.452,38.611],[-123.453,38.612],[-123.453,38.613],[-123.454,38.614],[-123.454,38.614],[-123.455,38.615],[-123.455,38.616],[-123.455,38.617],[-123.456,38.618],[-123.456,38.618],[-123.457,38.619],[-123.457,38.619],[-123.457,38.62],[-123.458,38.62],[-123.458,38.621],[-123.459,38.621],[-123.459,38.622],[-123.46,38.622],[-123.461,38.623],[-123.462,38.624],[-123.462,38.624],[-123.463,38.625],[-123.464,38.626],[-123.464,38.626],[-123.465,38.627],[-123.466,38.628],[-123.466,38.628],[-123.467,38.629],[-123.468,38.63],[-123.468,38.631],[-123.469,38.631],[-123.469,38.632],[-123.47,38.633],[-123.47,38.634],[-123.471,38.634],[-123.471,38.635],[-123.472,38.636],[-123.472,38.637],[-123.473,38.638],[-123.473,38.638],[-123.473,38.639],[-123.474,38.639],[-123.475,38.639],[-123.476,38.64],[-123.476,38.641],[-123.477,38.641],[-123.478,38.642],[-123.479,38.642],[-123.48,38.643],[-123.48,38.644],[-123.481,38.644],[-123.482,38.645],[-123.483,38.645],[-123.484,38.646],[-123.484,38.647],[-123.485,38.647],[-123.486,38.648],[-123.486,38.649],[-123.487,38.649],[-123.488,38.65],[-123.488,38.651],[-123.489,38.651],[-123.49,38.652],[-123.49,38.653],[-123.491,38.653],[-123.491,38.654],[-123.492,38.655],[-123.493,38.656],[-123.493,38.656],[-123.494,38.657],[-123.494,38.658],[-123.495,38.659],[-123.495,38.66],[-123.496,38.66],[-123.496,38.661],[-123.496,38.662],[-123.497,38.663],[-123.497,38.664],[-123.498,38.664],[-123.498,38.665],[-123.498,38.666],[-123.499,38.667],[-123.499,38.668],[-123.499,38.669],[-123.499,38.669],[-123.5,38.67],[-123.5,38.671],[-123.5,38.671],[-123.501,38.671],[-123.502,38.672],[-123.503,38.674],[-123.503,38.674],[-123.503,38.674],[-123.503,38.674],[-123.503,38.674],[-123.504,38.675],[-123.504,38.675],[-123.504,38.675],[-123.504,38.675],[-123.504,38.675],[-123.504,38.675],[-123.504,38.675],[-123.425,38.675],[-123.422,38.675],[-123.422,38.675],[-123.422,38.675],[-123.422,38.675],[-123.422,38.675],[-123.422,38.675],[-123.422,38.675],[-123.422,38.675],[-123.422,38.675],[-123.422,38.675],[-123.422,38.675],[-123.422,38.675],[-123.422,38.675],[-123.422,38.675],[-123.422,38.675],[-123.422,38.675],[-123.422,38.675],[-123.422,38.675],[-123.422,38.675],[-123.422,38.675],[-123.422,38.675],[-123.422,38.675],[-123.422,38.675],[-123.422,38.675],[-123.422,38.675],[-123.422,38.675],[-123.422,38.675],[-123.422,38.675],[-123.421,38.675],[-123.421,38.675],[-123.421,38.675],[-123.421,38.675],[-123.421,38.675],[-123.421,38.675],[-123.421,38.675],[-123.421,38.675],[-123.421,38.675],[-123.421,38.675],[-123.421,38.675],[-123.421,38.675],[-123.421,38.675],[-123.421,38.675],[-123.421,38.675],[-123.421,38.675],[-123.421,38.675],[-123.421,38.675],[-123.421,38.675],[-123.421,38.675],[-123.421,38.675],[-123.421,38.675],[-123.421,38.675],[-123.421,38.675],[-123.421,38.675],[-123.421,38.675],[-123.421,38.675],[-123.421,38.675],[-123.421,38.675],[-123.421,38.675],[-123.421,38.675],[-123.421,38.675],[-123.421,38.675],[-123.42,38.675],[-123.42,38.675],[-123.42,38.675],[-123.42,38.675],[-123.42,38.675],[-123.42,38.675],[-123.42,38.675],[-123.42,38.675],[-123.42,38.675],[-123.42,38.675],[-123.42,38.675],[-123.42,38.675],[-123.42,38.675],[-123.42,38.675],[-123.42,38.675],[-123.42,38.675],[-123.42,38.675],[-123.42,38.675],[-123.42,38.675],[-123.42,38.675],[-123.42,38.675],[-123.42,38.675],[-123.42,38.675],[-123.42,38.675],[-123.42,38.675],[-123.42,38.675],[-123.42,38.675],[-123.42,38.675],[-123.42,38.675],[-123.42,38.675],[-123.42,38.675],[-123.42,38.675],[-123.42,38.675],[-123.419,38.675],[-123.419,38.675],[-123.419,38.675],[-123.419,38.675],[-123.419,38.675],[-123.419,38.675],[-123.419,38.675],[-123.419,38.674],[-123.419,38.674],[-123.419,38.674],[-123.419,38.674],[-123.419,38.674],[-123.419,38.674],[-123.419,38.674],[-123.419,38.674],[-123.419,38.674],[-123.419,38.674],[-123.419,38.674],[-123.419,38.674],[-123.419,38.674],[-123.419,38.674],[-123.419,38.674],[-123.419,38.674],[-123.419,38.674],[-123.419,38.674],[-123.419,38.674],[-123.419,38.674],[-123.42,38.674],[-123.42,38.674],[-123.42,38.674],[-123.42,38.674],[-123.42,38.674],[-123.42,38.674],[-123.42,38.674],[-123.42,38.673],[-123.42,38.673],[-123.42,38.673],[-123.419,38.673],[-123.419,38.673],[-123.419,38.673],[-123.419,38.673],[-123.419,38.673],[-123.419,38.673],[-123.419,38.673],[-123.419,38.673],[-123.419,38.673],[-123.419,38.673],[-123.419,38.673],[-123.419,38.673],[-123.419,38.673],[-123.419,38.673],[-123.419,38.673],[-123.419,38.673],[-123.419,38.673],[-123.419,38.673],[-123.419,38.673],[-123.419,38.673],[-123.419,38.673],[-123.419,38.673],[-123.419,38.673],[-123.419,38.673],[-123.419,38.673],[-123.419,38.673],[-123.419,38.673],[-123.419,38.673],[-123.419,38.672],[-123.419,38.672],[-123.419,38.672],[-123.418,38.672],[-123.418,38.672],[-123.418,38.672],[-123.418,38.672],[-123.418,38.672],[-123.418,38.672],[-123.418,38.672],[-123.418,38.672],[-123.418,38.672],[-123.418,38.672],[-123.418,38.672],[-123.418,38.672],[-123.418,38.672],[-123.418,38.672],[-123.418,38.672],[-123.418,38.672],[-123.418,38.672],[-123.418,38.672],[-123.418,38.672],[-123.418,38.672],[-123.418,38.672],[-123.418,38.672],[-123.418,38.672],[-123.418,38.672],[-123.418,38.672],[-123.418,38.672],[-123.418,38.672],[-123.418,38.672],[-123.418,38.671],[-123.418,38.671],[-123.418,38.671],[-123.418,38.671],[-123.418,38.671],[-123.417,38.671],[-123.417,38.671],[-123.417,38.671],[-123.417,38.671],[-123.417,38.671],[-123.417,38.671],[-123.417,38.671],[-123.417,38.671],[-123.417,38.671],[-123.417,38.671],[-123.417,38.671],[-123.417,38.671],[-123.417,38.671],[-123.417,38.671],[-123.417,38.671],[-123.417,38.671],[-123.417,38.671],[-123.416,38.671],[-123.416,38.671],[-123.416,38.671],[-123.416,38.671],[-123.416,38.671],[-123.416,38.671],[-123.416,38.671],[-123.416,38.67],[-123.416,38.67],[-123.416,38.67],[-123.416,38.67],[-123.416,38.67],[-123.416,38.67],[-123.416,38.67],[-123.416,38.67],[-123.416,38.67],[-123.417,38.67],[-123.417,38.67],[-123.417,38.67],[-123.417,38.67],[-123.417,38.67],[-123.417,38.67],[-123.417,38.67],[-123.416,38.67],[-123.416,38.67],[-123.416,38.67],[-123.416,38.67],[-123.416,38.67],[-123.416,38.67],[-123.416,38.67],[-123.416,38.67],[-123.416,38.67],[-123.416,38.67],[-123.416,38.67],[-123.416,38.67],[-123.416,38.67],[-123.416,38.67],[-123.416,38.67],[-123.416,38.67],[-123.416,38.67],[-123.416,38.67],[-123.416,38.67],[-123.416,38.67],[-123.416,38.67],[-123.416,38.67],[-123.416,38.67],[-123.416,38.67],[-123.416,38.67],[-123.416,38.67],[-123.416,38.67],[-123.416,38.67],[-123.416,38.669],[-123.416,38.669],[-123.416,38.669],[-123.416,38.669],[-123.416,38.669],[-123.416,38.669],[-123.416,38.669],[-123.415,38.669],[-123.415,38.669],[-123.415,38.669],[-123.415,38.669],[-123.415,38.669],[-123.415,38.669],[-123.415,38.669],[-123.415,38.669],[-123.415,38.669],[-123.415,38.669],[-123.415,38.669],[-123.415,38.669],[-123.415,38.669],[-123.415,38.669],[-123.415,38.669],[-123.415,38.669],[-123.415,38.669],[-123.415,38.669],[-123.415,38.669],[-123.415,38.669],[-123.415,38.669],[-123.415,38.669],[-123.415,38.669],[-123.415,38.669],[-123.415,38.668],[-123.415,38.668],[-123.415,38.668],[-123.415,38.668],[-123.415,38.668],[-123.415,38.668],[-123.415,38.668],[-123.415,38.668],[-123.415,38.668],[-123.415,38.668],[-123.415,38.668],[-123.415,38.668],[-123.415,38.668],[-123.415,38.668],[-123.415,38.668],[-123.415,38.668],[-123.415,38.668],[-123.415,38.668],[-123.415,38.668],[-123.415,38.668],[-123.415,38.668],[-123.415,38.668],[-123.415,38.668],[-123.415,38.668],[-123.415,38.668],[-123.415,38.668],[-123.416,38.668],[-123.416,38.668],[-123.416,38.668],[-123.416,38.668],[-123.416,38.668],[-123.415,38.668],[-123.415,38.668],[-123.415,38.668],[-123.415,38.668],[-123.415,38.668],[-123.415,38.668],[-123.415,38.668],[-123.415,38.668],[-123.415,38.668],[-123.415,38.668],[-123.415,38.668],[-123.415,38.668],[-123.415,38.668],[-123.415,38.668],[-123.415,38.668],[-123.416,38.668],[-123.416,38.668],[-123.416,38.668],[-123.416,38.668],[-123.416,38.668],[-123.416,38.668],[-123.416,38.668],[-123.416,38.668],[-123.416,38.668],[-123.416,38.668],[-123.416,38.668],[-123.416,38.668],[-123.416,38.668],[-123.416,38.668],[-123.416,38.668],[-123.416,38.668],[-123.416,38.668],[-123.417,38.668],[-123.417,38.668],[-123.417,38.668],[-123.416,38.668],[-123.416,38.668],[-123.416,38.668],[-123.416,38.668],[-123.416,38.668],[-123.416,38.667],[-123.416,38.667],[-123.416,38.667],[-123.416,38.667],[-123.416,38.667],[-123.416,38.667],[-123.416,38.667],[-123.416,38.667],[-123.416,38.667],[-123.416,38.667],[-123.416,38.667],[-123.416,38.667],[-123.416,38.667],[-123.416,38.667],[-123.416,38.667],[-123.416,38.667],[-123.416,38.667],[-123.415,38.667],[-123.415,38.667],[-123.415,38.667],[-123.415,38.667],[-123.415,38.667],[-123.415,38.667],[-123.415,38.667],[-123.415,38.667],[-123.415,38.667],[-123.415,38.667],[-123.415,38.667],[-123.415,38.667],[-123.415,38.667],[-123.415,38.667],[-123.415,38.667],[-123.415,38.667],[-123.415,38.667],[-123.415,38.667],[-123.415,38.667],[-123.415,38.667],[-123.415,38.667],[-123.415,38.667],[-123.415,38.667],[-123.415,38.667],[-123.415,38.667],[-123.415,38.667],[-123.415,38.667],[-123.415,38.667],[-123.415,38.666],[-123.415,38.666],[-123.415,38.666],[-123.415,38.666],[-123.415,38.666],[-123.415,38.666],[-123.415,38.666],[-123.415,38.666],[-123.415,38.666],[-123.415,38.666],[-123.415,38.666],[-123.415,38.666],[-123.415,38.666],[-123.415,38.666],[-123.415,38.666],[-123.415,38.666],[-123.414,38.666],[-123.414,38.666],[-123.414,38.666],[-123.414,38.666],[-123.414,38.666],[-123.414,38.666],[-123.414,38.666],[-123.414,38.666],[-123.414,38.666],[-123.414,38.666],[-123.414,38.666],[-123.414,38.666],[-123.414,38.666],[-123.414,38.666],[-123.414,38.666],[-123.414,38.666],[-123.414,38.666],[-123.414,38.666],[-123.414,38.666],[-123.414,38.666],[-123.414,38.666],[-123.413,38.666],[-123.413,38.666],[-123.413,38.666],[-123.413,38.666],[-123.413,38.665],[-123.413,38.665],[-123.413,38.665],[-123.413,38.665],[-123.413,38.665],[-123.413,38.665],[-123.413,38.665],[-123.413,38.665],[-123.413,38.665],[-123.413,38.665],[-123.413,38.665],[-123.413,38.665],[-123.413,38.665],[-123.413,38.665],[-123.412,38.665],[-123.412,38.665],[-123.412,38.665],[-123.412,38.665],[-123.412,38.665],[-123.412,38.665],[-123.412,38.665],[-123.412,38.665],[-123.412,38.665],[-123.412,38.665],[-123.412,38.664],[-123.412,38.664],[-123.412,38.664],[-123.412,38.664],[-123.412,38.664],[-123.412,38.664],[-123.412,38.664],[-123.412,38.664],[-123.412,38.664],[-123.412,38.664],[-123.412,38.664],[-123.412,38.664],[-123.412,38.664],[-123.412,38.664],[-123.412,38.664],[-123.412,38.664],[-123.411,38.664],[-123.411,38.664],[-123.411,38.664],[-123.411,38.664],[-123.411,38.664],[-123.411,38.664],[-123.411,38.664],[-123.411,38.664],[-123.411,38.663],[-123.411,38.663],[-123.411,38.663],[-123.411,38.663],[-123.411,38.663],[-123.411,38.663],[-123.411,38.663],[-123.411,38.663],[-123.411,38.663],[-123.411,38.663],[-123.41,38.663],[-123.41,38.663],[-123.41,38.663],[-123.41,38.663],[-123.41,38.663],[-123.41,38.663],[-123.41,38.663],[-123.41,38.663],[-123.41,38.663],[-123.41,38.663],[-123.41,38.663],[-123.41,38.663],[-123.41,38.663],[-123.41,38.663],[-123.41,38.663],[-123.41,38.663],[-123.41,38.663],[-123.409,38.662],[-123.409,38.662],[-123.409,38.662],[-123.409,38.662],[-123.409,38.662],[-123.409,38.662],[-123.409,38.662],[-123.409,38.662],[-123.409,38.662],[-123.409,38.662],[-123.409,38.662],[-123.409,38.662],[-123.409,38.662],[-123.409,38.662],[-123.409,38.662],[-123.409,38.662],[-123.409,38.662],[-123.409,38.662],[-123.409,38.662],[-123.409,38.661],[-123.409,38.661],[-123.409,38.661],[-123.409,38.661],[-123.409,38.661],[-123.409,38.661],[-123.409,38.661],[-123.409,38.661],[-123.409,38.661],[-123.409,38.661],[-123.409,38.661],[-123.409,38.661],[-123.409,38.661],[-123.409,38.661],[-123.409,38.661],[-123.409,38.661],[-123.409,38.661],[-123.409,38.661],[-123.409,38.661],[-123.409,38.661],[-123.409,38.661],[-123.409,38.661],[-123.409,38.661],[-123.409,38.661],[-123.409,38.661],[-123.409,38.661],[-123.409,38.661],[-123.409,38.661],[-123.409,38.66],[-123.409,38.661],[-123.409,38.661],[-123.409,38.66],[-123.409,38.66],[-123.409,38.66],[-123.409,38.66],[-123.409,38.66],[-123.409,38.66],[-123.409,38.66],[-123.409,38.66],[-123.409,38.66],[-123.409,38.66],[-123.409,38.66],[-123.409,38.66],[-123.409,38.66],[-123.409,38.66],[-123.409,38.66],[-123.409,38.66],[-123.409,38.66],[-123.409,38.66],[-123.409,38.66],[-123.409,38.66],[-123.409,38.66],[-123.409,38.659],[-123.409,38.659],[-123.409,38.659],[-123.409,38.659],[-123.409,38.659],[-123.409,38.659],[-123.409,38.659],[-123.409,38.659],[-123.409,38.659],[-123.409,38.659],[-123.409,38.659],[-123.409,38.659],[-123.409,38.659],[-123.409,38.659],[-123.409,38.659],[-123.409,38.659],[-123.409,38.659],[-123.409,38.659],[-123.409,38.659],[-123.409,38.659],[-123.409,38.659],[-123.409,38.659],[-123.409,38.659],[-123.409,38.659],[-123.408,38.659],[-123.408,38.659],[-123.408,38.659],[-123.408,38.659],[-123.408,38.659],[-123.408,38.659],[-123.408,38.659],[-123.408,38.659],[-123.408,38.659],[-123.408,38.659],[-123.408,38.659],[-123.408,38.659],[-123.408,38.659],[-123.414,38.659],[-123.414,38.659],[-123.386,38.616]]]},"properties":{"id":"stewarts-point-state-marine-reserve","name":"Stewarts Point State Marine Reserve","type":"SMR","shortName":"Stewarts Point","areaKm2":null,"ccrCitation":null}}]}