{"type":"FeatureCollection","features":[{"type":"Feature","geometry":{"type":"Point","coordinates":[-123.38009,38.60304]},"properties":{"depth_ft":150,"depth_m":45.6}},{"type":"Feature","geometry":{"type":"Point","coordinates":[-123.37608,38.60304]},"properties":{"depth_ft":133,"depth_m":40.7}},{"type":"Feature","geometry":{"type":"Point","coordinates":[-123.37207,38.60304]},"properties":{"depth_ft":115,"depth_m":35.2}},{"type":"Feature","geometry":{"type":"Point","coordinates":[-123.36807,38.60304]},"properties":{"depth_ft":30,"depth_m":9.3}},{"type":"Feature","geometry":{"type":"Point","coordinates":[-123.38009,38.5999]},"properties":{"depth_ft":171,"depth_m":52.1}},{"type":"Feature","geometry":{"type":"Point","coordinates":[-123.37608,38.5999]},"properties":{"depth_ft":156,"depth_m":47.4}},{"type":"Feature","geometry":{"type":"Point","coordinates":[-123.37207,38.5999]},"properties":{"depth_ft":115,"depth_m":35.0}},{"type":"Feature","geometry":{"type":"Point","coordinates":[-123.36807,38.5999]},"properties":{"depth_ft":78,"depth_m":23.9}},{"type":"Feature","geometry":{"type":"Point","coordinates":[-123.36406,38.5999]},"properties":{"depth_ft":40,"depth_m":12.1}},{"type":"Feature","geometry":{"type":"Point","coordinates":[-123.38009,38.59677]},"properties":{"depth_ft":189,"depth_m":57.5}},{"type":"Feature","geometry":{"type":"Point","coordinates":[-123.37608,38.59677]},"properties":{"depth_ft":172,"depth_m":52.5}},{"type":"Feature","geometry":{"type":"Point","coordinates":[-123.37207,38.59677]},"properties":{"depth_ft":132,"depth_m":40.3}},{"type":"Feature","geometry":{"type":"Point","coordinates":[-123.36807,38.59677]},"properties":{"depth_ft":69,"depth_m":21.1}},{"type":"Feature","geometry":{"type":"Point","coordinates":[-123.36406,38.59677]},"properties":{"depth_ft":65,"depth_m":19.8}},{"type":"Feature","geometry":{"type":"Point","coordinates":[-123.36005,38.59677]},"properties":{"depth_ft":32,"depth_m":9.6}},{"type":"Feature","geometry":{"type":"Point","coordinates":[-123.35604,38.59677]},"properties":{"depth_ft":26,"depth_m":7.9}},{"type":"Feature","geometry":{"type":"Point","coordinates":[-123.35203,38.59677]},"properties":{"depth_ft":15,"depth_m":4.6}},{"type":"Feature","geometry":{"type":"Point","coordinates":[-123.38009,38.59364]},"properties":{"depth_ft":202,"depth_m":61.7}},{"type":"Feature","geometry":{"type":"Point","coordinates":[-123.37608,38.59364]},"properties":{"depth_ft":189,"depth_m":57.7}},{"type":"Feature","geometry":{"type":"Point","coordinates":[-123.37207,38.59364]},"properties":{"depth_ft":185,"depth_m":56.3}},{"type":"Feature","geometry":{"type":"Point","coordinates":[-123.36807,38.59364]},"properties":{"depth_ft":169,"depth_m":51.5}},{"type":"Feature","geometry":{"type":"Point","coordinates":[-123.36406,38.59364]},"properties":{"depth_ft":126,"depth_m":38.5}},{"type":"Feature","geometry":{"type":"Point","coordinates":[-123.36005,38.59364]},"properties":{"depth_ft":104,"depth_m":31.7}},{"type":"Feature","geometry":{"type":"Point","coordinates":[-123.35604,38.59364]},"properties":{"depth_ft":86,"depth_m":26.2}},{"type":"Feature","geometry":{"type":"Point","coordinates":[-123.35203,38.59364]},"properties":{"depth_ft":51,"depth_m":15.6}},{"type":"Feature","geometry":{"type":"Point","coordinates":[-123.34803,38.59364]},"properties":{"depth_ft":9,"depth_m":2.9}},{"type":"Feature","geometry":{"type":"Point","coordinates":[-123.38009,38.5905]},"properties":{"depth_ft":218,"depth_m":66.5}},{"type":"Feature","geometry":{"type":"Point","coordinates":[-123.37608,38.5905]},"properties":{"depth_ft":207,"depth_m":63.0}},{"type":"Feature","geometry":{"type":"Point","coordinates":[-123.37207,38.5905]},"properties":{"depth_ft":194,"depth_m":59.2}},{"type":"Feature","geometry":{"type":"Point","coordinates":[-123.36807,38.5905]},"properties":{"depth_ft":181,"depth_m":55.2}},{"type":"Feature","geometry":{"type":"Point","coordinates":[-123.36406,38.5905]},"properties":{"depth_ft":168,"depth_m":51.3}},{"type":"Feature","geometry":{"type":"Point","coordinates":[-123.36005,38.5905]},"properties":{"depth_ft":140,"depth_m":42.7}},{"type":"Feature","geometry":{"type":"Point","coordinates":[-123.35604,38.5905]},"properties":{"depth_ft":118,"depth_m":35.8}},{"type":"Feature","geometry":{"type":"Point","coordinates":[-123.35203,38.5905]},"properties":{"depth_ft":82,"depth_m":24.9}},{"type":"Feature","geometry":{"type":"Point","coordinates":[-123.34803,38.5905]},"properties":{"depth_ft":28,"depth_m":8.6}},{"type":"Feature","geometry":{"type":"Point","coordinates":[-123.38009,38.58737]},"properties":{"depth_ft":224,"depth_m":68.1}},{"type":"Feature","geometry":{"type":"Point","coordinates":[-123.37608,38.58737]},"properties":{"depth_ft":214,"depth_m":65.3}},{"type":"Feature","geometry":{"type":"Point","coordinates":[-123.37207,38.58737]},"properties":{"depth_ft":203,"depth_m":61.7}},{"type":"Feature","geometry":{"type":"Point","coordinates":[-123.36807,38.58737]},"properties":{"depth_ft":188,"depth_m":57.3}},{"type":"Feature","geometry":{"type":"Point","coordinates":[-123.36406,38.58737]},"properties":{"depth_ft":169,"depth_m":51.6}},{"type":"Feature","geometry":{"type":"Point","coordinates":[-123.36005,38.58737]},"properties":{"depth_ft":149,"depth_m":45.5}},{"type":"Feature","geometry":{"type":"Point","coordinates":[-123.35604,38.58737]},"properties":{"depth_ft":132,"depth_m":40.2}},{"type":"Feature","geometry":{"type":"Point","coordinates":[-123.35203,38.58737]},"properties":{"depth_ft":102,"depth_m":31.1}},{"type":"Feature","geometry":{"type":"Point","coordinates":[-123.34803,38.58737]},"properties":{"depth_ft":75,"depth_m":22.7}},{"type":"Feature","geometry":{"type":"Point","coordinates":[-123.34402,38.58737]},"properties":{"depth_ft":19,"depth_m":5.9}},{"type":"Feature","geometry":{"type":"Point","coordinates":[-123.38009,38.58423]},"properties":{"depth_ft":230,"depth_m":70.0}},{"type":"Feature","geometry":{"type":"Point","coordinates":[-123.37608,38.58423]},"properties":{"depth_ft":221,"depth_m":67.3}},{"type":"Feature","geometry":{"type":"Point","coordinates":[-123.37207,38.58423]},"properties":{"depth_ft":211,"depth_m":64.3}},{"type":"Feature","geometry":{"type":"Point","coordinates":[-123.36807,38.58423]},"properties":{"depth_ft":194,"depth_m":59.2}},{"type":"Feature","geometry":{"type":"Point","coordinates":[-123.36406,38.58423]},"properties":{"depth_ft":171,"depth_m":52.2}},{"type":"Feature","geometry":{"type":"Point","coordinates":[-123.36005,38.58423]},"properties":{"depth_ft":149,"depth_m":45.5}},{"type":"Feature","geometry":{"type":"Point","coordinates":[-123.35604,38.58423]},"properties":{"depth_ft":130,"depth_m":39.7}},{"type":"Feature","geometry":{"type":"Point","coordinates":[-123.35203,38.58423]},"properties":{"depth_ft":108,"depth_m":32.8}},{"type":"Feature","geometry":{"type":"Point","coordinates":[-123.34803,38.58423]},"properties":{"depth_ft":83,"depth_m":25.4}},{"type":"Feature","geometry":{"type":"Point","coordinates":[-123.34402,38.58423]},"properties":{"depth_ft":51,"depth_m":15.5}},{"type":"Feature","geometry":{"type":"Point","coordinates":[-123.38009,38.5811]},"properties":{"depth_ft":236,"depth_m":71.9}},{"type":"Feature","geometry":{"type":"Point","coordinates":[-123.37608,38.5811]},"properties":{"depth_ft":227,"depth_m":69.3}},{"type":"Feature","geometry":{"type":"Point","coordinates":[-123.37207,38.5811]},"properties":{"depth_ft":218,"depth_m":66.5}},{"type":"Feature","geometry":{"type":"Point","coordinates":[-123.36807,38.5811]},"properties":{"depth_ft":206,"depth_m":62.6}},{"type":"Feature","geometry":{"type":"Point","coordinates":[-123.36406,38.5811]},"properties":{"depth_ft":183,"depth_m":55.8}},{"type":"Feature","geometry":{"type":"Point","coordinates":[-123.36005,38.5811]},"properties":{"depth_ft":158,"depth_m":48.0}},{"type":"Feature","geometry":{"type":"Point","coordinates":[-123.35604,38.5811]},"properties":{"depth_ft":135,"depth_m":41.1}},{"type":"Feature","geometry":{"type":"Point","coordinates":[-123.35203,38.5811]},"properties":{"depth_ft":114,"depth_m":34.7}},{"type":"Feature","geometry":{"type":"Point","coordinates":[-123.34803,38.5811]},"properties":{"depth_ft":94,"depth_m":28.6}},{"type":"Feature","geometry":{"type":"Point","coordinates":[-123.34402,38.5811]},"properties":{"depth_ft":50,"depth_m":15.3}},{"type":"Feature","geometry":{"type":"Point","coordinates":[-123.34001,38.5811]},"properties":{"depth_ft":17,"depth_m":5.3}},{"type":"Feature","geometry":{"type":"Point","coordinates":[-123.38009,38.57797]},"properties":{"depth_ft":242,"depth_m":73.8}},{"type":"Feature","geometry":{"type":"Point","coordinates":[-123.37608,38.57797]},"properties":{"depth_ft":234,"depth_m":71.5}},{"type":"Feature","geometry":{"type":"Point","coordinates":[-123.37207,38.57797]},"properties":{"depth_ft":226,"depth_m":68.9}},{"type":"Feature","geometry":{"type":"Point","coordinates":[-123.36807,38.57797]},"properties":{"depth_ft":216,"depth_m":66.0}},{"type":"Feature","geometry":{"type":"Point","coordinates":[-123.36406,38.57797]},"properties":{"depth_ft":198,"depth_m":60.3}},{"type":"Feature","geometry":{"type":"Point","coordinates":[-123.36005,38.57797]},"properties":{"depth_ft":169,"depth_m":51.6}},{"type":"Feature","geometry":{"type":"Point","coordinates":[-123.35604,38.57797]},"properties":{"depth_ft":146,"depth_m":44.5}},{"type":"Feature","geometry":{"type":"Point","coordinates":[-123.35203,38.57797]},"properties":{"depth_ft":127,"depth_m":38.8}},{"type":"Feature","geometry":{"type":"Point","coordinates":[-123.34803,38.57797]},"properties":{"depth_ft":108,"depth_m":32.9}},{"type":"Feature","geometry":{"type":"Point","coordinates":[-123.34402,38.57797]},"properties":{"depth_ft":69,"depth_m":21.2}},{"type":"Feature","geometry":{"type":"Point","coordinates":[-123.38009,38.57483]},"properties":{"depth_ft":248,"depth_m":75.6}},{"type":"Feature","geometry":{"type":"Point","coordinates":[-123.37608,38.57483]},"properties":{"depth_ft":241,"depth_m":73.4}},{"type":"Feature","geometry":{"type":"Point","coordinates":[-123.37207,38.57483]},"properties":{"depth_ft":233,"depth_m":71.1}},{"type":"Feature","geometry":{"type":"Point","coordinates":[-123.36807,38.57483]},"properties":{"depth_ft":226,"depth_m":68.8}},{"type":"Feature","geometry":{"type":"Point","coordinates":[-123.36406,38.57483]},"properties":{"depth_ft":214,"depth_m":65.3}},{"type":"Feature","geometry":{"type":"Point","coordinates":[-123.36005,38.57483]},"properties":{"depth_ft":187,"depth_m":57.0}},{"type":"Feature","geometry":{"type":"Point","coordinates":[-123.35604,38.57483]},"properties":{"depth_ft":163,"depth_m":49.6}},{"type":"Feature","geometry":{"type":"Point","coordinates":[-123.35203,38.57483]},"properties":{"depth_ft":144,"depth_m":43.9}},{"type":"Feature","geometry":{"type":"Point","coordinates":[-123.34803,38.57483]},"properties":{"depth_ft":118,"depth_m":36.1}},{"type":"Feature","geometry":{"type":"Point","coordinates":[-123.34402,38.57483]},"properties":{"depth_ft":63,"depth_m":19.1}},{"type":"Feature","geometry":{"type":"Point","coordinates":[-123.38009,38.5717]},"properties":{"depth_ft":254,"depth_m":77.3}},{"type":"Feature","geometry":{"type":"Point","coordinates":[-123.37608,38.5717]},"properties":{"depth_ft":247,"depth_m":75.4}},{"type":"Feature","geometry":{"type":"Point","coordinates":[-123.37207,38.5717]},"properties":{"depth_ft":240,"depth_m":73.2}},{"type":"Feature","geometry":{"type":"Point","coordinates":[-123.36807,38.5717]},"properties":{"depth_ft":233,"depth_m":71.1}},{"type":"Feature","geometry":{"type":"Point","coordinates":[-123.36406,38.5717]},"properties":{"depth_ft":225,"depth_m":68.7}},{"type":"Feature","geometry":{"type":"Point","coordinates":[-123.36005,38.5717]},"properties":{"depth_ft":208,"depth_m":63.4}},{"type":"Feature","geometry":{"type":"Point","coordinates":[-123.35604,38.5717]},"properties":{"depth_ft":185,"depth_m":56.4}},{"type":"Feature","geometry":{"type":"Point","coordinates":[-123.35203,38.5717]},"properties":{"depth_ft":167,"depth_m":50.9}},{"type":"Feature","geometry":{"type":"Point","coordinates":[-123.34803,38.5717]},"properties":{"depth_ft":118,"depth_m":35.9}},{"type":"Feature","geometry":{"type":"Point","coordinates":[-123.34402,38.5717]},"properties":{"depth_ft":61,"depth_m":18.5}},{"type":"Feature","geometry":{"type":"Point","coordinates":[-123.34001,38.5717]},"properties":{"depth_ft":12,"depth_m":3.7}},{"type":"Feature","geometry":{"type":"Point","coordinates":[-123.38009,38.56857]},"properties":{"depth_ft":259,"depth_m":79.0}},{"type":"Feature","geometry":{"type":"Point","coordinates":[-123.37608,38.56857]},"properties":{"depth_ft":253,"depth_m":77.1}},{"type":"Feature","geometry":{"type":"Point","coordinates":[-123.37207,38.56857]},"properties":{"depth_ft":247,"depth_m":75.2}},{"type":"Feature","geometry":{"type":"Point","coordinates":[-123.36807,38.56857]},"properties":{"depth_ft":240,"depth_m":73.1}},{"type":"Feature","geometry":{"type":"Point","coordinates":[-123.36406,38.56857]},"properties":{"depth_ft":233,"depth_m":71.1}},{"type":"Feature","geometry":{"type":"Point","coordinates":[-123.36005,38.56857]},"properties":{"depth_ft":225,"depth_m":68.6}},{"type":"Feature","geometry":{"type":"Point","coordinates":[-123.35604,38.56857]},"properties":{"depth_ft":203,"depth_m":61.9}},{"type":"Feature","geometry":{"type":"Point","coordinates":[-123.35203,38.56857]},"properties":{"depth_ft":191,"depth_m":58.1}},{"type":"Feature","geometry":{"type":"Point","coordinates":[-123.34803,38.56857]},"properties":{"depth_ft":180,"depth_m":54.8}},{"type":"Feature","geometry":{"type":"Point","coordinates":[-123.34402,38.56857]},"properties":{"depth_ft":124,"depth_m":37.8}},{"type":"Feature","geometry":{"type":"Point","coordinates":[-123.34001,38.56857]},"properties":{"depth_ft":49,"depth_m":14.8}},{"type":"Feature","geometry":{"type":"Point","coordinates":[-123.336,38.56857]},"properties":{"depth_ft":1,"depth_m":0.3}},{"type":"Feature","geometry":{"type":"Point","coordinates":[-123.38009,38.56543]},"properties":{"depth_ft":264,"depth_m":80.5}},{"type":"Feature","geometry":{"type":"Point","coordinates":[-123.37608,38.56543]},"properties":{"depth_ft":258,"depth_m":78.8}},{"type":"Feature","geometry":{"type":"Point","coordinates":[-123.37207,38.56543]},"properties":{"depth_ft":252,"depth_m":76.9}},{"type":"Feature","geometry":{"type":"Point","coordinates":[-123.36807,38.56543]},"properties":{"depth_ft":246,"depth_m":75.1}},{"type":"Feature","geometry":{"type":"Point","coordinates":[-123.36406,38.56543]},"properties":{"depth_ft":240,"depth_m":73.1}},{"type":"Feature","geometry":{"type":"Point","coordinates":[-123.36005,38.56543]},"properties":{"depth_ft":233,"depth_m":71.0}},{"type":"Feature","geometry":{"type":"Point","coordinates":[-123.35604,38.56543]},"properties":{"depth_ft":224,"depth_m":68.4}},{"type":"Feature","geometry":{"type":"Point","coordinates":[-123.35203,38.56543]},"properties":{"depth_ft":212,"depth_m":64.5}},{"type":"Feature","geometry":{"type":"Point","coordinates":[-123.34803,38.56543]},"properties":{"depth_ft":200,"depth_m":61.0}},{"type":"Feature","geometry":{"type":"Point","coordinates":[-123.34402,38.56543]},"properties":{"depth_ft":149,"depth_m":45.4}},{"type":"Feature","geometry":{"type":"Point","coordinates":[-123.34001,38.56543]},"properties":{"depth_ft":110,"depth_m":33.7}},{"type":"Feature","geometry":{"type":"Point","coordinates":[-123.336,38.56543]},"properties":{"depth_ft":38,"depth_m":11.6}},{"type":"Feature","geometry":{"type":"Point","coordinates":[-123.38009,38.5623]},"properties":{"depth_ft":269,"depth_m":82.0}},{"type":"Feature","geometry":{"type":"Point","coordinates":[-123.37608,38.5623]},"properties":{"depth_ft":264,"depth_m":80.4}},{"type":"Feature","geometry":{"type":"Point","coordinates":[-123.37207,38.5623]},"properties":{"depth_ft":258,"depth_m":78.6}},{"type":"Feature","geometry":{"type":"Point","coordinates":[-123.36807,38.5623]},"properties":{"depth_ft":252,"depth_m":76.8}},{"type":"Feature","geometry":{"type":"Point","coordinates":[-123.36406,38.5623]},"properties":{"depth_ft":245,"depth_m":74.8}},{"type":"Feature","geometry":{"type":"Point","coordinates":[-123.36005,38.5623]},"properties":{"depth_ft":239,"depth_m":72.9}},{"type":"Feature","geometry":{"type":"Point","coordinates":[-123.35604,38.5623]},"properties":{"depth_ft":232,"depth_m":70.7}},{"type":"Feature","geometry":{"type":"Point","coordinates":[-123.35203,38.5623]},"properties":{"depth_ft":224,"depth_m":68.2}},{"type":"Feature","geometry":{"type":"Point","coordinates":[-123.34803,38.5623]},"properties":{"depth_ft":216,"depth_m":65.8}},{"type":"Feature","geometry":{"type":"Point","coordinates":[-123.34402,38.5623]},"properties":{"depth_ft":207,"depth_m":63.2}},{"type":"Feature","geometry":{"type":"Point","coordinates":[-123.34001,38.5623]},"properties":{"depth_ft":155,"depth_m":47.2}},{"type":"Feature","geometry":{"type":"Point","coordinates":[-123.336,38.5623]},"properties":{"depth_ft":102,"depth_m":31.0}},{"type":"Feature","geometry":{"type":"Point","coordinates":[-123.332,38.5623]},"properties":{"depth_ft":99,"depth_m":30.1}},{"type":"Feature","geometry":{"type":"Point","coordinates":[-123.32799,38.5623]},"properties":{"depth_ft":51,"depth_m":15.5}},{"type":"Feature","geometry":{"type":"Point","coordinates":[-123.38009,38.55917]},"properties":{"depth_ft":274,"depth_m":83.4}},{"type":"Feature","geometry":{"type":"Point","coordinates":[-123.37608,38.55917]},"properties":{"depth_ft":268,"depth_m":81.8}},{"type":"Feature","geometry":{"type":"Point","coordinates":[-123.37207,38.55917]},"properties":{"depth_ft":263,"depth_m":80.1}},{"type":"Feature","geometry":{"type":"Point","coordinates":[-123.36807,38.55917]},"properties":{"depth_ft":257,"depth_m":78.4}},{"type":"Feature","geometry":{"type":"Point","coordinates":[-123.36406,38.55917]},"properties":{"depth_ft":251,"depth_m":76.4}},{"type":"Feature","geometry":{"type":"Point","coordinates":[-123.36005,38.55917]},"properties":{"depth_ft":245,"depth_m":74.6}},{"type":"Feature","geometry":{"type":"Point","coordinates":[-123.35604,38.55917]},"properties":{"depth_ft":238,"depth_m":72.7}},{"type":"Feature","geometry":{"type":"Point","coordinates":[-123.35203,38.55917]},"properties":{"depth_ft":231,"depth_m":70.5}},{"type":"Feature","geometry":{"type":"Point","coordinates":[-123.34803,38.55917]},"properties":{"depth_ft":224,"depth_m":68.4}},{"type":"Feature","geometry":{"type":"Point","coordinates":[-123.34402,38.55917]},"properties":{"depth_ft":218,"depth_m":66.3}},{"type":"Feature","geometry":{"type":"Point","coordinates":[-123.34001,38.55917]},"properties":{"depth_ft":207,"depth_m":63.1}},{"type":"Feature","geometry":{"type":"Point","coordinates":[-123.336,38.55917]},"properties":{"depth_ft":177,"depth_m":54.1}},{"type":"Feature","geometry":{"type":"Point","coordinates":[-123.332,38.55917]},"properties":{"depth_ft":159,"depth_m":48.5}},{"type":"Feature","geometry":{"type":"Point","coordinates":[-123.32799,38.55917]},"properties":{"depth_ft":133,"depth_m":40.7}},{"type":"Feature","geometry":{"type":"Point","coordinates":[-123.32398,38.55917]},"properties":{"depth_ft":74,"depth_m":22.6}},{"type":"Feature","geometry":{"type":"Point","coordinates":[-123.31997,38.55917]},"properties":{"depth_ft":36,"depth_m":10.9}},{"type":"Feature","geometry":{"type":"Point","coordinates":[-123.38009,38.55603]},"properties":{"depth_ft":278,"depth_m":84.6}},{"type":"Feature","geometry":{"type":"Point","coordinates":[-123.37608,38.55603]},"properties":{"depth_ft":272,"depth_m":83.0}},{"type":"Feature","geometry":{"type":"Point","coordinates":[-123.37207,38.55603]},"properties":{"depth_ft":267,"depth_m":81.3}},{"type":"Feature","geometry":{"type":"Point","coordinates":[-123.36807,38.55603]},"properties":{"depth_ft":261,"depth_m":79.6}},{"type":"Feature","geometry":{"type":"Point","coordinates":[-123.36406,38.55603]},"properties":{"depth_ft":255,"depth_m":77.8}},{"type":"Feature","geometry":{"type":"Point","coordinates":[-123.36005,38.55603]},"properties":{"depth_ft":249,"depth_m":76.0}},{"type":"Feature","geometry":{"type":"Point","coordinates":[-123.35604,38.55603]},"properties":{"depth_ft":243,"depth_m":74.2}},{"type":"Feature","geometry":{"type":"Point","coordinates":[-123.35203,38.55603]},"properties":{"depth_ft":237,"depth_m":72.2}},{"type":"Feature","geometry":{"type":"Point","coordinates":[-123.34803,38.55603]},"properties":{"depth_ft":230,"depth_m":70.2}},{"type":"Feature","geometry":{"type":"Point","coordinates":[-123.34402,38.55603]},"properties":{"depth_ft":224,"depth_m":68.1}},{"type":"Feature","geometry":{"type":"Point","coordinates":[-123.34001,38.55603]},"properties":{"depth_ft":214,"depth_m":65.2}},{"type":"Feature","geometry":{"type":"Point","coordinates":[-123.336,38.55603]},"properties":{"depth_ft":196,"depth_m":59.8}},{"type":"Feature","geometry":{"type":"Point","coordinates":[-123.332,38.55603]},"properties":{"depth_ft":175,"depth_m":53.5}},{"type":"Feature","geometry":{"type":"Point","coordinates":[-123.32799,38.55603]},"properties":{"depth_ft":161,"depth_m":49.1}},{"type":"Feature","geometry":{"type":"Point","coordinates":[-123.32398,38.55603]},"properties":{"depth_ft":157,"depth_m":48.0}},{"type":"Feature","geometry":{"type":"Point","coordinates":[-123.31997,38.55603]},"properties":{"depth_ft":143,"depth_m":43.5}},{"type":"Feature","geometry":{"type":"Point","coordinates":[-123.31597,38.55603]},"properties":{"depth_ft":106,"depth_m":32.3}},{"type":"Feature","geometry":{"type":"Point","coordinates":[-123.31196,38.55603]},"properties":{"depth_ft":53,"depth_m":16.3}},{"type":"Feature","geometry":{"type":"Point","coordinates":[-123.38009,38.5529]},"properties":{"depth_ft":282,"depth_m":85.9}},{"type":"Feature","geometry":{"type":"Point","coordinates":[-123.37608,38.5529]},"properties":{"depth_ft":277,"depth_m":84.3}},{"type":"Feature","geometry":{"type":"Point","coordinates":[-123.37207,38.5529]},"properties":{"depth_ft":272,"depth_m":82.8}},{"type":"Feature","geometry":{"type":"Point","coordinates":[-123.36807,38.5529]},"properties":{"depth_ft":266,"depth_m":81.2}},{"type":"Feature","geometry":{"type":"Point","coordinates":[-123.36406,38.5529]},"properties":{"depth_ft":260,"depth_m":79.4}},{"type":"Feature","geometry":{"type":"Point","coordinates":[-123.36005,38.5529]},"properties":{"depth_ft":254,"depth_m":77.6}},{"type":"Feature","geometry":{"type":"Point","coordinates":[-123.35604,38.5529]},"properties":{"depth_ft":248,"depth_m":75.6}},{"type":"Feature","geometry":{"type":"Point","coordinates":[-123.35203,38.5529]},"properties":{"depth_ft":241,"depth_m":73.6}},{"type":"Feature","geometry":{"type":"Point","coordinates":[-123.34803,38.5529]},"properties":{"depth_ft":235,"depth_m":71.5}},{"type":"Feature","geometry":{"type":"Point","coordinates":[-123.34402,38.5529]},"properties":{"depth_ft":228,"depth_m":69.6}},{"type":"Feature","geometry":{"type":"Point","coordinates":[-123.34001,38.5529]},"properties":{"depth_ft":221,"depth_m":67.2}},{"type":"Feature","geometry":{"type":"Point","coordinates":[-123.336,38.5529]},"properties":{"depth_ft":204,"depth_m":62.2}},{"type":"Feature","geometry":{"type":"Point","coordinates":[-123.332,38.5529]},"properties":{"depth_ft":188,"depth_m":57.2}},{"type":"Feature","geometry":{"type":"Point","coordinates":[-123.32799,38.5529]},"properties":{"depth_ft":178,"depth_m":54.2}},{"type":"Feature","geometry":{"type":"Point","coordinates":[-123.32398,38.5529]},"properties":{"depth_ft":170,"depth_m":51.9}},{"type":"Feature","geometry":{"type":"Point","coordinates":[-123.31997,38.5529]},"properties":{"depth_ft":160,"depth_m":48.8}},{"type":"Feature","geometry":{"type":"Point","coordinates":[-123.31597,38.5529]},"properties":{"depth_ft":117,"depth_m":35.6}},{"type":"Feature","geometry":{"type":"Point","coordinates":[-123.31196,38.5529]},"properties":{"depth_ft":110,"depth_m":33.6}},{"type":"Feature","geometry":{"type":"Point","coordinates":[-123.30795,38.5529]},"properties":{"depth_ft":44,"depth_m":13.4}},{"type":"Feature","geometry":{"type":"Point","coordinates":[-123.38009,38.54977]},"properties":{"depth_ft":287,"depth_m":87.4}},{"type":"Feature","geometry":{"type":"Point","coordinates":[-123.37608,38.54977]},"properties":{"depth_ft":282,"depth_m":85.9}},{"type":"Feature","geometry":{"type":"Point","coordinates":[-123.37207,38.54977]},"properties":{"depth_ft":277,"depth_m":84.3}},{"type":"Feature","geometry":{"type":"Point","coordinates":[-123.36807,38.54977]},"properties":{"depth_ft":271,"depth_m":82.6}},{"type":"Feature","geometry":{"type":"Point","coordinates":[-123.36406,38.54977]},"properties":{"depth_ft":265,"depth_m":80.9}},{"type":"Feature","geometry":{"type":"Point","coordinates":[-123.36005,38.54977]},"properties":{"depth_ft":259,"depth_m":79.1}},{"type":"Feature","geometry":{"type":"Point","coordinates":[-123.35604,38.54977]},"properties":{"depth_ft":253,"depth_m":77.2}},{"type":"Feature","geometry":{"type":"Point","coordinates":[-123.35203,38.54977]},"properties":{"depth_ft":246,"depth_m":75.1}},{"type":"Feature","geometry":{"type":"Point","coordinates":[-123.34803,38.54977]},"properties":{"depth_ft":240,"depth_m":73.1}},{"type":"Feature","geometry":{"type":"Point","coordinates":[-123.34402,38.54977]},"properties":{"depth_ft":233,"depth_m":71.0}},{"type":"Feature","geometry":{"type":"Point","coordinates":[-123.34001,38.54977]},"properties":{"depth_ft":225,"depth_m":68.7}},{"type":"Feature","geometry":{"type":"Point","coordinates":[-123.336,38.54977]},"properties":{"depth_ft":217,"depth_m":66.1}},{"type":"Feature","geometry":{"type":"Point","coordinates":[-123.332,38.54977]},"properties":{"depth_ft":207,"depth_m":63.0}},{"type":"Feature","geometry":{"type":"Point","coordinates":[-123.32799,38.54977]},"properties":{"depth_ft":192,"depth_m":58.6}},{"type":"Feature","geometry":{"type":"Point","coordinates":[-123.32398,38.54977]},"properties":{"depth_ft":177,"depth_m":54.0}},{"type":"Feature","geometry":{"type":"Point","coordinates":[-123.31997,38.54977]},"properties":{"depth_ft":167,"depth_m":50.9}},{"type":"Feature","geometry":{"type":"Point","coordinates":[-123.31597,38.54977]},"properties":{"depth_ft":152,"depth_m":46.3}},{"type":"Feature","geometry":{"type":"Point","coordinates":[-123.31196,38.54977]},"properties":{"depth_ft":129,"depth_m":39.4}},{"type":"Feature","geometry":{"type":"Point","coordinates":[-123.30795,38.54977]},"properties":{"depth_ft":44,"depth_m":13.5}},{"type":"Feature","geometry":{"type":"Point","coordinates":[-123.38009,38.54663]},"properties":{"depth_ft":291,"depth_m":88.8}},{"type":"Feature","geometry":{"type":"Point","coordinates":[-123.37608,38.54663]},"properties":{"depth_ft":286,"depth_m":87.3}},{"type":"Feature","geometry":{"type":"Point","coordinates":[-123.37207,38.54663]},"properties":{"depth_ft":281,"depth_m":85.6}},{"type":"Feature","geometry":{"type":"Point","coordinates":[-123.36807,38.54663]},"properties":{"depth_ft":276,"depth_m":84.1}},{"type":"Feature","geometry":{"type":"Point","coordinates":[-123.36406,38.54663]},"properties":{"depth_ft":270,"depth_m":82.4}},{"type":"Feature","geometry":{"type":"Point","coordinates":[-123.36005,38.54663]},"properties":{"depth_ft":264,"depth_m":80.5}},{"type":"Feature","geometry":{"type":"Point","coordinates":[-123.35604,38.54663]},"properties":{"depth_ft":258,"depth_m":78.7}},{"type":"Feature","geometry":{"type":"Point","coordinates":[-123.35203,38.54663]},"properties":{"depth_ft":252,"depth_m":76.7}},{"type":"Feature","geometry":{"type":"Point","coordinates":[-123.34803,38.54663]},"properties":{"depth_ft":244,"depth_m":74.5}},{"type":"Feature","geometry":{"type":"Point","coordinates":[-123.34402,38.54663]},"properties":{"depth_ft":238,"depth_m":72.5}},{"type":"Feature","geometry":{"type":"Point","coordinates":[-123.34001,38.54663]},"properties":{"depth_ft":230,"depth_m":70.1}},{"type":"Feature","geometry":{"type":"Point","coordinates":[-123.336,38.54663]},"properties":{"depth_ft":222,"depth_m":67.8}},{"type":"Feature","geometry":{"type":"Point","coordinates":[-123.332,38.54663]},"properties":{"depth_ft":213,"depth_m":65.0}},{"type":"Feature","geometry":{"type":"Point","coordinates":[-123.32799,38.54663]},"properties":{"depth_ft":203,"depth_m":61.8}},{"type":"Feature","geometry":{"type":"Point","coordinates":[-123.32398,38.54663]},"properties":{"depth_ft":189,"depth_m":57.8}},{"type":"Feature","geometry":{"type":"Point","coordinates":[-123.31997,38.54663]},"properties":{"depth_ft":173,"depth_m":52.8}},{"type":"Feature","geometry":{"type":"Point","coordinates":[-123.31597,38.54663]},"properties":{"depth_ft":156,"depth_m":47.5}},{"type":"Feature","geometry":{"type":"Point","coordinates":[-123.31196,38.54663]},"properties":{"depth_ft":141,"depth_m":43.0}},{"type":"Feature","geometry":{"type":"Point","coordinates":[-123.30795,38.54663]},"properties":{"depth_ft":62,"depth_m":18.9}},{"type":"Feature","geometry":{"type":"Point","coordinates":[-123.30394,38.54663]},"properties":{"depth_ft":22,"depth_m":6.8}},{"type":"Feature","geometry":{"type":"Point","coordinates":[-123.29993,38.54663]},"properties":{"depth_ft":6,"depth_m":2.0}},{"type":"Feature","geometry":{"type":"Point","coordinates":[-123.38009,38.5435]},"properties":{"depth_ft":294,"depth_m":89.8}},{"type":"Feature","geometry":{"type":"Point","coordinates":[-123.37608,38.5435]},"properties":{"depth_ft":291,"depth_m":88.6}},{"type":"Feature","geometry":{"type":"Point","coordinates":[-123.37207,38.5435]},"properties":{"depth_ft":286,"depth_m":87.1}},{"type":"Feature","geometry":{"type":"Point","coordinates":[-123.36807,38.5435]},"properties":{"depth_ft":280,"depth_m":85.5}},{"type":"Feature","geometry":{"type":"Point","coordinates":[-123.36406,38.5435]},"properties":{"depth_ft":275,"depth_m":83.8}},{"type":"Feature","geometry":{"type":"Point","coordinates":[-123.36005,38.5435]},"properties":{"depth_ft":269,"depth_m":81.9}},{"type":"Feature","geometry":{"type":"Point","coordinates":[-123.35604,38.5435]},"properties":{"depth_ft":262,"depth_m":80.0}},{"type":"Feature","geometry":{"type":"Point","coordinates":[-123.35203,38.5435]},"properties":{"depth_ft":256,"depth_m":78.0}},{"type":"Feature","geometry":{"type":"Point","coordinates":[-123.34803,38.5435]},"properties":{"depth_ft":249,"depth_m":76.0}},{"type":"Feature","geometry":{"type":"Point","coordinates":[-123.34402,38.5435]},"properties":{"depth_ft":242,"depth_m":73.8}},{"type":"Feature","geometry":{"type":"Point","coordinates":[-123.34001,38.5435]},"properties":{"depth_ft":235,"depth_m":71.6}},{"type":"Feature","geometry":{"type":"Point","coordinates":[-123.336,38.5435]},"properties":{"depth_ft":228,"depth_m":69.4}},{"type":"Feature","geometry":{"type":"Point","coordinates":[-123.332,38.5435]},"properties":{"depth_ft":220,"depth_m":67.1}},{"type":"Feature","geometry":{"type":"Point","coordinates":[-123.32799,38.5435]},"properties":{"depth_ft":212,"depth_m":64.7}},{"type":"Feature","geometry":{"type":"Point","coordinates":[-123.32398,38.5435]},"properties":{"depth_ft":199,"depth_m":60.8}},{"type":"Feature","geometry":{"type":"Point","coordinates":[-123.31997,38.5435]},"properties":{"depth_ft":186,"depth_m":56.5}},{"type":"Feature","geometry":{"type":"Point","coordinates":[-123.31597,38.5435]},"properties":{"depth_ft":170,"depth_m":51.8}},{"type":"Feature","geometry":{"type":"Point","coordinates":[-123.31196,38.5435]},"properties":{"depth_ft":137,"depth_m":41.7}},{"type":"Feature","geometry":{"type":"Point","coordinates":[-123.30795,38.5435]},"properties":{"depth_ft":117,"depth_m":35.7}},{"type":"Feature","geometry":{"type":"Point","coordinates":[-123.30394,38.5435]},"properties":{"depth_ft":82,"depth_m":24.9}},{"type":"Feature","geometry":{"type":"Point","coordinates":[-123.29993,38.5435]},"properties":{"depth_ft":36,"depth_m":11.0}},{"type":"Feature","geometry":{"type":"Point","coordinates":[-123.38009,38.54036]},"properties":{"depth_ft":300,"depth_m":91.5}},{"type":"Feature","geometry":{"type":"Point","coordinates":[-123.37608,38.54036]},"properties":{"depth_ft":294,"depth_m":89.6}},{"type":"Feature","geometry":{"type":"Point","coordinates":[-123.37207,38.54036]},"properties":{"depth_ft":290,"depth_m":88.2}},{"type":"Feature","geometry":{"type":"Point","coordinates":[-123.36807,38.54036]},"properties":{"depth_ft":285,"depth_m":86.8}},{"type":"Feature","geometry":{"type":"Point","coordinates":[-123.36406,38.54036]},"properties":{"depth_ft":279,"depth_m":85.0}},{"type":"Feature","geometry":{"type":"Point","coordinates":[-123.36005,38.54036]},"properties":{"depth_ft":273,"depth_m":83.3}},{"type":"Feature","geometry":{"type":"Point","coordinates":[-123.35604,38.54036]},"properties":{"depth_ft":267,"depth_m":81.5}},{"type":"Feature","geometry":{"type":"Point","coordinates":[-123.35203,38.54036]},"properties":{"depth_ft":261,"depth_m":79.6}},{"type":"Feature","geometry":{"type":"Point","coordinates":[-123.34803,38.54036]},"properties":{"depth_ft":255,"depth_m":77.6}},{"type":"Feature","geometry":{"type":"Point","coordinates":[-123.34402,38.54036]},"properties":{"depth_ft":248,"depth_m":75.6}},{"type":"Feature","geometry":{"type":"Point","coordinates":[-123.34001,38.54036]},"properties":{"depth_ft":241,"depth_m":73.4}},{"type":"Feature","geometry":{"type":"Point","coordinates":[-123.336,38.54036]},"properties":{"depth_ft":233,"depth_m":71.1}},{"type":"Feature","geometry":{"type":"Point","coordinates":[-123.332,38.54036]},"properties":{"depth_ft":226,"depth_m":68.8}},{"type":"Feature","geometry":{"type":"Point","coordinates":[-123.32799,38.54036]},"properties":{"depth_ft":219,"depth_m":66.6}},{"type":"Feature","geometry":{"type":"Point","coordinates":[-123.32398,38.54036]},"properties":{"depth_ft":211,"depth_m":64.4}},{"type":"Feature","geometry":{"type":"Point","coordinates":[-123.31997,38.54036]},"properties":{"depth_ft":200,"depth_m":61.1}},{"type":"Feature","geometry":{"type":"Point","coordinates":[-123.31597,38.54036]},"properties":{"depth_ft":187,"depth_m":57.1}},{"type":"Feature","geometry":{"type":"Point","coordinates":[-123.31196,38.54036]},"properties":{"depth_ft":170,"depth_m":51.7}},{"type":"Feature","geometry":{"type":"Point","coordinates":[-123.30795,38.54036]},"properties":{"depth_ft":148,"depth_m":45.2}},{"type":"Feature","geometry":{"type":"Point","coordinates":[-123.30394,38.54036]},"properties":{"depth_ft":109,"depth_m":33.3}},{"type":"Feature","geometry":{"type":"Point","coordinates":[-123.29993,38.54036]},"properties":{"depth_ft":75,"depth_m":22.8}},{"type":"Feature","geometry":{"type":"Point","coordinates":[-123.29593,38.54036]},"properties":{"depth_ft":49,"depth_m":14.8}},{"type":"Feature","geometry":{"type":"Point","coordinates":[-123.29192,38.54036]},"properties":{"depth_ft":36,"depth_m":11.0}},{"type":"Feature","geometry":{"type":"Point","coordinates":[-123.38009,38.53723]},"properties":{"depth_ft":304,"depth_m":92.6}},{"type":"Feature","geometry":{"type":"Point","coordinates":[-123.37608,38.53723]},"properties":{"depth_ft":299,"depth_m":91.2}},{"type":"Feature","geometry":{"type":"Point","coordinates":[-123.37207,38.53723]},"properties":{"depth_ft":294,"depth_m":89.5}},{"type":"Feature","geometry":{"type":"Point","coordinates":[-123.36807,38.53723]},"properties":{"depth_ft":288,"depth_m":87.8}},{"type":"Feature","geometry":{"type":"Point","coordinates":[-123.36406,38.53723]},"properties":{"depth_ft":283,"depth_m":86.4}},{"type":"Feature","geometry":{"type":"Point","coordinates":[-123.36005,38.53723]},"properties":{"depth_ft":278,"depth_m":84.7}},{"type":"Feature","geometry":{"type":"Point","coordinates":[-123.35604,38.53723]},"properties":{"depth_ft":272,"depth_m":83.0}},{"type":"Feature","geometry":{"type":"Point","coordinates":[-123.35203,38.53723]},"properties":{"depth_ft":266,"depth_m":81.2}},{"type":"Feature","geometry":{"type":"Point","coordinates":[-123.34803,38.53723]},"properties":{"depth_ft":260,"depth_m":79.2}},{"type":"Feature","geometry":{"type":"Point","coordinates":[-123.34402,38.53723]},"properties":{"depth_ft":254,"depth_m":77.3}},{"type":"Feature","geometry":{"type":"Point","coordinates":[-123.34001,38.53723]},"properties":{"depth_ft":247,"depth_m":75.2}},{"type":"Feature","geometry":{"type":"Point","coordinates":[-123.336,38.53723]},"properties":{"depth_ft":240,"depth_m":73.0}},{"type":"Feature","geometry":{"type":"Point","coordinates":[-123.332,38.53723]},"properties":{"depth_ft":232,"depth_m":70.8}},{"type":"Feature","geometry":{"type":"Point","coordinates":[-123.32799,38.53723]},"properties":{"depth_ft":225,"depth_m":68.7}},{"type":"Feature","geometry":{"type":"Point","coordinates":[-123.32398,38.53723]},"properties":{"depth_ft":218,"depth_m":66.4}},{"type":"Feature","geometry":{"type":"Point","coordinates":[-123.31997,38.53723]},"properties":{"depth_ft":210,"depth_m":64.1}},{"type":"Feature","geometry":{"type":"Point","coordinates":[-123.31597,38.53723]},"properties":{"depth_ft":200,"depth_m":61.0}},{"type":"Feature","geometry":{"type":"Point","coordinates":[-123.31196,38.53723]},"properties":{"depth_ft":189,"depth_m":57.5}},{"type":"Feature","geometry":{"type":"Point","coordinates":[-123.30795,38.53723]},"properties":{"depth_ft":143,"depth_m":43.5}},{"type":"Feature","geometry":{"type":"Point","coordinates":[-123.30394,38.53723]},"properties":{"depth_ft":156,"depth_m":47.6}},{"type":"Feature","geometry":{"type":"Point","coordinates":[-123.29993,38.53723]},"properties":{"depth_ft":108,"depth_m":33.0}},{"type":"Feature","geometry":{"type":"Point","coordinates":[-123.29593,38.53723]},"properties":{"depth_ft":90,"depth_m":27.4}},{"type":"Feature","geometry":{"type":"Point","coordinates":[-123.29192,38.53723]},"properties":{"depth_ft":47,"depth_m":14.4}},{"type":"Feature","geometry":{"type":"Point","coordinates":[-123.28791,38.53723]},"properties":{"depth_ft":62,"depth_m":18.9}},{"type":"Feature","geometry":{"type":"Point","coordinates":[-123.38009,38.5341]},"properties":{"depth_ft":308,"depth_m":93.7}},{"type":"Feature","geometry":{"type":"Point","coordinates":[-123.37608,38.5341]},"properties":{"depth_ft":303,"depth_m":92.3}},{"type":"Feature","geometry":{"type":"Point","coordinates":[-123.37207,38.5341]},"properties":{"depth_ft":299,"depth_m":91.1}},{"type":"Feature","geometry":{"type":"Point","coordinates":[-123.36807,38.5341]},"properties":{"depth_ft":294,"depth_m":89.6}},{"type":"Feature","geometry":{"type":"Point","coordinates":[-123.36406,38.5341]},"properties":{"depth_ft":287,"depth_m":87.6}},{"type":"Feature","geometry":{"type":"Point","coordinates":[-123.36005,38.5341]},"properties":{"depth_ft":283,"depth_m":86.2}},{"type":"Feature","geometry":{"type":"Point","coordinates":[-123.35604,38.5341]},"properties":{"depth_ft":277,"depth_m":84.6}},{"type":"Feature","geometry":{"type":"Point","coordinates":[-123.35203,38.5341]},"properties":{"depth_ft":271,"depth_m":82.7}},{"type":"Feature","geometry":{"type":"Point","coordinates":[-123.34803,38.5341]},"properties":{"depth_ft":265,"depth_m":80.9}},{"type":"Feature","geometry":{"type":"Point","coordinates":[-123.34402,38.5341]},"properties":{"depth_ft":259,"depth_m":78.9}},{"type":"Feature","geometry":{"type":"Point","coordinates":[-123.34001,38.5341]},"properties":{"depth_ft":252,"depth_m":76.9}},{"type":"Feature","geometry":{"type":"Point","coordinates":[-123.336,38.5341]},"properties":{"depth_ft":246,"depth_m":74.9}},{"type":"Feature","geometry":{"type":"Point","coordinates":[-123.332,38.5341]},"properties":{"depth_ft":239,"depth_m":72.8}},{"type":"Feature","geometry":{"type":"Point","coordinates":[-123.32799,38.5341]},"properties":{"depth_ft":232,"depth_m":70.6}},{"type":"Feature","geometry":{"type":"Point","coordinates":[-123.32398,38.5341]},"properties":{"depth_ft":225,"depth_m":68.5}},{"type":"Feature","geometry":{"type":"Point","coordinates":[-123.31997,38.5341]},"properties":{"depth_ft":219,"depth_m":66.6}},{"type":"Feature","geometry":{"type":"Point","coordinates":[-123.31597,38.5341]},"properties":{"depth_ft":211,"depth_m":64.4}},{"type":"Feature","geometry":{"type":"Point","coordinates":[-123.31196,38.5341]},"properties":{"depth_ft":204,"depth_m":62.2}},{"type":"Feature","geometry":{"type":"Point","coordinates":[-123.30795,38.5341]},"properties":{"depth_ft":198,"depth_m":60.4}},{"type":"Feature","geometry":{"type":"Point","coordinates":[-123.30394,38.5341]},"properties":{"depth_ft":184,"depth_m":56.2}},{"type":"Feature","geometry":{"type":"Point","coordinates":[-123.29993,38.5341]},"properties":{"depth_ft":156,"depth_m":47.4}},{"type":"Feature","geometry":{"type":"Point","coordinates":[-123.29593,38.5341]},"properties":{"depth_ft":118,"depth_m":36.0}},{"type":"Feature","geometry":{"type":"Point","coordinates":[-123.29192,38.5341]},"properties":{"depth_ft":123,"depth_m":37.6}},{"type":"Feature","geometry":{"type":"Point","coordinates":[-123.28791,38.5341]},"properties":{"depth_ft":105,"depth_m":32.1}},{"type":"Feature","geometry":{"type":"Point","coordinates":[-123.38009,38.53096]},"properties":{"depth_ft":311,"depth_m":94.8}},{"type":"Feature","geometry":{"type":"Point","coordinates":[-123.37608,38.53096]},"properties":{"depth_ft":307,"depth_m":93.5}},{"type":"Feature","geometry":{"type":"Point","coordinates":[-123.37207,38.53096]},"properties":{"depth_ft":302,"depth_m":92.1}},{"type":"Feature","geometry":{"type":"Point","coordinates":[-123.36807,38.53096]},"properties":{"depth_ft":298,"depth_m":90.8}},{"type":"Feature","geometry":{"type":"Point","coordinates":[-123.36406,38.53096]},"properties":{"depth_ft":293,"depth_m":89.4}},{"type":"Feature","geometry":{"type":"Point","coordinates":[-123.36005,38.53096]},"properties":{"depth_ft":286,"depth_m":87.3}},{"type":"Feature","geometry":{"type":"Point","coordinates":[-123.35604,38.53096]},"properties":{"depth_ft":282,"depth_m":85.9}},{"type":"Feature","geometry":{"type":"Point","coordinates":[-123.35203,38.53096]},"properties":{"depth_ft":276,"depth_m":84.3}},{"type":"Feature","geometry":{"type":"Point","coordinates":[-123.34803,38.53096]},"properties":{"depth_ft":270,"depth_m":82.4}},{"type":"Feature","geometry":{"type":"Point","coordinates":[-123.34402,38.53096]},"properties":{"depth_ft":264,"depth_m":80.6}},{"type":"Feature","geometry":{"type":"Point","coordinates":[-123.34001,38.53096]},"properties":{"depth_ft":258,"depth_m":78.6}},{"type":"Feature","geometry":{"type":"Point","coordinates":[-123.336,38.53096]},"properties":{"depth_ft":251,"depth_m":76.6}},{"type":"Feature","geometry":{"type":"Point","coordinates":[-123.332,38.53096]},"properties":{"depth_ft":244,"depth_m":74.5}},{"type":"Feature","geometry":{"type":"Point","coordinates":[-123.32799,38.53096]},"properties":{"depth_ft":238,"depth_m":72.4}},{"type":"Feature","geometry":{"type":"Point","coordinates":[-123.32398,38.53096]},"properties":{"depth_ft":231,"depth_m":70.3}},{"type":"Feature","geometry":{"type":"Point","coordinates":[-123.31997,38.53096]},"properties":{"depth_ft":224,"depth_m":68.3}},{"type":"Feature","geometry":{"type":"Point","coordinates":[-123.31597,38.53096]},"properties":{"depth_ft":218,"depth_m":66.3}},{"type":"Feature","geometry":{"type":"Point","coordinates":[-123.31196,38.53096]},"properties":{"depth_ft":211,"depth_m":64.4}},{"type":"Feature","geometry":{"type":"Point","coordinates":[-123.30795,38.53096]},"properties":{"depth_ft":204,"depth_m":62.3}},{"type":"Feature","geometry":{"type":"Point","coordinates":[-123.30394,38.53096]},"properties":{"depth_ft":196,"depth_m":59.7}},{"type":"Feature","geometry":{"type":"Point","coordinates":[-123.29993,38.53096]},"properties":{"depth_ft":183,"depth_m":55.9}},{"type":"Feature","geometry":{"type":"Point","coordinates":[-123.29593,38.53096]},"properties":{"depth_ft":168,"depth_m":51.1}},{"type":"Feature","geometry":{"type":"Point","coordinates":[-123.29192,38.53096]},"properties":{"depth_ft":143,"depth_m":43.6}},{"type":"Feature","geometry":{"type":"Point","coordinates":[-123.28791,38.53096]},"properties":{"depth_ft":125,"depth_m":38.0}}]}