{"type":"FeatureCollection","features":[{"type":"Feature","geometry":{"type":"Polygon","coordinates":[[[-119.04333,33.47803],[-119.04344,33.47886],[-119.04368,33.47925],[-119.04465,33.47966],[-119.04513,33.4804],[-119.0461,33.48098],[-119.04609,33.48131],[-119.04627,33.48112],[-119.04683,33.48107],[-119.0466,33.48077],[-119.047,33.48077],[-119.04737,33.4812],[-119.04702,33.48122],[-119.04663,33.48163],[-119.04694,33.48198],[-119.04774,33.4821],[-119.04785,33.48225],[-119.0479,33.48238],[-119.04763,33.48269],[-119.04724,33.48289],[-119.04786,33.48344],[-119.04753,33.48386],[-119.04759,33.48398],[-119.04745,33.48407],[-119.04726,33.48392],[-119.04682,33.48414],[-119.04655,33.48406],[-119.04638,33.48366],[-119.04601,33.4836],[-119.04602,33.4838],[-119.04568,33.48352],[-119.04559,33.48368],[-119.04548,33.48341],[-119.04565,33.48324],[-119.04544,33.48295],[-119.04565,33.48302],[-119.04565,33.48273],[-119.04439,33.48227],[-119.04215,33.48257],[-119.04158,33.48315],[-119.04172,33.48333],[-119.0411,33.48387],[-119.04054,33.48352],[-119.04086,33.48278],[-119.04062,33.48263],[-119.03989,33.48247],[-119.039,33.48251],[-119.03884,33.48227],[-119.03837,33.48252],[-119.03785,33.48248],[-119.03744,33.48294],[-119.03636,33.48342],[-119.03634,33.4837],[-119.03661,33.48392],[-119.03649,33.48419],[-119.03607,33.48424],[-119.03602,33.48402],[-119.03563,33.48399],[-119.03497,33.48431],[-119.03457,33.48483],[-119.03464,33.486],[-119.03444,33.48594],[-119.03403,33.48624],[-119.03348,33.48565],[-119.03313,33.48587],[-119.03266,33.48691],[-119.03165,33.48736],[-119.03122,33.48702],[-119.03045,33.48874],[-119.02933,33.48891],[-119.02877,33.48844],[-119.02852,33.48786],[-119.02854,33.48846],[-119.02816,33.48849],[-119.02814,33.48761],[-119.02837,33.48736],[-119.02845,33.48754],[-119.02864,33.48748],[-119.02869,33.48658],[-119.02902,33.48611],[-119.02906,33.48568],[-119.0295,33.48514],[-119.02935,33.48468],[-119.02966,33.48419],[-119.0295,33.48361],[-119.0296,33.48333],[-119.02948,33.48302],[-119.02933,33.48311],[-119.02947,33.48276],[-119.02992,33.48259],[-119.03017,33.48227],[-119.02994,33.4821],[-119.03001,33.48175],[-119.02974,33.48157],[-119.02991,33.48145],[-119.02939,33.48159],[-119.02919,33.48123],[-119.02874,33.48095],[-119.02876,33.48081],[-119.02839,33.48073],[-119.02803,33.47952],[-119.02768,33.47934],[-119.02788,33.47868],[-119.02761,33.47733],[-119.02761,33.47608],[-119.02797,33.476],[-119.02835,33.47561],[-119.02877,33.47567],[-119.02891,33.47517],[-119.0291,33.47538],[-119.03015,33.47505],[-119.03031,33.47491],[-119.03019,33.47457],[-119.03057,33.47402],[-119.03059,33.47372],[-119.03102,33.47353],[-119.03069,33.47315],[-119.0308,33.47049],[-119.03122,33.47002],[-119.0311,33.46962],[-119.03118,33.46928],[-119.03087,33.4688],[-119.03092,33.4685],[-119.03132,33.46794],[-119.03164,33.46784],[-119.03156,33.46767],[-119.03187,33.46722],[-119.03185,33.46689],[-119.03209,33.46701],[-119.03229,33.4669],[-119.03216,33.46671],[-119.03235,33.46633],[-119.03259,33.46639],[-119.03305,33.46584],[-119.03313,33.46596],[-119.0335,33.46586],[-119.03354,33.46603],[-119.03386,33.46579],[-119.03481,33.46565],[-119.03499,33.46591],[-119.03547,33.46592],[-119.03574,33.46535],[-119.03609,33.46504],[-119.03589,33.46507],[-119.0361,33.46481],[-119.0363,33.46507],[-119.03679,33.46512],[-119.0373,33.46567],[-119.03789,33.4659],[-119.0387,33.46592],[-119.03922,33.46652],[-119.03991,33.4669],[-119.04023,33.46683],[-119.04029,33.46706],[-119.03971,33.46737],[-119.03981,33.46795],[-119.04019,33.46837],[-119.04047,33.46844],[-119.04114,33.46977],[-119.04106,33.47023],[-119.042,33.47081],[-119.04288,33.47088],[-119.04346,33.47166],[-119.04338,33.47187],[-119.04374,33.47235],[-119.04371,33.47266],[-119.04337,33.47277],[-119.04316,33.4741],[-119.04284,33.47436],[-119.04294,33.47473],[-119.04258,33.47509],[-119.04265,33.47545],[-119.04249,33.47564],[-119.04266,33.47582],[-119.04266,33.47616],[-119.04242,33.47646],[-119.04278,33.47676],[-119.0429,33.47733],[-119.04274,33.4777],[-119.04333,33.47803]]]},"properties":{"name":"santa-barbara-island"}},{"type":"Feature","geometry":{"type":"Polygon","coordinates":[[[-119.04864,33.46365],[-119.04881,33.46363],[-119.04883,33.4638],[-119.04915,33.46353],[-119.04948,33.4636],[-119.0496,33.46365],[-119.04956,33.46413],[-119.04997,33.46412],[-119.05006,33.46478],[-119.04995,33.4651],[-119.04939,33.46496],[-119.04864,33.46521],[-119.04848,33.46512],[-119.04814,33.46551],[-119.04773,33.46544],[-119.04725,33.46478],[-119.04692,33.46492],[-119.04641,33.46568],[-119.0462,33.46562],[-119.04627,33.46476],[-119.04662,33.46435],[-119.04668,33.46378],[-119.04732,33.4634],[-119.04801,33.46336],[-119.04801,33.46351],[-119.04874,33.46336],[-119.04864,33.46365]]]},"properties":{"name":"unnamed-land"}}]}