{"type":"FeatureCollection","features":[{"type":"Feature","geometry":{"type":"Polygon","coordinates":[[[-118.968,33.473],[-118.968,33.472],[-118.968,33.471],[-118.968,33.471],[-118.968,33.47],[-118.968,33.469],[-118.968,33.469],[-118.968,33.469],[-118.968,33.468],[-118.968,33.467],[-118.969,33.467],[-118.969,33.466],[-118.969,33.466],[-118.969,33.465],[-118.969,33.465],[-118.969,33.464],[-118.97,33.463],[-118.97,33.463],[-118.97,33.463],[-118.97,33.462],[-118.97,33.461],[-118.97,33.461],[-118.971,33.46],[-118.971,33.459],[-118.971,33.459],[-118.971,33.459],[-118.971,33.459],[-118.971,33.458],[-118.972,33.458],[-118.972,33.457],[-118.972,33.456],[-118.972,33.456],[-118.972,33.456],[-118.972,33.455],[-118.973,33.454],[-118.973,33.454],[-118.973,33.453],[-118.973,33.453],[-118.973,33.452],[-118.973,33.452],[-118.974,33.451],[-118.974,33.451],[-118.974,33.451],[-118.974,33.45],[-118.975,33.449],[-118.975,33.448],[-118.975,33.448],[-118.975,33.448],[-118.976,33.447],[-118.976,33.447],[-118.977,33.446],[-118.977,33.445],[-118.977,33.445],[-118.978,33.444],[-118.978,33.443],[-118.979,33.443],[-118.979,33.443],[-118.979,33.442],[-118.98,33.441],[-118.98,33.44],[-118.981,33.44],[-118.981,33.439],[-118.982,33.439],[-118.982,33.438],[-118.983,33.438],[-118.983,33.437],[-118.984,33.436],[-118.984,33.436],[-118.984,33.436],[-118.984,33.436],[-118.984,33.436],[-118.985,33.436],[-118.985,33.435],[-118.986,33.435],[-118.986,33.434],[-118.987,33.434],[-118.987,33.433],[-118.987,33.433],[-118.987,33.433],[-118.988,33.433],[-118.988,33.433],[-118.988,33.432],[-118.988,33.432],[-118.989,33.432],[-118.989,33.432],[-118.989,33.431],[-118.99,33.431],[-118.99,33.431],[-118.99,33.43],[-118.991,33.43],[-118.991,33.43],[-118.991,33.43],[-118.992,33.429],[-118.993,33.429],[-118.993,33.428],[-118.994,33.428],[-118.994,33.427],[-118.994,33.427],[-118.995,33.427],[-118.996,33.426],[-118.996,33.426],[-118.997,33.426],[-118.997,33.425],[-118.997,33.425],[-118.998,33.425],[-118.998,33.425],[-118.999,33.424],[-119.0,33.424],[-119.0,33.424],[-119.0,33.424],[-119.0,33.424],[-119.0,33.424],[-119.001,33.423],[-119.002,33.423],[-119.002,33.423],[-119.003,33.422],[-119.003,33.422],[-119.003,33.422],[-119.004,33.422],[-119.005,33.421],[-119.005,33.421],[-119.005,33.421],[-119.006,33.421],[-119.007,33.421],[-119.007,33.421],[-119.007,33.421],[-119.007,33.421],[-119.008,33.42],[-119.009,33.42],[-119.01,33.42],[-119.01,33.419],[-119.01,33.419],[-119.011,33.419],[-119.012,33.419],[-119.012,33.419],[-119.012,33.419],[-119.013,33.418],[-119.013,33.418],[-119.014,33.418],[-119.015,33.418],[-119.015,33.418],[-119.016,33.417],[-119.017,33.417],[-119.018,33.417],[-119.019,33.417],[-119.02,33.416],[-119.021,33.416],[-119.021,33.416],[-119.022,33.416],[-119.022,33.416],[-119.022,33.416],[-119.022,33.416],[-119.023,33.416],[-119.023,33.416],[-119.024,33.415],[-119.025,33.415],[-119.025,33.415],[-119.026,33.415],[-119.027,33.415],[-119.028,33.415],[-119.029,33.415],[-119.03,33.415],[-119.031,33.415],[-119.032,33.415],[-119.032,33.415],[-119.033,33.415],[-119.033,33.415],[-119.034,33.414],[-119.034,33.414],[-119.034,33.414],[-119.035,33.414],[-119.036,33.414],[-119.037,33.414],[-119.037,33.414],[-119.037,33.415],[-119.037,33.448],[-119.037,33.465],[-119.037,33.465],[-119.036,33.465],[-119.036,33.465],[-119.036,33.465],[-119.036,33.465],[-119.036,33.465],[-119.036,33.465],[-119.036,33.465],[-119.036,33.465],[-119.036,33.466],[-119.036,33.466],[-119.036,33.466],[-119.036,33.466],[-119.036,33.466],[-119.036,33.466],[-119.035,33.466],[-119.035,33.466],[-119.035,33.466],[-119.035,33.466],[-119.035,33.466],[-119.035,33.466],[-119.035,33.466],[-119.035,33.466],[-119.035,33.466],[-119.034,33.466],[-119.034,33.466],[-119.034,33.466],[-119.034,33.466],[-119.034,33.466],[-119.034,33.466],[-119.034,33.466],[-119.033,33.466],[-119.033,33.466],[-119.033,33.466],[-119.033,33.466],[-119.033,33.466],[-119.033,33.466],[-119.033,33.466],[-119.033,33.466],[-119.033,33.466],[-119.032,33.467],[-119.032,33.467],[-119.032,33.467],[-119.032,33.467],[-119.032,33.467],[-119.032,33.467],[-119.032,33.467],[-119.032,33.467],[-119.032,33.467],[-119.032,33.467],[-119.032,33.467],[-119.032,33.467],[-119.032,33.467],[-119.032,33.468],[-119.032,33.468],[-119.032,33.468],[-119.032,33.468],[-119.032,33.468],[-119.032,33.468],[-119.032,33.468],[-119.031,33.468],[-119.031,33.468],[-119.031,33.468],[-119.031,33.468],[-119.031,33.469],[-119.031,33.469],[-119.031,33.469],[-119.031,33.469],[-119.031,33.469],[-119.031,33.469],[-119.031,33.469],[-119.031,33.469],[-119.031,33.469],[-119.031,33.47],[-119.031,33.47],[-119.031,33.47],[-119.031,33.47],[-119.031,33.47],[-119.031,33.47],[-119.031,33.471],[-119.031,33.471],[-119.031,33.471],[-119.031,33.471],[-119.031,33.471],[-119.031,33.472],[-119.031,33.472],[-119.031,33.472],[-119.031,33.472],[-119.031,33.472],[-119.031,33.472],[-119.031,33.472],[-119.031,33.472],[-119.031,33.472],[-119.031,33.473],[-119.031,33.473],[-119.031,33.473],[-119.031,33.473],[-119.031,33.473],[-119.031,33.473],[-119.031,33.473],[-119.031,33.473],[-119.031,33.473],[-119.031,33.473],[-119.031,33.474],[-119.031,33.474],[-119.031,33.474],[-119.031,33.474],[-119.031,33.474],[-119.031,33.474],[-119.031,33.474],[-119.031,33.474],[-119.031,33.474],[-119.03,33.474],[-119.03,33.474],[-119.03,33.474],[-119.03,33.474],[-119.03,33.474],[-119.03,33.475],[-119.03,33.475],[-119.03,33.475],[-119.03,33.475],[-119.03,33.475],[-119.008,33.475],[-118.968,33.475],[-118.967,33.475],[-118.967,33.475],[-118.968,33.474],[-118.968,33.473]]]},"properties":{"id":"santa-barbara-island-state-marine-reserve","name":"Santa Barbara Island State Marine Reserve","type":"SMR","shortName":"Santa Barbara Island","areaKm2":null,"ccrCitation":null}},{"type":"Feature","geometry":{"type":"Polygon","coordinates":[[[-118.909,33.363],[-119.037,33.363],[-119.037,33.414],[-119.036,33.414],[-119.035,33.414],[-119.034,33.414],[-119.034,33.414],[-119.034,33.414],[-119.033,33.415],[-119.033,33.415],[-119.032,33.415],[-119.032,33.415],[-119.031,33.415],[-119.03,33.415],[-119.029,33.415],[-119.028,33.415],[-119.027,33.415],[-119.026,33.415],[-119.025,33.415],[-119.025,33.415],[-119.024,33.415],[-119.023,33.416],[-119.023,33.416],[-119.022,33.416],[-119.022,33.416],[-119.022,33.416],[-119.022,33.416],[-119.021,33.416],[-119.021,33.416],[-119.02,33.416],[-119.019,33.417],[-119.018,33.417],[-119.017,33.417],[-119.016,33.417],[-119.015,33.418],[-119.015,33.418],[-119.014,33.418],[-119.013,33.418],[-119.013,33.418],[-119.012,33.419],[-119.012,33.419],[-119.012,33.419],[-119.011,33.419],[-119.01,33.419],[-119.01,33.419],[-119.01,33.42],[-119.009,33.42],[-119.008,33.42],[-119.007,33.421],[-119.007,33.421],[-119.007,33.421],[-119.007,33.421],[-119.006,33.421],[-119.005,33.421],[-119.005,33.421],[-119.005,33.421],[-119.004,33.422],[-119.003,33.422],[-119.003,33.422],[-119.003,33.422],[-119.002,33.423],[-119.002,33.423],[-119.001,33.423],[-119.0,33.424],[-119.0,33.424],[-119.0,33.424],[-119.0,33.424],[-119.0,33.424],[-118.999,33.424],[-118.998,33.425],[-118.998,33.425],[-118.997,33.425],[-118.997,33.425],[-118.997,33.426],[-118.996,33.426],[-118.996,33.426],[-118.995,33.427],[-118.994,33.427],[-118.994,33.427],[-118.994,33.428],[-118.993,33.428],[-118.993,33.429],[-118.992,33.429],[-118.991,33.43],[-118.991,33.43],[-118.991,33.43],[-118.99,33.43],[-118.99,33.431],[-118.99,33.431],[-118.989,33.431],[-118.989,33.432],[-118.989,33.432],[-118.988,33.432],[-118.988,33.432],[-118.988,33.433],[-118.988,33.433],[-118.987,33.433],[-118.987,33.433],[-118.987,33.433],[-118.987,33.434],[-118.986,33.434],[-118.986,33.435],[-118.985,33.435],[-118.985,33.436],[-118.984,33.436],[-118.984,33.436],[-118.984,33.436],[-118.984,33.436],[-118.984,33.436],[-118.983,33.437],[-118.983,33.438],[-118.982,33.438],[-118.982,33.439],[-118.981,33.439],[-118.981,33.44],[-118.98,33.44],[-118.98,33.441],[-118.979,33.442],[-118.979,33.443],[-118.979,33.443],[-118.978,33.443],[-118.978,33.444],[-118.977,33.445],[-118.977,33.445],[-118.977,33.446],[-118.976,33.447],[-118.976,33.447],[-118.975,33.448],[-118.975,33.448],[-118.975,33.448],[-118.975,33.449],[-118.974,33.45],[-118.974,33.451],[-118.974,33.451],[-118.974,33.451],[-118.973,33.452],[-118.973,33.452],[-118.973,33.453],[-118.973,33.453],[-118.973,33.454],[-118.973,33.454],[-118.972,33.455],[-118.972,33.456],[-118.972,33.456],[-118.972,33.456],[-118.972,33.457],[-118.972,33.458],[-118.971,33.458],[-118.971,33.459],[-118.971,33.459],[-118.971,33.459],[-118.971,33.459],[-118.971,33.46],[-118.97,33.461],[-118.97,33.461],[-118.97,33.462],[-118.97,33.463],[-118.97,33.463],[-118.97,33.463],[-118.969,33.464],[-118.969,33.465],[-118.969,33.465],[-118.969,33.466],[-118.969,33.466],[-118.969,33.467],[-118.968,33.467],[-118.968,33.468],[-118.968,33.469],[-118.968,33.469],[-118.968,33.469],[-118.968,33.47],[-118.968,33.471],[-118.968,33.471],[-118.968,33.472],[-118.968,33.473],[-118.968,33.474],[-118.967,33.475],[-118.967,33.475],[-118.909,33.475],[-118.909,33.363]]]},"properties":{"id":"santa-barbara-island-federal-marine-reserve","name":"Santa Barbara Island Federal Marine Reserve","type":"FMR","shortName":"Santa Barbara Island","areaKm2":null,"ccrCitation":null}}]}