{"type":"FeatureCollection","features":[{"type":"Feature","geometry":{"type":"Point","coordinates":[-119.0674,33.50203]},"properties":{"depth_ft":267,"depth_m":81.5}},{"type":"Feature","geometry":{"type":"Point","coordinates":[-119.06458,33.50203]},"properties":{"depth_ft":258,"depth_m":78.6}},{"type":"Feature","geometry":{"type":"Point","coordinates":[-119.06177,33.50203]},"properties":{"depth_ft":235,"depth_m":71.5}},{"type":"Feature","geometry":{"type":"Point","coordinates":[-119.05895,33.50203]},"properties":{"depth_ft":225,"depth_m":68.6}},{"type":"Feature","geometry":{"type":"Point","coordinates":[-119.05613,33.50203]},"properties":{"depth_ft":215,"depth_m":65.7}},{"type":"Feature","geometry":{"type":"Point","coordinates":[-119.05331,33.50203]},"properties":{"depth_ft":195,"depth_m":59.4}},{"type":"Feature","geometry":{"type":"Point","coordinates":[-119.0505,33.50203]},"properties":{"depth_ft":165,"depth_m":50.2}},{"type":"Feature","geometry":{"type":"Point","coordinates":[-119.04768,33.50203]},"properties":{"depth_ft":171,"depth_m":52.2}},{"type":"Feature","geometry":{"type":"Point","coordinates":[-119.04486,33.50203]},"properties":{"depth_ft":181,"depth_m":55.0}},{"type":"Feature","geometry":{"type":"Point","coordinates":[-119.04204,33.50203]},"properties":{"depth_ft":187,"depth_m":57.0}},{"type":"Feature","geometry":{"type":"Point","coordinates":[-119.03923,33.50203]},"properties":{"depth_ft":176,"depth_m":53.6}},{"type":"Feature","geometry":{"type":"Point","coordinates":[-119.03641,33.50203]},"properties":{"depth_ft":178,"depth_m":54.2}},{"type":"Feature","geometry":{"type":"Point","coordinates":[-119.03359,33.50203]},"properties":{"depth_ft":178,"depth_m":54.3}},{"type":"Feature","geometry":{"type":"Point","coordinates":[-119.03077,33.50203]},"properties":{"depth_ft":185,"depth_m":56.5}},{"type":"Feature","geometry":{"type":"Point","coordinates":[-119.02796,33.50203]},"properties":{"depth_ft":197,"depth_m":59.9}},{"type":"Feature","geometry":{"type":"Point","coordinates":[-119.02514,33.50203]},"properties":{"depth_ft":200,"depth_m":61.1}},{"type":"Feature","geometry":{"type":"Point","coordinates":[-119.02232,33.50203]},"properties":{"depth_ft":218,"depth_m":66.5}},{"type":"Feature","geometry":{"type":"Point","coordinates":[-119.0195,33.50203]},"properties":{"depth_ft":230,"depth_m":70.2}},{"type":"Feature","geometry":{"type":"Point","coordinates":[-119.01669,33.50203]},"properties":{"depth_ft":247,"depth_m":75.3}},{"type":"Feature","geometry":{"type":"Point","coordinates":[-119.01387,33.50203]},"properties":{"depth_ft":263,"depth_m":80.0}},{"type":"Feature","geometry":{"type":"Point","coordinates":[-119.01105,33.50203]},"properties":{"depth_ft":279,"depth_m":85.2}},{"type":"Feature","geometry":{"type":"Point","coordinates":[-119.00823,33.50203]},"properties":{"depth_ft":288,"depth_m":87.8}},{"type":"Feature","geometry":{"type":"Point","coordinates":[-119.0674,33.49968]},"properties":{"depth_ft":230,"depth_m":70.0}},{"type":"Feature","geometry":{"type":"Point","coordinates":[-119.06458,33.49968]},"properties":{"depth_ft":216,"depth_m":65.7}},{"type":"Feature","geometry":{"type":"Point","coordinates":[-119.06177,33.49968]},"properties":{"depth_ft":167,"depth_m":51.0}},{"type":"Feature","geometry":{"type":"Point","coordinates":[-119.05895,33.49968]},"properties":{"depth_ft":197,"depth_m":60.1}},{"type":"Feature","geometry":{"type":"Point","coordinates":[-119.05613,33.49968]},"properties":{"depth_ft":185,"depth_m":56.5}},{"type":"Feature","geometry":{"type":"Point","coordinates":[-119.05331,33.49968]},"properties":{"depth_ft":171,"depth_m":52.3}},{"type":"Feature","geometry":{"type":"Point","coordinates":[-119.0505,33.49968]},"properties":{"depth_ft":159,"depth_m":48.4}},{"type":"Feature","geometry":{"type":"Point","coordinates":[-119.04768,33.49968]},"properties":{"depth_ft":157,"depth_m":47.9}},{"type":"Feature","geometry":{"type":"Point","coordinates":[-119.04486,33.49968]},"properties":{"depth_ft":165,"depth_m":50.3}},{"type":"Feature","geometry":{"type":"Point","coordinates":[-119.04204,33.49968]},"properties":{"depth_ft":158,"depth_m":48.3}},{"type":"Feature","geometry":{"type":"Point","coordinates":[-119.03923,33.49968]},"properties":{"depth_ft":161,"depth_m":49.1}},{"type":"Feature","geometry":{"type":"Point","coordinates":[-119.03641,33.49968]},"properties":{"depth_ft":163,"depth_m":49.6}},{"type":"Feature","geometry":{"type":"Point","coordinates":[-119.03359,33.49968]},"properties":{"depth_ft":164,"depth_m":50.0}},{"type":"Feature","geometry":{"type":"Point","coordinates":[-119.03077,33.49968]},"properties":{"depth_ft":170,"depth_m":51.8}},{"type":"Feature","geometry":{"type":"Point","coordinates":[-119.02796,33.49968]},"properties":{"depth_ft":177,"depth_m":54.0}},{"type":"Feature","geometry":{"type":"Point","coordinates":[-119.02514,33.49968]},"properties":{"depth_ft":197,"depth_m":60.0}},{"type":"Feature","geometry":{"type":"Point","coordinates":[-119.02232,33.49968]},"properties":{"depth_ft":202,"depth_m":61.6}},{"type":"Feature","geometry":{"type":"Point","coordinates":[-119.0195,33.49968]},"properties":{"depth_ft":211,"depth_m":64.4}},{"type":"Feature","geometry":{"type":"Point","coordinates":[-119.01669,33.49968]},"properties":{"depth_ft":228,"depth_m":69.6}},{"type":"Feature","geometry":{"type":"Point","coordinates":[-119.01387,33.49968]},"properties":{"depth_ft":242,"depth_m":73.7}},{"type":"Feature","geometry":{"type":"Point","coordinates":[-119.01105,33.49968]},"properties":{"depth_ft":264,"depth_m":80.3}},{"type":"Feature","geometry":{"type":"Point","coordinates":[-119.00823,33.49968]},"properties":{"depth_ft":273,"depth_m":83.3}},{"type":"Feature","geometry":{"type":"Point","coordinates":[-119.0674,33.49733]},"properties":{"depth_ft":208,"depth_m":63.5}},{"type":"Feature","geometry":{"type":"Point","coordinates":[-119.06458,33.49733]},"properties":{"depth_ft":190,"depth_m":57.9}},{"type":"Feature","geometry":{"type":"Point","coordinates":[-119.06177,33.49733]},"properties":{"depth_ft":171,"depth_m":52.1}},{"type":"Feature","geometry":{"type":"Point","coordinates":[-119.05895,33.49733]},"properties":{"depth_ft":154,"depth_m":46.8}},{"type":"Feature","geometry":{"type":"Point","coordinates":[-119.05613,33.49733]},"properties":{"depth_ft":163,"depth_m":49.8}},{"type":"Feature","geometry":{"type":"Point","coordinates":[-119.05331,33.49733]},"properties":{"depth_ft":158,"depth_m":48.2}},{"type":"Feature","geometry":{"type":"Point","coordinates":[-119.0505,33.49733]},"properties":{"depth_ft":147,"depth_m":44.7}},{"type":"Feature","geometry":{"type":"Point","coordinates":[-119.04768,33.49733]},"properties":{"depth_ft":141,"depth_m":43.0}},{"type":"Feature","geometry":{"type":"Point","coordinates":[-119.04486,33.49733]},"properties":{"depth_ft":128,"depth_m":39.1}},{"type":"Feature","geometry":{"type":"Point","coordinates":[-119.04204,33.49733]},"properties":{"depth_ft":134,"depth_m":40.8}},{"type":"Feature","geometry":{"type":"Point","coordinates":[-119.03923,33.49733]},"properties":{"depth_ft":144,"depth_m":43.9}},{"type":"Feature","geometry":{"type":"Point","coordinates":[-119.03641,33.49733]},"properties":{"depth_ft":143,"depth_m":43.7}},{"type":"Feature","geometry":{"type":"Point","coordinates":[-119.03359,33.49733]},"properties":{"depth_ft":150,"depth_m":45.7}},{"type":"Feature","geometry":{"type":"Point","coordinates":[-119.03077,33.49733]},"properties":{"depth_ft":165,"depth_m":50.2}},{"type":"Feature","geometry":{"type":"Point","coordinates":[-119.02796,33.49733]},"properties":{"depth_ft":175,"depth_m":53.4}},{"type":"Feature","geometry":{"type":"Point","coordinates":[-119.02514,33.49733]},"properties":{"depth_ft":179,"depth_m":54.7}},{"type":"Feature","geometry":{"type":"Point","coordinates":[-119.02232,33.49733]},"properties":{"depth_ft":185,"depth_m":56.3}},{"type":"Feature","geometry":{"type":"Point","coordinates":[-119.0195,33.49733]},"properties":{"depth_ft":193,"depth_m":58.9}},{"type":"Feature","geometry":{"type":"Point","coordinates":[-119.01669,33.49733]},"properties":{"depth_ft":206,"depth_m":62.8}},{"type":"Feature","geometry":{"type":"Point","coordinates":[-119.01387,33.49733]},"properties":{"depth_ft":219,"depth_m":66.9}},{"type":"Feature","geometry":{"type":"Point","coordinates":[-119.01105,33.49733]},"properties":{"depth_ft":237,"depth_m":72.2}},{"type":"Feature","geometry":{"type":"Point","coordinates":[-119.00823,33.49733]},"properties":{"depth_ft":254,"depth_m":77.4}},{"type":"Feature","geometry":{"type":"Point","coordinates":[-119.00542,33.49733]},"properties":{"depth_ft":259,"depth_m":78.8}},{"type":"Feature","geometry":{"type":"Point","coordinates":[-119.0026,33.49733]},"properties":{"depth_ft":301,"depth_m":91.8}},{"type":"Feature","geometry":{"type":"Point","coordinates":[-119.0674,33.49498]},"properties":{"depth_ft":173,"depth_m":52.7}},{"type":"Feature","geometry":{"type":"Point","coordinates":[-119.06458,33.49498]},"properties":{"depth_ft":158,"depth_m":48.0}},{"type":"Feature","geometry":{"type":"Point","coordinates":[-119.06177,33.49498]},"properties":{"depth_ft":144,"depth_m":43.9}},{"type":"Feature","geometry":{"type":"Point","coordinates":[-119.05895,33.49498]},"properties":{"depth_ft":116,"depth_m":35.5}},{"type":"Feature","geometry":{"type":"Point","coordinates":[-119.05613,33.49498]},"properties":{"depth_ft":124,"depth_m":37.7}},{"type":"Feature","geometry":{"type":"Point","coordinates":[-119.05331,33.49498]},"properties":{"depth_ft":84,"depth_m":25.7}},{"type":"Feature","geometry":{"type":"Point","coordinates":[-119.0505,33.49498]},"properties":{"depth_ft":130,"depth_m":39.6}},{"type":"Feature","geometry":{"type":"Point","coordinates":[-119.04768,33.49498]},"properties":{"depth_ft":113,"depth_m":34.5}},{"type":"Feature","geometry":{"type":"Point","coordinates":[-119.04486,33.49498]},"properties":{"depth_ft":83,"depth_m":25.3}},{"type":"Feature","geometry":{"type":"Point","coordinates":[-119.04204,33.49498]},"properties":{"depth_ft":109,"depth_m":33.3}},{"type":"Feature","geometry":{"type":"Point","coordinates":[-119.03923,33.49498]},"properties":{"depth_ft":111,"depth_m":33.8}},{"type":"Feature","geometry":{"type":"Point","coordinates":[-119.03641,33.49498]},"properties":{"depth_ft":112,"depth_m":34.3}},{"type":"Feature","geometry":{"type":"Point","coordinates":[-119.03359,33.49498]},"properties":{"depth_ft":137,"depth_m":41.6}},{"type":"Feature","geometry":{"type":"Point","coordinates":[-119.03077,33.49498]},"properties":{"depth_ft":157,"depth_m":47.9}},{"type":"Feature","geometry":{"type":"Point","coordinates":[-119.02796,33.49498]},"properties":{"depth_ft":167,"depth_m":50.9}},{"type":"Feature","geometry":{"type":"Point","coordinates":[-119.02514,33.49498]},"properties":{"depth_ft":171,"depth_m":52.0}},{"type":"Feature","geometry":{"type":"Point","coordinates":[-119.02232,33.49498]},"properties":{"depth_ft":174,"depth_m":52.9}},{"type":"Feature","geometry":{"type":"Point","coordinates":[-119.0195,33.49498]},"properties":{"depth_ft":180,"depth_m":54.9}},{"type":"Feature","geometry":{"type":"Point","coordinates":[-119.01669,33.49498]},"properties":{"depth_ft":185,"depth_m":56.4}},{"type":"Feature","geometry":{"type":"Point","coordinates":[-119.01387,33.49498]},"properties":{"depth_ft":198,"depth_m":60.3}},{"type":"Feature","geometry":{"type":"Point","coordinates":[-119.01105,33.49498]},"properties":{"depth_ft":218,"depth_m":66.5}},{"type":"Feature","geometry":{"type":"Point","coordinates":[-119.00823,33.49498]},"properties":{"depth_ft":237,"depth_m":72.2}},{"type":"Feature","geometry":{"type":"Point","coordinates":[-119.00542,33.49498]},"properties":{"depth_ft":264,"depth_m":80.6}},{"type":"Feature","geometry":{"type":"Point","coordinates":[-119.0026,33.49498]},"properties":{"depth_ft":308,"depth_m":93.9}},{"type":"Feature","geometry":{"type":"Point","coordinates":[-119.0674,33.49263]},"properties":{"depth_ft":70,"depth_m":21.4}},{"type":"Feature","geometry":{"type":"Point","coordinates":[-119.06458,33.49263]},"properties":{"depth_ft":135,"depth_m":41.1}},{"type":"Feature","geometry":{"type":"Point","coordinates":[-119.06177,33.49263]},"properties":{"depth_ft":79,"depth_m":24.1}},{"type":"Feature","geometry":{"type":"Point","coordinates":[-119.05895,33.49263]},"properties":{"depth_ft":90,"depth_m":27.6}},{"type":"Feature","geometry":{"type":"Point","coordinates":[-119.05613,33.49263]},"properties":{"depth_ft":95,"depth_m":28.9}},{"type":"Feature","geometry":{"type":"Point","coordinates":[-119.05331,33.49263]},"properties":{"depth_ft":76,"depth_m":23.2}},{"type":"Feature","geometry":{"type":"Point","coordinates":[-119.0505,33.49263]},"properties":{"depth_ft":95,"depth_m":28.9}},{"type":"Feature","geometry":{"type":"Point","coordinates":[-119.04768,33.49263]},"properties":{"depth_ft":83,"depth_m":25.3}},{"type":"Feature","geometry":{"type":"Point","coordinates":[-119.04486,33.49263]},"properties":{"depth_ft":69,"depth_m":21.1}},{"type":"Feature","geometry":{"type":"Point","coordinates":[-119.04204,33.49263]},"properties":{"depth_ft":82,"depth_m":25.1}},{"type":"Feature","geometry":{"type":"Point","coordinates":[-119.03923,33.49263]},"properties":{"depth_ft":94,"depth_m":28.6}},{"type":"Feature","geometry":{"type":"Point","coordinates":[-119.03641,33.49263]},"properties":{"depth_ft":90,"depth_m":27.4}},{"type":"Feature","geometry":{"type":"Point","coordinates":[-119.03359,33.49263]},"properties":{"depth_ft":94,"depth_m":28.7}},{"type":"Feature","geometry":{"type":"Point","coordinates":[-119.03077,33.49263]},"properties":{"depth_ft":110,"depth_m":33.4}},{"type":"Feature","geometry":{"type":"Point","coordinates":[-119.02796,33.49263]},"properties":{"depth_ft":116,"depth_m":35.2}},{"type":"Feature","geometry":{"type":"Point","coordinates":[-119.02514,33.49263]},"properties":{"depth_ft":154,"depth_m":47.0}},{"type":"Feature","geometry":{"type":"Point","coordinates":[-119.02232,33.49263]},"properties":{"depth_ft":158,"depth_m":48.1}},{"type":"Feature","geometry":{"type":"Point","coordinates":[-119.0195,33.49263]},"properties":{"depth_ft":163,"depth_m":49.5}},{"type":"Feature","geometry":{"type":"Point","coordinates":[-119.01669,33.49263]},"properties":{"depth_ft":162,"depth_m":49.4}},{"type":"Feature","geometry":{"type":"Point","coordinates":[-119.01387,33.49263]},"properties":{"depth_ft":161,"depth_m":49.0}},{"type":"Feature","geometry":{"type":"Point","coordinates":[-119.01105,33.49263]},"properties":{"depth_ft":191,"depth_m":58.1}},{"type":"Feature","geometry":{"type":"Point","coordinates":[-119.00823,33.49263]},"properties":{"depth_ft":218,"depth_m":66.5}},{"type":"Feature","geometry":{"type":"Point","coordinates":[-119.00542,33.49263]},"properties":{"depth_ft":247,"depth_m":75.2}},{"type":"Feature","geometry":{"type":"Point","coordinates":[-119.0026,33.49263]},"properties":{"depth_ft":288,"depth_m":87.8}},{"type":"Feature","geometry":{"type":"Point","coordinates":[-119.0674,33.49028]},"properties":{"depth_ft":86,"depth_m":26.2}},{"type":"Feature","geometry":{"type":"Point","coordinates":[-119.06458,33.49028]},"properties":{"depth_ft":86,"depth_m":26.2}},{"type":"Feature","geometry":{"type":"Point","coordinates":[-119.06177,33.49028]},"properties":{"depth_ft":71,"depth_m":21.6}},{"type":"Feature","geometry":{"type":"Point","coordinates":[-119.05895,33.49028]},"properties":{"depth_ft":73,"depth_m":22.2}},{"type":"Feature","geometry":{"type":"Point","coordinates":[-119.05613,33.49028]},"properties":{"depth_ft":75,"depth_m":22.8}},{"type":"Feature","geometry":{"type":"Point","coordinates":[-119.05331,33.49028]},"properties":{"depth_ft":54,"depth_m":16.5}},{"type":"Feature","geometry":{"type":"Point","coordinates":[-119.0505,33.49028]},"properties":{"depth_ft":62,"depth_m":18.8}},{"type":"Feature","geometry":{"type":"Point","coordinates":[-119.04768,33.49028]},"properties":{"depth_ft":67,"depth_m":20.3}},{"type":"Feature","geometry":{"type":"Point","coordinates":[-119.04486,33.49028]},"properties":{"depth_ft":72,"depth_m":22.0}},{"type":"Feature","geometry":{"type":"Point","coordinates":[-119.04204,33.49028]},"properties":{"depth_ft":65,"depth_m":19.9}},{"type":"Feature","geometry":{"type":"Point","coordinates":[-119.03923,33.49028]},"properties":{"depth_ft":86,"depth_m":26.2}},{"type":"Feature","geometry":{"type":"Point","coordinates":[-119.03641,33.49028]},"properties":{"depth_ft":80,"depth_m":24.3}},{"type":"Feature","geometry":{"type":"Point","coordinates":[-119.03359,33.49028]},"properties":{"depth_ft":76,"depth_m":23.3}},{"type":"Feature","geometry":{"type":"Point","coordinates":[-119.03077,33.49028]},"properties":{"depth_ft":77,"depth_m":23.6}},{"type":"Feature","geometry":{"type":"Point","coordinates":[-119.02796,33.49028]},"properties":{"depth_ft":64,"depth_m":19.6}},{"type":"Feature","geometry":{"type":"Point","coordinates":[-119.02514,33.49028]},"properties":{"depth_ft":100,"depth_m":30.6}},{"type":"Feature","geometry":{"type":"Point","coordinates":[-119.02232,33.49028]},"properties":{"depth_ft":129,"depth_m":39.3}},{"type":"Feature","geometry":{"type":"Point","coordinates":[-119.0195,33.49028]},"properties":{"depth_ft":102,"depth_m":31.1}},{"type":"Feature","geometry":{"type":"Point","coordinates":[-119.01669,33.49028]},"properties":{"depth_ft":134,"depth_m":40.8}},{"type":"Feature","geometry":{"type":"Point","coordinates":[-119.01387,33.49028]},"properties":{"depth_ft":123,"depth_m":37.6}},{"type":"Feature","geometry":{"type":"Point","coordinates":[-119.01105,33.49028]},"properties":{"depth_ft":171,"depth_m":52.2}},{"type":"Feature","geometry":{"type":"Point","coordinates":[-119.00823,33.49028]},"properties":{"depth_ft":206,"depth_m":62.9}},{"type":"Feature","geometry":{"type":"Point","coordinates":[-119.00542,33.49028]},"properties":{"depth_ft":233,"depth_m":71.2}},{"type":"Feature","geometry":{"type":"Point","coordinates":[-119.0026,33.49028]},"properties":{"depth_ft":263,"depth_m":80.1}},{"type":"Feature","geometry":{"type":"Point","coordinates":[-119.0674,33.48793]},"properties":{"depth_ft":138,"depth_m":42.2}},{"type":"Feature","geometry":{"type":"Point","coordinates":[-119.06458,33.48793]},"properties":{"depth_ft":105,"depth_m":32.1}},{"type":"Feature","geometry":{"type":"Point","coordinates":[-119.06177,33.48793]},"properties":{"depth_ft":88,"depth_m":26.8}},{"type":"Feature","geometry":{"type":"Point","coordinates":[-119.05895,33.48793]},"properties":{"depth_ft":65,"depth_m":19.7}},{"type":"Feature","geometry":{"type":"Point","coordinates":[-119.05613,33.48793]},"properties":{"depth_ft":71,"depth_m":21.6}},{"type":"Feature","geometry":{"type":"Point","coordinates":[-119.05331,33.48793]},"properties":{"depth_ft":65,"depth_m":19.7}},{"type":"Feature","geometry":{"type":"Point","coordinates":[-119.0505,33.48793]},"properties":{"depth_ft":65,"depth_m":19.8}},{"type":"Feature","geometry":{"type":"Point","coordinates":[-119.04768,33.48793]},"properties":{"depth_ft":53,"depth_m":16.1}},{"type":"Feature","geometry":{"type":"Point","coordinates":[-119.04486,33.48793]},"properties":{"depth_ft":67,"depth_m":20.4}},{"type":"Feature","geometry":{"type":"Point","coordinates":[-119.04204,33.48793]},"properties":{"depth_ft":60,"depth_m":18.1}},{"type":"Feature","geometry":{"type":"Point","coordinates":[-119.03923,33.48793]},"properties":{"depth_ft":67,"depth_m":20.4}},{"type":"Feature","geometry":{"type":"Point","coordinates":[-119.03641,33.48793]},"properties":{"depth_ft":55,"depth_m":16.9}},{"type":"Feature","geometry":{"type":"Point","coordinates":[-119.03359,33.48793]},"properties":{"depth_ft":57,"depth_m":17.4}},{"type":"Feature","geometry":{"type":"Point","coordinates":[-119.02796,33.48793]},"properties":{"depth_ft":13,"depth_m":3.8}},{"type":"Feature","geometry":{"type":"Point","coordinates":[-119.02514,33.48793]},"properties":{"depth_ft":61,"depth_m":18.5}},{"type":"Feature","geometry":{"type":"Point","coordinates":[-119.02232,33.48793]},"properties":{"depth_ft":89,"depth_m":27.2}},{"type":"Feature","geometry":{"type":"Point","coordinates":[-119.0195,33.48793]},"properties":{"depth_ft":65,"depth_m":19.9}},{"type":"Feature","geometry":{"type":"Point","coordinates":[-119.01669,33.48793]},"properties":{"depth_ft":105,"depth_m":32.0}},{"type":"Feature","geometry":{"type":"Point","coordinates":[-119.01387,33.48793]},"properties":{"depth_ft":85,"depth_m":25.9}},{"type":"Feature","geometry":{"type":"Point","coordinates":[-119.01105,33.48793]},"properties":{"depth_ft":169,"depth_m":51.5}},{"type":"Feature","geometry":{"type":"Point","coordinates":[-119.00823,33.48793]},"properties":{"depth_ft":191,"depth_m":58.1}},{"type":"Feature","geometry":{"type":"Point","coordinates":[-119.00542,33.48793]},"properties":{"depth_ft":226,"depth_m":68.9}},{"type":"Feature","geometry":{"type":"Point","coordinates":[-119.0026,33.48793]},"properties":{"depth_ft":264,"depth_m":80.6}},{"type":"Feature","geometry":{"type":"Point","coordinates":[-119.0674,33.48558]},"properties":{"depth_ft":151,"depth_m":46.0}},{"type":"Feature","geometry":{"type":"Point","coordinates":[-119.06458,33.48558]},"properties":{"depth_ft":131,"depth_m":40.0}},{"type":"Feature","geometry":{"type":"Point","coordinates":[-119.06177,33.48558]},"properties":{"depth_ft":98,"depth_m":29.8}},{"type":"Feature","geometry":{"type":"Point","coordinates":[-119.05895,33.48558]},"properties":{"depth_ft":74,"depth_m":22.7}},{"type":"Feature","geometry":{"type":"Point","coordinates":[-119.05613,33.48558]},"properties":{"depth_ft":56,"depth_m":17.2}},{"type":"Feature","geometry":{"type":"Point","coordinates":[-119.05331,33.48558]},"properties":{"depth_ft":52,"depth_m":15.8}},{"type":"Feature","geometry":{"type":"Point","coordinates":[-119.0505,33.48558]},"properties":{"depth_ft":64,"depth_m":19.5}},{"type":"Feature","geometry":{"type":"Point","coordinates":[-119.04768,33.48558]},"properties":{"depth_ft":47,"depth_m":14.2}},{"type":"Feature","geometry":{"type":"Point","coordinates":[-119.04486,33.48558]},"properties":{"depth_ft":49,"depth_m":15.0}},{"type":"Feature","geometry":{"type":"Point","coordinates":[-119.04204,33.48558]},"properties":{"depth_ft":44,"depth_m":13.6}},{"type":"Feature","geometry":{"type":"Point","coordinates":[-119.03923,33.48558]},"properties":{"depth_ft":49,"depth_m":15.1}},{"type":"Feature","geometry":{"type":"Point","coordinates":[-119.03641,33.48558]},"properties":{"depth_ft":23,"depth_m":6.9}},{"type":"Feature","geometry":{"type":"Point","coordinates":[-119.02796,33.48558]},"properties":{"depth_ft":35,"depth_m":10.8}},{"type":"Feature","geometry":{"type":"Point","coordinates":[-119.02514,33.48558]},"properties":{"depth_ft":59,"depth_m":18.0}},{"type":"Feature","geometry":{"type":"Point","coordinates":[-119.02232,33.48558]},"properties":{"depth_ft":71,"depth_m":21.8}},{"type":"Feature","geometry":{"type":"Point","coordinates":[-119.0195,33.48558]},"properties":{"depth_ft":78,"depth_m":23.6}},{"type":"Feature","geometry":{"type":"Point","coordinates":[-119.01669,33.48558]},"properties":{"depth_ft":116,"depth_m":35.2}},{"type":"Feature","geometry":{"type":"Point","coordinates":[-119.01387,33.48558]},"properties":{"depth_ft":95,"depth_m":29.0}},{"type":"Feature","geometry":{"type":"Point","coordinates":[-119.01105,33.48558]},"properties":{"depth_ft":170,"depth_m":51.7}},{"type":"Feature","geometry":{"type":"Point","coordinates":[-119.00823,33.48558]},"properties":{"depth_ft":199,"depth_m":60.6}},{"type":"Feature","geometry":{"type":"Point","coordinates":[-119.00542,33.48558]},"properties":{"depth_ft":233,"depth_m":71.1}},{"type":"Feature","geometry":{"type":"Point","coordinates":[-119.0026,33.48558]},"properties":{"depth_ft":274,"depth_m":83.4}},{"type":"Feature","geometry":{"type":"Point","coordinates":[-119.0674,33.48323]},"properties":{"depth_ft":182,"depth_m":55.4}},{"type":"Feature","geometry":{"type":"Point","coordinates":[-119.06458,33.48323]},"properties":{"depth_ft":150,"depth_m":45.6}},{"type":"Feature","geometry":{"type":"Point","coordinates":[-119.06177,33.48323]},"properties":{"depth_ft":125,"depth_m":38.0}},{"type":"Feature","geometry":{"type":"Point","coordinates":[-119.05895,33.48323]},"properties":{"depth_ft":41,"depth_m":12.6}},{"type":"Feature","geometry":{"type":"Point","coordinates":[-119.05613,33.48323]},"properties":{"depth_ft":54,"depth_m":16.4}},{"type":"Feature","geometry":{"type":"Point","coordinates":[-119.05331,33.48323]},"properties":{"depth_ft":49,"depth_m":14.9}},{"type":"Feature","geometry":{"type":"Point","coordinates":[-119.0505,33.48323]},"properties":{"depth_ft":58,"depth_m":17.7}},{"type":"Feature","geometry":{"type":"Point","coordinates":[-119.04486,33.48323]},"properties":{"depth_ft":9,"depth_m":2.7}},{"type":"Feature","geometry":{"type":"Point","coordinates":[-119.04204,33.48323]},"properties":{"depth_ft":9,"depth_m":2.7}},{"type":"Feature","geometry":{"type":"Point","coordinates":[-119.03923,33.48323]},"properties":{"depth_ft":10,"depth_m":3.1}},{"type":"Feature","geometry":{"type":"Point","coordinates":[-119.02796,33.48323]},"properties":{"depth_ft":36,"depth_m":10.9}},{"type":"Feature","geometry":{"type":"Point","coordinates":[-119.02514,33.48323]},"properties":{"depth_ft":54,"depth_m":16.6}},{"type":"Feature","geometry":{"type":"Point","coordinates":[-119.02232,33.48323]},"properties":{"depth_ft":77,"depth_m":23.4}},{"type":"Feature","geometry":{"type":"Point","coordinates":[-119.0195,33.48323]},"properties":{"depth_ft":98,"depth_m":30.0}},{"type":"Feature","geometry":{"type":"Point","coordinates":[-119.01669,33.48323]},"properties":{"depth_ft":131,"depth_m":39.9}},{"type":"Feature","geometry":{"type":"Point","coordinates":[-119.01387,33.48323]},"properties":{"depth_ft":144,"depth_m":44.0}},{"type":"Feature","geometry":{"type":"Point","coordinates":[-119.01105,33.48323]},"properties":{"depth_ft":181,"depth_m":55.3}},{"type":"Feature","geometry":{"type":"Point","coordinates":[-119.00823,33.48323]},"properties":{"depth_ft":218,"depth_m":66.6}},{"type":"Feature","geometry":{"type":"Point","coordinates":[-119.00542,33.48323]},"properties":{"depth_ft":246,"depth_m":74.9}},{"type":"Feature","geometry":{"type":"Point","coordinates":[-119.0026,33.48323]},"properties":{"depth_ft":280,"depth_m":85.2}},{"type":"Feature","geometry":{"type":"Point","coordinates":[-119.0674,33.48088]},"properties":{"depth_ft":181,"depth_m":55.1}},{"type":"Feature","geometry":{"type":"Point","coordinates":[-119.06458,33.48088]},"properties":{"depth_ft":154,"depth_m":47.1}},{"type":"Feature","geometry":{"type":"Point","coordinates":[-119.06177,33.48088]},"properties":{"depth_ft":40,"depth_m":12.1}},{"type":"Feature","geometry":{"type":"Point","coordinates":[-119.05895,33.48088]},"properties":{"depth_ft":59,"depth_m":18.1}},{"type":"Feature","geometry":{"type":"Point","coordinates":[-119.05613,33.48088]},"properties":{"depth_ft":49,"depth_m":14.8}},{"type":"Feature","geometry":{"type":"Point","coordinates":[-119.05331,33.48088]},"properties":{"depth_ft":45,"depth_m":13.6}},{"type":"Feature","geometry":{"type":"Point","coordinates":[-119.0505,33.48088]},"properties":{"depth_ft":39,"depth_m":11.8}},{"type":"Feature","geometry":{"type":"Point","coordinates":[-119.04768,33.48088]},"properties":{"depth_ft":7,"depth_m":2.1}},{"type":"Feature","geometry":{"type":"Point","coordinates":[-119.02796,33.48088]},"properties":{"depth_ft":29,"depth_m":8.8}},{"type":"Feature","geometry":{"type":"Point","coordinates":[-119.02514,33.48088]},"properties":{"depth_ft":52,"depth_m":15.8}},{"type":"Feature","geometry":{"type":"Point","coordinates":[-119.02232,33.48088]},"properties":{"depth_ft":87,"depth_m":26.4}},{"type":"Feature","geometry":{"type":"Point","coordinates":[-119.0195,33.48088]},"properties":{"depth_ft":125,"depth_m":38.1}},{"type":"Feature","geometry":{"type":"Point","coordinates":[-119.01669,33.48088]},"properties":{"depth_ft":149,"depth_m":45.5}},{"type":"Feature","geometry":{"type":"Point","coordinates":[-119.01387,33.48088]},"properties":{"depth_ft":166,"depth_m":50.7}},{"type":"Feature","geometry":{"type":"Point","coordinates":[-119.01105,33.48088]},"properties":{"depth_ft":199,"depth_m":60.8}},{"type":"Feature","geometry":{"type":"Point","coordinates":[-119.00823,33.48088]},"properties":{"depth_ft":236,"depth_m":72.0}},{"type":"Feature","geometry":{"type":"Point","coordinates":[-119.00542,33.48088]},"properties":{"depth_ft":262,"depth_m":79.8}},{"type":"Feature","geometry":{"type":"Point","coordinates":[-119.0026,33.48088]},"properties":{"depth_ft":283,"depth_m":86.1}},{"type":"Feature","geometry":{"type":"Point","coordinates":[-119.0674,33.47853]},"properties":{"depth_ft":191,"depth_m":58.2}},{"type":"Feature","geometry":{"type":"Point","coordinates":[-119.06458,33.47853]},"properties":{"depth_ft":134,"depth_m":40.9}},{"type":"Feature","geometry":{"type":"Point","coordinates":[-119.06177,33.47853]},"properties":{"depth_ft":63,"depth_m":19.1}},{"type":"Feature","geometry":{"type":"Point","coordinates":[-119.05895,33.47853]},"properties":{"depth_ft":59,"depth_m":18.1}},{"type":"Feature","geometry":{"type":"Point","coordinates":[-119.05613,33.47853]},"properties":{"depth_ft":62,"depth_m":19.0}},{"type":"Feature","geometry":{"type":"Point","coordinates":[-119.05331,33.47853]},"properties":{"depth_ft":35,"depth_m":10.8}},{"type":"Feature","geometry":{"type":"Point","coordinates":[-119.0505,33.47853]},"properties":{"depth_ft":27,"depth_m":8.2}},{"type":"Feature","geometry":{"type":"Point","coordinates":[-119.04768,33.47853]},"properties":{"depth_ft":22,"depth_m":6.6}},{"type":"Feature","geometry":{"type":"Point","coordinates":[-119.04486,33.47853]},"properties":{"depth_ft":15,"depth_m":4.7}},{"type":"Feature","geometry":{"type":"Point","coordinates":[-119.02514,33.47853]},"properties":{"depth_ft":52,"depth_m":15.9}},{"type":"Feature","geometry":{"type":"Point","coordinates":[-119.02232,33.47853]},"properties":{"depth_ft":101,"depth_m":30.8}},{"type":"Feature","geometry":{"type":"Point","coordinates":[-119.0195,33.47853]},"properties":{"depth_ft":145,"depth_m":44.1}},{"type":"Feature","geometry":{"type":"Point","coordinates":[-119.01669,33.47853]},"properties":{"depth_ft":164,"depth_m":50.0}},{"type":"Feature","geometry":{"type":"Point","coordinates":[-119.01387,33.47853]},"properties":{"depth_ft":185,"depth_m":56.5}},{"type":"Feature","geometry":{"type":"Point","coordinates":[-119.01105,33.47853]},"properties":{"depth_ft":214,"depth_m":65.4}},{"type":"Feature","geometry":{"type":"Point","coordinates":[-119.00823,33.47853]},"properties":{"depth_ft":248,"depth_m":75.6}},{"type":"Feature","geometry":{"type":"Point","coordinates":[-119.00542,33.47853]},"properties":{"depth_ft":269,"depth_m":82.1}},{"type":"Feature","geometry":{"type":"Point","coordinates":[-119.0026,33.47853]},"properties":{"depth_ft":282,"depth_m":86.0}},{"type":"Feature","geometry":{"type":"Point","coordinates":[-119.0674,33.47618]},"properties":{"depth_ft":163,"depth_m":49.6}},{"type":"Feature","geometry":{"type":"Point","coordinates":[-119.06458,33.47618]},"properties":{"depth_ft":88,"depth_m":26.7}},{"type":"Feature","geometry":{"type":"Point","coordinates":[-119.06177,33.47618]},"properties":{"depth_ft":92,"depth_m":28.0}},{"type":"Feature","geometry":{"type":"Point","coordinates":[-119.05895,33.47618]},"properties":{"depth_ft":148,"depth_m":45.1}},{"type":"Feature","geometry":{"type":"Point","coordinates":[-119.05613,33.47618]},"properties":{"depth_ft":142,"depth_m":43.4}},{"type":"Feature","geometry":{"type":"Point","coordinates":[-119.05331,33.47618]},"properties":{"depth_ft":116,"depth_m":35.4}},{"type":"Feature","geometry":{"type":"Point","coordinates":[-119.0505,33.47618]},"properties":{"depth_ft":51,"depth_m":15.7}},{"type":"Feature","geometry":{"type":"Point","coordinates":[-119.04768,33.47618]},"properties":{"depth_ft":54,"depth_m":16.3}},{"type":"Feature","geometry":{"type":"Point","coordinates":[-119.04486,33.47618]},"properties":{"depth_ft":38,"depth_m":11.6}},{"type":"Feature","geometry":{"type":"Point","coordinates":[-119.02514,33.47618]},"properties":{"depth_ft":49,"depth_m":15.1}},{"type":"Feature","geometry":{"type":"Point","coordinates":[-119.02232,33.47618]},"properties":{"depth_ft":89,"depth_m":27.0}},{"type":"Feature","geometry":{"type":"Point","coordinates":[-119.0195,33.47618]},"properties":{"depth_ft":152,"depth_m":46.3}},{"type":"Feature","geometry":{"type":"Point","coordinates":[-119.01669,33.47618]},"properties":{"depth_ft":173,"depth_m":52.6}},{"type":"Feature","geometry":{"type":"Point","coordinates":[-119.01387,33.47618]},"properties":{"depth_ft":194,"depth_m":59.1}},{"type":"Feature","geometry":{"type":"Point","coordinates":[-119.01105,33.47618]},"properties":{"depth_ft":225,"depth_m":68.5}},{"type":"Feature","geometry":{"type":"Point","coordinates":[-119.00823,33.47618]},"properties":{"depth_ft":254,"depth_m":77.4}},{"type":"Feature","geometry":{"type":"Point","coordinates":[-119.00542,33.47618]},"properties":{"depth_ft":273,"depth_m":83.1}},{"type":"Feature","geometry":{"type":"Point","coordinates":[-119.0026,33.47618]},"properties":{"depth_ft":284,"depth_m":86.6}},{"type":"Feature","geometry":{"type":"Point","coordinates":[-119.0674,33.47382]},"properties":{"depth_ft":233,"depth_m":70.9}},{"type":"Feature","geometry":{"type":"Point","coordinates":[-119.06458,33.47382]},"properties":{"depth_ft":171,"depth_m":52.2}},{"type":"Feature","geometry":{"type":"Point","coordinates":[-119.06177,33.47382]},"properties":{"depth_ft":186,"depth_m":56.6}},{"type":"Feature","geometry":{"type":"Point","coordinates":[-119.05895,33.47382]},"properties":{"depth_ft":190,"depth_m":58.0}},{"type":"Feature","geometry":{"type":"Point","coordinates":[-119.05613,33.47382]},"properties":{"depth_ft":170,"depth_m":51.9}},{"type":"Feature","geometry":{"type":"Point","coordinates":[-119.05331,33.47382]},"properties":{"depth_ft":148,"depth_m":45.2}},{"type":"Feature","geometry":{"type":"Point","coordinates":[-119.0505,33.47382]},"properties":{"depth_ft":100,"depth_m":30.4}},{"type":"Feature","geometry":{"type":"Point","coordinates":[-119.04768,33.47382]},"properties":{"depth_ft":70,"depth_m":21.4}},{"type":"Feature","geometry":{"type":"Point","coordinates":[-119.04486,33.47382]},"properties":{"depth_ft":45,"depth_m":13.8}},{"type":"Feature","geometry":{"type":"Point","coordinates":[-119.02796,33.47382]},"properties":{"depth_ft":31,"depth_m":9.5}},{"type":"Feature","geometry":{"type":"Point","coordinates":[-119.02514,33.47382]},"properties":{"depth_ft":48,"depth_m":14.7}},{"type":"Feature","geometry":{"type":"Point","coordinates":[-119.02232,33.47382]},"properties":{"depth_ft":74,"depth_m":22.4}},{"type":"Feature","geometry":{"type":"Point","coordinates":[-119.0195,33.47382]},"properties":{"depth_ft":151,"depth_m":46.0}},{"type":"Feature","geometry":{"type":"Point","coordinates":[-119.01669,33.47382]},"properties":{"depth_ft":177,"depth_m":53.8}},{"type":"Feature","geometry":{"type":"Point","coordinates":[-119.01387,33.47382]},"properties":{"depth_ft":199,"depth_m":60.6}},{"type":"Feature","geometry":{"type":"Point","coordinates":[-119.01105,33.47382]},"properties":{"depth_ft":229,"depth_m":69.8}},{"type":"Feature","geometry":{"type":"Point","coordinates":[-119.00823,33.47382]},"properties":{"depth_ft":256,"depth_m":78.0}},{"type":"Feature","geometry":{"type":"Point","coordinates":[-119.00542,33.47382]},"properties":{"depth_ft":271,"depth_m":82.7}},{"type":"Feature","geometry":{"type":"Point","coordinates":[-119.0026,33.47382]},"properties":{"depth_ft":281,"depth_m":85.8}},{"type":"Feature","geometry":{"type":"Point","coordinates":[-119.0674,33.47147]},"properties":{"depth_ft":296,"depth_m":90.1}},{"type":"Feature","geometry":{"type":"Point","coordinates":[-119.06458,33.47147]},"properties":{"depth_ft":273,"depth_m":83.1}},{"type":"Feature","geometry":{"type":"Point","coordinates":[-119.06177,33.47147]},"properties":{"depth_ft":254,"depth_m":77.5}},{"type":"Feature","geometry":{"type":"Point","coordinates":[-119.05895,33.47147]},"properties":{"depth_ft":232,"depth_m":70.7}},{"type":"Feature","geometry":{"type":"Point","coordinates":[-119.05613,33.47147]},"properties":{"depth_ft":188,"depth_m":57.4}},{"type":"Feature","geometry":{"type":"Point","coordinates":[-119.05331,33.47147]},"properties":{"depth_ft":157,"depth_m":47.9}},{"type":"Feature","geometry":{"type":"Point","coordinates":[-119.0505,33.47147]},"properties":{"depth_ft":106,"depth_m":32.4}},{"type":"Feature","geometry":{"type":"Point","coordinates":[-119.04768,33.47147]},"properties":{"depth_ft":65,"depth_m":19.7}},{"type":"Feature","geometry":{"type":"Point","coordinates":[-119.04486,33.47147]},"properties":{"depth_ft":26,"depth_m":8.1}},{"type":"Feature","geometry":{"type":"Point","coordinates":[-119.02796,33.47147]},"properties":{"depth_ft":37,"depth_m":11.3}},{"type":"Feature","geometry":{"type":"Point","coordinates":[-119.02514,33.47147]},"properties":{"depth_ft":58,"depth_m":17.8}},{"type":"Feature","geometry":{"type":"Point","coordinates":[-119.02232,33.47147]},"properties":{"depth_ft":67,"depth_m":20.3}},{"type":"Feature","geometry":{"type":"Point","coordinates":[-119.0195,33.47147]},"properties":{"depth_ft":149,"depth_m":45.3}},{"type":"Feature","geometry":{"type":"Point","coordinates":[-119.01669,33.47147]},"properties":{"depth_ft":168,"depth_m":51.3}},{"type":"Feature","geometry":{"type":"Point","coordinates":[-119.01387,33.47147]},"properties":{"depth_ft":198,"depth_m":60.3}},{"type":"Feature","geometry":{"type":"Point","coordinates":[-119.01105,33.47147]},"properties":{"depth_ft":225,"depth_m":68.7}},{"type":"Feature","geometry":{"type":"Point","coordinates":[-119.00823,33.47147]},"properties":{"depth_ft":251,"depth_m":76.6}},{"type":"Feature","geometry":{"type":"Point","coordinates":[-119.00542,33.47147]},"properties":{"depth_ft":270,"depth_m":82.2}},{"type":"Feature","geometry":{"type":"Point","coordinates":[-119.0026,33.47147]},"properties":{"depth_ft":282,"depth_m":85.8}},{"type":"Feature","geometry":{"type":"Point","coordinates":[-119.0674,33.46912]},"properties":{"depth_ft":302,"depth_m":92.0}},{"type":"Feature","geometry":{"type":"Point","coordinates":[-119.06458,33.46912]},"properties":{"depth_ft":287,"depth_m":87.4}},{"type":"Feature","geometry":{"type":"Point","coordinates":[-119.06177,33.46912]},"properties":{"depth_ft":262,"depth_m":79.8}},{"type":"Feature","geometry":{"type":"Point","coordinates":[-119.05895,33.46912]},"properties":{"depth_ft":230,"depth_m":70.2}},{"type":"Feature","geometry":{"type":"Point","coordinates":[-119.05613,33.46912]},"properties":{"depth_ft":197,"depth_m":59.9}},{"type":"Feature","geometry":{"type":"Point","coordinates":[-119.05331,33.46912]},"properties":{"depth_ft":150,"depth_m":45.7}},{"type":"Feature","geometry":{"type":"Point","coordinates":[-119.0505,33.46912]},"properties":{"depth_ft":115,"depth_m":35.0}},{"type":"Feature","geometry":{"type":"Point","coordinates":[-119.04768,33.46912]},"properties":{"depth_ft":92,"depth_m":28.0}},{"type":"Feature","geometry":{"type":"Point","coordinates":[-119.04486,33.46912]},"properties":{"depth_ft":59,"depth_m":18.1}},{"type":"Feature","geometry":{"type":"Point","coordinates":[-119.04204,33.46912]},"properties":{"depth_ft":31,"depth_m":9.4}},{"type":"Feature","geometry":{"type":"Point","coordinates":[-119.03077,33.46912]},"properties":{"depth_ft":3,"depth_m":1.1}},{"type":"Feature","geometry":{"type":"Point","coordinates":[-119.02796,33.46912]},"properties":{"depth_ft":42,"depth_m":12.7}},{"type":"Feature","geometry":{"type":"Point","coordinates":[-119.02514,33.46912]},"properties":{"depth_ft":67,"depth_m":20.3}},{"type":"Feature","geometry":{"type":"Point","coordinates":[-119.02232,33.46912]},"properties":{"depth_ft":118,"depth_m":36.1}},{"type":"Feature","geometry":{"type":"Point","coordinates":[-119.0195,33.46912]},"properties":{"depth_ft":147,"depth_m":44.8}},{"type":"Feature","geometry":{"type":"Point","coordinates":[-119.01669,33.46912]},"properties":{"depth_ft":169,"depth_m":51.4}},{"type":"Feature","geometry":{"type":"Point","coordinates":[-119.01387,33.46912]},"properties":{"depth_ft":195,"depth_m":59.5}},{"type":"Feature","geometry":{"type":"Point","coordinates":[-119.01105,33.46912]},"properties":{"depth_ft":216,"depth_m":65.9}},{"type":"Feature","geometry":{"type":"Point","coordinates":[-119.00823,33.46912]},"properties":{"depth_ft":240,"depth_m":73.0}},{"type":"Feature","geometry":{"type":"Point","coordinates":[-119.00542,33.46912]},"properties":{"depth_ft":260,"depth_m":79.3}},{"type":"Feature","geometry":{"type":"Point","coordinates":[-119.0026,33.46912]},"properties":{"depth_ft":275,"depth_m":83.7}},{"type":"Feature","geometry":{"type":"Point","coordinates":[-119.0674,33.46677]},"properties":{"depth_ft":311,"depth_m":94.7}},{"type":"Feature","geometry":{"type":"Point","coordinates":[-119.06458,33.46677]},"properties":{"depth_ft":294,"depth_m":89.6}},{"type":"Feature","geometry":{"type":"Point","coordinates":[-119.06177,33.46677]},"properties":{"depth_ft":259,"depth_m":79.1}},{"type":"Feature","geometry":{"type":"Point","coordinates":[-119.05895,33.46677]},"properties":{"depth_ft":221,"depth_m":67.3}},{"type":"Feature","geometry":{"type":"Point","coordinates":[-119.05613,33.46677]},"properties":{"depth_ft":176,"depth_m":53.6}},{"type":"Feature","geometry":{"type":"Point","coordinates":[-119.05331,33.46677]},"properties":{"depth_ft":138,"depth_m":42.0}},{"type":"Feature","geometry":{"type":"Point","coordinates":[-119.0505,33.46677]},"properties":{"depth_ft":113,"depth_m":34.3}},{"type":"Feature","geometry":{"type":"Point","coordinates":[-119.04768,33.46677]},"properties":{"depth_ft":89,"depth_m":27.3}},{"type":"Feature","geometry":{"type":"Point","coordinates":[-119.04486,33.46677]},"properties":{"depth_ft":56,"depth_m":17.0}},{"type":"Feature","geometry":{"type":"Point","coordinates":[-119.04204,33.46677]},"properties":{"depth_ft":6,"depth_m":1.9}},{"type":"Feature","geometry":{"type":"Point","coordinates":[-119.03077,33.46677]},"properties":{"depth_ft":24,"depth_m":7.2}},{"type":"Feature","geometry":{"type":"Point","coordinates":[-119.02796,33.46677]},"properties":{"depth_ft":47,"depth_m":14.4}},{"type":"Feature","geometry":{"type":"Point","coordinates":[-119.02514,33.46677]},"properties":{"depth_ft":73,"depth_m":22.2}},{"type":"Feature","geometry":{"type":"Point","coordinates":[-119.02232,33.46677]},"properties":{"depth_ft":131,"depth_m":40.1}},{"type":"Feature","geometry":{"type":"Point","coordinates":[-119.0195,33.46677]},"properties":{"depth_ft":157,"depth_m":47.7}},{"type":"Feature","geometry":{"type":"Point","coordinates":[-119.01669,33.46677]},"properties":{"depth_ft":167,"depth_m":50.9}},{"type":"Feature","geometry":{"type":"Point","coordinates":[-119.01387,33.46677]},"properties":{"depth_ft":172,"depth_m":52.5}},{"type":"Feature","geometry":{"type":"Point","coordinates":[-119.01105,33.46677]},"properties":{"depth_ft":199,"depth_m":60.5}},{"type":"Feature","geometry":{"type":"Point","coordinates":[-119.00823,33.46677]},"properties":{"depth_ft":231,"depth_m":70.4}},{"type":"Feature","geometry":{"type":"Point","coordinates":[-119.00542,33.46677]},"properties":{"depth_ft":251,"depth_m":76.5}},{"type":"Feature","geometry":{"type":"Point","coordinates":[-119.0026,33.46677]},"properties":{"depth_ft":261,"depth_m":79.7}},{"type":"Feature","geometry":{"type":"Point","coordinates":[-119.0674,33.46442]},"properties":{"depth_ft":318,"depth_m":97.0}},{"type":"Feature","geometry":{"type":"Point","coordinates":[-119.06458,33.46442]},"properties":{"depth_ft":303,"depth_m":92.5}},{"type":"Feature","geometry":{"type":"Point","coordinates":[-119.06177,33.46442]},"properties":{"depth_ft":265,"depth_m":80.7}},{"type":"Feature","geometry":{"type":"Point","coordinates":[-119.05895,33.46442]},"properties":{"depth_ft":216,"depth_m":66.0}},{"type":"Feature","geometry":{"type":"Point","coordinates":[-119.05613,33.46442]},"properties":{"depth_ft":162,"depth_m":49.4}},{"type":"Feature","geometry":{"type":"Point","coordinates":[-119.05331,33.46442]},"properties":{"depth_ft":72,"depth_m":22.1}},{"type":"Feature","geometry":{"type":"Point","coordinates":[-119.0505,33.46442]},"properties":{"depth_ft":65,"depth_m":19.8}},{"type":"Feature","geometry":{"type":"Point","coordinates":[-119.04486,33.46442]},"properties":{"depth_ft":44,"depth_m":13.3}},{"type":"Feature","geometry":{"type":"Point","coordinates":[-119.04204,33.46442]},"properties":{"depth_ft":60,"depth_m":18.2}},{"type":"Feature","geometry":{"type":"Point","coordinates":[-119.03923,33.46442]},"properties":{"depth_ft":35,"depth_m":10.5}},{"type":"Feature","geometry":{"type":"Point","coordinates":[-119.03641,33.46442]},"properties":{"depth_ft":27,"depth_m":8.1}},{"type":"Feature","geometry":{"type":"Point","coordinates":[-119.03359,33.46442]},"properties":{"depth_ft":38,"depth_m":11.7}},{"type":"Feature","geometry":{"type":"Point","coordinates":[-119.03077,33.46442]},"properties":{"depth_ft":31,"depth_m":9.5}},{"type":"Feature","geometry":{"type":"Point","coordinates":[-119.02796,33.46442]},"properties":{"depth_ft":53,"depth_m":16.1}},{"type":"Feature","geometry":{"type":"Point","coordinates":[-119.02514,33.46442]},"properties":{"depth_ft":89,"depth_m":27.1}},{"type":"Feature","geometry":{"type":"Point","coordinates":[-119.02232,33.46442]},"properties":{"depth_ft":154,"depth_m":46.9}},{"type":"Feature","geometry":{"type":"Point","coordinates":[-119.0195,33.46442]},"properties":{"depth_ft":174,"depth_m":52.9}},{"type":"Feature","geometry":{"type":"Point","coordinates":[-119.01669,33.46442]},"properties":{"depth_ft":180,"depth_m":54.7}},{"type":"Feature","geometry":{"type":"Point","coordinates":[-119.01387,33.46442]},"properties":{"depth_ft":164,"depth_m":49.9}},{"type":"Feature","geometry":{"type":"Point","coordinates":[-119.01105,33.46442]},"properties":{"depth_ft":193,"depth_m":58.9}},{"type":"Feature","geometry":{"type":"Point","coordinates":[-119.00823,33.46442]},"properties":{"depth_ft":221,"depth_m":67.3}},{"type":"Feature","geometry":{"type":"Point","coordinates":[-119.00542,33.46442]},"properties":{"depth_ft":245,"depth_m":74.5}},{"type":"Feature","geometry":{"type":"Point","coordinates":[-119.0026,33.46442]},"properties":{"depth_ft":261,"depth_m":79.7}},{"type":"Feature","geometry":{"type":"Point","coordinates":[-119.0674,33.46207]},"properties":{"depth_ft":324,"depth_m":98.7}},{"type":"Feature","geometry":{"type":"Point","coordinates":[-119.06458,33.46207]},"properties":{"depth_ft":313,"depth_m":95.6}},{"type":"Feature","geometry":{"type":"Point","coordinates":[-119.06177,33.46207]},"properties":{"depth_ft":293,"depth_m":89.3}},{"type":"Feature","geometry":{"type":"Point","coordinates":[-119.05895,33.46207]},"properties":{"depth_ft":244,"depth_m":74.5}},{"type":"Feature","geometry":{"type":"Point","coordinates":[-119.05613,33.46207]},"properties":{"depth_ft":177,"depth_m":54.1}},{"type":"Feature","geometry":{"type":"Point","coordinates":[-119.05331,33.46207]},"properties":{"depth_ft":106,"depth_m":32.3}},{"type":"Feature","geometry":{"type":"Point","coordinates":[-119.0505,33.46207]},"properties":{"depth_ft":48,"depth_m":14.5}},{"type":"Feature","geometry":{"type":"Point","coordinates":[-119.04768,33.46207]},"properties":{"depth_ft":28,"depth_m":8.4}},{"type":"Feature","geometry":{"type":"Point","coordinates":[-119.04486,33.46207]},"properties":{"depth_ft":119,"depth_m":36.2}},{"type":"Feature","geometry":{"type":"Point","coordinates":[-119.04204,33.46207]},"properties":{"depth_ft":104,"depth_m":31.8}},{"type":"Feature","geometry":{"type":"Point","coordinates":[-119.03923,33.46207]},"properties":{"depth_ft":95,"depth_m":28.9}},{"type":"Feature","geometry":{"type":"Point","coordinates":[-119.03641,33.46207]},"properties":{"depth_ft":71,"depth_m":21.6}},{"type":"Feature","geometry":{"type":"Point","coordinates":[-119.03359,33.46207]},"properties":{"depth_ft":59,"depth_m":17.9}},{"type":"Feature","geometry":{"type":"Point","coordinates":[-119.03077,33.46207]},"properties":{"depth_ft":43,"depth_m":13.1}},{"type":"Feature","geometry":{"type":"Point","coordinates":[-119.02796,33.46207]},"properties":{"depth_ft":54,"depth_m":16.5}},{"type":"Feature","geometry":{"type":"Point","coordinates":[-119.02514,33.46207]},"properties":{"depth_ft":122,"depth_m":37.3}},{"type":"Feature","geometry":{"type":"Point","coordinates":[-119.02232,33.46207]},"properties":{"depth_ft":183,"depth_m":55.7}},{"type":"Feature","geometry":{"type":"Point","coordinates":[-119.0195,33.46207]},"properties":{"depth_ft":195,"depth_m":59.4}},{"type":"Feature","geometry":{"type":"Point","coordinates":[-119.01669,33.46207]},"properties":{"depth_ft":204,"depth_m":62.3}},{"type":"Feature","geometry":{"type":"Point","coordinates":[-119.01387,33.46207]},"properties":{"depth_ft":191,"depth_m":58.4}},{"type":"Feature","geometry":{"type":"Point","coordinates":[-119.01105,33.46207]},"properties":{"depth_ft":203,"depth_m":61.7}},{"type":"Feature","geometry":{"type":"Point","coordinates":[-119.00823,33.46207]},"properties":{"depth_ft":220,"depth_m":67.0}},{"type":"Feature","geometry":{"type":"Point","coordinates":[-119.00542,33.46207]},"properties":{"depth_ft":237,"depth_m":72.2}},{"type":"Feature","geometry":{"type":"Point","coordinates":[-119.0026,33.46207]},"properties":{"depth_ft":262,"depth_m":79.9}},{"type":"Feature","geometry":{"type":"Point","coordinates":[-119.0674,33.45972]},"properties":{"depth_ft":329,"depth_m":100.3}},{"type":"Feature","geometry":{"type":"Point","coordinates":[-119.06458,33.45972]},"properties":{"depth_ft":321,"depth_m":98.0}},{"type":"Feature","geometry":{"type":"Point","coordinates":[-119.06177,33.45972]},"properties":{"depth_ft":307,"depth_m":93.5}},{"type":"Feature","geometry":{"type":"Point","coordinates":[-119.05895,33.45972]},"properties":{"depth_ft":296,"depth_m":90.3}},{"type":"Feature","geometry":{"type":"Point","coordinates":[-119.05613,33.45972]},"properties":{"depth_ft":260,"depth_m":79.1}},{"type":"Feature","geometry":{"type":"Point","coordinates":[-119.05331,33.45972]},"properties":{"depth_ft":208,"depth_m":63.3}},{"type":"Feature","geometry":{"type":"Point","coordinates":[-119.0505,33.45972]},"properties":{"depth_ft":152,"depth_m":46.3}},{"type":"Feature","geometry":{"type":"Point","coordinates":[-119.04768,33.45972]},"properties":{"depth_ft":134,"depth_m":40.8}},{"type":"Feature","geometry":{"type":"Point","coordinates":[-119.04486,33.45972]},"properties":{"depth_ft":194,"depth_m":59.1}},{"type":"Feature","geometry":{"type":"Point","coordinates":[-119.04204,33.45972]},"properties":{"depth_ft":178,"depth_m":54.2}},{"type":"Feature","geometry":{"type":"Point","coordinates":[-119.03923,33.45972]},"properties":{"depth_ft":128,"depth_m":39.1}},{"type":"Feature","geometry":{"type":"Point","coordinates":[-119.03641,33.45972]},"properties":{"depth_ft":112,"depth_m":34.2}},{"type":"Feature","geometry":{"type":"Point","coordinates":[-119.03359,33.45972]},"properties":{"depth_ft":62,"depth_m":18.8}},{"type":"Feature","geometry":{"type":"Point","coordinates":[-119.03077,33.45972]},"properties":{"depth_ft":60,"depth_m":18.3}},{"type":"Feature","geometry":{"type":"Point","coordinates":[-119.02796,33.45972]},"properties":{"depth_ft":75,"depth_m":23.0}},{"type":"Feature","geometry":{"type":"Point","coordinates":[-119.02514,33.45972]},"properties":{"depth_ft":170,"depth_m":51.7}},{"type":"Feature","geometry":{"type":"Point","coordinates":[-119.02232,33.45972]},"properties":{"depth_ft":209,"depth_m":63.6}},{"type":"Feature","geometry":{"type":"Point","coordinates":[-119.0195,33.45972]},"properties":{"depth_ft":227,"depth_m":69.3}},{"type":"Feature","geometry":{"type":"Point","coordinates":[-119.01669,33.45972]},"properties":{"depth_ft":231,"depth_m":70.3}},{"type":"Feature","geometry":{"type":"Point","coordinates":[-119.01387,33.45972]},"properties":{"depth_ft":223,"depth_m":68.0}},{"type":"Feature","geometry":{"type":"Point","coordinates":[-119.01105,33.45972]},"properties":{"depth_ft":220,"depth_m":67.1}},{"type":"Feature","geometry":{"type":"Point","coordinates":[-119.00823,33.45972]},"properties":{"depth_ft":229,"depth_m":69.7}},{"type":"Feature","geometry":{"type":"Point","coordinates":[-119.00542,33.45972]},"properties":{"depth_ft":240,"depth_m":73.1}},{"type":"Feature","geometry":{"type":"Point","coordinates":[-119.0026,33.45972]},"properties":{"depth_ft":265,"depth_m":80.7}},{"type":"Feature","geometry":{"type":"Point","coordinates":[-119.06177,33.45737]},"properties":{"depth_ft":310,"depth_m":94.5}},{"type":"Feature","geometry":{"type":"Point","coordinates":[-119.05895,33.45737]},"properties":{"depth_ft":308,"depth_m":93.7}},{"type":"Feature","geometry":{"type":"Point","coordinates":[-119.05613,33.45737]},"properties":{"depth_ft":297,"depth_m":90.4}},{"type":"Feature","geometry":{"type":"Point","coordinates":[-119.05331,33.45737]},"properties":{"depth_ft":284,"depth_m":86.6}},{"type":"Feature","geometry":{"type":"Point","coordinates":[-119.0505,33.45737]},"properties":{"depth_ft":274,"depth_m":83.4}},{"type":"Feature","geometry":{"type":"Point","coordinates":[-119.04768,33.45737]},"properties":{"depth_ft":267,"depth_m":81.3}},{"type":"Feature","geometry":{"type":"Point","coordinates":[-119.04486,33.45737]},"properties":{"depth_ft":251,"depth_m":76.4}},{"type":"Feature","geometry":{"type":"Point","coordinates":[-119.04204,33.45737]},"properties":{"depth_ft":216,"depth_m":65.9}},{"type":"Feature","geometry":{"type":"Point","coordinates":[-119.03923,33.45737]},"properties":{"depth_ft":189,"depth_m":57.5}},{"type":"Feature","geometry":{"type":"Point","coordinates":[-119.03641,33.45737]},"properties":{"depth_ft":144,"depth_m":44.0}},{"type":"Feature","geometry":{"type":"Point","coordinates":[-119.03359,33.45737]},"properties":{"depth_ft":126,"depth_m":38.3}},{"type":"Feature","geometry":{"type":"Point","coordinates":[-119.03077,33.45737]},"properties":{"depth_ft":103,"depth_m":31.5}},{"type":"Feature","geometry":{"type":"Point","coordinates":[-119.02796,33.45737]},"properties":{"depth_ft":138,"depth_m":42.1}},{"type":"Feature","geometry":{"type":"Point","coordinates":[-119.02514,33.45737]},"properties":{"depth_ft":205,"depth_m":62.5}},{"type":"Feature","geometry":{"type":"Point","coordinates":[-119.02232,33.45737]},"properties":{"depth_ft":237,"depth_m":72.3}},{"type":"Feature","geometry":{"type":"Point","coordinates":[-119.0195,33.45737]},"properties":{"depth_ft":252,"depth_m":76.8}},{"type":"Feature","geometry":{"type":"Point","coordinates":[-119.01669,33.45737]},"properties":{"depth_ft":258,"depth_m":78.6}},{"type":"Feature","geometry":{"type":"Point","coordinates":[-119.01387,33.45737]},"properties":{"depth_ft":253,"depth_m":77.1}},{"type":"Feature","geometry":{"type":"Point","coordinates":[-119.01105,33.45737]},"properties":{"depth_ft":233,"depth_m":70.9}},{"type":"Feature","geometry":{"type":"Point","coordinates":[-119.00823,33.45737]},"properties":{"depth_ft":240,"depth_m":73.2}},{"type":"Feature","geometry":{"type":"Point","coordinates":[-119.00542,33.45737]},"properties":{"depth_ft":259,"depth_m":78.9}},{"type":"Feature","geometry":{"type":"Point","coordinates":[-119.0026,33.45737]},"properties":{"depth_ft":282,"depth_m":85.9}},{"type":"Feature","geometry":{"type":"Point","coordinates":[-119.06177,33.45502]},"properties":{"depth_ft":312,"depth_m":95.1}},{"type":"Feature","geometry":{"type":"Point","coordinates":[-119.05895,33.45502]},"properties":{"depth_ft":317,"depth_m":96.7}},{"type":"Feature","geometry":{"type":"Point","coordinates":[-119.05613,33.45502]},"properties":{"depth_ft":321,"depth_m":97.8}},{"type":"Feature","geometry":{"type":"Point","coordinates":[-119.05331,33.45502]},"properties":{"depth_ft":306,"depth_m":93.2}},{"type":"Feature","geometry":{"type":"Point","coordinates":[-119.0505,33.45502]},"properties":{"depth_ft":301,"depth_m":91.8}},{"type":"Feature","geometry":{"type":"Point","coordinates":[-119.04768,33.45502]},"properties":{"depth_ft":295,"depth_m":90.0}},{"type":"Feature","geometry":{"type":"Point","coordinates":[-119.04486,33.45502]},"properties":{"depth_ft":287,"depth_m":87.6}},{"type":"Feature","geometry":{"type":"Point","coordinates":[-119.04204,33.45502]},"properties":{"depth_ft":271,"depth_m":82.6}},{"type":"Feature","geometry":{"type":"Point","coordinates":[-119.03923,33.45502]},"properties":{"depth_ft":234,"depth_m":71.3}},{"type":"Feature","geometry":{"type":"Point","coordinates":[-119.03641,33.45502]},"properties":{"depth_ft":193,"depth_m":58.9}},{"type":"Feature","geometry":{"type":"Point","coordinates":[-119.03359,33.45502]},"properties":{"depth_ft":208,"depth_m":63.4}},{"type":"Feature","geometry":{"type":"Point","coordinates":[-119.03077,33.45502]},"properties":{"depth_ft":188,"depth_m":57.4}},{"type":"Feature","geometry":{"type":"Point","coordinates":[-119.02796,33.45502]},"properties":{"depth_ft":200,"depth_m":60.9}},{"type":"Feature","geometry":{"type":"Point","coordinates":[-119.02514,33.45502]},"properties":{"depth_ft":242,"depth_m":73.6}},{"type":"Feature","geometry":{"type":"Point","coordinates":[-119.02232,33.45502]},"properties":{"depth_ft":268,"depth_m":81.8}},{"type":"Feature","geometry":{"type":"Point","coordinates":[-119.0195,33.45502]},"properties":{"depth_ft":278,"depth_m":84.8}},{"type":"Feature","geometry":{"type":"Point","coordinates":[-119.01669,33.45502]},"properties":{"depth_ft":279,"depth_m":85.2}},{"type":"Feature","geometry":{"type":"Point","coordinates":[-119.01387,33.45502]},"properties":{"depth_ft":276,"depth_m":84.1}},{"type":"Feature","geometry":{"type":"Point","coordinates":[-119.01105,33.45502]},"properties":{"depth_ft":241,"depth_m":73.3}},{"type":"Feature","geometry":{"type":"Point","coordinates":[-119.00823,33.45502]},"properties":{"depth_ft":259,"depth_m":78.8}},{"type":"Feature","geometry":{"type":"Point","coordinates":[-119.00542,33.45502]},"properties":{"depth_ft":285,"depth_m":86.9}},{"type":"Feature","geometry":{"type":"Point","coordinates":[-119.0026,33.45502]},"properties":{"depth_ft":324,"depth_m":98.7}},{"type":"Feature","geometry":{"type":"Point","coordinates":[-119.06177,33.45267]},"properties":{"depth_ft":318,"depth_m":96.9}},{"type":"Feature","geometry":{"type":"Point","coordinates":[-119.05895,33.45267]},"properties":{"depth_ft":320,"depth_m":97.6}},{"type":"Feature","geometry":{"type":"Point","coordinates":[-119.05613,33.45267]},"properties":{"depth_ft":321,"depth_m":97.8}},{"type":"Feature","geometry":{"type":"Point","coordinates":[-119.05331,33.45267]},"properties":{"depth_ft":315,"depth_m":95.9}},{"type":"Feature","geometry":{"type":"Point","coordinates":[-119.0505,33.45267]},"properties":{"depth_ft":313,"depth_m":95.5}},{"type":"Feature","geometry":{"type":"Point","coordinates":[-119.04768,33.45267]},"properties":{"depth_ft":306,"depth_m":93.2}},{"type":"Feature","geometry":{"type":"Point","coordinates":[-119.04486,33.45267]},"properties":{"depth_ft":298,"depth_m":90.8}},{"type":"Feature","geometry":{"type":"Point","coordinates":[-119.04204,33.45267]},"properties":{"depth_ft":295,"depth_m":89.8}},{"type":"Feature","geometry":{"type":"Point","coordinates":[-119.03923,33.45267]},"properties":{"depth_ft":286,"depth_m":87.2}},{"type":"Feature","geometry":{"type":"Point","coordinates":[-119.03641,33.45267]},"properties":{"depth_ft":280,"depth_m":85.2}},{"type":"Feature","geometry":{"type":"Point","coordinates":[-119.03359,33.45267]},"properties":{"depth_ft":267,"depth_m":81.5}},{"type":"Feature","geometry":{"type":"Point","coordinates":[-119.03077,33.45267]},"properties":{"depth_ft":238,"depth_m":72.6}},{"type":"Feature","geometry":{"type":"Point","coordinates":[-119.02796,33.45267]},"properties":{"depth_ft":248,"depth_m":75.7}},{"type":"Feature","geometry":{"type":"Point","coordinates":[-119.02514,33.45267]},"properties":{"depth_ft":284,"depth_m":86.4}},{"type":"Feature","geometry":{"type":"Point","coordinates":[-119.02232,33.45267]},"properties":{"depth_ft":295,"depth_m":89.8}},{"type":"Feature","geometry":{"type":"Point","coordinates":[-119.0195,33.45267]},"properties":{"depth_ft":294,"depth_m":89.7}},{"type":"Feature","geometry":{"type":"Point","coordinates":[-119.01669,33.45267]},"properties":{"depth_ft":295,"depth_m":90.1}},{"type":"Feature","geometry":{"type":"Point","coordinates":[-119.01387,33.45267]},"properties":{"depth_ft":292,"depth_m":89.1}},{"type":"Feature","geometry":{"type":"Point","coordinates":[-119.01105,33.45267]},"properties":{"depth_ft":291,"depth_m":88.7}},{"type":"Feature","geometry":{"type":"Point","coordinates":[-119.00823,33.45267]},"properties":{"depth_ft":293,"depth_m":89.3}},{"type":"Feature","geometry":{"type":"Point","coordinates":[-119.00542,33.45267]},"properties":{"depth_ft":314,"depth_m":95.8}},{"type":"Feature","geometry":{"type":"Point","coordinates":[-119.0674,33.45032]},"properties":{"depth_ft":326,"depth_m":99.2}},{"type":"Feature","geometry":{"type":"Point","coordinates":[-119.06458,33.45032]},"properties":{"depth_ft":311,"depth_m":94.9}},{"type":"Feature","geometry":{"type":"Point","coordinates":[-119.06177,33.45032]},"properties":{"depth_ft":317,"depth_m":96.5}},{"type":"Feature","geometry":{"type":"Point","coordinates":[-119.05895,33.45032]},"properties":{"depth_ft":318,"depth_m":97.0}},{"type":"Feature","geometry":{"type":"Point","coordinates":[-119.05613,33.45032]},"properties":{"depth_ft":321,"depth_m":97.9}},{"type":"Feature","geometry":{"type":"Point","coordinates":[-119.05331,33.45032]},"properties":{"depth_ft":321,"depth_m":97.8}},{"type":"Feature","geometry":{"type":"Point","coordinates":[-119.0505,33.45032]},"properties":{"depth_ft":313,"depth_m":95.5}},{"type":"Feature","geometry":{"type":"Point","coordinates":[-119.04768,33.45032]},"properties":{"depth_ft":309,"depth_m":94.1}},{"type":"Feature","geometry":{"type":"Point","coordinates":[-119.04486,33.45032]},"properties":{"depth_ft":305,"depth_m":92.9}},{"type":"Feature","geometry":{"type":"Point","coordinates":[-119.04204,33.45032]},"properties":{"depth_ft":302,"depth_m":91.9}},{"type":"Feature","geometry":{"type":"Point","coordinates":[-119.03923,33.45032]},"properties":{"depth_ft":298,"depth_m":90.9}},{"type":"Feature","geometry":{"type":"Point","coordinates":[-119.03641,33.45032]},"properties":{"depth_ft":297,"depth_m":90.4}},{"type":"Feature","geometry":{"type":"Point","coordinates":[-119.03359,33.45032]},"properties":{"depth_ft":297,"depth_m":90.5}},{"type":"Feature","geometry":{"type":"Point","coordinates":[-119.03077,33.45032]},"properties":{"depth_ft":299,"depth_m":91.1}},{"type":"Feature","geometry":{"type":"Point","coordinates":[-119.02796,33.45032]},"properties":{"depth_ft":305,"depth_m":92.8}},{"type":"Feature","geometry":{"type":"Point","coordinates":[-119.02514,33.45032]},"properties":{"depth_ft":307,"depth_m":93.6}},{"type":"Feature","geometry":{"type":"Point","coordinates":[-119.02232,33.45032]},"properties":{"depth_ft":311,"depth_m":94.9}},{"type":"Feature","geometry":{"type":"Point","coordinates":[-119.0674,33.44797]},"properties":{"depth_ft":325,"depth_m":99.1}},{"type":"Feature","geometry":{"type":"Point","coordinates":[-119.06458,33.44797]},"properties":{"depth_ft":316,"depth_m":96.2}},{"type":"Feature","geometry":{"type":"Point","coordinates":[-119.06177,33.44797]},"properties":{"depth_ft":316,"depth_m":96.2}},{"type":"Feature","geometry":{"type":"Point","coordinates":[-119.05895,33.44797]},"properties":{"depth_ft":316,"depth_m":96.3}},{"type":"Feature","geometry":{"type":"Point","coordinates":[-119.05613,33.44797]},"properties":{"depth_ft":317,"depth_m":96.6}},{"type":"Feature","geometry":{"type":"Point","coordinates":[-119.05331,33.44797]},"properties":{"depth_ft":312,"depth_m":95.2}},{"type":"Feature","geometry":{"type":"Point","coordinates":[-119.0505,33.44797]},"properties":{"depth_ft":311,"depth_m":94.7}},{"type":"Feature","geometry":{"type":"Point","coordinates":[-119.04768,33.44797]},"properties":{"depth_ft":311,"depth_m":94.6}},{"type":"Feature","geometry":{"type":"Point","coordinates":[-119.04486,33.44797]},"properties":{"depth_ft":310,"depth_m":94.5}},{"type":"Feature","geometry":{"type":"Point","coordinates":[-119.04204,33.44797]},"properties":{"depth_ft":310,"depth_m":94.4}},{"type":"Feature","geometry":{"type":"Point","coordinates":[-119.03923,33.44797]},"properties":{"depth_ft":307,"depth_m":93.7}},{"type":"Feature","geometry":{"type":"Point","coordinates":[-119.03641,33.44797]},"properties":{"depth_ft":307,"depth_m":93.7}},{"type":"Feature","geometry":{"type":"Point","coordinates":[-119.03359,33.44797]},"properties":{"depth_ft":310,"depth_m":94.4}},{"type":"Feature","geometry":{"type":"Point","coordinates":[-119.03077,33.44797]},"properties":{"depth_ft":312,"depth_m":95.1}},{"type":"Feature","geometry":{"type":"Point","coordinates":[-119.02796,33.44797]},"properties":{"depth_ft":318,"depth_m":97.0}},{"type":"Feature","geometry":{"type":"Point","coordinates":[-119.02514,33.44797]},"properties":{"depth_ft":313,"depth_m":95.5}}]}