{"type":"FeatureCollection","features":[{"type":"Feature","geometry":{"type":"Polygon","coordinates":[[[-123.77767,39.23664],[-123.77663,39.23681],[-123.7777,39.23785],[-123.77797,39.23832],[-123.77786,39.23868],[-123.77753,39.23877],[-123.77734,39.23843],[-123.7771,39.23846],[-123.77687,39.23861],[-123.77698,39.23893],[-123.77661,39.23899],[-123.77604,39.23874],[-123.77555,39.23919],[-123.77494,39.2394],[-123.77458,39.23928],[-123.77416,39.23994],[-123.77441,39.24029],[-123.77545,39.24073],[-123.77612,39.2406],[-123.77553,39.24136],[-123.77642,39.24088],[-123.7767,39.2412],[-123.77708,39.24117],[-123.7778,39.24172],[-123.77792,39.2417],[-123.77801,39.24117],[-123.77812,39.24121],[-123.77876,39.24196],[-123.77883,39.24165],[-123.77911,39.24165],[-123.77895,39.24134],[-123.77904,39.24126],[-123.77953,39.24149],[-123.77918,39.24204],[-123.77965,39.24302],[-123.77922,39.24336],[-123.77925,39.24379],[-123.77979,39.24433],[-123.78031,39.24443],[-123.78048,39.24551],[-123.78038,39.24588],[-123.78088,39.24581],[-123.78114,39.24639],[-123.7814,39.24632],[-123.78137,39.24606],[-123.78189,39.2465],[-123.78184,39.24693],[-123.78161,39.2472],[-123.78237,39.24857],[-123.78231,39.24869],[-123.78192,39.24868],[-123.7817,39.24893],[-123.78213,39.24931],[-123.78185,39.24977],[-123.78215,39.25011],[-123.78175,39.25047],[-123.78187,39.2506],[-123.78227,39.25038],[-123.783,39.25038],[-123.78305,39.25049],[-123.78281,39.25069],[-123.78314,39.25099],[-123.78305,39.25119],[-123.78333,39.25181],[-123.78371,39.252],[-123.78326,39.25246],[-123.78286,39.25259],[-123.78291,39.25268],[-123.78364,39.25302],[-123.78441,39.25293],[-123.78505,39.25265],[-123.7855,39.25275],[-123.78599,39.25312],[-123.78677,39.25322],[-123.78677,39.25364],[-123.78633,39.25379],[-123.78545,39.25465],[-123.78512,39.25478],[-123.78434,39.25445],[-123.78468,39.255],[-123.78441,39.25534],[-123.78411,39.25545],[-123.78356,39.25516],[-123.78342,39.25522],[-123.78352,39.25592],[-123.78399,39.25593],[-123.78425,39.25622],[-123.78328,39.25671],[-123.78383,39.25686],[-123.78428,39.25666],[-123.78484,39.25696],[-123.78455,39.25723],[-123.7835,39.25735],[-123.783,39.25762],[-123.7834,39.25807],[-123.78284,39.25864],[-123.78307,39.25889],[-123.78364,39.25888],[-123.78404,39.25957],[-123.78434,39.25974],[-123.78501,39.25952],[-123.78481,39.25991],[-123.78508,39.26005],[-123.78536,39.2599],[-123.78533,39.25909],[-123.78585,39.2587],[-123.78607,39.25952],[-123.78574,39.25993],[-123.78592,39.2602],[-123.78573,39.26044],[-123.78626,39.26089],[-123.78663,39.26075],[-123.7864,39.25976],[-123.78663,39.25971],[-123.78684,39.25999],[-123.78666,39.26042],[-123.78699,39.26056],[-123.78685,39.26109],[-123.78711,39.26105],[-123.78725,39.26188],[-123.7868,39.26196],[-123.78685,39.26224],[-123.78718,39.26244],[-123.78711,39.26257],[-123.78729,39.26278],[-123.78764,39.26269],[-123.78849,39.26328],[-123.7885,39.26405],[-123.78826,39.26393],[-123.78809,39.26433],[-123.78774,39.26437],[-123.78828,39.26466],[-123.7885,39.26499],[-123.78802,39.26592],[-123.78869,39.26602],[-123.78856,39.2663],[-123.78821,39.26647],[-123.78828,39.26665],[-123.78809,39.26684],[-123.78857,39.26694],[-123.78869,39.26763],[-123.78845,39.2679],[-123.7889,39.26841],[-123.78925,39.26857],[-123.78953,39.26906],[-123.79003,39.26913],[-123.79007,39.26878],[-123.7904,39.26894],[-123.7904,39.26945],[-123.78982,39.27005],[-123.79048,39.27104],[-123.7908,39.27261],[-123.79166,39.27365],[-123.79116,39.27371],[-123.79347,39.27411],[-123.79499,39.27382],[-123.79475,39.27334],[-123.79541,39.2729],[-123.79493,39.27241],[-123.79521,39.27204],[-123.79576,39.27228],[-123.79606,39.27282],[-123.79649,39.27283],[-123.79663,39.27307],[-123.79675,39.27252],[-123.7976,39.27197],[-123.79758,39.27171],[-123.79807,39.27189],[-123.79819,39.2725],[-123.79906,39.27147],[-123.79965,39.27198],[-123.79996,39.272],[-123.79909,39.27297],[-123.79906,39.27349],[-123.79932,39.27316],[-123.79961,39.27313],[-123.79925,39.27374],[-123.79923,39.27434],[-123.79941,39.27434],[-123.79975,39.27379],[-123.79975,39.27353],[-123.79989,39.2735],[-123.80038,39.27418],[-123.80027,39.27445],[-123.80064,39.27446],[-123.80139,39.27522],[-123.80158,39.27622],[-123.80142,39.2767],[-123.80179,39.27706],[-123.80189,39.27754],[-123.80225,39.27769],[-123.80274,39.27876],[-123.80343,39.27823],[-123.80335,39.27881],[-123.80375,39.27932],[-123.80364,39.27997],[-123.80375,39.28025],[-123.80335,39.28111],[-123.80335,39.28162],[-123.80317,39.28178],[-123.80293,39.28149],[-123.8029,39.28162],[-123.80309,39.28201],[-123.80302,39.28234],[-123.8025,39.28253],[-123.8025,39.28267],[-123.80158,39.28251],[-123.80165,39.28272],[-123.8013,39.28326],[-123.80159,39.28349],[-123.80159,39.28366],[-123.80109,39.28435],[-123.80121,39.28474],[-123.80206,39.28456],[-123.80198,39.28554],[-123.80243,39.28635],[-123.80271,39.28591],[-123.80293,39.28629],[-123.80363,39.28602],[-123.80328,39.28645],[-123.80284,39.28656],[-123.80277,39.28689],[-123.80225,39.2871],[-123.80241,39.28718],[-123.80293,39.28701],[-123.80298,39.28711],[-123.803,39.28793],[-123.80286,39.28807],[-123.80314,39.28865],[-123.803,39.2888],[-123.80316,39.2893],[-123.80316,39.29051],[-123.80302,39.29096],[-123.80243,39.2917],[-123.80283,39.29192],[-123.80269,39.29208],[-123.8018,39.29181],[-123.80225,39.29222],[-123.80165,39.29283],[-123.80161,39.29264],[-123.80191,39.29226],[-123.80118,39.29261],[-123.80059,39.29252],[-123.80041,39.29222],[-123.80059,39.29188],[-123.80132,39.29176],[-123.80088,39.29156],[-123.80021,39.29191],[-123.79989,39.29164],[-123.79955,39.29169],[-123.79885,39.29114],[-123.79821,39.29031],[-123.79791,39.29026],[-123.79656,39.29048],[-123.79489,39.29159],[-123.79451,39.29202],[-123.79451,39.29231],[-123.79555,39.29296],[-123.796,39.29389],[-123.79597,39.29427],[-123.79626,39.29441],[-123.79606,39.29545],[-123.79654,39.29572],[-123.79675,39.29615],[-123.79635,39.29673],[-123.79642,39.29751],[-123.79602,39.29846],[-123.79626,39.29867],[-123.79547,39.29965],[-123.79574,39.29963],[-123.79614,39.2992],[-123.79628,39.29927],[-123.79482,39.30083],[-123.79361,39.30186],[-123.79321,39.30191],[-123.79276,39.30157],[-123.79217,39.30139],[-123.79182,39.30205],[-123.79369,39.30254],[-123.79489,39.30256],[-123.7963,39.30336],[-123.79666,39.30312],[-123.79764,39.30328],[-123.79814,39.30281],[-123.79904,39.30287],[-123.8012,39.30363],[-123.80173,39.30364],[-123.80208,39.30338],[-123.80297,39.30377],[-123.80385,39.30345],[-123.80415,39.30349],[-123.80467,39.303],[-123.80387,39.30236],[-123.80357,39.30176],[-123.80376,39.30139],[-123.80403,39.30148],[-123.80432,39.30103],[-123.8046,39.30089],[-123.80493,39.30136],[-123.80528,39.30116],[-123.80547,39.3019],[-123.80613,39.30174],[-123.80675,39.30242],[-123.80659,39.30299],[-123.80604,39.30313],[-123.80604,39.30358],[-123.80653,39.30369],[-123.80663,39.3033],[-123.80708,39.30312],[-123.80729,39.3035],[-123.80838,39.30427],[-123.80859,39.30411],[-123.80817,39.30375],[-123.80819,39.30344],[-123.80989,39.30367],[-123.80988,39.30417],[-123.81036,39.30428],[-123.81062,39.3049],[-123.8109,39.30497],[-123.81043,39.30525],[-123.81076,39.30532],[-123.8104,39.30559],[-123.81034,39.30548],[-123.80969,39.30549],[-123.80951,39.30593],[-123.81019,39.30638],[-123.81087,39.30714],[-123.81008,39.30715],[-123.81008,39.30853],[-123.81026,39.3088],[-123.81008,39.30914],[-123.81088,39.30922],[-123.81114,39.30974],[-123.81062,39.30971],[-123.81035,39.31008],[-123.81,39.30989],[-123.8096,39.31026],[-123.80847,39.31001],[-123.80838,39.31016],[-123.80854,39.31036],[-123.80944,39.31043],[-123.80967,39.31059],[-123.80889,39.31069],[-123.80797,39.31112],[-123.80807,39.31148],[-123.80791,39.31153],[-123.80838,39.31184],[-123.80811,39.31191],[-123.80778,39.31175],[-123.80797,39.31252],[-123.80677,39.31184],[-123.80545,39.31231],[-123.80472,39.31187],[-123.80432,39.31193],[-123.80396,39.31271],[-123.80481,39.31331],[-123.80541,39.31353],[-123.8047,39.31355],[-123.8047,39.31385],[-123.8042,39.31377],[-123.80359,39.31325],[-123.80291,39.31304],[-123.80262,39.31273],[-123.80203,39.31281],[-123.80135,39.31355],[-123.80161139753199,39.314036036036036],[-123.74344882067706,39.314036036036036],[-123.74344882067706,39.23596396396396],[-123.77772633633634,39.23596396396396],[-123.77767,39.23664]]]},"properties":{"name":"ca-mainland"}},{"type":"Feature","geometry":{"type":"Polygon","coordinates":[[[-123.8122,39.30633],[-123.81279,39.30657],[-123.81309,39.30697],[-123.81255,39.30783],[-123.81232,39.30754],[-123.81175,39.30741],[-123.8112,39.30691],[-123.81118,39.30665],[-123.81048,39.30605],[-123.81045,39.30593],[-123.81102,39.30562],[-123.81159,39.30552],[-123.8122,39.30633]]]},"properties":{"name":"unnamed-land"}},{"type":"Feature","geometry":{"type":"Polygon","coordinates":[[[-123.78786,39.25398],[-123.78783,39.25444],[-123.78724,39.25503],[-123.78687,39.25514],[-123.78687,39.2549],[-123.78672,39.25485],[-123.78654,39.25513],[-123.78621,39.25523],[-123.78555,39.25481],[-123.78639,39.2542],[-123.78666,39.25414],[-123.78694,39.25441],[-123.78706,39.25436],[-123.78722,39.25403],[-123.7877,39.25374],[-123.78786,39.25398]]]},"properties":{"name":"unnamed-land"}},{"type":"Feature","geometry":{"type":"Polygon","coordinates":[[[-123.80998,39.31152],[-123.81045,39.31169],[-123.81061,39.31198],[-123.81156,39.31265],[-123.8114,39.31298],[-123.81087,39.31302],[-123.80955,39.31179],[-123.80953,39.31155],[-123.80894,39.3111],[-123.80969,39.31103],[-123.80998,39.31152]]]},"properties":{"name":"unnamed-land"}},{"type":"Feature","geometry":{"type":"Polygon","coordinates":[[[-123.81314,39.31154],[-123.81279,39.31237],[-123.81217,39.31228],[-123.81165,39.31133],[-123.81192,39.31099],[-123.81234,39.31104],[-123.81265,39.31087],[-123.81314,39.31154]]]},"properties":{"name":"unnamed-land"}},{"type":"Feature","geometry":{"type":"Polygon","coordinates":[[[-123.78899,39.26102],[-123.78838,39.2617],[-123.78913,39.26248],[-123.78826,39.26243],[-123.78802,39.26203],[-123.78771,39.26195],[-123.78753,39.26139],[-123.7879,39.26103],[-123.78803,39.26097],[-123.78826,39.26121],[-123.78845,39.26093],[-123.78896,39.26079],[-123.78899,39.26102]]]},"properties":{"name":"unnamed-land"}},{"type":"Feature","geometry":{"type":"Polygon","coordinates":[[[-123.80456,39.2893],[-123.80515,39.28976],[-123.80493,39.28986],[-123.80453,39.28967],[-123.80437,39.29056],[-123.80423,39.29067],[-123.80356,39.28983],[-123.80349,39.28932],[-123.80359,39.2891],[-123.80456,39.2893]]]},"properties":{"name":"unnamed-land"}},{"type":"Feature","geometry":{"type":"Polygon","coordinates":[[[-123.79227,39.26696],[-123.79213,39.26749],[-123.79168,39.26779],[-123.79133,39.26755],[-123.79132,39.26702],[-123.79184,39.26618],[-123.79194,39.26574],[-123.79227,39.26696]]]},"properties":{"name":"unnamed-land"}}]}