{"type":"FeatureCollection","features":[{"type":"Feature","properties":{"id":"mendocino-kelp-former","name":"Mendocino former kelp extent (pre-decline)","className":"Kelp Former"},"geometry":{"type":"MultiPolygon","coordinates":[[[[-123.78281,39.24372],[-123.77921189227003,39.2421064987758],[-123.77918,39.24204],[-123.77953,39.24149],[-123.77904,39.24126],[-123.77895,39.24134],[-123.77911,39.24165],[-123.77883,39.24165],[-123.77877151188757,39.241909018783666],[-123.77868239418888,39.24186905569008],[-123.77812,39.24121],[-123.77801,39.24117],[-123.77794727101187,39.2415394040412],[-123.77612,39.24072],[-123.77611330100532,39.24060862921348],[-123.77612,39.2406],[-123.77611286522463,39.2406013843594],[-123.77604,39.23939],[-123.78487,39.23875],[-123.78315,39.24184],[-123.78543,39.24682],[-123.78395,39.24851],[-123.78495,39.24944],[-123.78909,39.24842],[-123.79245,39.25302],[-123.79138,39.25419],[-123.78566195795078,39.25287229477916],[-123.7855,39.25275],[-123.78505,39.25265],[-123.78492832723471,39.252703231834815],[-123.78422,39.25254],[-123.7827,39.24637],[-123.78124,39.2456],[-123.78281,39.24372]]],[[[-123.79703,39.2561],[-123.7979,39.25482],[-123.79818,39.25629],[-123.79703,39.2561]]],[[[-123.79365,39.25653],[-123.7936,39.2555],[-123.79484,39.25648],[-123.79365,39.25653]]],[[[-123.80304,39.29589],[-123.79761,39.29867],[-123.79606,39.29176],[-123.80041672840883,39.2922072907833],[-123.80041,39.29222],[-123.80059,39.29252],[-123.80118,39.29261],[-123.80173718301906,39.292342857456624],[-123.80183653359299,39.29235305744888],[-123.80161,39.29264],[-123.80165,39.29283],[-123.80209320428827,39.292379408973595],[-123.80356,39.29253],[-123.80607,39.2892],[-123.80255,39.28394],[-123.8041,39.28373],[-123.80536,39.28556],[-123.80634,39.28346],[-123.80066,39.27124],[-123.79921496671481,39.271603954278916],[-123.79906,39.27147],[-123.79887440213516,39.27168973080551],[-123.79807043711388,39.27189222199557],[-123.79807,39.27189],[-123.79758,39.27171],[-123.7976,39.27197],[-123.79749698972509,39.272036653707296],[-123.79585461720313,39.27245031096563],[-123.79576,39.27228],[-123.79521,39.27204],[-123.79493,39.27241],[-123.79525562715999,39.272742411059156],[-123.7951615183246,39.273065654450264],[-123.79475,39.27334],[-123.7949596,39.27375919999999],[-123.79493906974693,39.27382971695618],[-123.79427714154242,39.27395600588993],[-123.79171,39.27298],[-123.79017865789031,39.26967897459623],[-123.7904,39.26945],[-123.7904,39.26894],[-123.79007,39.26878],[-123.79003,39.26913],[-123.789916625999,39.26911412763986],[-123.78914,39.26744],[-123.78939,39.26066],[-123.78636,39.25953],[-123.78567,39.25685],[-123.78845,39.2557],[-123.78949,39.26042],[-123.7921,39.25957],[-123.79132,39.2641],[-123.7941,39.26399],[-123.79442,39.26193],[-123.79648,39.26185],[-123.79949,39.26336],[-123.79924,39.26716],[-123.80472,39.2684],[-123.80346,39.27189],[-123.80623,39.27443],[-123.80633,39.27919],[-123.8088,39.28366],[-123.80673,39.28702],[-123.8078,39.29036],[-123.80499,39.29387],[-123.80535,39.29501],[-123.80751,39.29469],[-123.80644,39.29749],[-123.80304,39.29589]],[[-123.79632,39.26676],[-123.79762,39.26724],[-123.79814,39.26576],[-123.797,39.26545],[-123.79632,39.26676]],[[-123.79892,39.2678],[-123.79774,39.26853],[-123.79892,39.26885],[-123.79892,39.2678]],[[-123.79168,39.26779],[-123.79213,39.26749],[-123.79227,39.26696],[-123.79194,39.26574],[-123.79184,39.26618],[-123.79132,39.26702],[-123.79133,39.26755],[-123.79168,39.26779]]],[[[-123.80528,39.30116],[-123.80516591772152,39.30122518987342],[-123.80481368360086,39.30119433724971],[-123.8046,39.30089],[-123.80432,39.30103],[-123.80403,39.30148],[-123.80376,39.30139],[-123.80357,39.30176],[-123.80387,39.30236],[-123.80411903086863,39.3025592246949],[-123.80383,39.30331],[-123.79929,39.30204],[-123.80841,39.29882],[-123.81451,39.30293],[-123.81736,39.31068],[-123.81544,39.31133],[-123.81271,39.31073],[-123.81422,39.30629],[-123.80739,39.30142],[-123.80529974772956,39.30123691220989],[-123.80528,39.30116]]]]}},{"type":"Feature","properties":{"id":"mendocino-kelp-canopy","name":"Mendocino recent kelp canopy","className":"Kelp Canopy"},"geometry":{"type":"MultiPolygon","coordinates":[[[[-123.80238,39.27053],[-123.80238,39.27026],[-123.80309,39.2708],[-123.80238,39.27053]]],[[[-123.80239,39.2708],[-123.80239,39.27107],[-123.80204,39.27107],[-123.80239,39.2708]]],[[[-123.80311,39.27242],[-123.80311,39.27269],[-123.80276,39.27269],[-123.80311,39.27242]]],[[[-123.80171,39.27297],[-123.80206,39.27269],[-123.80276,39.27269],[-123.80276,39.27323],[-123.80171,39.27297]]],[[[-123.80277,39.27458],[-123.80312,39.27431],[-123.80312,39.27458],[-123.80277,39.27458]]],[[[-123.80383,39.2743],[-123.80383,39.27485],[-123.80347,39.27485],[-123.80383,39.2743]]],[[[-123.80349,39.27565],[-123.80418,39.27565],[-123.80418,39.27593],[-123.80349,39.27565]]],[[[-123.80524,39.277],[-123.8049,39.27781],[-123.80385,39.27728],[-123.80384,39.27619],[-123.80523,39.27592],[-123.80454,39.27673],[-123.80524,39.277]]],[[[-123.80456,39.27863],[-123.80491,39.27835],[-123.80491,39.27863],[-123.80456,39.27863]]],[[[-123.80597,39.27997],[-123.80632,39.27969],[-123.80632,39.27997],[-123.80597,39.27997]]],[[[-123.80743,39.28509],[-123.80708,39.28537],[-123.80637,39.28429],[-123.80741,39.28402],[-123.80671,39.28374],[-123.80599,39.28185],[-123.80669,39.28185],[-123.80705,39.2832],[-123.80776,39.28428],[-123.80672,39.28456],[-123.80743,39.28509]]],[[[-123.8036,39.28539],[-123.8036,39.28511],[-123.8043,39.28566],[-123.8036,39.28539]]],[[[-123.80609,39.29051],[-123.80609,39.29078],[-123.80574,39.29078],[-123.80609,39.29051]]],[[[-123.8054,39.29132],[-123.80576,39.29105],[-123.80576,39.29132],[-123.8054,39.29132]]],[[[-123.80473,39.29268],[-123.80508,39.29295],[-123.80402,39.29269],[-123.80437,39.2916],[-123.80541,39.29159],[-123.80473,39.29268]]],[[[-123.80577,39.2924],[-123.80577,39.29268],[-123.80542,39.29268],[-123.80577,39.2924]]],[[[-123.803,39.29404],[-123.80335,39.29377],[-123.80335,39.29404],[-123.803,39.29404]]],[[[-123.80231,39.29459],[-123.80266,39.29432],[-123.80266,39.29459],[-123.80231,39.29459]]],[[[-123.80406,39.29512],[-123.80406,39.29566],[-123.80371,39.29566],[-123.80406,39.29512]]],[[[-123.80691,39.30105],[-123.80621,39.30078],[-123.80621,39.30051],[-123.80691,39.30105]]],[[[-123.80413,39.30106],[-123.80413,39.3013248275862],[-123.80412022222222,39.30134],[-123.80378,39.30134],[-123.80413,39.30106]]],[[[-123.81075,39.30237],[-123.80936,39.30238],[-123.80935,39.30156],[-123.81039,39.30156],[-123.81075,39.30237]]],[[[-123.8031,39.30242],[-123.8031,39.30297],[-123.80136,39.30297],[-123.8031,39.30242]]],[[[-123.8111,39.30209],[-123.81179,39.30209],[-123.81215,39.30317],[-123.81076,39.30345],[-123.81076,39.30291],[-123.8118,39.3029],[-123.8111,39.30264],[-123.8111,39.30209]]],[[[-123.8125,39.30317],[-123.81285,39.30289],[-123.81285,39.30317],[-123.8125,39.30317]]],[[[-123.81216,39.30371],[-123.81251,39.30344],[-123.81251,39.30371],[-123.81216,39.30371]]],[[[-123.81322,39.30451],[-123.81322,39.30506],[-123.81287,39.30506],[-123.81322,39.30451]]],[[[-123.81535,39.30828],[-123.81499,39.30883],[-123.81464,39.30801],[-123.81535,39.30828]]],[[[-123.81397,39.31046],[-123.81432,39.31018],[-123.81432,39.31046],[-123.81397,39.31046]]],[[[-123.7957,39.26355],[-123.795,39.26355],[-123.79464,39.26247],[-123.79569,39.26247],[-123.7957,39.26355]]],[[[-123.79571,39.26463],[-123.79606,39.26435],[-123.79606,39.26463],[-123.79571,39.26463]]],[[[-123.79814,39.26434],[-123.79781,39.26488],[-123.7964,39.2649],[-123.7964,39.26435],[-123.79814,39.26434]]],[[[-123.79502,39.26463],[-123.79502,39.26491],[-123.79467,39.26491],[-123.79502,39.26463]]],[[[-123.79572,39.2649],[-123.79572,39.26517],[-123.79536,39.26517],[-123.79572,39.2649]]],[[[-123.79189,39.26546],[-123.79224,39.26546],[-123.79155,39.26601],[-123.79189,39.26546]]],[[[-123.79433,39.26653],[-123.79469,39.26625],[-123.79469,39.26653],[-123.79433,39.26653]]],[[[-123.79295,39.26654],[-123.7933,39.26627],[-123.7933,39.26654],[-123.79295,39.26654]]],[[[-123.7926,39.26654],[-123.7926,39.26682],[-123.79225,39.26682],[-123.7926,39.26654]]],[[[-123.79401,39.26788],[-123.79331,39.26789],[-123.79331,39.26762],[-123.79401,39.26788]]],[[[-123.79576,39.26896],[-123.79506,39.26896],[-123.79471,39.26815],[-123.79575,39.26841],[-123.79576,39.26896]]],[[[-123.79158,39.26871],[-123.79158,39.26844],[-123.79228,39.26844],[-123.79158,39.26871]]],[[[-123.80063,39.26919],[-123.80062,39.26865],[-123.80132,39.26864],[-123.80167,39.26918],[-123.80098,39.26973],[-123.80132,39.26919],[-123.80063,39.26919]]],[[[-123.79542,39.27004],[-123.79577,39.26976],[-123.79577,39.27004],[-123.79542,39.27004]]],[[[-123.80099,39.27],[-123.80099,39.27027],[-123.80029,39.27028],[-123.80099,39.27]]],[[[-123.79891,39.27083],[-123.79787,39.27083],[-123.79855,39.27028],[-123.79891,39.27083]]],[[[-123.79787,39.27137],[-123.79787,39.27164],[-123.79718,39.27165],[-123.79787,39.27137]]],[[[-123.7958,39.27193],[-123.7952773275862,39.272069379310345],[-123.79521,39.27204],[-123.7951651241535,39.27209930022573],[-123.79475,39.27221],[-123.79475,39.27193],[-123.7958,39.27193]]],[[[-123.79371,39.27275],[-123.79406,39.27248],[-123.79406,39.27275],[-123.79371,39.27275]]],[[[-123.79337,39.27303],[-123.79267,39.27303],[-123.79267,39.27275],[-123.79337,39.27303]]],[[[-123.79476717741936,39.27332854838709],[-123.79475,39.27334],[-123.79476775,39.27337550000001],[-123.79477,39.27356],[-123.79441,39.27274],[-123.79476,39.27274],[-123.79476717741936,39.27332854838709]]],[[[-123.79372,39.27329],[-123.79407,39.27302],[-123.79407,39.27329],[-123.79372,39.27329]]],[[[-123.79882,39.2938],[-123.79777,39.29327],[-123.79707,39.29219],[-123.79882,39.29299],[-123.79847,39.29326],[-123.79882,39.2938]]],[[[-123.79848,39.29435],[-123.79883,39.29407],[-123.79883,39.29435],[-123.79848,39.29435]]],[[[-123.79813,39.29435],[-123.79745,39.29516],[-123.79743,39.29408],[-123.79813,39.29435]]],[[[-123.7985,39.29597],[-123.7985,39.29624],[-123.79815,39.29624],[-123.7985,39.29597]]],[[[-123.80239,39.30162],[-123.80239,39.30189],[-123.80204,39.30189],[-123.80239,39.30162]]],[[[-123.80101,39.30244],[-123.79961,39.30245],[-123.8003,39.30136],[-123.80135,39.30135],[-123.80101,39.30244]]],[[[-123.80135,39.30217],[-123.8017,39.30189],[-123.8017,39.30217],[-123.80135,39.30217]]],[[[-123.77979,39.23987],[-123.77874,39.2396],[-123.77979,39.23959],[-123.77979,39.23987]]],[[[-123.78362,39.24011],[-123.78291,39.24012],[-123.78291,39.23984],[-123.78362,39.24011]]],[[[-123.77631,39.24043],[-123.77666,39.24015],[-123.77666,39.24043],[-123.77631,39.24043]]],[[[-123.77875,39.24068],[-123.7791,39.24041],[-123.7791,39.24068],[-123.77875,39.24068]]],[[[-123.77806,39.24042],[-123.77806,39.24069],[-123.77771,39.24069],[-123.77806,39.24042]]],[[[-123.7812,39.24202],[-123.7819,39.24201],[-123.7812,39.24229],[-123.7805,39.24175],[-123.7812,39.24202]]],[[[-123.7826,39.24309],[-123.78295,39.24282],[-123.78295,39.24309],[-123.7826,39.24309]]],[[[-123.78263,39.24552],[-123.78263,39.2458],[-123.78194,39.2458],[-123.78263,39.24552]]],[[[-123.78438,39.24578],[-123.78438,39.2466],[-123.78333,39.24579],[-123.78333,39.24525],[-123.78438,39.24578]]],[[[-123.7865,39.24928],[-123.7865,39.24956],[-123.78615,39.24956],[-123.7865,39.24928]]],[[[-123.78616,39.25037],[-123.78546,39.24983],[-123.78651,39.24982],[-123.78616,39.25037]]],[[[-123.78756,39.25063],[-123.78686,39.2509],[-123.78686,39.25036],[-123.78756,39.25063]]],[[[-123.78478,39.25119],[-123.78478,39.25146],[-123.78408,39.25119],[-123.78478,39.25119]]],[[[-123.78548,39.25226],[-123.78584,39.25199],[-123.78584,39.25226],[-123.78548,39.25226]]],[[[-123.78757,39.25252],[-123.78793,39.25225],[-123.78793,39.25252],[-123.78757,39.25252]]],[[[-123.78931,39.25251],[-123.78931,39.25278],[-123.78896,39.25278],[-123.78931,39.25251]]],[[[-123.78827,39.25278],[-123.78862,39.25251],[-123.78862,39.25278],[-123.78827,39.25278]]],[[[-123.78762,39.2563],[-123.78693,39.25658],[-123.78693,39.25631],[-123.78762,39.2563]]],[[[-123.78798,39.25684],[-123.78798,39.25711],[-123.78763,39.25711],[-123.78798,39.25684]]],[[[-123.78624,39.25712],[-123.78624,39.2574],[-123.78589,39.2574],[-123.78624,39.25712]]],[[[-123.78764,39.25765],[-123.78764,39.25793],[-123.78728,39.25793],[-123.78764,39.25765]]],[[[-123.78625,39.2582],[-123.78695,39.25847],[-123.78625,39.25848],[-123.78625,39.2582]]],[[[-123.78766,39.25927],[-123.78731,39.25955],[-123.78696,39.25901],[-123.78764,39.25846],[-123.78799,39.25874],[-123.78731,39.25901],[-123.78766,39.25927]]],[[[-123.78905,39.25954],[-123.78905,39.25981],[-123.7887,39.25981],[-123.78905,39.25954]]],[[[-123.7915,39.26088],[-123.79114,39.26006],[-123.79184,39.26033],[-123.7915,39.26088]]],[[[-123.78979,39.26467],[-123.79015,39.26439],[-123.79015,39.26467],[-123.78979,39.26467]]],[[[-123.79132,39.26702],[-123.79132641509435,39.26736],[-123.79121,39.26736],[-123.79121,39.26655],[-123.79137482102908,39.266931442953016],[-123.79132,39.26702]]],[[[-123.79192,39.2679],[-123.79122,39.2679],[-123.79122,39.26763],[-123.79192,39.2679]]],[[[-123.79125,39.27061],[-123.7916,39.27033],[-123.7916,39.27061],[-123.79125,39.27061]]]]}}]}