{"type":"FeatureCollection","features":[{"type":"Feature","geometry":{"type":"Polygon","coordinates":[[[-123.795,39.273],[-123.795,39.273],[-123.795,39.273],[-123.795,39.273],[-123.795,39.273],[-123.795,39.273],[-123.795,39.273],[-123.795,39.274],[-123.795,39.274],[-123.795,39.274],[-123.795,39.274],[-123.795,39.274],[-123.795,39.274],[-123.795,39.274],[-123.795,39.274],[-123.795,39.274],[-123.795,39.274],[-123.795,39.274],[-123.795,39.274],[-123.794,39.274],[-123.794,39.274],[-123.794,39.274],[-123.794,39.274],[-123.794,39.274],[-123.794,39.274],[-123.793,39.274],[-123.793,39.274],[-123.793,39.274],[-123.793,39.274],[-123.793,39.274],[-123.793,39.274],[-123.792,39.274],[-123.792,39.274],[-123.792,39.274],[-123.792,39.274],[-123.792,39.274],[-123.791,39.273],[-123.791,39.273],[-123.791,39.273],[-123.791,39.273],[-123.791,39.273],[-123.791,39.273],[-123.791,39.273],[-123.791,39.272],[-123.791,39.272],[-123.791,39.272],[-123.791,39.272],[-123.791,39.272],[-123.791,39.272],[-123.791,39.272],[-123.791,39.272],[-123.791,39.272],[-123.791,39.272],[-123.791,39.272],[-123.791,39.271],[-123.791,39.271],[-123.791,39.271],[-123.791,39.271],[-123.791,39.271],[-123.79,39.271],[-123.79,39.271],[-123.79,39.271],[-123.79,39.271],[-123.79,39.271],[-123.79,39.271],[-123.79,39.271],[-123.79,39.271],[-123.79,39.271],[-123.79,39.271],[-123.79,39.271],[-123.79,39.27],[-123.79,39.27],[-123.79,39.27],[-123.79,39.27],[-123.79,39.27],[-123.79,39.27],[-123.79,39.27],[-123.79,39.27],[-123.79,39.27],[-123.79,39.27],[-123.79,39.27],[-123.79,39.27],[-123.79,39.27],[-123.79,39.27],[-123.79,39.27],[-123.79,39.27],[-123.79,39.27],[-123.791,39.27],[-123.791,39.27],[-123.79,39.27],[-123.79,39.269],[-123.79,39.269],[-123.79,39.269],[-123.79,39.269],[-123.79,39.269],[-123.79,39.269],[-123.79,39.269],[-123.791,39.269],[-123.79,39.269],[-123.795,39.272],[-123.795,39.272],[-123.795,39.272],[-123.795,39.272],[-123.795,39.273],[-123.795,39.273],[-123.795,39.273],[-123.795,39.273],[-123.795,39.273],[-123.795,39.273],[-123.796,39.273],[-123.796,39.273],[-123.796,39.273],[-123.796,39.273],[-123.796,39.273],[-123.796,39.273],[-123.796,39.273],[-123.796,39.273],[-123.796,39.273],[-123.795,39.273],[-123.795,39.273],[-123.795,39.273],[-123.795,39.273],[-123.795,39.273],[-123.795,39.273],[-123.795,39.273],[-123.795,39.273]]]},"properties":{"id":"van-damme-state-marine-conservation-area","name":"Van Damme State Marine Conservation Area","type":"SMCA","shortName":"Van Damme","areaKm2":null,"ccrCitation":null}},{"type":"Feature","geometry":{"type":"Polygon","coordinates":[[[-123.792,39.302],[-123.792,39.302],[-123.791,39.302],[-123.79,39.302],[-123.79,39.302],[-123.79,39.302],[-123.789,39.302],[-123.789,39.302],[-123.788,39.302],[-123.788,39.302],[-123.788,39.302],[-123.788,39.302],[-123.788,39.302],[-123.787,39.302],[-123.787,39.302],[-123.787,39.302],[-123.787,39.302],[-123.787,39.302],[-123.786,39.303],[-123.786,39.303],[-123.786,39.303],[-123.786,39.303],[-123.785,39.303],[-123.785,39.303],[-123.785,39.303],[-123.785,39.303],[-123.785,39.303],[-123.785,39.303],[-123.785,39.303],[-123.785,39.303],[-123.785,39.303],[-123.785,39.303],[-123.784,39.303],[-123.784,39.303],[-123.784,39.304],[-123.784,39.304],[-123.784,39.304],[-123.784,39.304],[-123.783,39.304],[-123.783,39.304],[-123.783,39.304],[-123.783,39.304],[-123.783,39.304],[-123.783,39.304],[-123.783,39.304],[-123.783,39.304],[-123.783,39.304],[-123.782,39.304],[-123.782,39.304],[-123.782,39.304],[-123.782,39.304],[-123.782,39.304],[-123.782,39.304],[-123.782,39.304],[-123.782,39.304],[-123.782,39.304],[-123.782,39.304],[-123.782,39.304],[-123.781,39.304],[-123.781,39.304],[-123.781,39.304],[-123.781,39.304],[-123.781,39.304],[-123.781,39.304],[-123.781,39.304],[-123.781,39.304],[-123.781,39.304],[-123.781,39.304],[-123.78,39.305],[-123.78,39.305],[-123.78,39.305],[-123.78,39.305],[-123.78,39.305],[-123.78,39.305],[-123.779,39.305],[-123.779,39.305],[-123.779,39.305],[-123.779,39.305],[-123.779,39.305],[-123.779,39.305],[-123.778,39.305],[-123.778,39.305],[-123.778,39.305],[-123.778,39.305],[-123.777,39.305],[-123.777,39.304],[-123.777,39.304],[-123.777,39.304],[-123.777,39.304],[-123.777,39.304],[-123.776,39.304],[-123.776,39.304],[-123.776,39.304],[-123.776,39.304],[-123.775,39.304],[-123.775,39.304],[-123.775,39.303],[-123.775,39.303],[-123.774,39.303],[-123.774,39.303],[-123.774,39.303],[-123.774,39.304],[-123.774,39.304],[-123.774,39.304],[-123.773,39.304],[-123.773,39.304],[-123.773,39.304],[-123.772,39.304],[-123.772,39.304],[-123.772,39.304],[-123.772,39.304],[-123.772,39.304],[-123.772,39.304],[-123.772,39.304],[-123.771,39.304],[-123.771,39.304],[-123.771,39.304],[-123.771,39.304],[-123.771,39.304],[-123.771,39.304],[-123.771,39.304],[-123.771,39.304],[-123.771,39.304],[-123.771,39.304],[-123.771,39.303],[-123.771,39.303],[-123.771,39.302],[-123.771,39.302],[-123.771,39.302],[-123.771,39.302],[-123.771,39.302],[-123.772,39.302],[-123.772,39.302],[-123.772,39.302],[-123.772,39.302],[-123.772,39.302],[-123.773,39.302],[-123.773,39.302],[-123.773,39.302],[-123.773,39.302],[-123.773,39.302],[-123.773,39.302],[-123.774,39.302],[-123.774,39.302],[-123.774,39.302],[-123.774,39.302],[-123.774,39.302],[-123.774,39.302],[-123.775,39.302],[-123.775,39.302],[-123.775,39.302],[-123.775,39.302],[-123.775,39.302],[-123.776,39.302],[-123.776,39.302],[-123.776,39.302],[-123.776,39.302],[-123.777,39.302],[-123.777,39.302],[-123.777,39.303],[-123.777,39.303],[-123.778,39.303],[-123.778,39.303],[-123.778,39.303],[-123.778,39.303],[-123.779,39.303],[-123.779,39.303],[-123.779,39.303],[-123.779,39.303],[-123.779,39.303],[-123.78,39.303],[-123.78,39.303],[-123.78,39.303],[-123.78,39.303],[-123.781,39.303],[-123.781,39.303],[-123.781,39.303],[-123.781,39.303],[-123.782,39.303],[-123.782,39.303],[-123.782,39.303],[-123.782,39.303],[-123.782,39.302],[-123.782,39.302],[-123.782,39.302],[-123.783,39.302],[-123.783,39.302],[-123.783,39.302],[-123.783,39.302],[-123.783,39.302],[-123.783,39.302],[-123.784,39.302],[-123.784,39.302],[-123.784,39.301],[-123.784,39.301],[-123.784,39.301],[-123.784,39.301],[-123.785,39.301],[-123.785,39.301],[-123.785,39.301],[-123.785,39.301],[-123.785,39.301],[-123.785,39.301],[-123.785,39.301],[-123.785,39.301],[-123.785,39.301],[-123.785,39.301],[-123.785,39.3],[-123.785,39.3],[-123.785,39.3],[-123.786,39.3],[-123.786,39.3],[-123.786,39.3],[-123.786,39.3],[-123.786,39.3],[-123.787,39.3],[-123.787,39.3],[-123.787,39.3],[-123.787,39.3],[-123.788,39.3],[-123.788,39.3],[-123.788,39.3],[-123.788,39.3],[-123.789,39.3],[-123.789,39.301],[-123.789,39.301],[-123.79,39.301],[-123.79,39.301],[-123.79,39.301],[-123.79,39.301],[-123.79,39.301],[-123.791,39.301],[-123.791,39.301],[-123.791,39.301],[-123.791,39.301],[-123.791,39.301],[-123.791,39.301],[-123.791,39.301],[-123.791,39.301],[-123.791,39.301],[-123.791,39.301],[-123.792,39.301],[-123.792,39.301],[-123.792,39.301],[-123.792,39.301],[-123.792,39.301],[-123.792,39.301],[-123.792,39.301],[-123.792,39.301],[-123.792,39.301],[-123.792,39.301],[-123.792,39.301],[-123.792,39.301],[-123.792,39.301],[-123.792,39.301],[-123.792,39.301],[-123.792,39.301],[-123.792,39.302]]]},"properties":{"id":"big-river-estuary-state-marine-conservation-area","name":"Big River Estuary State Marine Conservation Area","type":"SMCA","shortName":"Big River Estuary","areaKm2":null,"ccrCitation":null}}]}