{"type":"FeatureCollection","features":[{"type":"Feature","geometry":{"type":"Point","coordinates":[-123.83955,39.31104]},"properties":{"depth_ft":288,"depth_m":87.7}},{"type":"Feature","geometry":{"type":"Point","coordinates":[-123.8355,39.31104]},"properties":{"depth_ft":273,"depth_m":83.2}},{"type":"Feature","geometry":{"type":"Point","coordinates":[-123.83146,39.31104]},"properties":{"depth_ft":258,"depth_m":78.6}},{"type":"Feature","geometry":{"type":"Point","coordinates":[-123.82741,39.31104]},"properties":{"depth_ft":246,"depth_m":75.0}},{"type":"Feature","geometry":{"type":"Point","coordinates":[-123.82336,39.31104]},"properties":{"depth_ft":189,"depth_m":57.6}},{"type":"Feature","geometry":{"type":"Point","coordinates":[-123.81931,39.31104]},"properties":{"depth_ft":99,"depth_m":30.1}},{"type":"Feature","geometry":{"type":"Point","coordinates":[-123.81526,39.31104]},"properties":{"depth_ft":38,"depth_m":11.6}},{"type":"Feature","geometry":{"type":"Point","coordinates":[-123.83955,39.3079]},"properties":{"depth_ft":291,"depth_m":88.7}},{"type":"Feature","geometry":{"type":"Point","coordinates":[-123.8355,39.3079]},"properties":{"depth_ft":276,"depth_m":84.0}},{"type":"Feature","geometry":{"type":"Point","coordinates":[-123.83146,39.3079]},"properties":{"depth_ft":258,"depth_m":78.7}},{"type":"Feature","geometry":{"type":"Point","coordinates":[-123.82741,39.3079]},"properties":{"depth_ft":251,"depth_m":76.5}},{"type":"Feature","geometry":{"type":"Point","coordinates":[-123.82336,39.3079]},"properties":{"depth_ft":201,"depth_m":61.4}},{"type":"Feature","geometry":{"type":"Point","coordinates":[-123.81931,39.3079]},"properties":{"depth_ft":160,"depth_m":48.7}},{"type":"Feature","geometry":{"type":"Point","coordinates":[-123.81526,39.3079]},"properties":{"depth_ft":44,"depth_m":13.3}},{"type":"Feature","geometry":{"type":"Point","coordinates":[-123.81122,39.3079]},"properties":{"depth_ft":2,"depth_m":0.5}},{"type":"Feature","geometry":{"type":"Point","coordinates":[-123.83955,39.30477]},"properties":{"depth_ft":292,"depth_m":89.0}},{"type":"Feature","geometry":{"type":"Point","coordinates":[-123.8355,39.30477]},"properties":{"depth_ft":277,"depth_m":84.5}},{"type":"Feature","geometry":{"type":"Point","coordinates":[-123.83146,39.30477]},"properties":{"depth_ft":255,"depth_m":77.7}},{"type":"Feature","geometry":{"type":"Point","coordinates":[-123.82741,39.30477]},"properties":{"depth_ft":254,"depth_m":77.3}},{"type":"Feature","geometry":{"type":"Point","coordinates":[-123.82336,39.30477]},"properties":{"depth_ft":208,"depth_m":63.3}},{"type":"Feature","geometry":{"type":"Point","coordinates":[-123.81931,39.30477]},"properties":{"depth_ft":169,"depth_m":51.6}},{"type":"Feature","geometry":{"type":"Point","coordinates":[-123.81526,39.30477]},"properties":{"depth_ft":116,"depth_m":35.3}},{"type":"Feature","geometry":{"type":"Point","coordinates":[-123.81122,39.30477]},"properties":{"depth_ft":11,"depth_m":3.4}},{"type":"Feature","geometry":{"type":"Point","coordinates":[-123.83955,39.30164]},"properties":{"depth_ft":294,"depth_m":89.7}},{"type":"Feature","geometry":{"type":"Point","coordinates":[-123.8355,39.30164]},"properties":{"depth_ft":280,"depth_m":85.3}},{"type":"Feature","geometry":{"type":"Point","coordinates":[-123.83146,39.30164]},"properties":{"depth_ft":263,"depth_m":80.1}},{"type":"Feature","geometry":{"type":"Point","coordinates":[-123.82741,39.30164]},"properties":{"depth_ft":247,"depth_m":75.4}},{"type":"Feature","geometry":{"type":"Point","coordinates":[-123.82336,39.30164]},"properties":{"depth_ft":190,"depth_m":57.9}},{"type":"Feature","geometry":{"type":"Point","coordinates":[-123.81931,39.30164]},"properties":{"depth_ft":163,"depth_m":49.8}},{"type":"Feature","geometry":{"type":"Point","coordinates":[-123.81526,39.30164]},"properties":{"depth_ft":135,"depth_m":41.3}},{"type":"Feature","geometry":{"type":"Point","coordinates":[-123.81122,39.30164]},"properties":{"depth_ft":63,"depth_m":19.1}},{"type":"Feature","geometry":{"type":"Point","coordinates":[-123.80717,39.30164]},"properties":{"depth_ft":3,"depth_m":0.8}},{"type":"Feature","geometry":{"type":"Point","coordinates":[-123.80312,39.30164]},"properties":{"depth_ft":37,"depth_m":11.2}},{"type":"Feature","geometry":{"type":"Point","coordinates":[-123.79907,39.30164]},"properties":{"depth_ft":15,"depth_m":4.7}},{"type":"Feature","geometry":{"type":"Point","coordinates":[-123.79502,39.30164]},"properties":{"depth_ft":3,"depth_m":1.1}},{"type":"Feature","geometry":{"type":"Point","coordinates":[-123.83955,39.2985]},"properties":{"depth_ft":298,"depth_m":90.8}},{"type":"Feature","geometry":{"type":"Point","coordinates":[-123.8355,39.2985]},"properties":{"depth_ft":283,"depth_m":86.4}},{"type":"Feature","geometry":{"type":"Point","coordinates":[-123.83146,39.2985]},"properties":{"depth_ft":265,"depth_m":80.9}},{"type":"Feature","geometry":{"type":"Point","coordinates":[-123.82741,39.2985]},"properties":{"depth_ft":242,"depth_m":73.9}},{"type":"Feature","geometry":{"type":"Point","coordinates":[-123.82336,39.2985]},"properties":{"depth_ft":187,"depth_m":57.0}},{"type":"Feature","geometry":{"type":"Point","coordinates":[-123.81931,39.2985]},"properties":{"depth_ft":167,"depth_m":51.0}},{"type":"Feature","geometry":{"type":"Point","coordinates":[-123.81526,39.2985]},"properties":{"depth_ft":135,"depth_m":41.1}},{"type":"Feature","geometry":{"type":"Point","coordinates":[-123.81122,39.2985]},"properties":{"depth_ft":117,"depth_m":35.6}},{"type":"Feature","geometry":{"type":"Point","coordinates":[-123.80717,39.2985]},"properties":{"depth_ft":76,"depth_m":23.0}},{"type":"Feature","geometry":{"type":"Point","coordinates":[-123.80312,39.2985]},"properties":{"depth_ft":52,"depth_m":15.9}},{"type":"Feature","geometry":{"type":"Point","coordinates":[-123.79907,39.2985]},"properties":{"depth_ft":36,"depth_m":11.0}},{"type":"Feature","geometry":{"type":"Point","coordinates":[-123.83955,39.29537]},"properties":{"depth_ft":308,"depth_m":93.8}},{"type":"Feature","geometry":{"type":"Point","coordinates":[-123.8355,39.29537]},"properties":{"depth_ft":293,"depth_m":89.3}},{"type":"Feature","geometry":{"type":"Point","coordinates":[-123.83146,39.29537]},"properties":{"depth_ft":258,"depth_m":78.5}},{"type":"Feature","geometry":{"type":"Point","coordinates":[-123.82741,39.29537]},"properties":{"depth_ft":230,"depth_m":70.0}},{"type":"Feature","geometry":{"type":"Point","coordinates":[-123.82336,39.29537]},"properties":{"depth_ft":202,"depth_m":61.5}},{"type":"Feature","geometry":{"type":"Point","coordinates":[-123.81931,39.29537]},"properties":{"depth_ft":166,"depth_m":50.6}},{"type":"Feature","geometry":{"type":"Point","coordinates":[-123.81526,39.29537]},"properties":{"depth_ft":140,"depth_m":42.8}},{"type":"Feature","geometry":{"type":"Point","coordinates":[-123.81122,39.29537]},"properties":{"depth_ft":116,"depth_m":35.2}},{"type":"Feature","geometry":{"type":"Point","coordinates":[-123.80717,39.29537]},"properties":{"depth_ft":81,"depth_m":24.7}},{"type":"Feature","geometry":{"type":"Point","coordinates":[-123.80312,39.29537]},"properties":{"depth_ft":60,"depth_m":18.2}},{"type":"Feature","geometry":{"type":"Point","coordinates":[-123.79907,39.29537]},"properties":{"depth_ft":38,"depth_m":11.7}},{"type":"Feature","geometry":{"type":"Point","coordinates":[-123.83955,39.29223]},"properties":{"depth_ft":309,"depth_m":94.1}},{"type":"Feature","geometry":{"type":"Point","coordinates":[-123.8355,39.29223]},"properties":{"depth_ft":295,"depth_m":89.9}},{"type":"Feature","geometry":{"type":"Point","coordinates":[-123.83146,39.29223]},"properties":{"depth_ft":262,"depth_m":79.7}},{"type":"Feature","geometry":{"type":"Point","coordinates":[-123.82741,39.29223]},"properties":{"depth_ft":232,"depth_m":70.7}},{"type":"Feature","geometry":{"type":"Point","coordinates":[-123.82336,39.29223]},"properties":{"depth_ft":207,"depth_m":63.2}},{"type":"Feature","geometry":{"type":"Point","coordinates":[-123.81931,39.29223]},"properties":{"depth_ft":182,"depth_m":55.4}},{"type":"Feature","geometry":{"type":"Point","coordinates":[-123.81526,39.29223]},"properties":{"depth_ft":153,"depth_m":46.6}},{"type":"Feature","geometry":{"type":"Point","coordinates":[-123.81122,39.29223]},"properties":{"depth_ft":129,"depth_m":39.3}},{"type":"Feature","geometry":{"type":"Point","coordinates":[-123.80717,39.29223]},"properties":{"depth_ft":86,"depth_m":26.3}},{"type":"Feature","geometry":{"type":"Point","coordinates":[-123.80312,39.29223]},"properties":{"depth_ft":5,"depth_m":1.5}},{"type":"Feature","geometry":{"type":"Point","coordinates":[-123.79907,39.29223]},"properties":{"depth_ft":9,"depth_m":2.7}},{"type":"Feature","geometry":{"type":"Point","coordinates":[-123.79502,39.29223]},"properties":{"depth_ft":3,"depth_m":0.9}},{"type":"Feature","geometry":{"type":"Point","coordinates":[-123.83955,39.2891]},"properties":{"depth_ft":308,"depth_m":93.9}},{"type":"Feature","geometry":{"type":"Point","coordinates":[-123.8355,39.2891]},"properties":{"depth_ft":296,"depth_m":90.3}},{"type":"Feature","geometry":{"type":"Point","coordinates":[-123.83146,39.2891]},"properties":{"depth_ft":276,"depth_m":84.2}},{"type":"Feature","geometry":{"type":"Point","coordinates":[-123.82741,39.2891]},"properties":{"depth_ft":246,"depth_m":75.0}},{"type":"Feature","geometry":{"type":"Point","coordinates":[-123.82336,39.2891]},"properties":{"depth_ft":222,"depth_m":67.7}},{"type":"Feature","geometry":{"type":"Point","coordinates":[-123.81931,39.2891]},"properties":{"depth_ft":195,"depth_m":59.5}},{"type":"Feature","geometry":{"type":"Point","coordinates":[-123.81526,39.2891]},"properties":{"depth_ft":157,"depth_m":47.8}},{"type":"Feature","geometry":{"type":"Point","coordinates":[-123.81122,39.2891]},"properties":{"depth_ft":129,"depth_m":39.2}},{"type":"Feature","geometry":{"type":"Point","coordinates":[-123.80717,39.2891]},"properties":{"depth_ft":73,"depth_m":22.2}},{"type":"Feature","geometry":{"type":"Point","coordinates":[-123.80312,39.2891]},"properties":{"depth_ft":1,"depth_m":0.4}},{"type":"Feature","geometry":{"type":"Point","coordinates":[-123.83955,39.28597]},"properties":{"depth_ft":306,"depth_m":93.3}},{"type":"Feature","geometry":{"type":"Point","coordinates":[-123.8355,39.28597]},"properties":{"depth_ft":301,"depth_m":91.9}},{"type":"Feature","geometry":{"type":"Point","coordinates":[-123.83146,39.28597]},"properties":{"depth_ft":285,"depth_m":86.9}},{"type":"Feature","geometry":{"type":"Point","coordinates":[-123.82741,39.28597]},"properties":{"depth_ft":264,"depth_m":80.5}},{"type":"Feature","geometry":{"type":"Point","coordinates":[-123.82336,39.28597]},"properties":{"depth_ft":236,"depth_m":72.0}},{"type":"Feature","geometry":{"type":"Point","coordinates":[-123.81931,39.28597]},"properties":{"depth_ft":207,"depth_m":63.1}},{"type":"Feature","geometry":{"type":"Point","coordinates":[-123.81526,39.28597]},"properties":{"depth_ft":168,"depth_m":51.3}},{"type":"Feature","geometry":{"type":"Point","coordinates":[-123.81122,39.28597]},"properties":{"depth_ft":99,"depth_m":30.1}},{"type":"Feature","geometry":{"type":"Point","coordinates":[-123.80717,39.28597]},"properties":{"depth_ft":57,"depth_m":17.4}},{"type":"Feature","geometry":{"type":"Point","coordinates":[-123.80312,39.28597]},"properties":{"depth_ft":2,"depth_m":0.6}},{"type":"Feature","geometry":{"type":"Point","coordinates":[-123.83955,39.28283]},"properties":{"depth_ft":314,"depth_m":95.7}},{"type":"Feature","geometry":{"type":"Point","coordinates":[-123.8355,39.28283]},"properties":{"depth_ft":303,"depth_m":92.3}},{"type":"Feature","geometry":{"type":"Point","coordinates":[-123.83146,39.28283]},"properties":{"depth_ft":289,"depth_m":87.9}},{"type":"Feature","geometry":{"type":"Point","coordinates":[-123.82741,39.28283]},"properties":{"depth_ft":272,"depth_m":82.8}},{"type":"Feature","geometry":{"type":"Point","coordinates":[-123.82336,39.28283]},"properties":{"depth_ft":252,"depth_m":76.8}},{"type":"Feature","geometry":{"type":"Point","coordinates":[-123.81931,39.28283]},"properties":{"depth_ft":225,"depth_m":68.7}},{"type":"Feature","geometry":{"type":"Point","coordinates":[-123.81526,39.28283]},"properties":{"depth_ft":136,"depth_m":41.4}},{"type":"Feature","geometry":{"type":"Point","coordinates":[-123.81122,39.28283]},"properties":{"depth_ft":83,"depth_m":25.4}},{"type":"Feature","geometry":{"type":"Point","coordinates":[-123.80717,39.28283]},"properties":{"depth_ft":36,"depth_m":10.9}},{"type":"Feature","geometry":{"type":"Point","coordinates":[-123.83955,39.2797]},"properties":{"depth_ft":318,"depth_m":97.0}},{"type":"Feature","geometry":{"type":"Point","coordinates":[-123.8355,39.2797]},"properties":{"depth_ft":305,"depth_m":92.9}},{"type":"Feature","geometry":{"type":"Point","coordinates":[-123.83146,39.2797]},"properties":{"depth_ft":289,"depth_m":88.0}},{"type":"Feature","geometry":{"type":"Point","coordinates":[-123.82741,39.2797]},"properties":{"depth_ft":277,"depth_m":84.3}},{"type":"Feature","geometry":{"type":"Point","coordinates":[-123.82336,39.2797]},"properties":{"depth_ft":259,"depth_m":78.8}},{"type":"Feature","geometry":{"type":"Point","coordinates":[-123.81931,39.2797]},"properties":{"depth_ft":239,"depth_m":73.0}},{"type":"Feature","geometry":{"type":"Point","coordinates":[-123.81526,39.2797]},"properties":{"depth_ft":212,"depth_m":64.7}},{"type":"Feature","geometry":{"type":"Point","coordinates":[-123.81122,39.2797]},"properties":{"depth_ft":99,"depth_m":30.2}},{"type":"Feature","geometry":{"type":"Point","coordinates":[-123.80717,39.2797]},"properties":{"depth_ft":78,"depth_m":23.9}},{"type":"Feature","geometry":{"type":"Point","coordinates":[-123.83955,39.27657]},"properties":{"depth_ft":320,"depth_m":97.5}},{"type":"Feature","geometry":{"type":"Point","coordinates":[-123.8355,39.27657]},"properties":{"depth_ft":302,"depth_m":92.1}},{"type":"Feature","geometry":{"type":"Point","coordinates":[-123.83146,39.27657]},"properties":{"depth_ft":290,"depth_m":88.5}},{"type":"Feature","geometry":{"type":"Point","coordinates":[-123.82741,39.27657]},"properties":{"depth_ft":269,"depth_m":82.1}},{"type":"Feature","geometry":{"type":"Point","coordinates":[-123.82336,39.27657]},"properties":{"depth_ft":261,"depth_m":79.7}},{"type":"Feature","geometry":{"type":"Point","coordinates":[-123.81931,39.27657]},"properties":{"depth_ft":248,"depth_m":75.5}},{"type":"Feature","geometry":{"type":"Point","coordinates":[-123.81526,39.27657]},"properties":{"depth_ft":227,"depth_m":69.3}},{"type":"Feature","geometry":{"type":"Point","coordinates":[-123.81122,39.27657]},"properties":{"depth_ft":118,"depth_m":36.1}},{"type":"Feature","geometry":{"type":"Point","coordinates":[-123.80717,39.27657]},"properties":{"depth_ft":99,"depth_m":30.3}},{"type":"Feature","geometry":{"type":"Point","coordinates":[-123.80312,39.27657]},"properties":{"depth_ft":4,"depth_m":1.2}},{"type":"Feature","geometry":{"type":"Point","coordinates":[-123.83955,39.27343]},"properties":{"depth_ft":320,"depth_m":97.5}},{"type":"Feature","geometry":{"type":"Point","coordinates":[-123.8355,39.27343]},"properties":{"depth_ft":299,"depth_m":91.0}},{"type":"Feature","geometry":{"type":"Point","coordinates":[-123.83146,39.27343]},"properties":{"depth_ft":298,"depth_m":90.9}},{"type":"Feature","geometry":{"type":"Point","coordinates":[-123.82741,39.27343]},"properties":{"depth_ft":286,"depth_m":87.3}},{"type":"Feature","geometry":{"type":"Point","coordinates":[-123.82336,39.27343]},"properties":{"depth_ft":269,"depth_m":82.0}},{"type":"Feature","geometry":{"type":"Point","coordinates":[-123.81931,39.27343]},"properties":{"depth_ft":251,"depth_m":76.4}},{"type":"Feature","geometry":{"type":"Point","coordinates":[-123.81526,39.27343]},"properties":{"depth_ft":234,"depth_m":71.4}},{"type":"Feature","geometry":{"type":"Point","coordinates":[-123.81122,39.27343]},"properties":{"depth_ft":208,"depth_m":63.5}},{"type":"Feature","geometry":{"type":"Point","coordinates":[-123.80717,39.27343]},"properties":{"depth_ft":91,"depth_m":27.8}},{"type":"Feature","geometry":{"type":"Point","coordinates":[-123.80312,39.27343]},"properties":{"depth_ft":46,"depth_m":14.1}},{"type":"Feature","geometry":{"type":"Point","coordinates":[-123.83955,39.2703]},"properties":{"depth_ft":315,"depth_m":96.1}},{"type":"Feature","geometry":{"type":"Point","coordinates":[-123.8355,39.2703]},"properties":{"depth_ft":300,"depth_m":91.6}},{"type":"Feature","geometry":{"type":"Point","coordinates":[-123.83146,39.2703]},"properties":{"depth_ft":301,"depth_m":91.8}},{"type":"Feature","geometry":{"type":"Point","coordinates":[-123.82741,39.2703]},"properties":{"depth_ft":289,"depth_m":88.1}},{"type":"Feature","geometry":{"type":"Point","coordinates":[-123.82336,39.2703]},"properties":{"depth_ft":272,"depth_m":83.0}},{"type":"Feature","geometry":{"type":"Point","coordinates":[-123.81931,39.2703]},"properties":{"depth_ft":253,"depth_m":77.0}},{"type":"Feature","geometry":{"type":"Point","coordinates":[-123.81526,39.2703]},"properties":{"depth_ft":235,"depth_m":71.5}},{"type":"Feature","geometry":{"type":"Point","coordinates":[-123.81122,39.2703]},"properties":{"depth_ft":221,"depth_m":67.4}},{"type":"Feature","geometry":{"type":"Point","coordinates":[-123.80717,39.2703]},"properties":{"depth_ft":160,"depth_m":48.6}},{"type":"Feature","geometry":{"type":"Point","coordinates":[-123.80312,39.2703]},"properties":{"depth_ft":71,"depth_m":21.6}},{"type":"Feature","geometry":{"type":"Point","coordinates":[-123.79907,39.2703]},"properties":{"depth_ft":58,"depth_m":17.6}},{"type":"Feature","geometry":{"type":"Point","coordinates":[-123.79502,39.2703]},"properties":{"depth_ft":12,"depth_m":3.6}},{"type":"Feature","geometry":{"type":"Point","coordinates":[-123.79098,39.2703]},"properties":{"depth_ft":12,"depth_m":3.6}},{"type":"Feature","geometry":{"type":"Point","coordinates":[-123.83955,39.26717]},"properties":{"depth_ft":316,"depth_m":96.3}},{"type":"Feature","geometry":{"type":"Point","coordinates":[-123.8355,39.26717]},"properties":{"depth_ft":305,"depth_m":92.8}},{"type":"Feature","geometry":{"type":"Point","coordinates":[-123.83146,39.26717]},"properties":{"depth_ft":301,"depth_m":91.8}},{"type":"Feature","geometry":{"type":"Point","coordinates":[-123.82741,39.26717]},"properties":{"depth_ft":288,"depth_m":87.8}},{"type":"Feature","geometry":{"type":"Point","coordinates":[-123.82336,39.26717]},"properties":{"depth_ft":273,"depth_m":83.3}},{"type":"Feature","geometry":{"type":"Point","coordinates":[-123.81931,39.26717]},"properties":{"depth_ft":254,"depth_m":77.4}},{"type":"Feature","geometry":{"type":"Point","coordinates":[-123.81526,39.26717]},"properties":{"depth_ft":232,"depth_m":70.8}},{"type":"Feature","geometry":{"type":"Point","coordinates":[-123.81122,39.26717]},"properties":{"depth_ft":218,"depth_m":66.3}},{"type":"Feature","geometry":{"type":"Point","coordinates":[-123.80717,39.26717]},"properties":{"depth_ft":185,"depth_m":56.5}},{"type":"Feature","geometry":{"type":"Point","coordinates":[-123.80312,39.26717]},"properties":{"depth_ft":128,"depth_m":39.0}},{"type":"Feature","geometry":{"type":"Point","coordinates":[-123.79907,39.26717]},"properties":{"depth_ft":100,"depth_m":30.4}},{"type":"Feature","geometry":{"type":"Point","coordinates":[-123.79502,39.26717]},"properties":{"depth_ft":23,"depth_m":6.9}},{"type":"Feature","geometry":{"type":"Point","coordinates":[-123.79098,39.26717]},"properties":{"depth_ft":15,"depth_m":4.6}},{"type":"Feature","geometry":{"type":"Point","coordinates":[-123.83955,39.26403]},"properties":{"depth_ft":315,"depth_m":95.9}},{"type":"Feature","geometry":{"type":"Point","coordinates":[-123.8355,39.26403]},"properties":{"depth_ft":305,"depth_m":93.0}},{"type":"Feature","geometry":{"type":"Point","coordinates":[-123.83146,39.26403]},"properties":{"depth_ft":302,"depth_m":92.0}},{"type":"Feature","geometry":{"type":"Point","coordinates":[-123.82741,39.26403]},"properties":{"depth_ft":291,"depth_m":88.8}},{"type":"Feature","geometry":{"type":"Point","coordinates":[-123.82336,39.26403]},"properties":{"depth_ft":275,"depth_m":83.9}},{"type":"Feature","geometry":{"type":"Point","coordinates":[-123.81931,39.26403]},"properties":{"depth_ft":256,"depth_m":78.0}},{"type":"Feature","geometry":{"type":"Point","coordinates":[-123.81526,39.26403]},"properties":{"depth_ft":230,"depth_m":70.2}},{"type":"Feature","geometry":{"type":"Point","coordinates":[-123.81122,39.26403]},"properties":{"depth_ft":209,"depth_m":63.8}},{"type":"Feature","geometry":{"type":"Point","coordinates":[-123.80717,39.26403]},"properties":{"depth_ft":186,"depth_m":56.5}},{"type":"Feature","geometry":{"type":"Point","coordinates":[-123.80312,39.26403]},"properties":{"depth_ft":164,"depth_m":49.9}},{"type":"Feature","geometry":{"type":"Point","coordinates":[-123.79907,39.26403]},"properties":{"depth_ft":84,"depth_m":25.7}},{"type":"Feature","geometry":{"type":"Point","coordinates":[-123.79502,39.26403]},"properties":{"depth_ft":45,"depth_m":13.8}},{"type":"Feature","geometry":{"type":"Point","coordinates":[-123.79098,39.26403]},"properties":{"depth_ft":69,"depth_m":21.1}},{"type":"Feature","geometry":{"type":"Point","coordinates":[-123.83955,39.2609]},"properties":{"depth_ft":313,"depth_m":95.4}},{"type":"Feature","geometry":{"type":"Point","coordinates":[-123.8355,39.2609]},"properties":{"depth_ft":305,"depth_m":93.0}},{"type":"Feature","geometry":{"type":"Point","coordinates":[-123.83146,39.2609]},"properties":{"depth_ft":303,"depth_m":92.4}},{"type":"Feature","geometry":{"type":"Point","coordinates":[-123.82741,39.2609]},"properties":{"depth_ft":294,"depth_m":89.7}},{"type":"Feature","geometry":{"type":"Point","coordinates":[-123.82336,39.2609]},"properties":{"depth_ft":279,"depth_m":85.0}},{"type":"Feature","geometry":{"type":"Point","coordinates":[-123.81931,39.2609]},"properties":{"depth_ft":258,"depth_m":78.7}},{"type":"Feature","geometry":{"type":"Point","coordinates":[-123.81526,39.2609]},"properties":{"depth_ft":232,"depth_m":70.6}},{"type":"Feature","geometry":{"type":"Point","coordinates":[-123.81122,39.2609]},"properties":{"depth_ft":207,"depth_m":63.1}},{"type":"Feature","geometry":{"type":"Point","coordinates":[-123.80717,39.2609]},"properties":{"depth_ft":186,"depth_m":56.6}},{"type":"Feature","geometry":{"type":"Point","coordinates":[-123.80312,39.2609]},"properties":{"depth_ft":165,"depth_m":50.2}},{"type":"Feature","geometry":{"type":"Point","coordinates":[-123.79907,39.2609]},"properties":{"depth_ft":121,"depth_m":36.8}},{"type":"Feature","geometry":{"type":"Point","coordinates":[-123.79502,39.2609]},"properties":{"depth_ft":107,"depth_m":32.7}},{"type":"Feature","geometry":{"type":"Point","coordinates":[-123.79098,39.2609]},"properties":{"depth_ft":61,"depth_m":18.5}},{"type":"Feature","geometry":{"type":"Point","coordinates":[-123.83955,39.25777]},"properties":{"depth_ft":312,"depth_m":95.1}},{"type":"Feature","geometry":{"type":"Point","coordinates":[-123.8355,39.25777]},"properties":{"depth_ft":308,"depth_m":93.8}},{"type":"Feature","geometry":{"type":"Point","coordinates":[-123.83146,39.25777]},"properties":{"depth_ft":307,"depth_m":93.7}},{"type":"Feature","geometry":{"type":"Point","coordinates":[-123.82741,39.25777]},"properties":{"depth_ft":300,"depth_m":91.4}},{"type":"Feature","geometry":{"type":"Point","coordinates":[-123.82336,39.25777]},"properties":{"depth_ft":284,"depth_m":86.6}},{"type":"Feature","geometry":{"type":"Point","coordinates":[-123.81931,39.25777]},"properties":{"depth_ft":260,"depth_m":79.4}},{"type":"Feature","geometry":{"type":"Point","coordinates":[-123.81526,39.25777]},"properties":{"depth_ft":230,"depth_m":70.1}},{"type":"Feature","geometry":{"type":"Point","coordinates":[-123.81122,39.25777]},"properties":{"depth_ft":211,"depth_m":64.3}},{"type":"Feature","geometry":{"type":"Point","coordinates":[-123.80717,39.25777]},"properties":{"depth_ft":191,"depth_m":58.2}},{"type":"Feature","geometry":{"type":"Point","coordinates":[-123.80312,39.25777]},"properties":{"depth_ft":171,"depth_m":52.0}},{"type":"Feature","geometry":{"type":"Point","coordinates":[-123.79907,39.25777]},"properties":{"depth_ft":138,"depth_m":42.0}},{"type":"Feature","geometry":{"type":"Point","coordinates":[-123.79502,39.25777]},"properties":{"depth_ft":111,"depth_m":34.0}},{"type":"Feature","geometry":{"type":"Point","coordinates":[-123.79098,39.25777]},"properties":{"depth_ft":83,"depth_m":25.3}},{"type":"Feature","geometry":{"type":"Point","coordinates":[-123.78693,39.25777]},"properties":{"depth_ft":14,"depth_m":4.1}},{"type":"Feature","geometry":{"type":"Point","coordinates":[-123.83955,39.25463]},"properties":{"depth_ft":314,"depth_m":95.8}},{"type":"Feature","geometry":{"type":"Point","coordinates":[-123.8355,39.25463]},"properties":{"depth_ft":310,"depth_m":94.4}},{"type":"Feature","geometry":{"type":"Point","coordinates":[-123.83146,39.25463]},"properties":{"depth_ft":310,"depth_m":94.4}},{"type":"Feature","geometry":{"type":"Point","coordinates":[-123.82741,39.25463]},"properties":{"depth_ft":304,"depth_m":92.7}},{"type":"Feature","geometry":{"type":"Point","coordinates":[-123.82336,39.25463]},"properties":{"depth_ft":288,"depth_m":87.8}},{"type":"Feature","geometry":{"type":"Point","coordinates":[-123.81931,39.25463]},"properties":{"depth_ft":265,"depth_m":80.7}},{"type":"Feature","geometry":{"type":"Point","coordinates":[-123.81526,39.25463]},"properties":{"depth_ft":239,"depth_m":72.8}},{"type":"Feature","geometry":{"type":"Point","coordinates":[-123.81122,39.25463]},"properties":{"depth_ft":218,"depth_m":66.4}},{"type":"Feature","geometry":{"type":"Point","coordinates":[-123.80717,39.25463]},"properties":{"depth_ft":199,"depth_m":60.8}},{"type":"Feature","geometry":{"type":"Point","coordinates":[-123.80312,39.25463]},"properties":{"depth_ft":180,"depth_m":54.9}},{"type":"Feature","geometry":{"type":"Point","coordinates":[-123.79907,39.25463]},"properties":{"depth_ft":79,"depth_m":24.2}},{"type":"Feature","geometry":{"type":"Point","coordinates":[-123.79502,39.25463]},"properties":{"depth_ft":105,"depth_m":32.1}},{"type":"Feature","geometry":{"type":"Point","coordinates":[-123.79098,39.25463]},"properties":{"depth_ft":40,"depth_m":12.3}},{"type":"Feature","geometry":{"type":"Point","coordinates":[-123.83955,39.2515]},"properties":{"depth_ft":317,"depth_m":96.5}},{"type":"Feature","geometry":{"type":"Point","coordinates":[-123.8355,39.2515]},"properties":{"depth_ft":311,"depth_m":94.8}},{"type":"Feature","geometry":{"type":"Point","coordinates":[-123.83146,39.2515]},"properties":{"depth_ft":311,"depth_m":94.7}},{"type":"Feature","geometry":{"type":"Point","coordinates":[-123.82741,39.2515]},"properties":{"depth_ft":307,"depth_m":93.6}},{"type":"Feature","geometry":{"type":"Point","coordinates":[-123.82336,39.2515]},"properties":{"depth_ft":288,"depth_m":87.7}},{"type":"Feature","geometry":{"type":"Point","coordinates":[-123.81931,39.2515]},"properties":{"depth_ft":269,"depth_m":81.9}},{"type":"Feature","geometry":{"type":"Point","coordinates":[-123.81526,39.2515]},"properties":{"depth_ft":249,"depth_m":75.8}},{"type":"Feature","geometry":{"type":"Point","coordinates":[-123.81122,39.2515]},"properties":{"depth_ft":225,"depth_m":68.7}},{"type":"Feature","geometry":{"type":"Point","coordinates":[-123.80717,39.2515]},"properties":{"depth_ft":211,"depth_m":64.3}},{"type":"Feature","geometry":{"type":"Point","coordinates":[-123.80312,39.2515]},"properties":{"depth_ft":184,"depth_m":56.2}},{"type":"Feature","geometry":{"type":"Point","coordinates":[-123.79907,39.2515]},"properties":{"depth_ft":157,"depth_m":47.9}},{"type":"Feature","geometry":{"type":"Point","coordinates":[-123.79502,39.2515]},"properties":{"depth_ft":95,"depth_m":28.9}},{"type":"Feature","geometry":{"type":"Point","coordinates":[-123.79098,39.2515]},"properties":{"depth_ft":54,"depth_m":16.6}},{"type":"Feature","geometry":{"type":"Point","coordinates":[-123.78693,39.2515]},"properties":{"depth_ft":3,"depth_m":0.8}},{"type":"Feature","geometry":{"type":"Point","coordinates":[-123.83955,39.24836]},"properties":{"depth_ft":317,"depth_m":96.5}},{"type":"Feature","geometry":{"type":"Point","coordinates":[-123.8355,39.24836]},"properties":{"depth_ft":312,"depth_m":95.0}},{"type":"Feature","geometry":{"type":"Point","coordinates":[-123.83146,39.24836]},"properties":{"depth_ft":311,"depth_m":94.7}},{"type":"Feature","geometry":{"type":"Point","coordinates":[-123.82741,39.24836]},"properties":{"depth_ft":307,"depth_m":93.7}},{"type":"Feature","geometry":{"type":"Point","coordinates":[-123.82336,39.24836]},"properties":{"depth_ft":289,"depth_m":88.0}},{"type":"Feature","geometry":{"type":"Point","coordinates":[-123.81931,39.24836]},"properties":{"depth_ft":272,"depth_m":82.9}},{"type":"Feature","geometry":{"type":"Point","coordinates":[-123.81526,39.24836]},"properties":{"depth_ft":255,"depth_m":77.6}},{"type":"Feature","geometry":{"type":"Point","coordinates":[-123.81122,39.24836]},"properties":{"depth_ft":231,"depth_m":70.4}},{"type":"Feature","geometry":{"type":"Point","coordinates":[-123.80717,39.24836]},"properties":{"depth_ft":224,"depth_m":68.4}},{"type":"Feature","geometry":{"type":"Point","coordinates":[-123.80312,39.24836]},"properties":{"depth_ft":203,"depth_m":62.0}},{"type":"Feature","geometry":{"type":"Point","coordinates":[-123.79907,39.24836]},"properties":{"depth_ft":189,"depth_m":57.7}},{"type":"Feature","geometry":{"type":"Point","coordinates":[-123.79502,39.24836]},"properties":{"depth_ft":133,"depth_m":40.4}},{"type":"Feature","geometry":{"type":"Point","coordinates":[-123.79098,39.24836]},"properties":{"depth_ft":97,"depth_m":29.5}},{"type":"Feature","geometry":{"type":"Point","coordinates":[-123.78693,39.24836]},"properties":{"depth_ft":82,"depth_m":25.0}},{"type":"Feature","geometry":{"type":"Point","coordinates":[-123.78288,39.24836]},"properties":{"depth_ft":2,"depth_m":0.5}},{"type":"Feature","geometry":{"type":"Point","coordinates":[-123.83955,39.24523]},"properties":{"depth_ft":321,"depth_m":98.0}},{"type":"Feature","geometry":{"type":"Point","coordinates":[-123.8355,39.24523]},"properties":{"depth_ft":314,"depth_m":95.7}},{"type":"Feature","geometry":{"type":"Point","coordinates":[-123.83146,39.24523]},"properties":{"depth_ft":311,"depth_m":94.7}},{"type":"Feature","geometry":{"type":"Point","coordinates":[-123.82741,39.24523]},"properties":{"depth_ft":309,"depth_m":94.1}},{"type":"Feature","geometry":{"type":"Point","coordinates":[-123.82336,39.24523]},"properties":{"depth_ft":289,"depth_m":88.1}},{"type":"Feature","geometry":{"type":"Point","coordinates":[-123.81931,39.24523]},"properties":{"depth_ft":275,"depth_m":83.7}},{"type":"Feature","geometry":{"type":"Point","coordinates":[-123.81526,39.24523]},"properties":{"depth_ft":260,"depth_m":79.3}},{"type":"Feature","geometry":{"type":"Point","coordinates":[-123.81122,39.24523]},"properties":{"depth_ft":235,"depth_m":71.5}},{"type":"Feature","geometry":{"type":"Point","coordinates":[-123.80717,39.24523]},"properties":{"depth_ft":225,"depth_m":68.5}},{"type":"Feature","geometry":{"type":"Point","coordinates":[-123.80312,39.24523]},"properties":{"depth_ft":200,"depth_m":61.1}},{"type":"Feature","geometry":{"type":"Point","coordinates":[-123.79907,39.24523]},"properties":{"depth_ft":181,"depth_m":55.2}},{"type":"Feature","geometry":{"type":"Point","coordinates":[-123.79502,39.24523]},"properties":{"depth_ft":153,"depth_m":46.7}},{"type":"Feature","geometry":{"type":"Point","coordinates":[-123.79098,39.24523]},"properties":{"depth_ft":125,"depth_m":38.1}},{"type":"Feature","geometry":{"type":"Point","coordinates":[-123.78693,39.24523]},"properties":{"depth_ft":99,"depth_m":30.0}},{"type":"Feature","geometry":{"type":"Point","coordinates":[-123.78288,39.24523]},"properties":{"depth_ft":7,"depth_m":2.1}},{"type":"Feature","geometry":{"type":"Point","coordinates":[-123.8355,39.2421]},"properties":{"depth_ft":319,"depth_m":97.2}},{"type":"Feature","geometry":{"type":"Point","coordinates":[-123.83146,39.2421]},"properties":{"depth_ft":310,"depth_m":94.5}},{"type":"Feature","geometry":{"type":"Point","coordinates":[-123.82741,39.2421]},"properties":{"depth_ft":308,"depth_m":93.8}},{"type":"Feature","geometry":{"type":"Point","coordinates":[-123.82336,39.2421]},"properties":{"depth_ft":289,"depth_m":88.1}},{"type":"Feature","geometry":{"type":"Point","coordinates":[-123.81931,39.2421]},"properties":{"depth_ft":277,"depth_m":84.3}},{"type":"Feature","geometry":{"type":"Point","coordinates":[-123.81526,39.2421]},"properties":{"depth_ft":263,"depth_m":80.0}},{"type":"Feature","geometry":{"type":"Point","coordinates":[-123.81122,39.2421]},"properties":{"depth_ft":241,"depth_m":73.5}},{"type":"Feature","geometry":{"type":"Point","coordinates":[-123.80717,39.2421]},"properties":{"depth_ft":224,"depth_m":68.2}},{"type":"Feature","geometry":{"type":"Point","coordinates":[-123.80312,39.2421]},"properties":{"depth_ft":207,"depth_m":63.2}},{"type":"Feature","geometry":{"type":"Point","coordinates":[-123.79907,39.2421]},"properties":{"depth_ft":195,"depth_m":59.4}},{"type":"Feature","geometry":{"type":"Point","coordinates":[-123.79502,39.2421]},"properties":{"depth_ft":158,"depth_m":48.1}},{"type":"Feature","geometry":{"type":"Point","coordinates":[-123.79098,39.2421]},"properties":{"depth_ft":128,"depth_m":39.0}},{"type":"Feature","geometry":{"type":"Point","coordinates":[-123.78693,39.2421]},"properties":{"depth_ft":97,"depth_m":29.5}},{"type":"Feature","geometry":{"type":"Point","coordinates":[-123.78288,39.2421]},"properties":{"depth_ft":1,"depth_m":0.4}},{"type":"Feature","geometry":{"type":"Point","coordinates":[-123.8355,39.23896]},"properties":{"depth_ft":325,"depth_m":99.1}},{"type":"Feature","geometry":{"type":"Point","coordinates":[-123.83146,39.23896]},"properties":{"depth_ft":312,"depth_m":95.1}},{"type":"Feature","geometry":{"type":"Point","coordinates":[-123.82741,39.23896]},"properties":{"depth_ft":307,"depth_m":93.5}},{"type":"Feature","geometry":{"type":"Point","coordinates":[-123.82336,39.23896]},"properties":{"depth_ft":289,"depth_m":88.0}},{"type":"Feature","geometry":{"type":"Point","coordinates":[-123.81931,39.23896]},"properties":{"depth_ft":276,"depth_m":84.2}},{"type":"Feature","geometry":{"type":"Point","coordinates":[-123.81526,39.23896]},"properties":{"depth_ft":265,"depth_m":80.7}},{"type":"Feature","geometry":{"type":"Point","coordinates":[-123.81122,39.23896]},"properties":{"depth_ft":247,"depth_m":75.2}},{"type":"Feature","geometry":{"type":"Point","coordinates":[-123.80717,39.23896]},"properties":{"depth_ft":238,"depth_m":72.5}},{"type":"Feature","geometry":{"type":"Point","coordinates":[-123.80312,39.23896]},"properties":{"depth_ft":215,"depth_m":65.7}},{"type":"Feature","geometry":{"type":"Point","coordinates":[-123.79907,39.23896]},"properties":{"depth_ft":191,"depth_m":58.2}},{"type":"Feature","geometry":{"type":"Point","coordinates":[-123.79502,39.23896]},"properties":{"depth_ft":162,"depth_m":49.5}},{"type":"Feature","geometry":{"type":"Point","coordinates":[-123.79098,39.23896]},"properties":{"depth_ft":130,"depth_m":39.6}},{"type":"Feature","geometry":{"type":"Point","coordinates":[-123.78693,39.23896]},"properties":{"depth_ft":98,"depth_m":29.8}},{"type":"Feature","geometry":{"type":"Point","coordinates":[-123.78288,39.23896]},"properties":{"depth_ft":35,"depth_m":10.8}},{"type":"Feature","geometry":{"type":"Point","coordinates":[-123.77883,39.23896]},"properties":{"depth_ft":4,"depth_m":1.1}}]}