{"type":"FeatureCollection","features":[{"type":"Feature","geometry":{"type":"Polygon","coordinates":[[[-119.66856,33.9823],[-119.66914,33.98164],[-119.66971,33.98188],[-119.66999,33.98174],[-119.67022,33.98008],[-119.67241,33.98063],[-119.67354,33.98039],[-119.67436,33.97997],[-119.67442,33.97985],[-119.67409,33.97937],[-119.67419,33.97872],[-119.6748,33.97846],[-119.67507,33.97814],[-119.67661,33.97781],[-119.67717,33.97805],[-119.67868,33.97826],[-119.68003,33.97777],[-119.68059,33.97721],[-119.68101,33.97748],[-119.6814,33.9769],[-119.68155,33.97694],[-119.68152,33.97717],[-119.68176,33.97729],[-119.68247,33.97642],[-119.68317,33.97635],[-119.68364,33.97605],[-119.68551,33.97545],[-119.68557,33.97461],[-119.68593,33.97415],[-119.68653,33.974],[-119.68731,33.97343],[-119.6877,33.97356],[-119.68936,33.97299],[-119.69034,33.97217],[-119.69126,33.97196],[-119.69192,33.97161],[-119.6963,33.97132],[-119.69828,33.97086],[-119.69929,33.97122],[-119.7,33.9707],[-119.70002,33.97027],[-119.69957,33.96962],[-119.69959,33.96943],[-119.69999,33.96846],[-119.70018,33.96725],[-119.70041,33.96681],[-119.70089,33.96661],[-119.70144,33.96693],[-119.70188,33.96748],[-119.70326,33.96788],[-119.70412,33.96892],[-119.70483,33.96892],[-119.70541,33.9685],[-119.70627,33.96915],[-119.70701,33.96916],[-119.70751,33.96887],[-119.7081,33.96818],[-119.70797,33.96784],[-119.70713,33.96763],[-119.70696,33.9674],[-119.70749,33.96703],[-119.70841,33.96681],[-119.7088,33.96654],[-119.70962,33.96651],[-119.71075,33.96575],[-119.71232,33.96522],[-119.71239,33.96442],[-119.71365,33.96366],[-119.7143,33.96175],[-119.71488,33.96112],[-119.71545,33.96125],[-119.71669,33.9607],[-119.71943,33.96028],[-119.72095,33.95945],[-119.72206,33.95971],[-119.72335,33.96083],[-119.72376,33.96089],[-119.72503,33.96062],[-119.72588,33.96077],[-119.72636,33.9616],[-119.72712,33.9619],[-119.72776,33.96199],[-119.72871,33.96162],[-119.72914,33.96184],[-119.73015,33.96174],[-119.73109,33.96195],[-119.73153,33.96189],[-119.73197,33.96206],[-119.7343,33.96233],[-119.73479,33.96254],[-119.73581,33.96243],[-119.73658,33.96216],[-119.7374,33.96261],[-119.73929,33.96286],[-119.73972,33.96323],[-119.74054,33.96357],[-119.74291,33.96379],[-119.74357,33.96366],[-119.74509,33.96293],[-119.74675,33.96347],[-119.74825,33.96372],[-119.75056,33.96354],[-119.75159,33.96278],[-119.75193,33.96283],[-119.75278,33.96239],[-119.75384,33.96279],[-119.75465,33.96266],[-119.75499,33.9624],[-119.75499,33.96172],[-119.75542,33.9615],[-119.75575,33.96084],[-119.757,33.96],[-119.75749,33.95945],[-119.7585,33.95929],[-119.75942,33.95948],[-119.76277,33.95945],[-119.76292,33.95953],[-119.76298,33.95996],[-119.76376,33.96025],[-119.76393,33.96048],[-119.76476,33.96034],[-119.76576,33.96057],[-119.76715,33.96046],[-119.76846,33.96162],[-119.76897,33.96159],[-119.7697,33.9622],[-119.77052,33.96234],[-119.77111,33.96234],[-119.77233,33.962],[-119.77279,33.96131],[-119.77401,33.96065],[-119.77486,33.96063],[-119.77608,33.96116],[-119.77747,33.96095],[-119.77903,33.96112],[-119.77914,33.96134],[-119.77963,33.96133],[-119.78007,33.9616],[-119.78123,33.96167],[-119.78193,33.96149],[-119.78206,33.96074],[-119.78279,33.9604],[-119.78344,33.96043],[-119.78407,33.9609],[-119.78457,33.96069],[-119.78492,33.96073],[-119.78518,33.96032],[-119.78609,33.96047],[-119.78767,33.96021],[-119.78899,33.9595],[-119.7898,33.9593],[-119.78984,33.96007],[-119.79036,33.96097],[-119.79118,33.96148],[-119.79127,33.96189],[-119.79584,33.96283],[-119.79645,33.96264],[-119.79703,33.96284],[-119.79721,33.96265],[-119.79737,33.96271],[-119.79708,33.96313],[-119.79751,33.96274],[-119.79794,33.9626],[-119.79992,33.96273],[-119.80294,33.96357],[-119.80346,33.96339],[-119.8043,33.9635],[-119.80475,33.96326],[-119.80599,33.96334],[-119.80743,33.96316],[-119.80954,33.96261],[-119.81066,33.96191],[-119.81116,33.96203],[-119.8115,33.96188],[-119.81361,33.96185],[-119.81464,33.96162],[-119.81649,33.96106],[-119.81811,33.95984],[-119.81831,33.96006],[-119.81837,33.96111],[-119.81916,33.96237],[-119.82391,33.96553],[-119.8265,33.96688],[-119.83058,33.96849],[-119.83494,33.96968],[-119.83882,33.97032],[-119.84271,33.9702],[-119.84356,33.97003],[-119.84354,33.96969],[-119.8437,33.96959],[-119.84558,33.96902],[-119.84599,33.96871],[-119.84765,33.9681],[-119.84815,33.96769],[-119.84945,33.96781],[-119.85008,33.96808],[-119.85067,33.96813],[-119.85108,33.96881],[-119.85205,33.96972],[-119.8531,33.97027],[-119.85641,33.97251],[-119.85751,33.97367],[-119.85914,33.97469],[-119.86252,33.97758],[-119.86522,33.97918],[-119.86778,33.98021],[-119.87134,33.98069],[-119.87163,33.98069],[-119.87222,33.98019],[-119.87287,33.98045],[-119.87392,33.98],[-119.87423,33.98017],[-119.87422,33.98105],[-119.87509,33.98221],[-119.87618,33.98462],[-119.87698,33.9859],[-119.87695,33.9866],[-119.87746,33.98814],[-119.87798,33.98892],[-119.87885,33.98961],[-119.87903,33.99003],[-119.8794,33.99018],[-119.87943,33.99037],[-119.87903,33.99058],[-119.87952,33.99096],[-119.87993,33.99166],[-119.88084,33.99162],[-119.88137,33.99213],[-119.88149,33.99271],[-119.88097,33.99326],[-119.88149,33.99318],[-119.88151,33.99339],[-119.88132,33.99365],[-119.88099,33.99352],[-119.88071,33.99387],[-119.88089,33.99438],[-119.88127,33.99476],[-119.88093,33.99509],[-119.88107,33.99561],[-119.88173,33.9971],[-119.88285,33.99776],[-119.88263,33.99863],[-119.8833,33.99862],[-119.88339,33.99937],[-119.88391,33.99976],[-119.88285,33.9999],[-119.88269,34.00052],[-119.88325,34.00113],[-119.88394,34.00129],[-119.88447,34.00177],[-119.88456,34.00269],[-119.88505,34.00308],[-119.88474,34.00329],[-119.88561,34.00471],[-119.88562,34.00509],[-119.88511,34.0054],[-119.88534,34.00587],[-119.88595,34.00568],[-119.88601,34.00631],[-119.88586,34.00653],[-119.88604,34.00684],[-119.88619,34.00692],[-119.88653,34.00657],[-119.88664,34.00664],[-119.88726,34.00733],[-119.88739,34.00775],[-119.88691,34.0088],[-119.88707,34.009],[-119.88671,34.00943],[-119.88537,34.0088],[-119.88468,34.00905],[-119.88292,34.01129],[-119.88213,34.01304],[-119.88214,34.0133],[-119.88259,34.01381],[-119.88213,34.01465],[-119.88233,34.01569],[-119.8819,34.0161],[-119.88101,34.0163],[-119.87981,34.01723],[-119.8792,34.01834],[-119.87866,34.01983],[-119.87805,34.02068],[-119.87716,34.0234],[-119.87689,34.02371],[-119.87591,34.02799],[-119.87603,34.0312],[-119.87615,34.03202],[-119.87641,34.03252],[-119.87791,34.03368],[-119.87862,34.03378],[-119.87998,34.03456],[-119.87983,34.03481],[-119.88008,34.03507],[-119.88088,34.03524],[-119.8818,34.03595],[-119.8818,34.03651],[-119.88543,34.03737],[-119.88648,34.037],[-119.88668,34.03707],[-119.88674,34.0372],[-119.88634,34.03745],[-119.88661,34.03794],[-119.88634,34.03862],[-119.88654,34.03911],[-119.88626,34.04068],[-119.8864,34.04117],[-119.88712,34.04203],[-119.88765,34.0423],[-119.88831,34.04299],[-119.88947,34.04362],[-119.89062,34.04412],[-119.89134,34.0442],[-119.89268,34.04464],[-119.89282,34.04568],[-119.89455,34.04669],[-119.89534,34.04692],[-119.89567,34.04733],[-119.89748,34.04846],[-119.89733,34.04893],[-119.89745,34.0494],[-119.89941,34.05016],[-119.90083,34.05114],[-119.9027,34.05145],[-119.90378,34.0525],[-119.90512,34.05286],[-119.90575,34.05372],[-119.90647,34.05398],[-119.90694,34.05467],[-119.9074,34.05493],[-119.9087,34.05517],[-119.90888,34.05536],[-119.90881,34.05564],[-119.90901,34.05581],[-119.90936,34.05577],[-119.91003,34.05614],[-119.9105,34.05589],[-119.91139,34.05588],[-119.91259,34.05691],[-119.91416,34.05714],[-119.91538,34.05799],[-119.91641,34.05832],[-119.91799,34.05829],[-119.9203,34.05783],[-119.92124,34.05745],[-119.92205,34.05682],[-119.92341,34.05745],[-119.92436,34.05732],[-119.92476,34.05677],[-119.92529,34.05676],[-119.92545,34.05704],[-119.92691,34.05758],[-119.92687,34.05785],[-119.92662,34.05801],[-119.92706,34.05844],[-119.92705,34.05888],[-119.92747,34.05903],[-119.929,34.05906],[-119.92991,34.05967],[-119.9299,34.05989],[-119.9297,34.06007],[-119.9287,34.06016],[-119.92838,34.06038],[-119.92763,34.06014],[-119.92612,34.06036],[-119.9253,34.05975],[-119.9252,34.05987],[-119.92543,34.0601],[-119.92536,34.0603],[-119.92556,34.06073],[-119.9249,34.06079],[-119.92418,34.06049],[-119.92405,34.05973],[-119.92354,34.05949],[-119.92252,34.05969],[-119.92234,34.05993],[-119.92235,34.06028],[-119.92134,34.06029],[-119.92088,34.06003],[-119.92044,34.06019],[-119.92035,34.06045],[-119.92076,34.06129],[-119.92044,34.06157],[-119.91969,34.06178],[-119.91937,34.06242],[-119.91878,34.06267],[-119.91837,34.06309],[-119.91886,34.06389],[-119.919,34.06491],[-119.91885,34.06527],[-119.91949,34.06552],[-119.92037,34.06631],[-119.92157,34.06643],[-119.92192,34.06703],[-119.92256,34.06759],[-119.9224,34.06846],[-119.92339,34.0691],[-119.92346,34.06933],[-119.92306,34.06944],[-119.92233,34.06997],[-119.92135,34.07025],[-119.92177,34.07064],[-119.92178,34.07093],[-119.92133,34.07176],[-119.92129,34.07217],[-119.92061,34.07231],[-119.9207,34.07282],[-119.9197,34.07343],[-119.92053,34.07398],[-119.92006,34.0748],[-119.91955,34.07522],[-119.91863,34.07526],[-119.91791,34.07552],[-119.91793,34.0757],[-119.91867,34.07609],[-119.91859,34.07642],[-119.9192,34.07643],[-119.91931,34.07724],[-119.91802,34.07768],[-119.91667,34.07727],[-119.91365,34.07752],[-119.91306,34.07769],[-119.91228,34.07732],[-119.9121,34.0769],[-119.91171,34.07705],[-119.91107,34.07682],[-119.91146,34.07642],[-119.91023,34.0763],[-119.90796,34.0764],[-119.90754,34.07605],[-119.90808,34.0757],[-119.90806,34.07512],[-119.90715,34.07523],[-119.90617,34.07501],[-119.90494,34.07527],[-119.90385,34.07496],[-119.90373,34.07489],[-119.9038,34.07465],[-119.90189,34.07452],[-119.90209,34.07419],[-119.90052,34.07427],[-119.89977,34.07412],[-119.89941,34.07397],[-119.8995,34.07356],[-119.89924,34.0735],[-119.89694,34.07357],[-119.89695,34.07417],[-119.89602,34.07497],[-119.89427,34.07495],[-119.89351,34.07417],[-119.89365,34.07391],[-119.89431,34.07362],[-119.89416,34.07306],[-119.89381,34.07319],[-119.89313,34.07312],[-119.89252,34.07339],[-119.89155,34.07323],[-119.89099,34.07282],[-119.89097,34.073],[-119.89076,34.07308],[-119.89023,34.07295],[-119.88904,34.07329],[-119.88895,34.07399],[-119.88869,34.07411],[-119.88809,34.07389],[-119.88736,34.07393],[-119.88693,34.07421],[-119.88516,34.07354],[-119.88518,34.07436],[-119.88455,34.07407],[-119.88407,34.07404],[-119.88382,34.07428],[-119.88386,34.0748],[-119.88311,34.07491],[-119.8823,34.07478],[-119.88236,34.07445],[-119.88266,34.07415],[-119.88203,34.07366],[-119.88207,34.07331],[-119.8819,34.07316],[-119.88204,34.0726],[-119.8816,34.07272],[-119.88108,34.07261],[-119.88024,34.0733],[-119.88012,34.07301],[-119.87993,34.07296],[-119.87905,34.07334],[-119.87793,34.07321],[-119.87781,34.07353],[-119.87712,34.07407],[-119.87672,34.07419],[-119.87592,34.07368],[-119.87597,34.07333],[-119.87539,34.07247],[-119.87512,34.07248],[-119.87497,34.07278],[-119.87447,34.07277],[-119.87378,34.07315],[-119.87326,34.07283],[-119.87317,34.07211],[-119.87202,34.07204],[-119.87074,34.07139],[-119.86951,34.07174],[-119.86878,34.07136],[-119.86835,34.07142],[-119.86781,34.07174],[-119.86666,34.07144],[-119.8664,34.07123],[-119.86643,34.0709],[-119.86564,34.07099],[-119.86536,34.07077],[-119.86563,34.07019],[-119.86538,34.06974],[-119.86429,34.07034],[-119.86299,34.07141],[-119.86164,34.07185],[-119.8605,34.07124],[-119.86043,34.07031],[-119.86027,34.07036],[-119.8599,34.0711],[-119.85944,34.07134],[-119.85887,34.07141],[-119.85786,34.07102],[-119.85736,34.07138],[-119.85519,34.06997],[-119.85391,34.06976],[-119.853,34.06937],[-119.85149,34.06941],[-119.8513,34.06894],[-119.85171,34.06864],[-119.85183,34.06832],[-119.85092,34.06806],[-119.85087,34.06748],[-119.84917,34.06715],[-119.84781,34.06718],[-119.84741,34.06698],[-119.84656,34.06727],[-119.84471,34.06638],[-119.84412,34.06633],[-119.8437,34.06578],[-119.8428,34.06569],[-119.84239,34.06536],[-119.84133,34.06505],[-119.84084,34.06472],[-119.83937,34.06486],[-119.83844,34.06518],[-119.83655,34.06441],[-119.83584,34.06379],[-119.83414,34.06318],[-119.83345,34.06251],[-119.83234,34.06261],[-119.83195,34.06202],[-119.8313,34.06151],[-119.82986,34.06082],[-119.83004,34.05913],[-119.82909,34.05939],[-119.82915,34.05871],[-119.82849,34.05894],[-119.82796,34.05947],[-119.82701,34.05941],[-119.82613,34.0598],[-119.82564,34.05983],[-119.82546,34.05918],[-119.82489,34.05897],[-119.82551,34.05779],[-119.82369,34.05788],[-119.82359,34.05755],[-119.82371,34.0571],[-119.82301,34.05668],[-119.82309,34.05628],[-119.82247,34.05624],[-119.82194,34.05576],[-119.8215,34.05595],[-119.82124,34.05577],[-119.82132,34.05513],[-119.82085,34.05491],[-119.82069,34.05439],[-119.82023,34.05397],[-119.81972,34.05405],[-119.81925,34.05379],[-119.81918,34.05353],[-119.81872,34.05322],[-119.81863,34.05263],[-119.81748,34.05235],[-119.81683,34.05255],[-119.8165,34.05292],[-119.81639,34.05275],[-119.81603,34.05284],[-119.81589,34.053],[-119.81638,34.0542],[-119.81629,34.05441],[-119.8153,34.05405],[-119.81484,34.05365],[-119.81395,34.05357],[-119.81357,34.05313],[-119.81227,34.05293],[-119.81184,34.05244],[-119.81123,34.05218],[-119.81061,34.0513],[-119.81009,34.05095],[-119.80964,34.05127],[-119.80923,34.05116],[-119.80859,34.05169],[-119.80796,34.05173],[-119.80739,34.05238],[-119.80565,34.05345],[-119.80508,34.05334],[-119.80495,34.05239],[-119.80452,34.05271],[-119.80409,34.0525],[-119.80448,34.0533],[-119.8039,34.05379],[-119.80328,34.05387],[-119.80142,34.05326],[-119.80038,34.05327],[-119.80001,34.05343],[-119.79951,34.05398],[-119.79845,34.05443],[-119.79751,34.05544],[-119.79695,34.05567],[-119.79658,34.05607],[-119.79653,34.0564],[-119.79724,34.05645],[-119.79778,34.05701],[-119.79771,34.05715],[-119.79711,34.05677],[-119.79666,34.05697],[-119.79612,34.05698],[-119.79578,34.05668],[-119.79469,34.05648],[-119.79292,34.05643],[-119.79238,34.0567],[-119.79023,34.05707],[-119.78984,34.05742],[-119.78959,34.05741],[-119.7895,34.05716],[-119.79003,34.05672],[-119.78907,34.05687],[-119.78859,34.05642],[-119.7891,34.05577],[-119.78919,34.05533],[-119.78908,34.05517],[-119.78858,34.05515],[-119.78826,34.05573],[-119.7876,34.05591],[-119.7872,34.05638],[-119.78703,34.05614],[-119.78709,34.05561],[-119.78691,34.05509],[-119.78676,34.05525],[-119.78648,34.05513],[-119.78648,34.05531],[-119.78656,34.05623],[-119.78689,34.05666],[-119.78681,34.05764],[-119.78647,34.0577],[-119.78617,34.0575],[-119.78573,34.05777],[-119.78482,34.05754],[-119.78434,34.05679],[-119.78425,34.05635],[-119.78412,34.05632],[-119.78364,34.05671],[-119.78306,34.05653],[-119.78273,34.05621],[-119.78066,34.0559],[-119.77925,34.05627],[-119.77758,34.05617],[-119.7761,34.05627],[-119.77496,34.05583],[-119.77411,34.05596],[-119.77369,34.05573],[-119.77168,34.0553],[-119.76921,34.05505],[-119.76816,34.05546],[-119.76812,34.05629],[-119.76726,34.05652],[-119.76746,34.0569],[-119.76662,34.05726],[-119.76614,34.05725],[-119.76602,34.05711],[-119.76604,34.05676],[-119.76625,34.05651],[-119.76603,34.05599],[-119.76603,34.05547],[-119.76588,34.05542],[-119.76526,34.05572],[-119.76465,34.05675],[-119.76397,34.05685],[-119.76362,34.05709],[-119.76334,34.05783],[-119.76298,34.05809],[-119.76218,34.05805],[-119.7604,34.05834],[-119.75933,34.05883],[-119.75854,34.0589],[-119.75799,34.05867],[-119.75757,34.05817],[-119.75802,34.05721],[-119.75741,34.05706],[-119.75741,34.05689],[-119.75632,34.05755],[-119.7558,34.05727],[-119.75527,34.05668],[-119.75558,34.05634],[-119.75545,34.05601],[-119.75574,34.05542],[-119.75516,34.05501],[-119.75491,34.05408],[-119.75536,34.05352],[-119.75587,34.05332],[-119.75583,34.05304],[-119.75548,34.05286],[-119.7547,34.05285],[-119.75296,34.05352],[-119.75174,34.05373],[-119.75092,34.0525],[-119.75096,34.052],[-119.75053,34.05228],[-119.7504,34.05287],[-119.7501,34.05324],[-119.74945,34.05355],[-119.74921,34.0532],[-119.74778,34.05324],[-119.74758,34.05275],[-119.74723,34.05251],[-119.74798,34.05154],[-119.74784,34.05081],[-119.74704,34.05099],[-119.74602,34.05168],[-119.74549,34.05132],[-119.7419,34.05092],[-119.74171,34.0508],[-119.74114,34.04961],[-119.74095,34.04954],[-119.74056,34.04998],[-119.74023,34.05009],[-119.74004,34.04988],[-119.74035,34.04965],[-119.74035,34.04937],[-119.73951,34.0495],[-119.73945,34.04914],[-119.73864,34.04833],[-119.73845,34.04765],[-119.73882,34.04733],[-119.73878,34.04708],[-119.73723,34.04711],[-119.73557,34.04625],[-119.73359,34.04611],[-119.73311,34.04625],[-119.73246,34.0468],[-119.73193,34.04675],[-119.73165,34.04736],[-119.73141,34.04714],[-119.73114,34.04715],[-119.73083,34.04811],[-119.73048,34.04829],[-119.72982,34.04778],[-119.72952,34.04818],[-119.7284,34.04788],[-119.72732,34.04818],[-119.72706,34.04797],[-119.7267,34.04809],[-119.72661,34.04795],[-119.72628,34.04803],[-119.72604,34.04789],[-119.72613,34.04735],[-119.72521,34.04719],[-119.72454,34.0468],[-119.72426,34.04655],[-119.72415,34.04599],[-119.72385,34.04591],[-119.72322,34.04611],[-119.7229,34.04589],[-119.72278,34.04577],[-119.72297,34.04524],[-119.72348,34.04463],[-119.72181,34.04508],[-119.72103,34.04481],[-119.7209,34.04448],[-119.72098,34.04412],[-119.72023,34.04494],[-119.71941,34.04488],[-119.71877,34.04455],[-119.71814,34.04482],[-119.71753,34.04454],[-119.71763,34.04366],[-119.71716,34.0434],[-119.7155,34.04429],[-119.71531,34.04419],[-119.71535,34.04404],[-119.7161,34.04298],[-119.71606,34.04261],[-119.71332,34.04346],[-119.71236,34.04339],[-119.71082,34.04236],[-119.71099,34.04167],[-119.7108,34.04152],[-119.7108,34.041],[-119.71063,34.04076],[-119.71007,34.04053],[-119.7093,34.04069],[-119.70825,34.04006],[-119.70824,34.03983],[-119.70758,34.03981],[-119.70739,34.03965],[-119.70673,34.03879],[-119.70684,34.03848],[-119.7073,34.03819],[-119.70708,34.03819],[-119.70679,34.03786],[-119.70621,34.03841],[-119.70546,34.03841],[-119.70524,34.03826],[-119.70524,34.03696],[-119.70487,34.03721],[-119.70465,34.03776],[-119.70437,34.03788],[-119.70414,34.03771],[-119.70405,34.03729],[-119.703,34.03697],[-119.7029,34.03632],[-119.70323,34.03581],[-119.70378,34.03403],[-119.70351,34.03319],[-119.70235,34.03239],[-119.70168,34.03241],[-119.70133,34.03257],[-119.70089,34.03325],[-119.70061,34.03338],[-119.70057,34.03239],[-119.69977,34.03242],[-119.69959,34.03205],[-119.69881,34.03169],[-119.6987,34.03111],[-119.69822,34.03095],[-119.6971,34.02986],[-119.69593,34.02977],[-119.69578,34.02958],[-119.69579,34.02896],[-119.69505,34.02917],[-119.69373,34.02889],[-119.69317,34.02932],[-119.69239,34.02886],[-119.69219,34.02866],[-119.69227,34.02839],[-119.69112,34.02764],[-119.68982,34.02637],[-119.68964,34.02596],[-119.68976,34.02534],[-119.68911,34.02509],[-119.68894,34.0242],[-119.68859,34.02387],[-119.68859,34.02351],[-119.68805,34.02295],[-119.68807,34.02216],[-119.68741,34.02169],[-119.68741,34.02115],[-119.68711,34.02092],[-119.68704,34.02058],[-119.6866,34.0205],[-119.68674,34.01982],[-119.68388,34.01953],[-119.68087,34.02001],[-119.6789,34.02011],[-119.67803,34.02006],[-119.67668,34.0197],[-119.67595,34.01933],[-119.67345,34.01955],[-119.67272,34.0191],[-119.67228,34.01903],[-119.67204,34.01862],[-119.67119,34.01853],[-119.67049,34.01824],[-119.6703,34.01809],[-119.67001,34.01728],[-119.66968,34.01697],[-119.66827,34.01661],[-119.6661,34.01654],[-119.66558,34.01668],[-119.66444,34.01665],[-119.6633,34.01694],[-119.66235,34.01743],[-119.66143,34.01752],[-119.65933,34.0185],[-119.65846,34.01912],[-119.65796,34.01913],[-119.65711,34.01859],[-119.6555,34.01918],[-119.65513,34.01978],[-119.65474,34.01992],[-119.65384,34.01987],[-119.65276,34.0186],[-119.65149,34.01791],[-119.65137,34.01757],[-119.65171,34.01735],[-119.65175,34.0171],[-119.65169,34.01605],[-119.6512,34.01549],[-119.6492,34.01523],[-119.64823,34.01535],[-119.64772,34.01578],[-119.6471,34.01584],[-119.64648,34.01527],[-119.64586,34.01533],[-119.6455,34.01563],[-119.64506,34.01534],[-119.64475,34.01534],[-119.64418,34.01623],[-119.64383,34.01608],[-119.64367,34.01654],[-119.64316,34.01674],[-119.64183,34.01626],[-119.64108,34.01634],[-119.64072,34.01576],[-119.64017,34.01543],[-119.63928,34.01551],[-119.63952,34.01498],[-119.63902,34.0145],[-119.63882,34.01388],[-119.63842,34.01352],[-119.6376,34.01321],[-119.63513,34.01376],[-119.63313,34.01356],[-119.63106,34.01365],[-119.62911,34.01462],[-119.62666,34.0151],[-119.62481,34.01636],[-119.62365,34.01677],[-119.62256,34.01676],[-119.62158,34.0162],[-119.62073,34.01611],[-119.61847,34.01672],[-119.61642,34.01797],[-119.61471,34.01938],[-119.61397,34.02022],[-119.61151,34.02183],[-119.611,34.02253],[-119.60947,34.02379],[-119.60874,34.02484],[-119.60613,34.02781],[-119.60476,34.02983],[-119.60419,34.03169],[-119.60423,34.03207],[-119.60517,34.03286],[-119.6067,34.03357],[-119.60841,34.03509],[-119.60927,34.03608],[-119.60914,34.03661],[-119.60882,34.0368],[-119.60926,34.03733],[-119.60904,34.03761],[-119.60832,34.03755],[-119.60709,34.03801],[-119.60696,34.0384],[-119.60704,34.03879],[-119.6062,34.03912],[-119.60591,34.03943],[-119.60639,34.03937],[-119.60755,34.03973],[-119.6078,34.04096],[-119.60736,34.04089],[-119.60674,34.04042],[-119.60442,34.0406],[-119.60411,34.04102],[-119.60263,34.04145],[-119.60242,34.04167],[-119.60088,34.04353],[-119.60078,34.04435],[-119.59992,34.04433],[-119.59931,34.04462],[-119.59792,34.04455],[-119.59627,34.04486],[-119.59571,34.04515],[-119.59534,34.04568],[-119.59594,34.04663],[-119.59582,34.04702],[-119.59594,34.0471],[-119.59463,34.04836],[-119.59578,34.04836],[-119.59508,34.04892],[-119.59451,34.0488],[-119.59435,34.04866],[-119.59454,34.04834],[-119.59409,34.04837],[-119.59361,34.04781],[-119.59347,34.04778],[-119.59325,34.04817],[-119.59286,34.04748],[-119.5918,34.04711],[-119.59122,34.04714],[-119.59076,34.04695],[-119.59032,34.04703],[-119.5901,34.04751],[-119.59009,34.04834],[-119.592,34.04893],[-119.59332,34.04953],[-119.59168,34.04925],[-119.59086,34.04939],[-119.58953,34.04899],[-119.58796,34.049],[-119.58757,34.0492],[-119.58748,34.0496],[-119.58784,34.04992],[-119.58792,34.0506],[-119.58887,34.0511],[-119.58923,34.05152],[-119.58877,34.05159],[-119.58698,34.05135],[-119.58591,34.05236],[-119.58554,34.0523],[-119.58536,34.0527],[-119.58439,34.05344],[-119.5837,34.05331],[-119.58338,34.05304],[-119.58315,34.05255],[-119.58178,34.05185],[-119.58097,34.05091],[-119.57936,34.05082],[-119.57827,34.05048],[-119.57734,34.05057],[-119.57711,34.05036],[-119.57575,34.0502],[-119.57525,34.04984],[-119.57334,34.05022],[-119.57319,34.05069],[-119.57331,34.05095],[-119.57277,34.05123],[-119.57275,34.05159],[-119.57242,34.05166],[-119.57287,34.05215],[-119.57264,34.05205],[-119.57209,34.05252],[-119.57131,34.05232],[-119.57116,34.05211],[-119.56955,34.05205],[-119.56821,34.05225],[-119.56687,34.05179],[-119.56652,34.05294],[-119.56676,34.05336],[-119.56636,34.05404],[-119.56537,34.05458],[-119.56523,34.05504],[-119.56491,34.05534],[-119.5642,34.05529],[-119.56337,34.05588],[-119.5627,34.0557],[-119.56279,34.05542],[-119.56255,34.05528],[-119.56215,34.05538],[-119.56175,34.055],[-119.56196,34.05466],[-119.56193,34.05439],[-119.56156,34.054],[-119.56007,34.05356],[-119.55953,34.05359],[-119.55859,34.05297],[-119.55777,34.05271],[-119.55759,34.05208],[-119.55654,34.05136],[-119.55664,34.05072],[-119.55623,34.05018],[-119.55644,34.04963],[-119.55611,34.049],[-119.55549,34.04858],[-119.55419,34.04814],[-119.55182,34.04773],[-119.55156,34.04746],[-119.55165,34.04729],[-119.55145,34.04676],[-119.55104,34.04654],[-119.54938,34.04657],[-119.54864,34.04634],[-119.54853,34.04609],[-119.54773,34.04626],[-119.5473,34.04594],[-119.54736,34.04512],[-119.54713,34.04497],[-119.54702,34.04526],[-119.54632,34.04484],[-119.54638,34.04427],[-119.54583,34.04397],[-119.54463,34.04386],[-119.54447,34.04365],[-119.54437,34.04397],[-119.54405,34.04407],[-119.54226,34.04396],[-119.54071,34.04447],[-119.53903,34.0438],[-119.53831,34.04371],[-119.53769,34.0432],[-119.53641,34.04295],[-119.53509,34.04231],[-119.534,34.04223],[-119.53348,34.04245],[-119.53301,34.04239],[-119.53212,34.04185],[-119.53109,34.04184],[-119.53056,34.04137],[-119.5294,34.04122],[-119.52921,34.04086],[-119.52963,34.04027],[-119.5286,34.04004],[-119.52789,34.03957],[-119.52727,34.03951],[-119.52681,34.03884],[-119.5271,34.03839],[-119.52701,34.03818],[-119.52505,34.03711],[-119.52511,34.03665],[-119.52443,34.03672],[-119.52474,34.03628],[-119.52461,34.03593],[-119.52421,34.03555],[-119.52367,34.03527],[-119.52276,34.03518],[-119.52273,34.03501],[-119.52234,34.03484],[-119.52121,34.03461],[-119.52073,34.03419],[-119.52028,34.03412],[-119.52093,34.03387],[-119.5215,34.03297],[-119.52175,34.03285],[-119.52177,34.03266],[-119.52135,34.03258],[-119.52232,34.03212],[-119.52254,34.03161],[-119.52292,34.03175],[-119.5233,34.03151],[-119.52333,34.03131],[-119.52283,34.0308],[-119.52325,34.03026],[-119.52361,34.03044],[-119.52392,34.03094],[-119.52435,34.031],[-119.52526,34.03026],[-119.52579,34.0301],[-119.52594,34.02913],[-119.52618,34.02879],[-119.52678,34.02878],[-119.52743,34.02843],[-119.52766,34.02801],[-119.52744,34.02734],[-119.52773,34.02679],[-119.52762,34.02636],[-119.52785,34.02638],[-119.52812,34.02667],[-119.52934,34.0265],[-119.52963,34.02661],[-119.52989,34.0262],[-119.53021,34.02619],[-119.53038,34.02634],[-119.53068,34.02606],[-119.53227,34.02537],[-119.53238,34.02528],[-119.53216,34.02514],[-119.53247,34.0249],[-119.53262,34.02507],[-119.53412,34.02446],[-119.53519,34.02446],[-119.53586,34.02427],[-119.53675,34.02446],[-119.53892,34.02408],[-119.54125,34.02236],[-119.54301,34.0205],[-119.54366,34.01946],[-119.54396,34.01866],[-119.54409,34.01759],[-119.54395,34.01691],[-119.54322,34.01571],[-119.54263,34.01528],[-119.54254,34.01491],[-119.54359,34.01462],[-119.54558,34.01293],[-119.54734,34.01115],[-119.5482,34.00941],[-119.54817,34.00905],[-119.54753,34.00825],[-119.54735,34.0072],[-119.5469,34.00655],[-119.54684,34.00598],[-119.54705,34.00545],[-119.54751,34.00508],[-119.54864,34.0046],[-119.54967,34.00357],[-119.55259,34.00122],[-119.55412,33.99915],[-119.5548,33.99783],[-119.55886,33.99686],[-119.55952,33.99587],[-119.55978,33.99576],[-119.56209,33.99575],[-119.5638,33.99519],[-119.56424,33.99523],[-119.56479,33.99563],[-119.56563,33.9959],[-119.56855,33.99628],[-119.56992,33.99626],[-119.57154,33.99591],[-119.57229,33.99598],[-119.57259,33.99617],[-119.57439,33.99633],[-119.57612,33.99611],[-119.57736,33.99551],[-119.57822,33.99445],[-119.57959,33.99384],[-119.58049,33.99398],[-119.58163,33.99377],[-119.58288,33.99293],[-119.58453,33.99295],[-119.58558,33.9924],[-119.58707,33.99201],[-119.58912,33.99079],[-119.58988,33.99014],[-119.59025,33.98973],[-119.59034,33.98913],[-119.59055,33.98896],[-119.5926,33.98914],[-119.59437,33.98904],[-119.59567,33.98927],[-119.59684,33.98864],[-119.59729,33.98862],[-119.59788,33.98893],[-119.59868,33.98905],[-119.59998,33.98847],[-119.60141,33.98846],[-119.603,33.98879],[-119.60406,33.98841],[-119.60466,33.98838],[-119.60551,33.98879],[-119.60748,33.98878],[-119.6093,33.98854],[-119.61025,33.98801],[-119.61131,33.98791],[-119.61262,33.9875],[-119.61333,33.98706],[-119.61449,33.98753],[-119.61563,33.9874],[-119.61625,33.98771],[-119.61889,33.98739],[-119.6194,33.98761],[-119.61962,33.98835],[-119.62,33.98876],[-119.62119,33.98898],[-119.62399,33.98886],[-119.62474,33.98864],[-119.62557,33.98813],[-119.62759,33.98838],[-119.6284,33.98831],[-119.63124,33.98773],[-119.63314,33.9871],[-119.6355,33.9873],[-119.63695,33.98767],[-119.63827,33.98748],[-119.63971,33.98693],[-119.64109,33.98746],[-119.64408,33.98802],[-119.64526,33.98794],[-119.64638,33.98759],[-119.64767,33.98774],[-119.64926,33.98747],[-119.65214,33.98784],[-119.65405,33.98769],[-119.65609,33.98707],[-119.65652,33.98685],[-119.65683,33.98644],[-119.65753,33.9862],[-119.65983,33.9863],[-119.66129,33.98588],[-119.66297,33.98568],[-119.66474,33.98514],[-119.66566,33.98446],[-119.66556,33.98405],[-119.66567,33.98388],[-119.66749,33.98369],[-119.66846,33.98262],[-119.66856,33.9823]]]},"properties":{"name":"santa-cruz-island"}},{"type":"Feature","geometry":{"type":"Polygon","coordinates":[[[-120.00275,33.98002],[-119.99783,33.98094],[-119.99578,33.9819],[-119.99561,33.9818],[-119.99454,33.9821],[-119.99198,33.98193],[-119.98689,33.98333],[-119.98322,33.98356],[-119.98068,33.98311],[-119.97753,33.98133],[-119.97778,33.9807],[-119.97835,33.98023],[-119.97919,33.97898],[-119.97978,33.97748],[-119.97986,33.97595],[-119.97948,33.97361],[-119.97977,33.96944],[-119.97962,33.96857],[-119.97896,33.96743],[-119.97866,33.96724],[-119.97811,33.96742],[-119.97772,33.96696],[-119.97826,33.96337],[-119.97799,33.96227],[-119.97692,33.96058],[-119.97718,33.95876],[-119.97705,33.95753],[-119.97626,33.95612],[-119.97442,33.95552],[-119.97278,33.95447],[-119.97075,33.95166],[-119.97009,33.9512],[-119.9709,33.95058],[-119.97119,33.94976],[-119.9712,33.9459],[-119.97106,33.94505],[-119.97035,33.94409],[-119.96829,33.94324],[-119.96778,33.94264],[-119.96926,33.94193],[-119.97023,33.94206],[-119.97054,33.94192],[-119.97057,33.94162],[-119.97139,33.94208],[-119.97177,33.94213],[-119.97207,33.94196],[-119.97344,33.94244],[-119.97396,33.94233],[-119.97446,33.9418],[-119.97652,33.94223],[-119.977,33.94261],[-119.98247,33.9424],[-119.98409,33.94253],[-119.99165,33.9424],[-119.99585,33.94218],[-119.99988,33.94178],[-120.0038038807576,33.94093775286769],[-120.0038038807576,33.979931789716325],[-120.00275,33.98002]]]},"properties":{"name":"santa-rosa-island"}},{"type":"Feature","geometry":{"type":"Polygon","coordinates":[[[-119.82486,33.95081],[-119.8246,33.95028],[-119.82507,33.95023],[-119.82552,33.94968],[-119.82576,33.94964],[-119.82601,33.9499],[-119.82582,33.95029],[-119.82625,33.95024],[-119.82634,33.95035],[-119.82607,33.95047],[-119.82599,33.95071],[-119.82486,33.95081]]]},"properties":{"name":"unnamed-land"}},{"type":"Feature","geometry":{"type":"Polygon","coordinates":[[[-119.548,34.04759],[-119.54805,34.04778],[-119.54721,34.048],[-119.54627,34.04758],[-119.54648,34.04706],[-119.54713,34.04709],[-119.548,34.04759]]]},"properties":{"name":"unnamed-land"}}]}