{"type":"FeatureCollection","features":[{"type":"Feature","geometry":{"type":"Polygon","coordinates":[[[-119.967,33.983],[-119.967,33.952],[-119.971,33.952],[-119.971,33.952],[-119.971,33.952],[-119.971,33.952],[-119.971,33.952],[-119.971,33.952],[-119.971,33.952],[-119.971,33.953],[-119.971,33.953],[-119.972,33.953],[-119.972,33.953],[-119.972,33.953],[-119.972,33.953],[-119.972,33.953],[-119.972,33.953],[-119.972,33.953],[-119.972,33.953],[-119.972,33.953],[-119.972,33.954],[-119.972,33.954],[-119.972,33.954],[-119.972,33.954],[-119.972,33.954],[-119.973,33.954],[-119.973,33.954],[-119.973,33.954],[-119.973,33.954],[-119.973,33.954],[-119.973,33.954],[-119.973,33.955],[-119.973,33.955],[-119.973,33.955],[-119.973,33.955],[-119.973,33.955],[-119.973,33.955],[-119.973,33.955],[-119.974,33.955],[-119.974,33.955],[-119.974,33.955],[-119.974,33.955],[-119.974,33.955],[-119.974,33.955],[-119.974,33.955],[-119.974,33.955],[-119.974,33.955],[-119.975,33.956],[-119.975,33.956],[-119.975,33.956],[-119.975,33.956],[-119.975,33.956],[-119.975,33.956],[-119.975,33.956],[-119.975,33.956],[-119.975,33.956],[-119.975,33.956],[-119.975,33.956],[-119.975,33.956],[-119.976,33.956],[-119.976,33.956],[-119.976,33.956],[-119.976,33.956],[-119.976,33.956],[-119.976,33.956],[-119.976,33.956],[-119.977,33.956],[-119.977,33.956],[-119.977,33.956],[-119.977,33.957],[-119.977,33.957],[-119.978,33.957],[-119.978,33.958],[-119.978,33.958],[-119.978,33.959],[-119.978,33.959],[-119.978,33.959],[-119.978,33.959],[-119.978,33.959],[-119.977,33.959],[-119.978,33.959],[-119.978,33.959],[-119.978,33.959],[-119.978,33.959],[-119.977,33.96],[-119.977,33.96],[-119.977,33.96],[-119.977,33.96],[-119.977,33.961],[-119.977,33.961],[-119.978,33.961],[-119.978,33.961],[-119.978,33.961],[-119.978,33.961],[-119.978,33.961],[-119.978,33.962],[-119.978,33.962],[-119.978,33.962],[-119.978,33.962],[-119.979,33.962],[-119.979,33.963],[-119.979,33.964],[-119.979,33.964],[-119.979,33.965],[-119.979,33.965],[-119.979,33.966],[-119.979,33.966],[-119.978,33.966],[-119.978,33.966],[-119.978,33.966],[-119.978,33.966],[-119.978,33.966],[-119.978,33.966],[-119.978,33.966],[-119.978,33.967],[-119.978,33.967],[-119.978,33.967],[-119.978,33.967],[-119.978,33.967],[-119.978,33.967],[-119.978,33.967],[-119.978,33.967],[-119.979,33.967],[-119.979,33.967],[-119.979,33.967],[-119.979,33.967],[-119.979,33.967],[-119.98,33.967],[-119.98,33.968],[-119.98,33.968],[-119.98,33.969],[-119.98,33.97],[-119.98,33.971],[-119.98,33.971],[-119.98,33.972],[-119.98,33.973],[-119.98,33.973],[-119.98,33.974],[-119.98,33.975],[-119.98,33.976],[-119.98,33.976],[-119.981,33.977],[-119.98,33.978],[-119.98,33.979],[-119.98,33.979],[-119.979,33.98],[-119.979,33.981],[-119.979,33.981],[-119.979,33.982],[-119.98,33.982],[-119.981,33.983],[-119.982,33.983],[-119.983,33.983],[-119.983,33.983],[-119.98,33.983],[-119.967,33.983]]]},"properties":{"id":"skunk-point-state-marine-reserve","name":"Skunk Point State Marine Reserve","type":"SMR","shortName":"Skunk Point","areaKm2":null,"ccrCitation":null}},{"type":"Feature","geometry":{"type":"Polygon","coordinates":[[[-119.85,34.083],[-119.85,34.067],[-119.85,34.067],[-119.85,34.067],[-119.85,34.067],[-119.85,34.067],[-119.851,34.067],[-119.851,34.067],[-119.851,34.067],[-119.851,34.067],[-119.851,34.067],[-119.851,34.067],[-119.851,34.067],[-119.851,34.068],[-119.851,34.068],[-119.851,34.068],[-119.851,34.068],[-119.851,34.068],[-119.851,34.068],[-119.851,34.068],[-119.851,34.068],[-119.851,34.068],[-119.851,34.068],[-119.851,34.068],[-119.851,34.068],[-119.851,34.068],[-119.851,34.068],[-119.851,34.068],[-119.851,34.068],[-119.851,34.068],[-119.851,34.068],[-119.851,34.068],[-119.851,34.068],[-119.851,34.068],[-119.851,34.068],[-119.851,34.068],[-119.851,34.068],[-119.851,34.068],[-119.851,34.068],[-119.851,34.068],[-119.852,34.068],[-119.852,34.068],[-119.852,34.068],[-119.852,34.068],[-119.852,34.068],[-119.852,34.068],[-119.852,34.068],[-119.852,34.068],[-119.852,34.069],[-119.852,34.069],[-119.852,34.069],[-119.852,34.069],[-119.852,34.069],[-119.852,34.069],[-119.852,34.069],[-119.851,34.069],[-119.851,34.069],[-119.852,34.069],[-119.852,34.069],[-119.852,34.069],[-119.852,34.069],[-119.852,34.07],[-119.852,34.07],[-119.852,34.07],[-119.852,34.069],[-119.852,34.069],[-119.852,34.069],[-119.853,34.069],[-119.853,34.069],[-119.853,34.069],[-119.853,34.069],[-119.853,34.069],[-119.853,34.069],[-119.853,34.069],[-119.853,34.069],[-119.853,34.069],[-119.853,34.069],[-119.854,34.07],[-119.854,34.07],[-119.854,34.07],[-119.854,34.07],[-119.854,34.07],[-119.854,34.07],[-119.854,34.07],[-119.854,34.07],[-119.854,34.07],[-119.854,34.07],[-119.854,34.07],[-119.855,34.07],[-119.855,34.07],[-119.855,34.07],[-119.855,34.07],[-119.855,34.07],[-119.855,34.07],[-119.855,34.07],[-119.855,34.07],[-119.856,34.07],[-119.856,34.07],[-119.856,34.07],[-119.856,34.07],[-119.856,34.07],[-119.856,34.07],[-119.856,34.07],[-119.856,34.07],[-119.856,34.071],[-119.856,34.071],[-119.856,34.071],[-119.856,34.071],[-119.856,34.071],[-119.856,34.071],[-119.856,34.071],[-119.856,34.071],[-119.857,34.071],[-119.857,34.071],[-119.857,34.071],[-119.857,34.071],[-119.857,34.071],[-119.857,34.071],[-119.857,34.071],[-119.857,34.071],[-119.857,34.071],[-119.857,34.071],[-119.857,34.071],[-119.857,34.071],[-119.857,34.071],[-119.857,34.071],[-119.857,34.071],[-119.858,34.071],[-119.858,34.071],[-119.858,34.071],[-119.858,34.071],[-119.858,34.071],[-119.858,34.071],[-119.858,34.071],[-119.858,34.071],[-119.858,34.071],[-119.858,34.071],[-119.858,34.071],[-119.858,34.071],[-119.859,34.071],[-119.859,34.071],[-119.859,34.071],[-119.859,34.071],[-119.859,34.071],[-119.859,34.071],[-119.859,34.071],[-119.86,34.071],[-119.86,34.071],[-119.86,34.071],[-119.86,34.071],[-119.86,34.071],[-119.86,34.071],[-119.86,34.071],[-119.86,34.071],[-119.86,34.071],[-119.86,34.071],[-119.86,34.071],[-119.86,34.07],[-119.86,34.07],[-119.86,34.07],[-119.86,34.07],[-119.86,34.07],[-119.86,34.07],[-119.86,34.07],[-119.861,34.07],[-119.861,34.071],[-119.861,34.071],[-119.861,34.071],[-119.861,34.071],[-119.861,34.071],[-119.861,34.071],[-119.861,34.071],[-119.861,34.071],[-119.861,34.071],[-119.861,34.071],[-119.861,34.071],[-119.861,34.071],[-119.861,34.072],[-119.861,34.072],[-119.861,34.072],[-119.861,34.072],[-119.861,34.072],[-119.861,34.072],[-119.861,34.072],[-119.861,34.072],[-119.861,34.072],[-119.861,34.072],[-119.862,34.072],[-119.862,34.072],[-119.862,34.072],[-119.862,34.072],[-119.862,34.072],[-119.862,34.072],[-119.862,34.072],[-119.862,34.072],[-119.863,34.072],[-119.863,34.072],[-119.863,34.072],[-119.863,34.071],[-119.863,34.071],[-119.863,34.071],[-119.863,34.071],[-119.863,34.071],[-119.863,34.071],[-119.863,34.071],[-119.863,34.071],[-119.863,34.071],[-119.864,34.071],[-119.864,34.071],[-119.864,34.071],[-119.864,34.071],[-119.864,34.07],[-119.864,34.07],[-119.864,34.07],[-119.864,34.07],[-119.865,34.07],[-119.865,34.07],[-119.865,34.07],[-119.865,34.07],[-119.865,34.07],[-119.865,34.07],[-119.865,34.07],[-119.865,34.07],[-119.865,34.07],[-119.865,34.07],[-119.865,34.07],[-119.865,34.07],[-119.865,34.07],[-119.865,34.069],[-119.865,34.069],[-119.865,34.069],[-119.865,34.069],[-119.865,34.069],[-119.865,34.069],[-119.866,34.069],[-119.866,34.07],[-119.866,34.07],[-119.865,34.07],[-119.865,34.07],[-119.865,34.07],[-119.866,34.07],[-119.866,34.07],[-119.866,34.07],[-119.866,34.07],[-119.866,34.07],[-119.866,34.07],[-119.866,34.07],[-119.866,34.07],[-119.866,34.07],[-119.866,34.07],[-119.866,34.07],[-119.866,34.07],[-119.866,34.071],[-119.866,34.071],[-119.866,34.071],[-119.866,34.071],[-119.866,34.071],[-119.866,34.071],[-119.866,34.071],[-119.866,34.071],[-119.866,34.071],[-119.866,34.071],[-119.866,34.071],[-119.866,34.071],[-119.866,34.071],[-119.866,34.071],[-119.866,34.071],[-119.866,34.071],[-119.866,34.071],[-119.866,34.071],[-119.866,34.071],[-119.866,34.071],[-119.866,34.071],[-119.866,34.071],[-119.867,34.071],[-119.867,34.071],[-119.867,34.071],[-119.867,34.071],[-119.867,34.071],[-119.867,34.071],[-119.867,34.071],[-119.867,34.071],[-119.867,34.071],[-119.867,34.071],[-119.867,34.071],[-119.867,34.071],[-119.867,34.071],[-119.867,34.071],[-119.867,34.071],[-119.867,34.071],[-119.867,34.071],[-119.867,34.072],[-119.867,34.072],[-119.867,34.072],[-119.867,34.072],[-119.867,34.072],[-119.867,34.072],[-119.867,34.072],[-119.867,34.072],[-119.868,34.072],[-119.868,34.072],[-119.868,34.072],[-119.868,34.072],[-119.868,34.072],[-119.868,34.072],[-119.868,34.072],[-119.868,34.072],[-119.868,34.072],[-119.868,34.071],[-119.868,34.071],[-119.869,34.071],[-119.869,34.071],[-119.869,34.071],[-119.869,34.071],[-119.869,34.072],[-119.869,34.072],[-119.869,34.072],[-119.869,34.072],[-119.869,34.072],[-119.869,34.072],[-119.87,34.072],[-119.87,34.072],[-119.87,34.072],[-119.87,34.072],[-119.87,34.072],[-119.87,34.072],[-119.87,34.072],[-119.87,34.072],[-119.87,34.071],[-119.87,34.071],[-119.87,34.071],[-119.871,34.071],[-119.871,34.071],[-119.871,34.071],[-119.871,34.071],[-119.871,34.072],[-119.871,34.072],[-119.871,34.072],[-119.871,34.072],[-119.871,34.072],[-119.872,34.072],[-119.872,34.072],[-119.872,34.072],[-119.872,34.072],[-119.872,34.072],[-119.872,34.072],[-119.872,34.072],[-119.872,34.072],[-119.872,34.072],[-119.872,34.072],[-119.872,34.072],[-119.872,34.072],[-119.873,34.072],[-119.873,34.072],[-119.873,34.072],[-119.873,34.072],[-119.873,34.072],[-119.873,34.072],[-119.873,34.072],[-119.873,34.072],[-119.873,34.072],[-119.873,34.072],[-119.873,34.072],[-119.873,34.072],[-119.873,34.072],[-119.873,34.072],[-119.873,34.073],[-119.873,34.073],[-119.873,34.073],[-119.873,34.073],[-119.873,34.073],[-119.873,34.073],[-119.873,34.073],[-119.874,34.073],[-119.874,34.073],[-119.874,34.073],[-119.874,34.073],[-119.874,34.073],[-119.874,34.073],[-119.874,34.073],[-119.874,34.073],[-119.874,34.073],[-119.874,34.073],[-119.875,34.073],[-119.875,34.073],[-119.875,34.073],[-119.875,34.073],[-119.875,34.073],[-119.875,34.073],[-119.875,34.073],[-119.875,34.073],[-119.875,34.073],[-119.875,34.073],[-119.875,34.072],[-119.875,34.072],[-119.875,34.072],[-119.875,34.073],[-119.875,34.073],[-119.875,34.073],[-119.876,34.073],[-119.876,34.073],[-119.876,34.073],[-119.876,34.073],[-119.876,34.073],[-119.876,34.073],[-119.876,34.073],[-119.876,34.073],[-119.876,34.073],[-119.876,34.073],[-119.876,34.073],[-119.876,34.073],[-119.876,34.074],[-119.876,34.074],[-119.876,34.074],[-119.876,34.074],[-119.876,34.074],[-119.876,34.074],[-119.876,34.074],[-119.876,34.074],[-119.876,34.074],[-119.876,34.074],[-119.876,34.074],[-119.876,34.074],[-119.876,34.074],[-119.876,34.074],[-119.876,34.074],[-119.877,34.074],[-119.877,34.074],[-119.877,34.074],[-119.877,34.074],[-119.877,34.074],[-119.877,34.074],[-119.877,34.074],[-119.877,34.074],[-119.877,34.074],[-119.877,34.074],[-119.877,34.074],[-119.877,34.074],[-119.877,34.074],[-119.877,34.074],[-119.878,34.074],[-119.878,34.074],[-119.878,34.074],[-119.878,34.074],[-119.878,34.074],[-119.878,34.074],[-119.878,34.074],[-119.878,34.074],[-119.878,34.074],[-119.878,34.073],[-119.878,34.073],[-119.878,34.073],[-119.878,34.073],[-119.878,34.073],[-119.878,34.073],[-119.878,34.073],[-119.878,34.073],[-119.878,34.073],[-119.878,34.073],[-119.878,34.073],[-119.878,34.073],[-119.878,34.073],[-119.878,34.073],[-119.878,34.073],[-119.878,34.073],[-119.879,34.073],[-119.879,34.073],[-119.879,34.073],[-119.879,34.073],[-119.879,34.073],[-119.879,34.073],[-119.879,34.073],[-119.879,34.073],[-119.879,34.073],[-119.879,34.073],[-119.879,34.073],[-119.879,34.073],[-119.879,34.073],[-119.879,34.073],[-119.879,34.073],[-119.88,34.073],[-119.88,34.073],[-119.88,34.073],[-119.88,34.073],[-119.88,34.073],[-119.88,34.073],[-119.88,34.073],[-119.88,34.073],[-119.88,34.073],[-119.88,34.073],[-119.88,34.073],[-119.88,34.073],[-119.88,34.073],[-119.88,34.073],[-119.88,34.073],[-119.88,34.073],[-119.88,34.073],[-119.88,34.073],[-119.88,34.073],[-119.88,34.073],[-119.88,34.073],[-119.88,34.073],[-119.88,34.073],[-119.88,34.073],[-119.88,34.073],[-119.88,34.073],[-119.88,34.073],[-119.881,34.073],[-119.881,34.073],[-119.881,34.073],[-119.881,34.073],[-119.881,34.073],[-119.881,34.073],[-119.881,34.073],[-119.881,34.073],[-119.881,34.073],[-119.881,34.073],[-119.881,34.073],[-119.881,34.073],[-119.881,34.073],[-119.881,34.073],[-119.882,34.073],[-119.882,34.073],[-119.882,34.073],[-119.882,34.073],[-119.882,34.073],[-119.882,34.073],[-119.882,34.073],[-119.882,34.073],[-119.882,34.073],[-119.882,34.073],[-119.882,34.073],[-119.882,34.073],[-119.882,34.073],[-119.882,34.073],[-119.882,34.073],[-119.882,34.073],[-119.882,34.074],[-119.882,34.074],[-119.882,34.074],[-119.882,34.074],[-119.882,34.074],[-119.882,34.074],[-119.882,34.074],[-119.882,34.074],[-119.883,34.074],[-119.883,34.074],[-119.883,34.074],[-119.883,34.074],[-119.883,34.074],[-119.883,34.074],[-119.883,34.074],[-119.883,34.075],[-119.883,34.075],[-119.883,34.075],[-119.883,34.075],[-119.883,34.075],[-119.883,34.075],[-119.883,34.075],[-119.883,34.075],[-119.883,34.075],[-119.883,34.075],[-119.883,34.075],[-119.883,34.075],[-119.883,34.087],[-119.85,34.083]]]},"properties":{"id":"painted-cave-state-marine-conservation-area","name":"Painted Cave State Marine Conservation Area","type":"SMCA","shortName":"Painted Cave","areaKm2":null,"ccrCitation":null}},{"type":"Feature","geometry":{"type":"Polygon","coordinates":[[[-119.841,33.97],[-119.841,33.97],[-119.84,33.97],[-119.84,33.97],[-119.84,33.97],[-119.84,33.97],[-119.84,33.97],[-119.84,33.97],[-119.84,33.97],[-119.84,33.97],[-119.84,33.97],[-119.84,33.97],[-119.839,33.97],[-119.839,33.97],[-119.839,33.97],[-119.839,33.97],[-119.839,33.97],[-119.839,33.97],[-119.839,33.97],[-119.838,33.97],[-119.838,33.97],[-119.838,33.97],[-119.837,33.97],[-119.837,33.97],[-119.837,33.97],[-119.837,33.97],[-119.836,33.97],[-119.836,33.97],[-119.836,33.97],[-119.836,33.97],[-119.835,33.97],[-119.835,33.97],[-119.835,33.97],[-119.834,33.97],[-119.834,33.97],[-119.834,33.969],[-119.833,33.969],[-119.833,33.969],[-119.833,33.969],[-119.832,33.969],[-119.832,33.969],[-119.832,33.969],[-119.831,33.969],[-119.831,33.969],[-119.831,33.969],[-119.831,33.969],[-119.83,33.969],[-119.83,33.969],[-119.83,33.968],[-119.829,33.968],[-119.829,33.968],[-119.829,33.968],[-119.829,33.968],[-119.828,33.968],[-119.828,33.968],[-119.828,33.968],[-119.828,33.968],[-119.827,33.967],[-119.827,33.967],[-119.827,33.967],[-119.826,33.967],[-119.826,33.967],[-119.826,33.967],[-119.826,33.967],[-119.826,33.967],[-119.826,33.967],[-119.826,33.967],[-119.825,33.966],[-119.825,33.966],[-119.825,33.966],[-119.824,33.966],[-119.824,33.966],[-119.824,33.966],[-119.824,33.966],[-119.824,33.966],[-119.824,33.966],[-119.824,33.966],[-119.823,33.965],[-119.823,33.965],[-119.823,33.965],[-119.823,33.965],[-119.822,33.965],[-119.822,33.965],[-119.822,33.964],[-119.821,33.964],[-119.821,33.964],[-119.821,33.964],[-119.821,33.964],[-119.821,33.964],[-119.821,33.964],[-119.82,33.964],[-119.82,33.964],[-119.82,33.964],[-119.82,33.964],[-119.82,33.963],[-119.82,33.963],[-119.82,33.963],[-119.819,33.963],[-119.819,33.963],[-119.819,33.963],[-119.819,33.963],[-119.819,33.963],[-119.819,33.963],[-119.819,33.962],[-119.819,33.962],[-119.819,33.962],[-119.819,33.962],[-119.819,33.962],[-119.819,33.962],[-119.819,33.962],[-119.819,33.962],[-119.818,33.961],[-119.818,33.961],[-119.818,33.961],[-119.818,33.961],[-119.818,33.961],[-119.818,33.961],[-119.818,33.961],[-119.818,33.961],[-119.818,33.961],[-119.818,33.961],[-119.818,33.961],[-119.818,33.961],[-119.818,33.961],[-119.818,33.961],[-119.818,33.961],[-119.818,33.961],[-119.818,33.961],[-119.818,33.961],[-119.818,33.96],[-119.818,33.96],[-119.818,33.96],[-119.818,33.96],[-119.818,33.96],[-119.818,33.96],[-119.818,33.96],[-119.818,33.96],[-119.818,33.96],[-119.818,33.96],[-119.818,33.96],[-119.818,33.96],[-119.818,33.96],[-119.818,33.96],[-119.818,33.96],[-119.818,33.96],[-119.818,33.96],[-119.818,33.96],[-119.818,33.96],[-119.818,33.96],[-119.818,33.96],[-119.818,33.96],[-119.818,33.96],[-119.817,33.96],[-119.817,33.96],[-119.817,33.961],[-119.817,33.961],[-119.817,33.961],[-119.817,33.961],[-119.817,33.961],[-119.817,33.961],[-119.817,33.961],[-119.817,33.961],[-119.817,33.961],[-119.816,33.961],[-119.816,33.961],[-119.816,33.961],[-119.816,33.961],[-119.816,33.961],[-119.816,33.961],[-119.816,33.961],[-119.816,33.961],[-119.816,33.961],[-119.816,33.961],[-119.816,33.961],[-119.815,33.962],[-119.815,33.962],[-119.815,33.962],[-119.815,33.962],[-119.815,33.962],[-119.815,33.962],[-119.815,33.962],[-119.815,33.962],[-119.815,33.962],[-119.814,33.962],[-119.814,33.962],[-119.814,33.962],[-119.814,33.962],[-119.814,33.962],[-119.814,33.962],[-119.813,33.962],[-119.813,33.962],[-119.813,33.962],[-119.813,33.962],[-119.812,33.962],[-119.812,33.962],[-119.812,33.962],[-119.812,33.962],[-119.812,33.962],[-119.812,33.962],[-119.812,33.962],[-119.812,33.962],[-119.812,33.962],[-119.812,33.962],[-119.812,33.962],[-119.812,33.962],[-119.812,33.962],[-119.812,33.962],[-119.812,33.962],[-119.812,33.962],[-119.812,33.962],[-119.812,33.962],[-119.812,33.962],[-119.811,33.962],[-119.811,33.962],[-119.811,33.962],[-119.811,33.962],[-119.811,33.962],[-119.811,33.962],[-119.811,33.962],[-119.811,33.962],[-119.811,33.962],[-119.811,33.962],[-119.811,33.962],[-119.811,33.962],[-119.811,33.962],[-119.811,33.962],[-119.811,33.962],[-119.811,33.962],[-119.811,33.962],[-119.811,33.962],[-119.811,33.962],[-119.811,33.962],[-119.811,33.962],[-119.81,33.962],[-119.81,33.962],[-119.81,33.962],[-119.81,33.962],[-119.81,33.962],[-119.81,33.962],[-119.81,33.962],[-119.81,33.962],[-119.81,33.963],[-119.81,33.963],[-119.81,33.963],[-119.81,33.963],[-119.81,33.963],[-119.81,33.963],[-119.809,33.963],[-119.809,33.963],[-119.809,33.963],[-119.809,33.963],[-119.808,33.963],[-119.808,33.963],[-119.808,33.963],[-119.808,33.963],[-119.808,33.963],[-119.808,33.963],[-119.807,33.963],[-119.807,33.963],[-119.807,33.963],[-119.806,33.963],[-119.806,33.964],[-119.806,33.964],[-119.806,33.964],[-119.806,33.964],[-119.806,33.964],[-119.806,33.964],[-119.805,33.964],[-119.805,33.963],[-119.805,33.963],[-119.805,33.963],[-119.805,33.963],[-119.805,33.963],[-119.805,33.963],[-119.805,33.963],[-119.805,33.963],[-119.805,33.963],[-119.805,33.963],[-119.805,33.963],[-119.805,33.963],[-119.805,33.963],[-119.805,33.963],[-119.804,33.964],[-119.804,33.964],[-119.804,33.964],[-119.804,33.964],[-119.804,33.964],[-119.804,33.964],[-119.804,33.964],[-119.804,33.964],[-119.804,33.964],[-119.804,33.964],[-119.804,33.964],[-119.804,33.964],[-119.803,33.964],[-119.803,33.964],[-119.803,33.964],[-119.803,33.964],[-119.803,33.964],[-119.803,33.964],[-119.803,33.964],[-119.803,33.964],[-119.803,33.964],[-119.803,33.964],[-119.802,33.964],[-119.802,33.963],[-119.802,33.963],[-119.802,33.963],[-119.802,33.963],[-119.802,33.963],[-119.802,33.963],[-119.801,33.963],[-119.801,33.963],[-119.801,33.963],[-119.801,33.963],[-119.801,33.963],[-119.801,33.963],[-119.801,33.963],[-119.801,33.963],[-119.8,33.963],[-119.8,33.963],[-119.8,33.963],[-119.8,33.963],[-119.8,33.963],[-119.8,33.904],[-119.8,33.904],[-119.801,33.904],[-119.802,33.904],[-119.802,33.904],[-119.802,33.903],[-119.803,33.903],[-119.804,33.903],[-119.805,33.903],[-119.806,33.902],[-119.806,33.902],[-119.807,33.902],[-119.807,33.902],[-119.807,33.902],[-119.808,33.902],[-119.808,33.902],[-119.809,33.901],[-119.81,33.901],[-119.81,33.901],[-119.811,33.901],[-119.811,33.901],[-119.812,33.901],[-119.812,33.901],[-119.813,33.901],[-119.814,33.9],[-119.814,33.9],[-119.815,33.9],[-119.815,33.9],[-119.816,33.9],[-119.817,33.9],[-119.818,33.9],[-119.819,33.9],[-119.82,33.9],[-119.821,33.9],[-119.822,33.9],[-119.823,33.9],[-119.824,33.9],[-119.825,33.9],[-119.826,33.9],[-119.826,33.9],[-119.827,33.9],[-119.828,33.9],[-119.829,33.9],[-119.83,33.9],[-119.831,33.9],[-119.832,33.9],[-119.833,33.9],[-119.834,33.9],[-119.835,33.9],[-119.836,33.9],[-119.836,33.9],[-119.837,33.9],[-119.837,33.9],[-119.838,33.901],[-119.838,33.901],[-119.838,33.901],[-119.838,33.901],[-119.838,33.901],[-119.839,33.901],[-119.84,33.901],[-119.84,33.901],[-119.841,33.901],[-119.841,33.901],[-119.842,33.902],[-119.843,33.902],[-119.844,33.902],[-119.845,33.902],[-119.845,33.902],[-119.846,33.902],[-119.846,33.903],[-119.847,33.903],[-119.848,33.903],[-119.849,33.904],[-119.85,33.904],[-119.851,33.904],[-119.852,33.905],[-119.853,33.905],[-119.854,33.905],[-119.855,33.906],[-119.856,33.906],[-119.856,33.906],[-119.857,33.907],[-119.858,33.907],[-119.859,33.908],[-119.86,33.908],[-119.86,33.909],[-119.861,33.909],[-119.862,33.91],[-119.863,33.91],[-119.864,33.911],[-119.865,33.911],[-119.865,33.912],[-119.866,33.912],[-119.866,33.912],[-119.867,33.913],[-119.867,33.913],[-119.868,33.914],[-119.868,33.914],[-119.869,33.915],[-119.87,33.916],[-119.87,33.916],[-119.871,33.916],[-119.871,33.917],[-119.871,33.917],[-119.871,33.917],[-119.872,33.917],[-119.872,33.917],[-119.873,33.918],[-119.873,33.918],[-119.873,33.918],[-119.873,33.918],[-119.874,33.918],[-119.875,33.919],[-119.876,33.919],[-119.877,33.92],[-119.878,33.92],[-119.878,33.92],[-119.878,33.92],[-119.879,33.921],[-119.879,33.921],[-119.879,33.921],[-119.88,33.922],[-119.881,33.922],[-119.881,33.922],[-119.881,33.922],[-119.882,33.923],[-119.883,33.923],[-119.883,33.924],[-119.883,33.924],[-119.883,33.924],[-119.883,33.924],[-119.883,33.967],[-119.85,33.967],[-119.85,33.967],[-119.849,33.968],[-119.849,33.968],[-119.849,33.968],[-119.849,33.968],[-119.849,33.968],[-119.849,33.968],[-119.849,33.968],[-119.849,33.968],[-119.849,33.968],[-119.849,33.968],[-119.848,33.968],[-119.848,33.968],[-119.848,33.968],[-119.848,33.968],[-119.848,33.968],[-119.848,33.968],[-119.848,33.968],[-119.848,33.968],[-119.848,33.968],[-119.848,33.968],[-119.848,33.968],[-119.848,33.968],[-119.848,33.968],[-119.848,33.968],[-119.848,33.968],[-119.847,33.968],[-119.847,33.968],[-119.847,33.968],[-119.847,33.968],[-119.847,33.968],[-119.847,33.968],[-119.847,33.968],[-119.847,33.968],[-119.847,33.968],[-119.847,33.968],[-119.847,33.968],[-119.847,33.968],[-119.847,33.968],[-119.847,33.968],[-119.847,33.968],[-119.847,33.968],[-119.847,33.968],[-119.847,33.968],[-119.847,33.969],[-119.847,33.969],[-119.846,33.969],[-119.846,33.969],[-119.846,33.969],[-119.846,33.969],[-119.846,33.969],[-119.846,33.969],[-119.846,33.969],[-119.846,33.969],[-119.846,33.969],[-119.846,33.969],[-119.846,33.969],[-119.846,33.969],[-119.846,33.969],[-119.846,33.969],[-119.846,33.969],[-119.846,33.969],[-119.846,33.969],[-119.846,33.969],[-119.846,33.969],[-119.845,33.969],[-119.845,33.969],[-119.845,33.969],[-119.845,33.969],[-119.845,33.969],[-119.845,33.969],[-119.845,33.969],[-119.845,33.969],[-119.845,33.969],[-119.845,33.969],[-119.845,33.969],[-119.845,33.969],[-119.845,33.969],[-119.845,33.969],[-119.845,33.969],[-119.845,33.969],[-119.845,33.969],[-119.845,33.969],[-119.844,33.969],[-119.844,33.969],[-119.844,33.969],[-119.844,33.969],[-119.844,33.969],[-119.844,33.969],[-119.844,33.97],[-119.844,33.97],[-119.844,33.97],[-119.844,33.97],[-119.844,33.97],[-119.844,33.97],[-119.844,33.97],[-119.844,33.97],[-119.844,33.97],[-119.844,33.97],[-119.844,33.97],[-119.844,33.97],[-119.843,33.97],[-119.843,33.97],[-119.843,33.97],[-119.843,33.97],[-119.843,33.97],[-119.843,33.97],[-119.843,33.97],[-119.843,33.97],[-119.843,33.97],[-119.843,33.97],[-119.843,33.97],[-119.843,33.97],[-119.843,33.97],[-119.842,33.97],[-119.842,33.97],[-119.842,33.97],[-119.842,33.97],[-119.842,33.97],[-119.842,33.97],[-119.842,33.97],[-119.842,33.97],[-119.842,33.97],[-119.842,33.97],[-119.842,33.97],[-119.842,33.97],[-119.842,33.97],[-119.842,33.97],[-119.842,33.97],[-119.841,33.97],[-119.841,33.97],[-119.841,33.97],[-119.841,33.97],[-119.841,33.97],[-119.841,33.97],[-119.841,33.97],[-119.841,33.97],[-119.841,33.97],[-119.841,33.97],[-119.841,33.97],[-119.841,33.97],[-119.841,33.97],[-119.841,33.97]]]},"properties":{"id":"gull-island-state-marine-reserve","name":"Gull Island State Marine Reserve","type":"SMR","shortName":"Gull Island","areaKm2":null,"ccrCitation":null}},{"type":"Feature","geometry":{"type":"Polygon","coordinates":[[[-119.547,34.104],[-119.547,34.047],[-119.547,34.045],[-119.547,34.045],[-119.547,34.045],[-119.547,34.045],[-119.547,34.045],[-119.547,34.045],[-119.547,34.045],[-119.547,34.045],[-119.547,34.045],[-119.547,34.045],[-119.547,34.045],[-119.547,34.045],[-119.547,34.045],[-119.547,34.045],[-119.547,34.045],[-119.547,34.045],[-119.547,34.045],[-119.547,34.045],[-119.547,34.045],[-119.547,34.046],[-119.547,34.046],[-119.547,34.046],[-119.547,34.046],[-119.547,34.046],[-119.547,34.046],[-119.547,34.046],[-119.547,34.046],[-119.547,34.046],[-119.547,34.046],[-119.547,34.046],[-119.548,34.046],[-119.548,34.046],[-119.548,34.046],[-119.548,34.046],[-119.548,34.046],[-119.548,34.046],[-119.548,34.046],[-119.548,34.046],[-119.548,34.046],[-119.548,34.046],[-119.548,34.046],[-119.548,34.046],[-119.549,34.046],[-119.549,34.046],[-119.549,34.046],[-119.549,34.046],[-119.549,34.046],[-119.549,34.046],[-119.549,34.046],[-119.549,34.046],[-119.549,34.046],[-119.549,34.046],[-119.549,34.046],[-119.549,34.046],[-119.549,34.046],[-119.549,34.046],[-119.549,34.046],[-119.549,34.046],[-119.549,34.046],[-119.549,34.046],[-119.55,34.046],[-119.55,34.046],[-119.55,34.046],[-119.55,34.046],[-119.55,34.046],[-119.55,34.046],[-119.55,34.047],[-119.55,34.047],[-119.55,34.047],[-119.55,34.046],[-119.55,34.046],[-119.55,34.046],[-119.551,34.046],[-119.551,34.046],[-119.551,34.046],[-119.551,34.046],[-119.551,34.046],[-119.551,34.046],[-119.551,34.046],[-119.551,34.047],[-119.551,34.047],[-119.551,34.047],[-119.551,34.047],[-119.552,34.047],[-119.552,34.047],[-119.551,34.047],[-119.552,34.047],[-119.552,34.047],[-119.552,34.047],[-119.552,34.047],[-119.552,34.047],[-119.552,34.047],[-119.552,34.048],[-119.552,34.048],[-119.552,34.048],[-119.552,34.048],[-119.552,34.048],[-119.552,34.048],[-119.552,34.048],[-119.552,34.048],[-119.552,34.048],[-119.552,34.048],[-119.552,34.048],[-119.552,34.048],[-119.552,34.048],[-119.552,34.048],[-119.553,34.048],[-119.553,34.048],[-119.553,34.048],[-119.553,34.048],[-119.553,34.048],[-119.553,34.048],[-119.553,34.048],[-119.553,34.048],[-119.553,34.048],[-119.553,34.048],[-119.554,34.048],[-119.554,34.048],[-119.554,34.048],[-119.554,34.048],[-119.554,34.048],[-119.554,34.048],[-119.554,34.048],[-119.554,34.048],[-119.554,34.048],[-119.554,34.048],[-119.554,34.048],[-119.555,34.048],[-119.555,34.048],[-119.555,34.048],[-119.555,34.048],[-119.555,34.048],[-119.555,34.048],[-119.555,34.048],[-119.555,34.048],[-119.555,34.048],[-119.556,34.049],[-119.556,34.049],[-119.556,34.049],[-119.556,34.049],[-119.556,34.049],[-119.556,34.049],[-119.556,34.049],[-119.556,34.049],[-119.556,34.05],[-119.556,34.05],[-119.556,34.05],[-119.556,34.05],[-119.556,34.05],[-119.556,34.05],[-119.556,34.05],[-119.556,34.05],[-119.556,34.05],[-119.556,34.05],[-119.556,34.05],[-119.556,34.05],[-119.556,34.05],[-119.556,34.05],[-119.556,34.05],[-119.556,34.05],[-119.557,34.05],[-119.557,34.051],[-119.557,34.051],[-119.557,34.051],[-119.557,34.051],[-119.557,34.051],[-119.557,34.051],[-119.557,34.051],[-119.557,34.051],[-119.557,34.051],[-119.557,34.051],[-119.557,34.051],[-119.557,34.052],[-119.557,34.052],[-119.557,34.052],[-119.557,34.052],[-119.557,34.052],[-119.558,34.052],[-119.558,34.052],[-119.558,34.052],[-119.558,34.052],[-119.558,34.052],[-119.558,34.052],[-119.558,34.053],[-119.558,34.053],[-119.558,34.053],[-119.558,34.053],[-119.558,34.053],[-119.558,34.053],[-119.558,34.053],[-119.558,34.053],[-119.558,34.053],[-119.558,34.053],[-119.558,34.053],[-119.558,34.053],[-119.559,34.053],[-119.559,34.053],[-119.559,34.053],[-119.559,34.053],[-119.559,34.053],[-119.559,34.053],[-119.559,34.053],[-119.559,34.053],[-119.559,34.054],[-119.559,34.054],[-119.559,34.054],[-119.559,34.054],[-119.56,34.054],[-119.56,34.054],[-119.56,34.053],[-119.56,34.053],[-119.56,34.053],[-119.56,34.053],[-119.56,34.053],[-119.56,34.053],[-119.56,34.053],[-119.56,34.053],[-119.56,34.053],[-119.56,34.054],[-119.56,34.054],[-119.56,34.054],[-119.561,34.054],[-119.561,34.054],[-119.561,34.054],[-119.561,34.054],[-119.561,34.054],[-119.561,34.054],[-119.561,34.054],[-119.561,34.054],[-119.561,34.054],[-119.561,34.054],[-119.561,34.054],[-119.561,34.054],[-119.561,34.054],[-119.561,34.054],[-119.561,34.054],[-119.562,34.054],[-119.562,34.054],[-119.562,34.054],[-119.562,34.054],[-119.562,34.054],[-119.562,34.054],[-119.562,34.054],[-119.562,34.054],[-119.562,34.054],[-119.562,34.055],[-119.562,34.055],[-119.562,34.055],[-119.562,34.055],[-119.562,34.055],[-119.562,34.055],[-119.562,34.055],[-119.562,34.055],[-119.562,34.055],[-119.562,34.055],[-119.562,34.055],[-119.562,34.055],[-119.562,34.055],[-119.562,34.055],[-119.562,34.055],[-119.562,34.055],[-119.563,34.055],[-119.563,34.055],[-119.563,34.055],[-119.563,34.055],[-119.563,34.055],[-119.563,34.055],[-119.563,34.055],[-119.563,34.056],[-119.563,34.056],[-119.563,34.056],[-119.563,34.056],[-119.563,34.056],[-119.563,34.056],[-119.563,34.056],[-119.563,34.056],[-119.563,34.056],[-119.563,34.056],[-119.563,34.056],[-119.563,34.056],[-119.563,34.056],[-119.563,34.055],[-119.564,34.055],[-119.564,34.055],[-119.564,34.055],[-119.564,34.055],[-119.564,34.055],[-119.564,34.055],[-119.564,34.055],[-119.564,34.055],[-119.564,34.055],[-119.564,34.055],[-119.564,34.055],[-119.564,34.055],[-119.564,34.055],[-119.564,34.055],[-119.564,34.055],[-119.564,34.055],[-119.565,34.055],[-119.565,34.055],[-119.565,34.055],[-119.565,34.055],[-119.565,34.055],[-119.565,34.055],[-119.565,34.055],[-119.565,34.055],[-119.565,34.054],[-119.565,34.054],[-119.565,34.054],[-119.566,34.054],[-119.566,34.054],[-119.566,34.054],[-119.566,34.054],[-119.566,34.054],[-119.566,34.053],[-119.566,34.053],[-119.566,34.053],[-119.566,34.053],[-119.566,34.053],[-119.566,34.053],[-119.566,34.052],[-119.566,34.052],[-119.566,34.052],[-119.566,34.052],[-119.567,34.052],[-119.567,34.052],[-119.567,34.052],[-119.567,34.052],[-119.567,34.052],[-119.567,34.052],[-119.567,34.052],[-119.567,34.052],[-119.568,34.052],[-119.568,34.052],[-119.568,34.052],[-119.568,34.052],[-119.568,34.052],[-119.568,34.052],[-119.568,34.052],[-119.568,34.052],[-119.568,34.052],[-119.568,34.052],[-119.568,34.052],[-119.569,34.052],[-119.569,34.052],[-119.569,34.052],[-119.569,34.052],[-119.569,34.052],[-119.569,34.052],[-119.569,34.052],[-119.57,34.052],[-119.57,34.052],[-119.57,34.052],[-119.57,34.052],[-119.57,34.052],[-119.57,34.052],[-119.57,34.052],[-119.57,34.052],[-119.571,34.052],[-119.571,34.052],[-119.571,34.052],[-119.571,34.052],[-119.571,34.052],[-119.571,34.052],[-119.571,34.052],[-119.571,34.052],[-119.571,34.052],[-119.571,34.052],[-119.571,34.052],[-119.571,34.052],[-119.571,34.052],[-119.571,34.052],[-119.571,34.052],[-119.572,34.052],[-119.572,34.052],[-119.572,34.052],[-119.572,34.053],[-119.572,34.053],[-119.572,34.053],[-119.572,34.053],[-119.572,34.052],[-119.572,34.052],[-119.572,34.052],[-119.572,34.052],[-119.572,34.052],[-119.572,34.052],[-119.572,34.052],[-119.572,34.052],[-119.572,34.052],[-119.572,34.052],[-119.572,34.052],[-119.572,34.052],[-119.572,34.052],[-119.572,34.052],[-119.572,34.052],[-119.572,34.052],[-119.572,34.052],[-119.572,34.052],[-119.572,34.052],[-119.572,34.052],[-119.572,34.051],[-119.572,34.051],[-119.572,34.051],[-119.572,34.051],[-119.573,34.051],[-119.573,34.051],[-119.573,34.051],[-119.573,34.051],[-119.573,34.051],[-119.573,34.051],[-119.573,34.051],[-119.573,34.051],[-119.573,34.051],[-119.573,34.051],[-119.573,34.051],[-119.573,34.05],[-119.573,34.05],[-119.573,34.05],[-119.573,34.05],[-119.573,34.05],[-119.573,34.05],[-119.573,34.05],[-119.574,34.05],[-119.574,34.05],[-119.574,34.05],[-119.574,34.05],[-119.574,34.05],[-119.574,34.05],[-119.574,34.05],[-119.574,34.05],[-119.574,34.05],[-119.574,34.05],[-119.574,34.05],[-119.574,34.05],[-119.575,34.05],[-119.575,34.05],[-119.575,34.05],[-119.575,34.05],[-119.575,34.05],[-119.575,34.05],[-119.575,34.05],[-119.575,34.05],[-119.575,34.05],[-119.575,34.05],[-119.575,34.05],[-119.575,34.05],[-119.575,34.05],[-119.575,34.05],[-119.575,34.05],[-119.575,34.05],[-119.576,34.05],[-119.576,34.05],[-119.576,34.05],[-119.576,34.05],[-119.576,34.05],[-119.576,34.05],[-119.576,34.05],[-119.576,34.05],[-119.576,34.05],[-119.576,34.05],[-119.576,34.05],[-119.576,34.05],[-119.576,34.05],[-119.576,34.05],[-119.576,34.05],[-119.577,34.05],[-119.577,34.05],[-119.577,34.05],[-119.577,34.05],[-119.577,34.05],[-119.577,34.05],[-119.577,34.05],[-119.577,34.05],[-119.577,34.05],[-119.577,34.05],[-119.577,34.05],[-119.577,34.051],[-119.577,34.05],[-119.577,34.05],[-119.577,34.05],[-119.578,34.05],[-119.578,34.05],[-119.578,34.05],[-119.578,34.05],[-119.578,34.05],[-119.578,34.05],[-119.578,34.05],[-119.578,34.05],[-119.578,34.05],[-119.578,34.051],[-119.578,34.051],[-119.579,34.051],[-119.579,34.051],[-119.579,34.051],[-119.579,34.051],[-119.579,34.051],[-119.579,34.051],[-119.579,34.051],[-119.579,34.051],[-119.579,34.051],[-119.58,34.05],[-119.58,34.051],[-119.58,34.051],[-119.58,34.051],[-119.58,34.051],[-119.58,34.051],[-119.58,34.051],[-119.58,34.051],[-119.581,34.051],[-119.581,34.051],[-119.581,34.051],[-119.581,34.051],[-119.581,34.051],[-119.581,34.051],[-119.581,34.051],[-119.581,34.051],[-119.581,34.051],[-119.581,34.051],[-119.581,34.051],[-119.581,34.051],[-119.581,34.051],[-119.581,34.051],[-119.581,34.051],[-119.582,34.051],[-119.582,34.052],[-119.582,34.052],[-119.582,34.052],[-119.582,34.052],[-119.582,34.052],[-119.582,34.052],[-119.582,34.052],[-119.582,34.052],[-119.582,34.052],[-119.583,34.052],[-119.583,34.052],[-119.583,34.052],[-119.583,34.052],[-119.583,34.052],[-119.583,34.052],[-119.583,34.053],[-119.583,34.053],[-119.583,34.053],[-119.583,34.053],[-119.583,34.053],[-119.583,34.053],[-119.584,34.053],[-119.584,34.053],[-119.584,34.053],[-119.584,34.053],[-119.584,34.053],[-119.584,34.053],[-119.584,34.053],[-119.585,34.053],[-119.585,34.053],[-119.585,34.053],[-119.585,34.053],[-119.585,34.053],[-119.585,34.053],[-119.585,34.053],[-119.585,34.053],[-119.585,34.053],[-119.586,34.053],[-119.586,34.052],[-119.586,34.052],[-119.586,34.052],[-119.586,34.052],[-119.586,34.052],[-119.586,34.052],[-119.586,34.052],[-119.586,34.052],[-119.586,34.052],[-119.586,34.052],[-119.586,34.052],[-119.586,34.052],[-119.587,34.052],[-119.587,34.052],[-119.587,34.051],[-119.587,34.051],[-119.587,34.051],[-119.587,34.051],[-119.587,34.051],[-119.588,34.051],[-119.588,34.051],[-119.588,34.052],[-119.588,34.051],[-119.588,34.051],[-119.588,34.051],[-119.588,34.051],[-119.588,34.051],[-119.589,34.051],[-119.589,34.052],[-119.589,34.052],[-119.589,34.052],[-119.589,34.052],[-119.589,34.052],[-119.589,34.051],[-119.589,34.051],[-119.589,34.051],[-119.589,34.051],[-119.589,34.051],[-119.589,34.051],[-119.589,34.051],[-119.589,34.051],[-119.589,34.051],[-119.588,34.051],[-119.588,34.051],[-119.588,34.051],[-119.588,34.051],[-119.588,34.051],[-119.588,34.051],[-119.588,34.05],[-119.588,34.05],[-119.588,34.05],[-119.588,34.05],[-119.588,34.05],[-119.588,34.05],[-119.588,34.05],[-119.588,34.05],[-119.588,34.05],[-119.588,34.05],[-119.587,34.05],[-119.587,34.049],[-119.588,34.049],[-119.588,34.049],[-119.588,34.049],[-119.588,34.049],[-119.588,34.049],[-119.588,34.049],[-119.589,34.049],[-119.589,34.049],[-119.589,34.049],[-119.589,34.049],[-119.589,34.049],[-119.59,34.049],[-119.59,34.049],[-119.59,34.049],[-119.59,34.049],[-119.59,34.049],[-119.59,34.049],[-119.591,34.049],[-119.591,34.049],[-119.591,34.049],[-119.591,34.049],[-119.591,34.049],[-119.591,34.049],[-119.591,34.049],[-119.591,34.049],[-119.592,34.049],[-119.592,34.049],[-119.592,34.049],[-119.592,34.049],[-119.592,34.103],[-119.592,34.103],[-119.592,34.103],[-119.591,34.104],[-119.59,34.104],[-119.589,34.104],[-119.588,34.104],[-119.587,34.104],[-119.586,34.104],[-119.585,34.104],[-119.584,34.104],[-119.583,34.104],[-119.583,34.104],[-119.583,34.104],[-119.583,34.104],[-119.583,34.104],[-119.582,34.104],[-119.581,34.104],[-119.581,34.104],[-119.58,34.104],[-119.58,34.104],[-119.579,34.105],[-119.579,34.105],[-119.578,34.105],[-119.577,34.105],[-119.576,34.105],[-119.576,34.105],[-119.575,34.105],[-119.574,34.105],[-119.574,34.105],[-119.573,34.105],[-119.572,34.106],[-119.571,34.106],[-119.57,34.106],[-119.569,34.106],[-119.568,34.106],[-119.567,34.106],[-119.566,34.106],[-119.565,34.106],[-119.564,34.106],[-119.564,34.106],[-119.564,34.106],[-119.564,34.106],[-119.563,34.106],[-119.562,34.106],[-119.561,34.106],[-119.56,34.106],[-119.559,34.106],[-119.558,34.106],[-119.557,34.106],[-119.555,34.106],[-119.554,34.106],[-119.553,34.105],[-119.552,34.105],[-119.551,34.105],[-119.551,34.105],[-119.55,34.105],[-119.55,34.105],[-119.549,34.105],[-119.548,34.105],[-119.548,34.105],[-119.548,34.104],[-119.547,34.104],[-119.547,34.104],[-119.547,34.104],[-119.547,34.104]]]},"properties":{"id":"scorpion-state-marine-reserve","name":"Scorpion State Marine Reserve","type":"SMR","shortName":"Scorpion","areaKm2":null,"ccrCitation":null}},{"type":"Feature","geometry":{"type":"Polygon","coordinates":[[[-119.433,33.988],[-119.433,33.954],[-119.434,33.955],[-119.435,33.955],[-119.436,33.955],[-119.436,33.955],[-119.437,33.955],[-119.438,33.955],[-119.439,33.956],[-119.44,33.956],[-119.441,33.956],[-119.442,33.956],[-119.443,33.957],[-119.444,33.957],[-119.444,33.957],[-119.445,33.957],[-119.445,33.957],[-119.446,33.958],[-119.447,33.958],[-119.447,33.958],[-119.448,33.958],[-119.448,33.958],[-119.449,33.959],[-119.45,33.959],[-119.451,33.96],[-119.452,33.96],[-119.453,33.96],[-119.454,33.961],[-119.455,33.961],[-119.455,33.962],[-119.456,33.962],[-119.456,33.962],[-119.456,33.962],[-119.457,33.963],[-119.457,33.963],[-119.458,33.963],[-119.459,33.963],[-119.46,33.964],[-119.461,33.964],[-119.462,33.964],[-119.463,33.965],[-119.464,33.965],[-119.464,33.965],[-119.464,33.965],[-119.465,33.966],[-119.466,33.966],[-119.467,33.967],[-119.467,33.967],[-119.467,33.967],[-119.468,33.967],[-119.469,33.967],[-119.47,33.968],[-119.471,33.968],[-119.471,33.969],[-119.471,33.969],[-119.471,33.969],[-119.472,33.969],[-119.473,33.969],[-119.473,33.969],[-119.473,33.969],[-119.474,33.97],[-119.474,33.97],[-119.475,33.97],[-119.475,33.97],[-119.475,33.971],[-119.476,33.971],[-119.476,33.971],[-119.476,33.971],[-119.477,33.971],[-119.477,33.972],[-119.478,33.972],[-119.479,33.972],[-119.48,33.973],[-119.481,33.974],[-119.482,33.974],[-119.482,33.975],[-119.483,33.975],[-119.484,33.976],[-119.485,33.976],[-119.485,33.977],[-119.485,33.977],[-119.486,33.977],[-119.486,33.977],[-119.486,33.978],[-119.487,33.978],[-119.487,33.978],[-119.488,33.979],[-119.488,33.979],[-119.489,33.98],[-119.49,33.98],[-119.49,33.981],[-119.491,33.982],[-119.491,33.982],[-119.491,33.982],[-119.492,33.982],[-119.492,33.983],[-119.492,33.983],[-119.492,33.983],[-119.493,33.983],[-119.493,33.983],[-119.493,33.982],[-119.494,33.982],[-119.494,33.981],[-119.494,33.981],[-119.494,33.981],[-119.495,33.98],[-119.495,33.979],[-119.495,33.979],[-119.496,33.979],[-119.496,33.978],[-119.496,33.978],[-119.497,33.977],[-119.497,33.976],[-119.498,33.976],[-119.498,33.976],[-119.499,33.975],[-119.499,33.975],[-119.499,33.974],[-119.5,33.974],[-119.5,33.974],[-119.5,33.974],[-119.501,33.973],[-119.501,33.973],[-119.501,33.972],[-119.502,33.972],[-119.502,33.972],[-119.503,33.971],[-119.503,33.97],[-119.504,33.97],[-119.504,33.97],[-119.505,33.969],[-119.505,33.969],[-119.505,33.969],[-119.505,33.969],[-119.505,33.969],[-119.505,33.969],[-119.506,33.968],[-119.507,33.967],[-119.507,33.967],[-119.508,33.966],[-119.508,33.965],[-119.509,33.965],[-119.51,33.964],[-119.51,33.963],[-119.511,33.963],[-119.512,33.962],[-119.513,33.961],[-119.513,33.961],[-119.514,33.96],[-119.514,33.96],[-119.514,33.96],[-119.515,33.96],[-119.516,33.959],[-119.516,33.959],[-119.516,33.988],[-119.433,33.988]]]},"properties":{"id":"footprint-state-marine-reserve","name":"Footprint State Marine Reserve","type":"SMR","shortName":"Footprint","areaKm2":null,"ccrCitation":null}},{"type":"Feature","geometry":{"type":"Polygon","coordinates":[[[-119.827,33.9],[-119.826,33.9],[-119.826,33.9],[-119.825,33.9],[-119.824,33.9],[-119.823,33.9],[-119.822,33.9],[-119.821,33.9],[-119.82,33.9],[-119.819,33.9],[-119.818,33.9],[-119.817,33.9],[-119.816,33.9],[-119.815,33.9],[-119.815,33.9],[-119.814,33.9],[-119.814,33.9],[-119.813,33.901],[-119.812,33.901],[-119.812,33.901],[-119.811,33.901],[-119.811,33.901],[-119.81,33.901],[-119.81,33.901],[-119.809,33.901],[-119.808,33.902],[-119.808,33.902],[-119.807,33.902],[-119.807,33.902],[-119.807,33.902],[-119.806,33.902],[-119.806,33.902],[-119.805,33.903],[-119.804,33.903],[-119.803,33.903],[-119.802,33.903],[-119.802,33.904],[-119.802,33.904],[-119.801,33.904],[-119.8,33.904],[-119.8,33.862],[-119.883,33.862],[-119.883,33.924],[-119.883,33.924],[-119.883,33.924],[-119.883,33.923],[-119.882,33.923],[-119.881,33.922],[-119.881,33.922],[-119.881,33.922],[-119.88,33.922],[-119.879,33.921],[-119.879,33.921],[-119.879,33.921],[-119.878,33.92],[-119.878,33.92],[-119.878,33.92],[-119.877,33.92],[-119.876,33.919],[-119.875,33.919],[-119.874,33.918],[-119.873,33.918],[-119.873,33.918],[-119.873,33.918],[-119.873,33.918],[-119.872,33.917],[-119.872,33.917],[-119.871,33.917],[-119.871,33.917],[-119.871,33.917],[-119.871,33.916],[-119.87,33.916],[-119.87,33.916],[-119.869,33.915],[-119.868,33.914],[-119.868,33.914],[-119.867,33.913],[-119.867,33.913],[-119.866,33.912],[-119.866,33.912],[-119.865,33.912],[-119.865,33.911],[-119.864,33.911],[-119.863,33.91],[-119.862,33.91],[-119.861,33.909],[-119.86,33.909],[-119.86,33.908],[-119.859,33.908],[-119.858,33.907],[-119.857,33.907],[-119.856,33.906],[-119.856,33.906],[-119.855,33.906],[-119.854,33.905],[-119.853,33.905],[-119.852,33.905],[-119.851,33.904],[-119.85,33.904],[-119.849,33.904],[-119.848,33.903],[-119.847,33.903],[-119.846,33.903],[-119.846,33.902],[-119.845,33.902],[-119.845,33.902],[-119.844,33.902],[-119.843,33.902],[-119.842,33.902],[-119.841,33.901],[-119.841,33.901],[-119.84,33.901],[-119.84,33.901],[-119.839,33.901],[-119.838,33.901],[-119.838,33.901],[-119.838,33.901],[-119.838,33.901],[-119.838,33.901],[-119.837,33.9],[-119.837,33.9],[-119.836,33.9],[-119.836,33.9],[-119.835,33.9],[-119.834,33.9],[-119.833,33.9],[-119.832,33.9],[-119.831,33.9],[-119.83,33.9],[-119.829,33.9],[-119.828,33.9],[-119.827,33.9]]]},"properties":{"id":"gull-island-federal-marine-reserve","name":"Gull Island Federal Marine Reserve","type":"FMR","shortName":"Gull Island","areaKm2":null,"ccrCitation":null}},{"type":"Feature","geometry":{"type":"Polygon","coordinates":[[[-119.433,33.954],[-119.433,33.902],[-119.516,33.902],[-119.516,33.959],[-119.516,33.959],[-119.515,33.96],[-119.514,33.96],[-119.514,33.96],[-119.514,33.96],[-119.513,33.961],[-119.513,33.961],[-119.512,33.962],[-119.511,33.963],[-119.51,33.963],[-119.51,33.964],[-119.509,33.965],[-119.508,33.965],[-119.508,33.966],[-119.507,33.967],[-119.507,33.967],[-119.506,33.968],[-119.505,33.969],[-119.505,33.969],[-119.505,33.969],[-119.505,33.969],[-119.505,33.969],[-119.505,33.969],[-119.504,33.97],[-119.504,33.97],[-119.503,33.97],[-119.503,33.971],[-119.502,33.972],[-119.502,33.972],[-119.501,33.972],[-119.501,33.973],[-119.501,33.973],[-119.5,33.974],[-119.5,33.974],[-119.5,33.974],[-119.499,33.974],[-119.499,33.975],[-119.499,33.975],[-119.498,33.976],[-119.498,33.976],[-119.497,33.976],[-119.497,33.977],[-119.496,33.978],[-119.496,33.978],[-119.496,33.979],[-119.495,33.979],[-119.495,33.979],[-119.495,33.98],[-119.494,33.981],[-119.494,33.981],[-119.494,33.981],[-119.494,33.982],[-119.493,33.982],[-119.493,33.983],[-119.493,33.983],[-119.492,33.983],[-119.492,33.983],[-119.492,33.983],[-119.492,33.982],[-119.491,33.982],[-119.491,33.982],[-119.491,33.982],[-119.49,33.981],[-119.49,33.98],[-119.489,33.98],[-119.488,33.979],[-119.488,33.979],[-119.487,33.978],[-119.487,33.978],[-119.486,33.978],[-119.486,33.977],[-119.486,33.977],[-119.485,33.977],[-119.485,33.977],[-119.485,33.976],[-119.484,33.976],[-119.483,33.975],[-119.482,33.975],[-119.482,33.974],[-119.481,33.974],[-119.48,33.973],[-119.479,33.972],[-119.478,33.972],[-119.477,33.972],[-119.477,33.971],[-119.476,33.971],[-119.476,33.971],[-119.476,33.971],[-119.475,33.971],[-119.475,33.97],[-119.475,33.97],[-119.474,33.97],[-119.474,33.97],[-119.473,33.969],[-119.473,33.969],[-119.473,33.969],[-119.472,33.969],[-119.471,33.969],[-119.471,33.969],[-119.471,33.969],[-119.471,33.968],[-119.47,33.968],[-119.469,33.967],[-119.468,33.967],[-119.467,33.967],[-119.467,33.967],[-119.467,33.967],[-119.466,33.966],[-119.465,33.966],[-119.464,33.965],[-119.464,33.965],[-119.464,33.965],[-119.463,33.965],[-119.462,33.964],[-119.461,33.964],[-119.46,33.964],[-119.459,33.963],[-119.458,33.963],[-119.457,33.963],[-119.457,33.963],[-119.456,33.962],[-119.456,33.962],[-119.456,33.962],[-119.455,33.962],[-119.455,33.961],[-119.454,33.961],[-119.453,33.96],[-119.452,33.96],[-119.451,33.96],[-119.45,33.959],[-119.449,33.959],[-119.448,33.958],[-119.448,33.958],[-119.447,33.958],[-119.447,33.958],[-119.446,33.958],[-119.445,33.957],[-119.445,33.957],[-119.444,33.957],[-119.444,33.957],[-119.443,33.957],[-119.442,33.956],[-119.441,33.956],[-119.44,33.956],[-119.439,33.956],[-119.438,33.955],[-119.437,33.955],[-119.436,33.955],[-119.436,33.955],[-119.435,33.955],[-119.434,33.955],[-119.433,33.954]]]},"properties":{"id":"footprint-federal-marine-reserve","name":"Footprint Federal Marine Reserve","type":"FMR","shortName":"Footprint","areaKm2":null,"ccrCitation":null}},{"type":"Feature","geometry":{"type":"Polygon","coordinates":[[[-119.547,34.155],[-119.547,34.104],[-119.547,34.104],[-119.547,34.104],[-119.548,34.104],[-119.548,34.105],[-119.548,34.105],[-119.549,34.105],[-119.55,34.105],[-119.55,34.105],[-119.551,34.105],[-119.551,34.105],[-119.552,34.105],[-119.553,34.105],[-119.554,34.106],[-119.555,34.106],[-119.557,34.106],[-119.558,34.106],[-119.559,34.106],[-119.56,34.106],[-119.561,34.106],[-119.562,34.106],[-119.563,34.106],[-119.564,34.106],[-119.564,34.106],[-119.564,34.106],[-119.564,34.106],[-119.565,34.106],[-119.566,34.106],[-119.567,34.106],[-119.568,34.106],[-119.569,34.106],[-119.57,34.106],[-119.571,34.106],[-119.572,34.106],[-119.573,34.105],[-119.574,34.105],[-119.574,34.105],[-119.575,34.105],[-119.576,34.105],[-119.576,34.105],[-119.577,34.105],[-119.578,34.105],[-119.579,34.105],[-119.579,34.105],[-119.58,34.104],[-119.58,34.104],[-119.581,34.104],[-119.581,34.104],[-119.582,34.104],[-119.583,34.104],[-119.583,34.104],[-119.583,34.104],[-119.583,34.104],[-119.583,34.104],[-119.584,34.104],[-119.585,34.104],[-119.586,34.104],[-119.587,34.104],[-119.588,34.104],[-119.589,34.104],[-119.59,34.104],[-119.591,34.104],[-119.592,34.103],[-119.592,34.155],[-119.547,34.155]]]},"properties":{"id":"scorpion-federal-state-marine-reserve","name":"Scorpion Federal State Marine Reserve","type":"FMR","shortName":"Scorpion","areaKm2":null,"ccrCitation":null}}]}