{"type":"FeatureCollection","features":[{"type":"Feature","geometry":{"type":"Point","coordinates":[-119.54723,34.21622]},"properties":{"depth_ft":321,"depth_m":97.8}},{"type":"Feature","geometry":{"type":"Point","coordinates":[-119.52455,34.21622]},"properties":{"depth_ft":303,"depth_m":92.2}},{"type":"Feature","geometry":{"type":"Point","coordinates":[-119.50187,34.21622]},"properties":{"depth_ft":286,"depth_m":87.3}},{"type":"Feature","geometry":{"type":"Point","coordinates":[-119.4792,34.21622]},"properties":{"depth_ft":250,"depth_m":76.2}},{"type":"Feature","geometry":{"type":"Point","coordinates":[-119.4792,34.19741]},"properties":{"depth_ft":305,"depth_m":92.8}},{"type":"Feature","geometry":{"type":"Point","coordinates":[-119.88741,34.12221]},"properties":{"depth_ft":308,"depth_m":93.9}},{"type":"Feature","geometry":{"type":"Point","coordinates":[-119.86473,34.12221]},"properties":{"depth_ft":327,"depth_m":99.7}},{"type":"Feature","geometry":{"type":"Point","coordinates":[-119.97813,34.10341]},"properties":{"depth_ft":318,"depth_m":97.0}},{"type":"Feature","geometry":{"type":"Point","coordinates":[-119.95545,34.10341]},"properties":{"depth_ft":305,"depth_m":92.8}},{"type":"Feature","geometry":{"type":"Point","coordinates":[-119.93277,34.10341]},"properties":{"depth_ft":312,"depth_m":95.2}},{"type":"Feature","geometry":{"type":"Point","coordinates":[-119.91009,34.10341]},"properties":{"depth_ft":326,"depth_m":99.3}},{"type":"Feature","geometry":{"type":"Point","coordinates":[-119.88741,34.10341]},"properties":{"depth_ft":324,"depth_m":98.7}},{"type":"Feature","geometry":{"type":"Point","coordinates":[-119.86473,34.10341]},"properties":{"depth_ft":311,"depth_m":94.7}},{"type":"Feature","geometry":{"type":"Point","coordinates":[-119.84205,34.10341]},"properties":{"depth_ft":294,"depth_m":89.8}},{"type":"Feature","geometry":{"type":"Point","coordinates":[-119.81938,34.10341]},"properties":{"depth_ft":298,"depth_m":90.7}},{"type":"Feature","geometry":{"type":"Point","coordinates":[-120.0008,34.08461]},"properties":{"depth_ft":267,"depth_m":81.5}},{"type":"Feature","geometry":{"type":"Point","coordinates":[-119.97813,34.08461]},"properties":{"depth_ft":258,"depth_m":78.7}},{"type":"Feature","geometry":{"type":"Point","coordinates":[-119.95545,34.08461]},"properties":{"depth_ft":206,"depth_m":62.6}},{"type":"Feature","geometry":{"type":"Point","coordinates":[-119.93277,34.08461]},"properties":{"depth_ft":202,"depth_m":61.6}},{"type":"Feature","geometry":{"type":"Point","coordinates":[-119.91009,34.08461]},"properties":{"depth_ft":181,"depth_m":55.2}},{"type":"Feature","geometry":{"type":"Point","coordinates":[-119.88741,34.08461]},"properties":{"depth_ft":235,"depth_m":71.7}},{"type":"Feature","geometry":{"type":"Point","coordinates":[-119.86473,34.08461]},"properties":{"depth_ft":287,"depth_m":87.6}},{"type":"Feature","geometry":{"type":"Point","coordinates":[-119.84205,34.08461]},"properties":{"depth_ft":304,"depth_m":92.7}},{"type":"Feature","geometry":{"type":"Point","coordinates":[-119.81938,34.08461]},"properties":{"depth_ft":293,"depth_m":89.2}},{"type":"Feature","geometry":{"type":"Point","coordinates":[-119.7967,34.08461]},"properties":{"depth_ft":291,"depth_m":88.8}},{"type":"Feature","geometry":{"type":"Point","coordinates":[-119.77402,34.08461]},"properties":{"depth_ft":294,"depth_m":89.5}},{"type":"Feature","geometry":{"type":"Point","coordinates":[-119.75134,34.08461]},"properties":{"depth_ft":287,"depth_m":87.4}},{"type":"Feature","geometry":{"type":"Point","coordinates":[-119.72866,34.08461]},"properties":{"depth_ft":285,"depth_m":86.9}},{"type":"Feature","geometry":{"type":"Point","coordinates":[-119.70598,34.08461]},"properties":{"depth_ft":294,"depth_m":89.5}},{"type":"Feature","geometry":{"type":"Point","coordinates":[-119.6833,34.08461]},"properties":{"depth_ft":299,"depth_m":91.2}},{"type":"Feature","geometry":{"type":"Point","coordinates":[-120.0008,34.0658]},"properties":{"depth_ft":191,"depth_m":58.2}},{"type":"Feature","geometry":{"type":"Point","coordinates":[-119.97813,34.0658]},"properties":{"depth_ft":195,"depth_m":59.4}},{"type":"Feature","geometry":{"type":"Point","coordinates":[-119.95545,34.0658]},"properties":{"depth_ft":128,"depth_m":38.9}},{"type":"Feature","geometry":{"type":"Point","coordinates":[-119.93277,34.0658]},"properties":{"depth_ft":75,"depth_m":22.8}},{"type":"Feature","geometry":{"type":"Point","coordinates":[-119.84205,34.0658]},"properties":{"depth_ft":13,"depth_m":4.1}},{"type":"Feature","geometry":{"type":"Point","coordinates":[-119.81938,34.0658]},"properties":{"depth_ft":203,"depth_m":61.9}},{"type":"Feature","geometry":{"type":"Point","coordinates":[-119.7967,34.0658]},"properties":{"depth_ft":220,"depth_m":67.2}},{"type":"Feature","geometry":{"type":"Point","coordinates":[-119.77402,34.0658]},"properties":{"depth_ft":239,"depth_m":72.9}},{"type":"Feature","geometry":{"type":"Point","coordinates":[-119.75134,34.0658]},"properties":{"depth_ft":268,"depth_m":81.8}},{"type":"Feature","geometry":{"type":"Point","coordinates":[-119.72866,34.0658]},"properties":{"depth_ft":286,"depth_m":87.1}},{"type":"Feature","geometry":{"type":"Point","coordinates":[-119.70598,34.0658]},"properties":{"depth_ft":289,"depth_m":88.1}},{"type":"Feature","geometry":{"type":"Point","coordinates":[-119.6833,34.0658]},"properties":{"depth_ft":299,"depth_m":91.3}},{"type":"Feature","geometry":{"type":"Point","coordinates":[-119.66062,34.0658]},"properties":{"depth_ft":293,"depth_m":89.4}},{"type":"Feature","geometry":{"type":"Point","coordinates":[-119.63795,34.0658]},"properties":{"depth_ft":299,"depth_m":91.1}},{"type":"Feature","geometry":{"type":"Point","coordinates":[-119.61527,34.0658]},"properties":{"depth_ft":294,"depth_m":89.5}},{"type":"Feature","geometry":{"type":"Point","coordinates":[-119.59259,34.0658]},"properties":{"depth_ft":293,"depth_m":89.3}},{"type":"Feature","geometry":{"type":"Point","coordinates":[-119.56991,34.0658]},"properties":{"depth_ft":277,"depth_m":84.3}},{"type":"Feature","geometry":{"type":"Point","coordinates":[-119.54723,34.0658]},"properties":{"depth_ft":269,"depth_m":82.0}},{"type":"Feature","geometry":{"type":"Point","coordinates":[-119.52455,34.0658]},"properties":{"depth_ft":273,"depth_m":83.2}},{"type":"Feature","geometry":{"type":"Point","coordinates":[-119.50187,34.0658]},"properties":{"depth_ft":272,"depth_m":83.0}},{"type":"Feature","geometry":{"type":"Point","coordinates":[-119.4792,34.0658]},"properties":{"depth_ft":274,"depth_m":83.5}},{"type":"Feature","geometry":{"type":"Point","coordinates":[-120.0008,34.047]},"properties":{"depth_ft":124,"depth_m":37.9}},{"type":"Feature","geometry":{"type":"Point","coordinates":[-119.97813,34.047]},"properties":{"depth_ft":109,"depth_m":33.3}},{"type":"Feature","geometry":{"type":"Point","coordinates":[-119.95545,34.047]},"properties":{"depth_ft":130,"depth_m":39.7}},{"type":"Feature","geometry":{"type":"Point","coordinates":[-119.93277,34.047]},"properties":{"depth_ft":87,"depth_m":26.5}},{"type":"Feature","geometry":{"type":"Point","coordinates":[-119.91009,34.047]},"properties":{"depth_ft":77,"depth_m":23.4}},{"type":"Feature","geometry":{"type":"Point","coordinates":[-119.70598,34.047]},"properties":{"depth_ft":237,"depth_m":72.2}},{"type":"Feature","geometry":{"type":"Point","coordinates":[-119.6833,34.047]},"properties":{"depth_ft":278,"depth_m":84.9}},{"type":"Feature","geometry":{"type":"Point","coordinates":[-119.66062,34.047]},"properties":{"depth_ft":285,"depth_m":86.9}},{"type":"Feature","geometry":{"type":"Point","coordinates":[-119.63795,34.047]},"properties":{"depth_ft":284,"depth_m":86.5}},{"type":"Feature","geometry":{"type":"Point","coordinates":[-119.61527,34.047]},"properties":{"depth_ft":218,"depth_m":66.6}},{"type":"Feature","geometry":{"type":"Point","coordinates":[-119.52455,34.047]},"properties":{"depth_ft":253,"depth_m":77.2}},{"type":"Feature","geometry":{"type":"Point","coordinates":[-119.50187,34.047]},"properties":{"depth_ft":275,"depth_m":83.7}},{"type":"Feature","geometry":{"type":"Point","coordinates":[-119.4792,34.047]},"properties":{"depth_ft":274,"depth_m":83.6}},{"type":"Feature","geometry":{"type":"Point","coordinates":[-120.0008,34.0282]},"properties":{"depth_ft":108,"depth_m":33.0}},{"type":"Feature","geometry":{"type":"Point","coordinates":[-119.97813,34.0282]},"properties":{"depth_ft":119,"depth_m":36.3}},{"type":"Feature","geometry":{"type":"Point","coordinates":[-119.95545,34.0282]},"properties":{"depth_ft":143,"depth_m":43.7}},{"type":"Feature","geometry":{"type":"Point","coordinates":[-119.93277,34.0282]},"properties":{"depth_ft":133,"depth_m":40.6}},{"type":"Feature","geometry":{"type":"Point","coordinates":[-119.91009,34.0282]},"properties":{"depth_ft":109,"depth_m":33.1}},{"type":"Feature","geometry":{"type":"Point","coordinates":[-119.88741,34.0282]},"properties":{"depth_ft":70,"depth_m":21.5}},{"type":"Feature","geometry":{"type":"Point","coordinates":[-119.6833,34.0282]},"properties":{"depth_ft":191,"depth_m":58.2}},{"type":"Feature","geometry":{"type":"Point","coordinates":[-119.66062,34.0282]},"properties":{"depth_ft":215,"depth_m":65.5}},{"type":"Feature","geometry":{"type":"Point","coordinates":[-119.63795,34.0282]},"properties":{"depth_ft":188,"depth_m":57.3}},{"type":"Feature","geometry":{"type":"Point","coordinates":[-119.61527,34.0282]},"properties":{"depth_ft":72,"depth_m":21.9}},{"type":"Feature","geometry":{"type":"Point","coordinates":[-119.52455,34.0282]},"properties":{"depth_ft":28,"depth_m":8.6}},{"type":"Feature","geometry":{"type":"Point","coordinates":[-119.50187,34.0282]},"properties":{"depth_ft":199,"depth_m":60.6}},{"type":"Feature","geometry":{"type":"Point","coordinates":[-119.4792,34.0282]},"properties":{"depth_ft":207,"depth_m":63.2}},{"type":"Feature","geometry":{"type":"Point","coordinates":[-120.0008,34.0094]},"properties":{"depth_ft":105,"depth_m":32.1}},{"type":"Feature","geometry":{"type":"Point","coordinates":[-119.97813,34.0094]},"properties":{"depth_ft":126,"depth_m":38.5}},{"type":"Feature","geometry":{"type":"Point","coordinates":[-119.95545,34.0094]},"properties":{"depth_ft":139,"depth_m":42.4}},{"type":"Feature","geometry":{"type":"Point","coordinates":[-119.93277,34.0094]},"properties":{"depth_ft":132,"depth_m":40.3}},{"type":"Feature","geometry":{"type":"Point","coordinates":[-119.91009,34.0094]},"properties":{"depth_ft":137,"depth_m":41.8}},{"type":"Feature","geometry":{"type":"Point","coordinates":[-119.88741,34.0094]},"properties":{"depth_ft":13,"depth_m":4.0}},{"type":"Feature","geometry":{"type":"Point","coordinates":[-119.54723,34.0094]},"properties":{"depth_ft":16,"depth_m":4.9}},{"type":"Feature","geometry":{"type":"Point","coordinates":[-119.52455,34.0094]},"properties":{"depth_ft":97,"depth_m":29.7}},{"type":"Feature","geometry":{"type":"Point","coordinates":[-119.50187,34.0094]},"properties":{"depth_ft":161,"depth_m":49.1}},{"type":"Feature","geometry":{"type":"Point","coordinates":[-119.4792,34.0094]},"properties":{"depth_ft":181,"depth_m":55.1}},{"type":"Feature","geometry":{"type":"Point","coordinates":[-120.0008,33.9906]},"properties":{"depth_ft":70,"depth_m":21.4}},{"type":"Feature","geometry":{"type":"Point","coordinates":[-119.97813,33.9906]},"properties":{"depth_ft":115,"depth_m":35.0}},{"type":"Feature","geometry":{"type":"Point","coordinates":[-119.95545,33.9906]},"properties":{"depth_ft":168,"depth_m":51.3}},{"type":"Feature","geometry":{"type":"Point","coordinates":[-119.91009,33.9906]},"properties":{"depth_ft":226,"depth_m":68.9}},{"type":"Feature","geometry":{"type":"Point","coordinates":[-119.88741,33.9906]},"properties":{"depth_ft":53,"depth_m":16.2}},{"type":"Feature","geometry":{"type":"Point","coordinates":[-119.56991,33.9906]},"properties":{"depth_ft":59,"depth_m":18.0}},{"type":"Feature","geometry":{"type":"Point","coordinates":[-119.54723,33.9906]},"properties":{"depth_ft":51,"depth_m":15.5}},{"type":"Feature","geometry":{"type":"Point","coordinates":[-119.52455,33.9906]},"properties":{"depth_ft":97,"depth_m":29.7}},{"type":"Feature","geometry":{"type":"Point","coordinates":[-119.50187,33.9906]},"properties":{"depth_ft":172,"depth_m":52.6}},{"type":"Feature","geometry":{"type":"Point","coordinates":[-119.4792,33.9906]},"properties":{"depth_ft":180,"depth_m":54.9}},{"type":"Feature","geometry":{"type":"Point","coordinates":[-119.97813,33.9718]},"properties":{"depth_ft":19,"depth_m":5.7}},{"type":"Feature","geometry":{"type":"Point","coordinates":[-119.95545,33.9718]},"properties":{"depth_ft":79,"depth_m":24.1}},{"type":"Feature","geometry":{"type":"Point","coordinates":[-119.93277,33.9718]},"properties":{"depth_ft":264,"depth_m":80.3}},{"type":"Feature","geometry":{"type":"Point","coordinates":[-119.88741,33.9718]},"properties":{"depth_ft":257,"depth_m":78.4}},{"type":"Feature","geometry":{"type":"Point","coordinates":[-119.86473,33.9718]},"properties":{"depth_ft":65,"depth_m":19.9}},{"type":"Feature","geometry":{"type":"Point","coordinates":[-119.6833,33.9718]},"properties":{"depth_ft":91,"depth_m":27.6}},{"type":"Feature","geometry":{"type":"Point","coordinates":[-119.66062,33.9718]},"properties":{"depth_ft":137,"depth_m":41.6}},{"type":"Feature","geometry":{"type":"Point","coordinates":[-119.63795,33.9718]},"properties":{"depth_ft":183,"depth_m":55.7}},{"type":"Feature","geometry":{"type":"Point","coordinates":[-119.61527,33.9718]},"properties":{"depth_ft":221,"depth_m":67.3}},{"type":"Feature","geometry":{"type":"Point","coordinates":[-119.59259,33.9718]},"properties":{"depth_ft":254,"depth_m":77.3}},{"type":"Feature","geometry":{"type":"Point","coordinates":[-119.56991,33.9718]},"properties":{"depth_ft":274,"depth_m":83.6}},{"type":"Feature","geometry":{"type":"Point","coordinates":[-119.95545,33.953]},"properties":{"depth_ft":118,"depth_m":35.9}},{"type":"Feature","geometry":{"type":"Point","coordinates":[-119.93277,33.953]},"properties":{"depth_ft":251,"depth_m":76.5}},{"type":"Feature","geometry":{"type":"Point","coordinates":[-119.86473,33.953]},"properties":{"depth_ft":282,"depth_m":86.0}},{"type":"Feature","geometry":{"type":"Point","coordinates":[-119.84205,33.953]},"properties":{"depth_ft":213,"depth_m":65.0}},{"type":"Feature","geometry":{"type":"Point","coordinates":[-119.81938,33.953]},"properties":{"depth_ft":36,"depth_m":11.1}},{"type":"Feature","geometry":{"type":"Point","coordinates":[-119.7967,33.953]},"properties":{"depth_ft":140,"depth_m":42.7}},{"type":"Feature","geometry":{"type":"Point","coordinates":[-119.77402,33.953]},"properties":{"depth_ft":129,"depth_m":39.2}},{"type":"Feature","geometry":{"type":"Point","coordinates":[-119.75134,33.953]},"properties":{"depth_ft":136,"depth_m":41.5}},{"type":"Feature","geometry":{"type":"Point","coordinates":[-119.72866,33.953]},"properties":{"depth_ft":138,"depth_m":42.0}},{"type":"Feature","geometry":{"type":"Point","coordinates":[-119.70598,33.953]},"properties":{"depth_ft":172,"depth_m":52.3}},{"type":"Feature","geometry":{"type":"Point","coordinates":[-119.6833,33.953]},"properties":{"depth_ft":223,"depth_m":68.1}},{"type":"Feature","geometry":{"type":"Point","coordinates":[-119.66062,33.953]},"properties":{"depth_ft":275,"depth_m":83.8}},{"type":"Feature","geometry":{"type":"Point","coordinates":[-120.0008,33.9342]},"properties":{"depth_ft":72,"depth_m":22.1}},{"type":"Feature","geometry":{"type":"Point","coordinates":[-119.97813,33.9342]},"properties":{"depth_ft":81,"depth_m":24.8}},{"type":"Feature","geometry":{"type":"Point","coordinates":[-119.95545,33.9342]},"properties":{"depth_ft":142,"depth_m":43.2}},{"type":"Feature","geometry":{"type":"Point","coordinates":[-119.93277,33.9342]},"properties":{"depth_ft":248,"depth_m":75.7}},{"type":"Feature","geometry":{"type":"Point","coordinates":[-119.91009,33.9342]},"properties":{"depth_ft":287,"depth_m":87.5}},{"type":"Feature","geometry":{"type":"Point","coordinates":[-119.7967,33.9342]},"properties":{"depth_ft":284,"depth_m":86.7}},{"type":"Feature","geometry":{"type":"Point","coordinates":[-119.77402,33.9342]},"properties":{"depth_ft":326,"depth_m":99.3}},{"type":"Feature","geometry":{"type":"Point","coordinates":[-120.0008,33.91539]},"properties":{"depth_ft":101,"depth_m":30.9}},{"type":"Feature","geometry":{"type":"Point","coordinates":[-119.97813,33.91539]},"properties":{"depth_ft":106,"depth_m":32.4}},{"type":"Feature","geometry":{"type":"Point","coordinates":[-119.95545,33.91539]},"properties":{"depth_ft":187,"depth_m":57.1}},{"type":"Feature","geometry":{"type":"Point","coordinates":[-119.93277,33.91539]},"properties":{"depth_ft":266,"depth_m":80.9}},{"type":"Feature","geometry":{"type":"Point","coordinates":[-119.91009,33.91539]},"properties":{"depth_ft":297,"depth_m":90.5}},{"type":"Feature","geometry":{"type":"Point","coordinates":[-120.0008,33.89659]},"properties":{"depth_ft":140,"depth_m":42.7}},{"type":"Feature","geometry":{"type":"Point","coordinates":[-119.97813,33.89659]},"properties":{"depth_ft":165,"depth_m":50.3}},{"type":"Feature","geometry":{"type":"Point","coordinates":[-119.95545,33.89659]},"properties":{"depth_ft":227,"depth_m":69.2}},{"type":"Feature","geometry":{"type":"Point","coordinates":[-119.93277,33.89659]},"properties":{"depth_ft":288,"depth_m":87.7}},{"type":"Feature","geometry":{"type":"Point","coordinates":[-120.0008,33.87779]},"properties":{"depth_ft":199,"depth_m":60.7}},{"type":"Feature","geometry":{"type":"Point","coordinates":[-119.97813,33.87779]},"properties":{"depth_ft":221,"depth_m":67.3}},{"type":"Feature","geometry":{"type":"Point","coordinates":[-119.95545,33.87779]},"properties":{"depth_ft":246,"depth_m":74.9}},{"type":"Feature","geometry":{"type":"Point","coordinates":[-119.93277,33.87779]},"properties":{"depth_ft":309,"depth_m":94.1}},{"type":"Feature","geometry":{"type":"Point","coordinates":[-120.0008,33.85899]},"properties":{"depth_ft":256,"depth_m":78.1}},{"type":"Feature","geometry":{"type":"Point","coordinates":[-119.97813,33.85899]},"properties":{"depth_ft":259,"depth_m":79.1}},{"type":"Feature","geometry":{"type":"Point","coordinates":[-119.95545,33.85899]},"properties":{"depth_ft":294,"depth_m":89.7}},{"type":"Feature","geometry":{"type":"Point","coordinates":[-119.93277,33.85899]},"properties":{"depth_ft":325,"depth_m":98.9}},{"type":"Feature","geometry":{"type":"Point","coordinates":[-120.0008,33.84019]},"properties":{"depth_ft":298,"depth_m":90.7}},{"type":"Feature","geometry":{"type":"Point","coordinates":[-119.97813,33.84019]},"properties":{"depth_ft":313,"depth_m":95.5}}]}