{"type":"FeatureCollection","features":[{"type":"Feature","geometry":{"type":"Polygon","coordinates":[[[-119.43799,34.01403],[-119.4361,34.0139],[-119.43607,34.01463],[-119.43534,34.01501],[-119.43545,34.01524],[-119.43506,34.01531],[-119.43513,34.01554],[-119.4348,34.01551],[-119.43419,34.01602],[-119.43374,34.01601],[-119.43301,34.01632],[-119.43278,34.0161],[-119.43181,34.01602],[-119.43163,34.01583],[-119.43116,34.01596],[-119.43091,34.01562],[-119.43033,34.01552],[-119.42997,34.01512],[-119.4293,34.01535],[-119.42852,34.0152],[-119.42806,34.01535],[-119.42766,34.01523],[-119.42759,34.01503],[-119.42731,34.01542],[-119.42671,34.01535],[-119.42655,34.01547],[-119.4266,34.01519],[-119.42624,34.01533],[-119.42631,34.01515],[-119.42618,34.015],[-119.42587,34.01533],[-119.42528,34.01534],[-119.42492,34.01553],[-119.4242,34.01518],[-119.42385,34.01519],[-119.42372,34.01538],[-119.42311,34.01523],[-119.42288,34.01539],[-119.42252,34.01532],[-119.42241,34.01507],[-119.42191,34.0153],[-119.42175,34.01512],[-119.42143,34.01524],[-119.42124,34.01512],[-119.4213,34.01489],[-119.42109,34.01472],[-119.421,34.01436],[-119.42022,34.01408],[-119.41991,34.01434],[-119.41971,34.01388],[-119.41958,34.01395],[-119.41952,34.01381],[-119.41899,34.01368],[-119.41873,34.01327],[-119.41805,34.01319],[-119.41681,34.01175],[-119.41608,34.01164],[-119.41616,34.0115],[-119.41596,34.01144],[-119.41482,34.00994],[-119.41435,34.00979],[-119.41396,34.00944],[-119.41287,34.00916],[-119.41264,34.00886],[-119.41233,34.00875],[-119.41228,34.00844],[-119.41208,34.0085],[-119.41205,34.00813],[-119.41158,34.0077],[-119.40994,34.00688],[-119.40954,34.00686],[-119.40967,34.00673],[-119.40954,34.00664],[-119.4086,34.00687],[-119.40828,34.00681],[-119.4079,34.00647],[-119.40816,34.00608],[-119.40941,34.00594],[-119.41016,34.00649],[-119.41009,34.00668],[-119.41022,34.00677],[-119.41096,34.00666],[-119.41243,34.00682],[-119.41453,34.00625],[-119.41471,34.0059],[-119.41529,34.00594],[-119.41523,34.00609],[-119.41576,34.00642],[-119.41655,34.00621],[-119.41703,34.00637],[-119.41746,34.00626],[-119.41748,34.00596],[-119.41795,34.00614],[-119.41833,34.0061],[-119.41844,34.00588],[-119.41902,34.00583],[-119.41939,34.00551],[-119.41973,34.0055],[-119.41978,34.00567],[-119.42007,34.00577],[-119.4202,34.00547],[-119.42035,34.00561],[-119.42078,34.00556],[-119.42118,34.00517],[-119.42132,34.00528],[-119.42144,34.0051],[-119.42151,34.00523],[-119.42206,34.00506],[-119.42231,34.00528],[-119.42269,34.00523],[-119.42236,34.00552],[-119.4227,34.00622],[-119.42309,34.00634],[-119.42303,34.00666],[-119.42324,34.00656],[-119.42342,34.00684],[-119.42442,34.00735],[-119.42442,34.00754],[-119.42497,34.00769],[-119.42529,34.00761],[-119.42528,34.00789],[-119.42587,34.00758],[-119.42631,34.00769],[-119.42628,34.00791],[-119.42671,34.00776],[-119.42673,34.00796],[-119.42707,34.00766],[-119.42705,34.00781],[-119.42738,34.00787],[-119.42748,34.00776],[-119.42849,34.00792],[-119.42859,34.00782],[-119.42877,34.00793],[-119.42868,34.0082],[-119.42883,34.00815],[-119.42897,34.00832],[-119.42911,34.00821],[-119.42917,34.00836],[-119.42955,34.00825],[-119.42962,34.00857],[-119.42977,34.00843],[-119.43004,34.00858],[-119.43045,34.00846],[-119.43071,34.00878],[-119.43122,34.00853],[-119.43141,34.00861],[-119.43131,34.00894],[-119.43141,34.00888],[-119.43141,34.00908],[-119.4317,34.00932],[-119.43185,34.00929],[-119.43189,34.00957],[-119.4334,34.01007],[-119.4338,34.01058],[-119.43367,34.01077],[-119.43385,34.01081],[-119.43454,34.01068],[-119.43488,34.01035],[-119.43495,34.01069],[-119.43502,34.0105],[-119.43647,34.01],[-119.43672,34.01023],[-119.43754,34.01004],[-119.43765,34.01022],[-119.43796,34.01021],[-119.43818,34.01077],[-119.43857,34.01077],[-119.43873,34.01095],[-119.43916,34.0122],[-119.43984,34.01222],[-119.44014,34.01248],[-119.44056,34.01232],[-119.44083,34.01257],[-119.44142,34.01256],[-119.44161,34.01288],[-119.44188,34.01277],[-119.44221,34.01302],[-119.4424,34.01289],[-119.44267,34.01304],[-119.44266,34.01349],[-119.44293,34.01365],[-119.44359,34.01358],[-119.44366,34.01369],[-119.44378,34.01358],[-119.44393,34.01381],[-119.44265,34.01418],[-119.44188,34.01375],[-119.44115,34.01418],[-119.44062,34.01407],[-119.4403,34.01422],[-119.4395,34.01414],[-119.43822,34.01434],[-119.43799,34.01403]]]},"properties":{"name":"unnamed-land"}},{"type":"Feature","geometry":{"type":"Polygon","coordinates":[[[-119.38068,34.00978],[-119.38083,34.00944],[-119.38123,34.00928],[-119.38086,34.00889],[-119.38116,34.00866],[-119.3828,34.00852],[-119.38307,34.00821],[-119.38354,34.00812],[-119.38401,34.0078],[-119.38565,34.00745],[-119.38557,34.00725],[-119.38609,34.00719],[-119.38646,34.00691],[-119.38686,34.00617],[-119.3872,34.00602],[-119.38706,34.00587],[-119.38725,34.00568],[-119.38713,34.00493],[-119.38754,34.00416],[-119.38785,34.00398],[-119.38824,34.00401],[-119.38849,34.00366],[-119.38983,34.00313],[-119.38997,34.00322],[-119.39009,34.00298],[-119.39204,34.0024],[-119.39235,34.00262],[-119.39171,34.00322],[-119.39299,34.00322],[-119.39444,34.00289],[-119.39448,34.00307],[-119.39495,34.00302],[-119.39519,34.00332],[-119.39553,34.00333],[-119.39564,34.00318],[-119.39625,34.00312],[-119.39633,34.00296],[-119.3973,34.003],[-119.39737,34.00322],[-119.39787,34.0033],[-119.39796,34.00371],[-119.39863,34.00339],[-119.39966,34.00347],[-119.39956,34.00446],[-119.39966,34.00457],[-119.40041,34.00418],[-119.40027,34.00469],[-119.40099,34.00505],[-119.40117,34.00479],[-119.40233,34.00438],[-119.4024,34.00458],[-119.40283,34.0048],[-119.40272,34.00527],[-119.40296,34.0055],[-119.40405,34.00528],[-119.40495,34.00537],[-119.40643,34.00524],[-119.40655,34.0054],[-119.40722,34.00522],[-119.40741,34.00541],[-119.40734,34.00562],[-119.40761,34.00581],[-119.40742,34.00617],[-119.40716,34.00631],[-119.4064,34.0065],[-119.40629,34.00637],[-119.40598,34.00645],[-119.40554,34.00675],[-119.40444,34.00686],[-119.40391,34.00676],[-119.40375,34.00633],[-119.40326,34.0067],[-119.40215,34.00705],[-119.40174,34.00688],[-119.4018,34.00666],[-119.40163,34.00675],[-119.40152,34.00664],[-119.40124,34.00688],[-119.40073,34.00683],[-119.40034,34.0066],[-119.39988,34.00675],[-119.39975,34.00644],[-119.40013,34.00622],[-119.39927,34.0059],[-119.39913,34.00546],[-119.39848,34.00594],[-119.39808,34.00605],[-119.39805,34.00588],[-119.39781,34.006],[-119.3973,34.00584],[-119.39698,34.00604],[-119.39683,34.0059],[-119.39611,34.00596],[-119.39464,34.00544],[-119.39448,34.00598],[-119.39389,34.00608],[-119.39385,34.00636],[-119.39305,34.00666],[-119.39271,34.00649],[-119.39258,34.00661],[-119.39226,34.00623],[-119.39204,34.00628],[-119.39148,34.00578],[-119.39082,34.00594],[-119.39049,34.00582],[-119.38995,34.00607],[-119.38989,34.00636],[-119.39003,34.00645],[-119.38956,34.00699],[-119.38894,34.00725],[-119.3872,34.00753],[-119.3869,34.00783],[-119.38645,34.00768],[-119.3854,34.00814],[-119.38532,34.00863],[-119.38552,34.00877],[-119.38546,34.0091],[-119.385,34.00925],[-119.38484,34.00892],[-119.38353,34.00918],[-119.383,34.00975],[-119.38273,34.01033],[-119.38272,34.01062],[-119.38292,34.01083],[-119.38278,34.01114],[-119.38114,34.01117],[-119.38095,34.01095],[-119.38069,34.01084],[-119.38052,34.01106],[-119.38009,34.01073],[-119.37928,34.01095],[-119.37909,34.01072],[-119.3792,34.01028],[-119.37968,34.01042],[-119.38001,34.00964],[-119.38068,34.00978]]]},"properties":{"name":"unnamed-land"}},{"type":"Feature","geometry":{"type":"Polygon","coordinates":[[[-119.35942,34.01552],[-119.35978,34.01533],[-119.35967,34.01507],[-119.35987,34.01493],[-119.36004,34.015],[-119.35995,34.0152],[-119.3603,34.01518],[-119.36074,34.01498],[-119.36054,34.01487],[-119.36066,34.01469],[-119.36101,34.01457],[-119.36149,34.01465],[-119.36187,34.01492],[-119.36246,34.01439],[-119.36343,34.0143],[-119.36374,34.01396],[-119.36536,34.01376],[-119.36613,34.01309],[-119.36684,34.01323],[-119.36716,34.01305],[-119.36757,34.01336],[-119.36787,34.01321],[-119.36808,34.01341],[-119.36875,34.0129],[-119.36887,34.01294],[-119.36886,34.01325],[-119.36959,34.01328],[-119.36973,34.01305],[-119.37089,34.01276],[-119.37128,34.01237],[-119.37184,34.01231],[-119.37205,34.01199],[-119.37283,34.01239],[-119.37317,34.01236],[-119.37331,34.01219],[-119.37349,34.01256],[-119.37489,34.01256],[-119.37574,34.01227],[-119.37674,34.01231],[-119.37764,34.01192],[-119.37779,34.0121],[-119.37735,34.01283],[-119.37676,34.01282],[-119.37614,34.01329],[-119.37594,34.01333],[-119.3756,34.01299],[-119.37537,34.01314],[-119.37502,34.01301],[-119.37465,34.0132],[-119.37442,34.01354],[-119.37454,34.01361],[-119.37446,34.0139],[-119.37472,34.01401],[-119.37422,34.01384],[-119.37378,34.01429],[-119.37395,34.01468],[-119.37384,34.01489],[-119.37403,34.01497],[-119.37385,34.01504],[-119.37382,34.01536],[-119.37343,34.01543],[-119.37305,34.01502],[-119.37271,34.01527],[-119.37268,34.01591],[-119.3724,34.01617],[-119.3718,34.01533],[-119.37242,34.01485],[-119.37159,34.01494],[-119.37138,34.01489],[-119.37121,34.01455],[-119.37016,34.01443],[-119.37011,34.01464],[-119.36965,34.01469],[-119.36962,34.01506],[-119.36928,34.01503],[-119.36891,34.01522],[-119.36868,34.01493],[-119.36875,34.01505],[-119.36809,34.01567],[-119.36792,34.01616],[-119.36734,34.01621],[-119.36719,34.01599],[-119.36694,34.01668],[-119.3667,34.01691],[-119.36633,34.01667],[-119.36567,34.01674],[-119.36527,34.01715],[-119.36495,34.01693],[-119.36499,34.01668],[-119.36482,34.0171],[-119.36435,34.01744],[-119.36424,34.01726],[-119.36442,34.01698],[-119.36421,34.01688],[-119.36424,34.01676],[-119.36408,34.01699],[-119.36388,34.01688],[-119.36334,34.01734],[-119.36305,34.0174],[-119.36328,34.01717],[-119.363,34.01706],[-119.36257,34.01718],[-119.3626,34.017],[-119.36215,34.01685],[-119.36203,34.01664],[-119.36232,34.01649],[-119.36221,34.01626],[-119.36186,34.01622],[-119.36136,34.01647],[-119.35949,34.0168],[-119.35759,34.01609],[-119.35777,34.01536],[-119.35942,34.01552]]]},"properties":{"name":"unnamed-land"}}]}