{"type":"FeatureCollection","features":[{"type":"Feature","geometry":{"type":"Polygon","coordinates":[[[-119.416,34.016],[-119.415,34.015],[-119.415,34.015],[-119.414,34.014],[-119.413,34.013],[-119.412,34.013],[-119.412,34.013],[-119.411,34.012],[-119.41,34.012],[-119.41,34.012],[-119.41,34.008],[-119.41,34.008],[-119.409,34.008],[-119.408,34.008],[-119.408,34.007],[-119.407,34.007],[-119.406,34.007],[-119.406,34.007],[-119.405,34.007],[-119.404,34.007],[-119.403,34.007],[-119.401,34.007],[-119.401,34.007],[-119.4,34.007],[-119.399,34.007],[-119.399,34.007],[-119.397,34.007],[-119.397,34.007],[-119.396,34.007],[-119.395,34.007],[-119.395,34.007],[-119.394,34.008],[-119.393,34.008],[-119.393,34.008],[-119.392,34.008],[-119.391,34.008],[-119.39,34.008],[-119.39,34.008],[-119.39,34.009],[-119.389,34.009],[-119.388,34.009],[-119.387,34.01],[-119.386,34.01],[-119.386,34.01],[-119.386,34.01],[-119.385,34.011],[-119.384,34.011],[-119.383,34.012],[-119.383,34.012],[-119.382,34.012],[-119.382,34.012],[-119.381,34.013],[-119.38,34.013],[-119.38,34.013],[-119.379,34.013],[-119.378,34.013],[-119.377,34.014],[-119.377,34.014],[-119.377,34.014],[-119.376,34.014],[-119.375,34.015],[-119.375,34.015],[-119.374,34.016],[-119.373,34.016],[-119.373,34.016],[-119.372,34.016],[-119.371,34.016],[-119.371,34.016],[-119.37,34.016],[-119.369,34.016],[-119.369,34.016],[-119.368,34.017],[-119.367,34.018],[-119.365,34.018],[-119.364,34.018],[-119.364,34.018],[-119.363,34.018],[-119.362,34.018],[-119.362,34.018],[-119.361,34.017],[-119.36,34.017],[-119.36,34.017],[-119.359,34.017],[-119.359,34.017],[-119.358,34.016],[-119.357,34.016],[-119.357,34.016],[-119.357,34.016],[-119.357,34.016],[-119.357,34.015],[-119.358,34.015],[-119.359,34.015],[-119.36,34.014],[-119.36,34.014],[-119.36,34.014],[-119.36,34.014],[-119.362,34.013],[-119.362,34.013],[-119.363,34.013],[-119.363,34.013],[-119.364,34.013],[-119.365,34.012],[-119.365,34.012],[-119.366,34.012],[-119.367,34.012],[-119.367,34.012],[-119.368,34.012],[-119.369,34.012],[-119.37,34.011],[-119.37,34.011],[-119.371,34.011],[-119.372,34.011],[-119.373,34.011],[-119.374,34.011],[-119.374,34.011],[-119.375,34.011],[-119.376,34.011],[-119.377,34.011],[-119.377,34.01],[-119.379,34.01],[-119.379,34.01],[-119.38,34.009],[-119.38,34.009],[-119.38,34.009],[-119.381,34.008],[-119.382,34.008],[-119.383,34.008],[-119.384,34.007],[-119.384,34.007],[-119.384,34.007],[-119.384,34.006],[-119.385,34.006],[-119.385,34.006],[-119.386,34.005],[-119.386,34.005],[-119.386,34.005],[-119.387,34.004],[-119.387,34.004],[-119.387,34.004],[-119.388,34.003],[-119.388,34.003],[-119.388,34.003],[-119.389,34.003],[-119.39,34.003],[-119.39,34.003],[-119.391,34.002],[-119.392,34.002],[-119.393,34.003],[-119.393,34.003],[-119.394,34.003],[-119.395,34.003],[-119.396,34.003],[-119.396,34.003],[-119.397,34.003],[-119.398,34.003],[-119.398,34.003],[-119.399,34.003],[-119.4,34.003],[-119.401,34.003],[-119.401,34.003],[-119.402,34.003],[-119.402,34.003],[-119.403,34.004],[-119.403,34.004],[-119.404,34.004],[-119.405,34.004],[-119.406,34.004],[-119.406,34.004],[-119.407,34.004],[-119.408,34.004],[-119.408,34.004],[-119.408,34.005],[-119.409,34.005],[-119.41,34.005],[-119.412,34.005],[-119.412,34.005],[-119.413,34.005],[-119.414,34.005],[-119.414,34.004],[-119.415,34.004],[-119.416,34.004],[-119.416,34.004],[-119.417,34.004],[-119.418,34.004],[-119.419,34.004],[-119.42,34.004],[-119.421,34.004],[-119.423,34.004],[-119.424,34.005],[-119.425,34.005],[-119.426,34.006],[-119.427,34.006],[-119.428,34.007],[-119.429,34.007],[-119.429,34.007],[-119.43,34.007],[-119.43,34.007],[-119.431,34.008],[-119.432,34.008],[-119.432,34.008],[-119.433,34.008],[-119.434,34.008],[-119.434,34.009],[-119.435,34.009],[-119.435,34.009],[-119.436,34.01],[-119.437,34.01],[-119.437,34.01],[-119.438,34.01],[-119.438,34.01],[-119.438,34.01],[-119.438,34.01],[-119.439,34.011],[-119.44,34.011],[-119.44,34.011],[-119.441,34.012],[-119.442,34.013],[-119.443,34.013],[-119.444,34.013],[-119.444,34.014],[-119.444,34.014],[-119.444,34.014],[-119.444,34.014],[-119.444,34.014],[-119.443,34.014],[-119.443,34.015],[-119.442,34.015],[-119.442,34.015],[-119.441,34.015],[-119.44,34.015],[-119.439,34.015],[-119.438,34.015],[-119.438,34.016],[-119.437,34.016],[-119.436,34.016],[-119.436,34.016],[-119.435,34.016],[-119.434,34.017],[-119.434,34.017],[-119.433,34.017],[-119.432,34.017],[-119.431,34.017],[-119.431,34.016],[-119.43,34.016],[-119.429,34.016],[-119.429,34.016],[-119.428,34.016],[-119.427,34.016],[-119.427,34.016],[-119.425,34.016],[-119.425,34.016],[-119.425,34.016],[-119.423,34.016],[-119.423,34.016],[-119.423,34.016],[-119.422,34.016],[-119.421,34.015],[-119.421,34.015],[-119.421,34.018],[-119.421,34.018],[-119.42,34.018],[-119.42,34.018],[-119.419,34.017],[-119.418,34.017],[-119.418,34.017],[-119.417,34.016],[-119.416,34.016],[-119.416,34.016]],[[-119.423,34.015],[-119.423,34.015],[-119.424,34.015],[-119.424,34.015],[-119.424,34.015],[-119.424,34.015],[-119.424,34.015],[-119.424,34.015],[-119.424,34.015],[-119.424,34.015],[-119.424,34.015],[-119.425,34.015],[-119.425,34.015],[-119.425,34.015],[-119.425,34.015],[-119.425,34.015],[-119.425,34.015],[-119.425,34.015],[-119.425,34.015],[-119.426,34.015],[-119.426,34.015],[-119.426,34.015],[-119.426,34.015],[-119.426,34.015],[-119.426,34.015],[-119.426,34.015],[-119.426,34.015],[-119.426,34.015],[-119.426,34.015],[-119.426,34.015],[-119.426,34.015],[-119.426,34.015],[-119.426,34.015],[-119.427,34.015],[-119.427,34.015],[-119.427,34.015],[-119.427,34.015],[-119.427,34.015],[-119.427,34.015],[-119.427,34.015],[-119.427,34.015],[-119.427,34.015],[-119.427,34.015],[-119.427,34.015],[-119.427,34.015],[-119.427,34.015],[-119.427,34.015],[-119.427,34.015],[-119.427,34.015],[-119.427,34.015],[-119.428,34.015],[-119.428,34.015],[-119.428,34.015],[-119.428,34.015],[-119.428,34.015],[-119.428,34.015],[-119.428,34.015],[-119.428,34.015],[-119.428,34.015],[-119.428,34.015],[-119.428,34.015],[-119.428,34.015],[-119.429,34.015],[-119.429,34.015],[-119.429,34.015],[-119.429,34.015],[-119.429,34.015],[-119.429,34.015],[-119.429,34.015],[-119.429,34.015],[-119.429,34.015],[-119.429,34.015],[-119.429,34.015],[-119.43,34.015],[-119.43,34.015],[-119.43,34.015],[-119.43,34.015],[-119.43,34.015],[-119.43,34.015],[-119.43,34.015],[-119.43,34.015],[-119.431,34.015],[-119.431,34.015],[-119.431,34.015],[-119.431,34.015],[-119.431,34.016],[-119.431,34.016],[-119.431,34.016],[-119.431,34.016],[-119.431,34.016],[-119.431,34.016],[-119.431,34.016],[-119.431,34.016],[-119.432,34.016],[-119.432,34.016],[-119.432,34.016],[-119.432,34.016],[-119.432,34.016],[-119.432,34.016],[-119.432,34.016],[-119.432,34.016],[-119.433,34.016],[-119.433,34.016],[-119.433,34.016],[-119.433,34.016],[-119.433,34.016],[-119.433,34.016],[-119.433,34.016],[-119.433,34.016],[-119.433,34.016],[-119.433,34.016],[-119.434,34.016],[-119.434,34.016],[-119.434,34.016],[-119.434,34.016],[-119.434,34.016],[-119.434,34.016],[-119.434,34.016],[-119.434,34.016],[-119.435,34.016],[-119.435,34.016],[-119.435,34.016],[-119.435,34.016],[-119.435,34.015],[-119.435,34.015],[-119.435,34.015],[-119.435,34.015],[-119.435,34.015],[-119.435,34.015],[-119.435,34.015],[-119.435,34.015],[-119.435,34.015],[-119.435,34.015],[-119.435,34.015],[-119.435,34.015],[-119.436,34.015],[-119.436,34.015],[-119.436,34.015],[-119.436,34.015],[-119.436,34.015],[-119.436,34.015],[-119.436,34.015],[-119.436,34.015],[-119.436,34.015],[-119.436,34.015],[-119.436,34.015],[-119.436,34.015],[-119.437,34.014],[-119.437,34.014],[-119.437,34.014],[-119.437,34.014],[-119.437,34.014],[-119.437,34.014],[-119.437,34.014],[-119.437,34.014],[-119.437,34.014],[-119.437,34.014],[-119.438,34.014],[-119.438,34.014],[-119.438,34.014],[-119.438,34.014],[-119.438,34.014],[-119.438,34.014],[-119.438,34.014],[-119.438,34.014],[-119.438,34.014],[-119.439,34.014],[-119.439,34.014],[-119.439,34.014],[-119.439,34.014],[-119.439,34.014],[-119.439,34.014],[-119.439,34.014],[-119.439,34.014],[-119.44,34.014],[-119.44,34.014],[-119.44,34.014],[-119.44,34.014],[-119.44,34.014],[-119.44,34.014],[-119.44,34.014],[-119.44,34.014],[-119.44,34.014],[-119.441,34.014],[-119.441,34.014],[-119.441,34.014],[-119.441,34.014],[-119.441,34.014],[-119.441,34.014],[-119.441,34.014],[-119.441,34.014],[-119.441,34.014],[-119.441,34.014],[-119.441,34.014],[-119.442,34.014],[-119.442,34.014],[-119.442,34.014],[-119.442,34.014],[-119.442,34.014],[-119.442,34.014],[-119.442,34.014],[-119.442,34.014],[-119.442,34.014],[-119.442,34.014],[-119.442,34.014],[-119.442,34.014],[-119.442,34.014],[-119.442,34.014],[-119.443,34.014],[-119.443,34.014],[-119.443,34.014],[-119.443,34.014],[-119.443,34.014],[-119.443,34.014],[-119.443,34.014],[-119.444,34.014],[-119.444,34.014],[-119.444,34.014],[-119.444,34.014],[-119.444,34.014],[-119.444,34.014],[-119.444,34.014],[-119.444,34.014],[-119.444,34.014],[-119.443,34.014],[-119.443,34.014],[-119.443,34.014],[-119.443,34.014],[-119.443,34.014],[-119.443,34.014],[-119.443,34.014],[-119.443,34.014],[-119.443,34.014],[-119.443,34.014],[-119.443,34.014],[-119.443,34.014],[-119.443,34.014],[-119.443,34.013],[-119.443,34.013],[-119.443,34.013],[-119.443,34.013],[-119.443,34.013],[-119.442,34.013],[-119.442,34.013],[-119.442,34.013],[-119.442,34.013],[-119.442,34.013],[-119.442,34.013],[-119.442,34.013],[-119.442,34.013],[-119.442,34.013],[-119.442,34.013],[-119.442,34.013],[-119.442,34.013],[-119.442,34.013],[-119.442,34.013],[-119.442,34.013],[-119.441,34.013],[-119.441,34.013],[-119.441,34.013],[-119.441,34.013],[-119.441,34.013],[-119.441,34.013],[-119.441,34.013],[-119.441,34.013],[-119.441,34.013],[-119.441,34.013],[-119.441,34.013],[-119.441,34.012],[-119.441,34.012],[-119.44,34.012],[-119.44,34.012],[-119.44,34.012],[-119.44,34.013],[-119.44,34.013],[-119.44,34.013],[-119.44,34.013],[-119.44,34.013],[-119.44,34.012],[-119.44,34.012],[-119.44,34.012],[-119.44,34.012],[-119.44,34.012],[-119.44,34.012],[-119.44,34.012],[-119.44,34.012],[-119.439,34.012],[-119.439,34.012],[-119.439,34.012],[-119.439,34.012],[-119.439,34.012],[-119.439,34.012],[-119.439,34.012],[-119.439,34.012],[-119.439,34.012],[-119.439,34.012],[-119.439,34.012],[-119.439,34.012],[-119.439,34.012],[-119.439,34.012],[-119.439,34.011],[-119.439,34.011],[-119.439,34.011],[-119.439,34.011],[-119.439,34.011],[-119.439,34.011],[-119.439,34.011],[-119.439,34.011],[-119.438,34.011],[-119.438,34.011],[-119.438,34.011],[-119.438,34.011],[-119.438,34.011],[-119.438,34.011],[-119.438,34.01],[-119.438,34.01],[-119.438,34.01],[-119.438,34.01],[-119.438,34.01],[-119.438,34.01],[-119.438,34.01],[-119.438,34.01],[-119.438,34.01],[-119.438,34.01],[-119.438,34.01],[-119.438,34.01],[-119.438,34.01],[-119.438,34.01],[-119.437,34.01],[-119.437,34.01],[-119.437,34.01],[-119.437,34.01],[-119.437,34.01],[-119.437,34.01],[-119.437,34.01],[-119.437,34.01],[-119.437,34.01],[-119.436,34.01],[-119.436,34.01],[-119.436,34.01],[-119.436,34.01],[-119.436,34.01],[-119.436,34.01],[-119.436,34.01],[-119.436,34.01],[-119.436,34.011],[-119.435,34.011],[-119.435,34.011],[-119.435,34.011],[-119.435,34.011],[-119.435,34.011],[-119.435,34.011],[-119.435,34.011],[-119.435,34.011],[-119.435,34.011],[-119.435,34.011],[-119.435,34.011],[-119.435,34.011],[-119.435,34.011],[-119.435,34.011],[-119.434,34.011],[-119.434,34.011],[-119.434,34.011],[-119.434,34.011],[-119.434,34.011],[-119.434,34.011],[-119.434,34.011],[-119.434,34.011],[-119.434,34.011],[-119.434,34.011],[-119.434,34.011],[-119.434,34.01],[-119.434,34.01],[-119.434,34.01],[-119.433,34.01],[-119.433,34.01],[-119.433,34.01],[-119.433,34.01],[-119.433,34.01],[-119.433,34.01],[-119.433,34.01],[-119.433,34.01],[-119.433,34.01],[-119.432,34.01],[-119.432,34.01],[-119.432,34.01],[-119.432,34.01],[-119.432,34.01],[-119.432,34.01],[-119.432,34.01],[-119.432,34.01],[-119.432,34.009],[-119.432,34.009],[-119.432,34.009],[-119.431,34.009],[-119.431,34.009],[-119.431,34.009],[-119.431,34.009],[-119.431,34.009],[-119.431,34.009],[-119.431,34.009],[-119.431,34.009],[-119.431,34.009],[-119.431,34.009],[-119.431,34.009],[-119.431,34.009],[-119.431,34.009],[-119.431,34.009],[-119.431,34.009],[-119.431,34.009],[-119.43,34.009],[-119.43,34.009],[-119.43,34.009],[-119.43,34.009],[-119.43,34.009],[-119.43,34.009],[-119.43,34.009],[-119.43,34.009],[-119.43,34.009],[-119.43,34.009],[-119.43,34.008],[-119.43,34.008],[-119.429,34.008],[-119.429,34.008],[-119.429,34.008],[-119.429,34.008],[-119.429,34.008],[-119.429,34.008],[-119.429,34.008],[-119.429,34.008],[-119.429,34.008],[-119.429,34.008],[-119.429,34.008],[-119.429,34.008],[-119.429,34.008],[-119.428,34.008],[-119.428,34.008],[-119.428,34.008],[-119.428,34.008],[-119.428,34.008],[-119.428,34.008],[-119.428,34.008],[-119.427,34.008],[-119.427,34.008],[-119.427,34.008],[-119.427,34.008],[-119.427,34.008],[-119.427,34.008],[-119.427,34.008],[-119.427,34.008],[-119.426,34.008],[-119.426,34.008],[-119.426,34.008],[-119.426,34.008],[-119.426,34.008],[-119.426,34.008],[-119.426,34.008],[-119.426,34.008],[-119.426,34.008],[-119.426,34.008],[-119.426,34.008],[-119.426,34.008],[-119.425,34.008],[-119.425,34.008],[-119.425,34.008],[-119.425,34.008],[-119.425,34.008],[-119.425,34.008],[-119.425,34.008],[-119.425,34.008],[-119.425,34.008],[-119.425,34.008],[-119.425,34.008],[-119.425,34.008],[-119.425,34.008],[-119.425,34.008],[-119.424,34.008],[-119.424,34.008],[-119.424,34.008],[-119.424,34.008],[-119.424,34.007],[-119.424,34.007],[-119.424,34.007],[-119.424,34.007],[-119.424,34.007],[-119.423,34.007],[-119.423,34.007],[-119.423,34.007],[-119.423,34.007],[-119.423,34.007],[-119.423,34.007],[-119.423,34.007],[-119.423,34.007],[-119.423,34.007],[-119.423,34.007],[-119.423,34.007],[-119.423,34.007],[-119.423,34.007],[-119.423,34.007],[-119.423,34.006],[-119.423,34.006],[-119.423,34.006],[-119.423,34.006],[-119.423,34.006],[-119.423,34.006],[-119.423,34.006],[-119.423,34.006],[-119.423,34.006],[-119.423,34.006],[-119.423,34.006],[-119.422,34.006],[-119.422,34.006],[-119.422,34.006],[-119.423,34.005],[-119.423,34.005],[-119.423,34.005],[-119.423,34.005],[-119.423,34.005],[-119.423,34.005],[-119.423,34.005],[-119.423,34.005],[-119.422,34.005],[-119.422,34.005],[-119.422,34.005],[-119.422,34.005],[-119.422,34.005],[-119.422,34.005],[-119.422,34.005],[-119.422,34.005],[-119.422,34.005],[-119.422,34.005],[-119.422,34.005],[-119.422,34.005],[-119.422,34.005],[-119.422,34.005],[-119.422,34.005],[-119.422,34.005],[-119.422,34.005],[-119.422,34.005],[-119.421,34.005],[-119.421,34.005],[-119.421,34.005],[-119.421,34.005],[-119.421,34.005],[-119.421,34.006],[-119.421,34.006],[-119.421,34.006],[-119.421,34.006],[-119.421,34.006],[-119.421,34.006],[-119.42,34.006],[-119.42,34.006],[-119.42,34.006],[-119.42,34.006],[-119.42,34.006],[-119.42,34.006],[-119.42,34.006],[-119.42,34.006],[-119.42,34.006],[-119.42,34.006],[-119.42,34.006],[-119.42,34.006],[-119.42,34.006],[-119.42,34.006],[-119.419,34.006],[-119.419,34.006],[-119.419,34.006],[-119.419,34.006],[-119.419,34.006],[-119.419,34.006],[-119.419,34.006],[-119.419,34.006],[-119.419,34.006],[-119.419,34.006],[-119.418,34.006],[-119.418,34.006],[-119.418,34.006],[-119.418,34.006],[-119.418,34.006],[-119.418,34.006],[-119.418,34.006],[-119.418,34.006],[-119.418,34.006],[-119.418,34.006],[-119.418,34.006],[-119.418,34.006],[-119.418,34.006],[-119.418,34.006],[-119.418,34.006],[-119.417,34.006],[-119.417,34.006],[-119.417,34.006],[-119.417,34.006],[-119.417,34.006],[-119.417,34.006],[-119.417,34.006],[-119.417,34.006],[-119.417,34.006],[-119.417,34.006],[-119.416,34.006],[-119.416,34.006],[-119.416,34.006],[-119.416,34.006],[-119.416,34.006],[-119.416,34.006],[-119.416,34.006],[-119.416,34.006],[-119.416,34.006],[-119.416,34.006],[-119.415,34.006],[-119.415,34.006],[-119.415,34.006],[-119.415,34.006],[-119.415,34.006],[-119.415,34.006],[-119.415,34.006],[-119.415,34.006],[-119.415,34.006],[-119.415,34.006],[-119.415,34.006],[-119.415,34.006],[-119.415,34.006],[-119.415,34.006],[-119.414,34.006],[-119.414,34.006],[-119.414,34.006],[-119.414,34.006],[-119.414,34.006],[-119.414,34.006],[-119.414,34.006],[-119.414,34.006],[-119.414,34.007],[-119.414,34.007],[-119.413,34.007],[-119.413,34.007],[-119.413,34.007],[-119.413,34.007],[-119.412,34.007],[-119.412,34.007],[-119.412,34.007],[-119.412,34.007],[-119.412,34.007],[-119.412,34.007],[-119.412,34.007],[-119.411,34.007],[-119.411,34.007],[-119.411,34.007],[-119.411,34.007],[-119.411,34.007],[-119.411,34.007],[-119.411,34.007],[-119.411,34.007],[-119.411,34.007],[-119.411,34.007],[-119.411,34.007],[-119.411,34.007],[-119.411,34.007],[-119.41,34.007],[-119.41,34.007],[-119.41,34.007],[-119.41,34.007],[-119.41,34.007],[-119.41,34.006],[-119.41,34.006],[-119.41,34.006],[-119.41,34.006],[-119.41,34.006],[-119.41,34.006],[-119.41,34.006],[-119.41,34.006],[-119.41,34.006],[-119.41,34.006],[-119.41,34.006],[-119.409,34.006],[-119.409,34.006],[-119.409,34.006],[-119.409,34.006],[-119.409,34.006],[-119.409,34.006],[-119.409,34.006],[-119.409,34.006],[-119.409,34.006],[-119.408,34.006],[-119.408,34.006],[-119.408,34.006],[-119.408,34.006],[-119.408,34.006],[-119.408,34.006],[-119.408,34.006],[-119.408,34.006],[-119.408,34.006],[-119.408,34.006],[-119.408,34.006],[-119.408,34.007],[-119.408,34.007],[-119.408,34.007],[-119.408,34.007],[-119.408,34.007],[-119.409,34.007],[-119.409,34.007],[-119.409,34.007],[-119.409,34.007],[-119.409,34.007],[-119.409,34.007],[-119.409,34.007],[-119.409,34.007],[-119.409,34.007],[-119.409,34.007],[-119.409,34.007],[-119.409,34.007],[-119.409,34.007],[-119.409,34.007],[-119.41,34.007],[-119.41,34.007],[-119.41,34.007],[-119.41,34.007],[-119.41,34.007],[-119.41,34.007],[-119.41,34.007],[-119.41,34.007],[-119.41,34.007],[-119.41,34.007],[-119.41,34.007],[-119.41,34.007],[-119.41,34.007],[-119.41,34.007],[-119.41,34.007],[-119.41,34.007],[-119.41,34.007],[-119.41,34.007],[-119.41,34.007],[-119.41,34.007],[-119.411,34.007],[-119.411,34.007],[-119.411,34.007],[-119.411,34.007],[-119.411,34.007],[-119.411,34.007],[-119.411,34.007],[-119.412,34.007],[-119.412,34.008],[-119.412,34.008],[-119.412,34.008],[-119.412,34.008],[-119.412,34.008],[-119.412,34.008],[-119.412,34.008],[-119.412,34.008],[-119.412,34.009],[-119.412,34.009],[-119.412,34.008],[-119.412,34.008],[-119.412,34.009],[-119.413,34.009],[-119.413,34.009],[-119.413,34.009],[-119.413,34.009],[-119.413,34.009],[-119.413,34.009],[-119.413,34.009],[-119.413,34.009],[-119.413,34.009],[-119.413,34.009],[-119.413,34.009],[-119.413,34.009],[-119.413,34.009],[-119.413,34.009],[-119.413,34.009],[-119.413,34.009],[-119.414,34.009],[-119.414,34.009],[-119.414,34.009],[-119.414,34.009],[-119.414,34.009],[-119.414,34.01],[-119.414,34.01],[-119.414,34.01],[-119.414,34.01],[-119.414,34.01],[-119.415,34.01],[-119.415,34.01],[-119.415,34.01],[-119.415,34.01],[-119.415,34.01],[-119.415,34.01],[-119.415,34.01],[-119.415,34.01],[-119.415,34.01],[-119.415,34.01],[-119.415,34.01],[-119.415,34.01],[-119.415,34.01],[-119.415,34.01],[-119.415,34.01],[-119.415,34.01],[-119.415,34.01],[-119.415,34.011],[-119.415,34.011],[-119.416,34.011],[-119.416,34.011],[-119.416,34.011],[-119.416,34.011],[-119.416,34.011],[-119.416,34.011],[-119.416,34.011],[-119.416,34.011],[-119.416,34.012],[-119.416,34.012],[-119.417,34.012],[-119.417,34.012],[-119.417,34.012],[-119.417,34.012],[-119.417,34.012],[-119.417,34.012],[-119.417,34.012],[-119.417,34.012],[-119.417,34.012],[-119.417,34.012],[-119.417,34.012],[-119.417,34.012],[-119.417,34.012],[-119.417,34.012],[-119.417,34.012],[-119.418,34.012],[-119.418,34.012],[-119.418,34.012],[-119.418,34.013],[-119.418,34.013],[-119.418,34.013],[-119.418,34.013],[-119.418,34.013],[-119.418,34.013],[-119.418,34.013],[-119.418,34.013],[-119.418,34.013],[-119.418,34.013],[-119.419,34.013],[-119.419,34.013],[-119.419,34.013],[-119.419,34.013],[-119.419,34.013],[-119.419,34.013],[-119.419,34.013],[-119.419,34.014],[-119.419,34.014],[-119.419,34.014],[-119.419,34.014],[-119.419,34.014],[-119.419,34.014],[-119.42,34.014],[-119.42,34.014],[-119.42,34.014],[-119.42,34.014],[-119.42,34.014],[-119.42,34.014],[-119.42,34.014],[-119.42,34.014],[-119.42,34.014],[-119.42,34.014],[-119.42,34.014],[-119.42,34.014],[-119.42,34.014],[-119.42,34.014],[-119.421,34.014],[-119.421,34.014],[-119.421,34.014],[-119.421,34.014],[-119.421,34.014],[-119.421,34.014],[-119.421,34.014],[-119.421,34.015],[-119.421,34.015],[-119.421,34.015],[-119.421,34.015],[-119.421,34.015],[-119.421,34.015],[-119.422,34.015],[-119.422,34.015],[-119.422,34.015],[-119.422,34.015],[-119.422,34.015],[-119.422,34.015],[-119.422,34.015],[-119.423,34.015],[-119.423,34.015],[-119.423,34.015],[-119.423,34.015],[-119.423,34.015],[-119.423,34.015],[-119.423,34.015],[-119.423,34.015],[-119.423,34.015],[-119.423,34.015],[-119.423,34.015]],[[-119.39,34.007],[-119.39,34.007],[-119.39,34.007],[-119.39,34.007],[-119.39,34.007],[-119.39,34.007],[-119.39,34.007],[-119.39,34.006],[-119.39,34.006],[-119.39,34.006],[-119.39,34.006],[-119.39,34.006],[-119.39,34.006],[-119.39,34.006],[-119.39,34.006],[-119.39,34.006],[-119.391,34.006],[-119.391,34.006],[-119.391,34.006],[-119.391,34.006],[-119.391,34.006],[-119.392,34.006],[-119.392,34.006],[-119.392,34.006],[-119.392,34.006],[-119.392,34.006],[-119.392,34.006],[-119.392,34.006],[-119.392,34.006],[-119.393,34.006],[-119.393,34.006],[-119.393,34.006],[-119.393,34.007],[-119.393,34.007],[-119.393,34.007],[-119.393,34.007],[-119.394,34.006],[-119.394,34.006],[-119.394,34.006],[-119.394,34.006],[-119.394,34.006],[-119.394,34.006],[-119.394,34.006],[-119.394,34.006],[-119.394,34.006],[-119.394,34.006],[-119.395,34.006],[-119.395,34.006],[-119.395,34.006],[-119.395,34.005],[-119.395,34.005],[-119.395,34.005],[-119.395,34.006],[-119.395,34.006],[-119.395,34.006],[-119.395,34.005],[-119.396,34.006],[-119.396,34.006],[-119.396,34.006],[-119.396,34.006],[-119.396,34.006],[-119.396,34.006],[-119.396,34.006],[-119.397,34.006],[-119.397,34.006],[-119.397,34.006],[-119.397,34.006],[-119.397,34.006],[-119.397,34.006],[-119.397,34.006],[-119.397,34.006],[-119.397,34.006],[-119.398,34.006],[-119.398,34.006],[-119.398,34.006],[-119.398,34.006],[-119.398,34.006],[-119.398,34.006],[-119.399,34.006],[-119.399,34.006],[-119.399,34.006],[-119.399,34.006],[-119.399,34.006],[-119.399,34.005],[-119.399,34.005],[-119.399,34.005],[-119.399,34.005],[-119.399,34.006],[-119.399,34.006],[-119.399,34.006],[-119.399,34.006],[-119.4,34.006],[-119.4,34.006],[-119.4,34.006],[-119.4,34.006],[-119.4,34.006],[-119.4,34.006],[-119.4,34.006],[-119.4,34.006],[-119.4,34.006],[-119.401,34.006],[-119.401,34.006],[-119.401,34.006],[-119.4,34.006],[-119.4,34.006],[-119.4,34.006],[-119.4,34.006],[-119.4,34.006],[-119.4,34.006],[-119.4,34.006],[-119.4,34.007],[-119.4,34.007],[-119.4,34.007],[-119.4,34.007],[-119.4,34.006],[-119.4,34.006],[-119.4,34.006],[-119.401,34.006],[-119.401,34.006],[-119.401,34.006],[-119.401,34.007],[-119.401,34.007],[-119.401,34.007],[-119.401,34.007],[-119.401,34.007],[-119.401,34.007],[-119.401,34.007],[-119.402,34.007],[-119.402,34.006],[-119.402,34.007],[-119.402,34.007],[-119.402,34.007],[-119.402,34.007],[-119.402,34.007],[-119.402,34.007],[-119.402,34.007],[-119.402,34.007],[-119.402,34.007],[-119.402,34.007],[-119.403,34.007],[-119.403,34.007],[-119.403,34.007],[-119.403,34.007],[-119.403,34.007],[-119.403,34.007],[-119.404,34.006],[-119.404,34.006],[-119.404,34.006],[-119.404,34.006],[-119.404,34.006],[-119.404,34.006],[-119.404,34.006],[-119.404,34.006],[-119.404,34.006],[-119.404,34.007],[-119.404,34.007],[-119.404,34.007],[-119.404,34.007],[-119.404,34.007],[-119.404,34.007],[-119.404,34.007],[-119.404,34.007],[-119.405,34.007],[-119.405,34.007],[-119.405,34.007],[-119.405,34.007],[-119.405,34.007],[-119.405,34.007],[-119.405,34.007],[-119.406,34.007],[-119.406,34.007],[-119.406,34.007],[-119.406,34.006],[-119.406,34.006],[-119.406,34.006],[-119.406,34.006],[-119.406,34.006],[-119.406,34.006],[-119.406,34.006],[-119.406,34.006],[-119.406,34.006],[-119.406,34.006],[-119.406,34.007],[-119.407,34.007],[-119.407,34.006],[-119.407,34.006],[-119.407,34.006],[-119.407,34.006],[-119.407,34.006],[-119.407,34.006],[-119.407,34.006],[-119.407,34.006],[-119.407,34.006],[-119.407,34.006],[-119.407,34.006],[-119.408,34.006],[-119.408,34.006],[-119.408,34.006],[-119.408,34.006],[-119.408,34.006],[-119.408,34.006],[-119.408,34.006],[-119.408,34.006],[-119.408,34.006],[-119.407,34.006],[-119.407,34.006],[-119.407,34.006],[-119.407,34.005],[-119.407,34.005],[-119.407,34.005],[-119.407,34.005],[-119.407,34.005],[-119.407,34.005],[-119.407,34.005],[-119.407,34.005],[-119.407,34.005],[-119.407,34.005],[-119.407,34.005],[-119.407,34.005],[-119.407,34.005],[-119.406,34.005],[-119.406,34.005],[-119.406,34.005],[-119.406,34.005],[-119.406,34.005],[-119.406,34.005],[-119.406,34.005],[-119.406,34.005],[-119.406,34.005],[-119.405,34.005],[-119.405,34.005],[-119.405,34.005],[-119.405,34.005],[-119.405,34.005],[-119.405,34.005],[-119.405,34.005],[-119.405,34.005],[-119.405,34.005],[-119.405,34.005],[-119.405,34.005],[-119.404,34.005],[-119.404,34.005],[-119.404,34.005],[-119.404,34.005],[-119.404,34.005],[-119.404,34.005],[-119.404,34.006],[-119.403,34.006],[-119.403,34.006],[-119.403,34.006],[-119.403,34.006],[-119.403,34.005],[-119.403,34.005],[-119.403,34.005],[-119.403,34.005],[-119.403,34.005],[-119.403,34.005],[-119.403,34.005],[-119.403,34.005],[-119.403,34.005],[-119.403,34.005],[-119.402,34.005],[-119.402,34.005],[-119.402,34.005],[-119.402,34.005],[-119.402,34.005],[-119.402,34.005],[-119.402,34.005],[-119.402,34.005],[-119.401,34.005],[-119.401,34.005],[-119.401,34.005],[-119.401,34.005],[-119.401,34.005],[-119.401,34.005],[-119.401,34.005],[-119.401,34.005],[-119.401,34.005],[-119.401,34.005],[-119.401,34.005],[-119.401,34.005],[-119.401,34.005],[-119.4,34.005],[-119.4,34.005],[-119.4,34.005],[-119.4,34.005],[-119.4,34.005],[-119.4,34.005],[-119.4,34.005],[-119.4,34.004],[-119.4,34.004],[-119.4,34.004],[-119.4,34.004],[-119.4,34.004],[-119.4,34.005],[-119.4,34.005],[-119.4,34.005],[-119.4,34.005],[-119.4,34.005],[-119.4,34.005],[-119.4,34.004],[-119.399,34.004],[-119.399,34.004],[-119.399,34.004],[-119.4,34.004],[-119.4,34.004],[-119.4,34.004],[-119.4,34.004],[-119.4,34.004],[-119.4,34.004],[-119.4,34.004],[-119.4,34.004],[-119.4,34.004],[-119.4,34.004],[-119.4,34.004],[-119.4,34.004],[-119.4,34.004],[-119.4,34.004],[-119.4,34.004],[-119.4,34.004],[-119.399,34.003],[-119.399,34.003],[-119.399,34.003],[-119.399,34.003],[-119.399,34.003],[-119.399,34.003],[-119.399,34.004],[-119.398,34.004],[-119.398,34.004],[-119.398,34.004],[-119.398,34.004],[-119.398,34.004],[-119.398,34.004],[-119.398,34.004],[-119.398,34.004],[-119.398,34.003],[-119.398,34.003],[-119.398,34.003],[-119.398,34.003],[-119.398,34.003],[-119.398,34.003],[-119.397,34.003],[-119.397,34.003],[-119.397,34.003],[-119.397,34.003],[-119.397,34.003],[-119.397,34.003],[-119.396,34.003],[-119.396,34.003],[-119.396,34.003],[-119.396,34.003],[-119.396,34.003],[-119.396,34.003],[-119.396,34.003],[-119.395,34.003],[-119.395,34.003],[-119.395,34.003],[-119.395,34.003],[-119.395,34.003],[-119.395,34.003],[-119.395,34.003],[-119.395,34.003],[-119.395,34.003],[-119.395,34.003],[-119.395,34.003],[-119.395,34.003],[-119.395,34.003],[-119.395,34.003],[-119.395,34.003],[-119.395,34.003],[-119.394,34.003],[-119.394,34.003],[-119.394,34.003],[-119.394,34.003],[-119.394,34.003],[-119.393,34.003],[-119.393,34.003],[-119.393,34.003],[-119.393,34.003],[-119.393,34.003],[-119.393,34.003],[-119.393,34.003],[-119.392,34.003],[-119.392,34.003],[-119.392,34.003],[-119.392,34.003],[-119.392,34.003],[-119.392,34.003],[-119.392,34.003],[-119.392,34.003],[-119.392,34.003],[-119.392,34.003],[-119.392,34.003],[-119.392,34.003],[-119.392,34.003],[-119.392,34.003],[-119.392,34.003],[-119.392,34.003],[-119.392,34.003],[-119.392,34.003],[-119.392,34.003],[-119.392,34.003],[-119.392,34.003],[-119.392,34.003],[-119.391,34.003],[-119.391,34.003],[-119.391,34.003],[-119.391,34.003],[-119.391,34.003],[-119.391,34.003],[-119.39,34.003],[-119.39,34.003],[-119.39,34.003],[-119.39,34.003],[-119.39,34.003],[-119.39,34.003],[-119.39,34.003],[-119.39,34.003],[-119.39,34.003],[-119.389,34.003],[-119.389,34.004],[-119.389,34.004],[-119.389,34.004],[-119.389,34.004],[-119.389,34.004],[-119.389,34.004],[-119.389,34.004],[-119.388,34.004],[-119.388,34.004],[-119.388,34.004],[-119.388,34.004],[-119.388,34.004],[-119.388,34.004],[-119.388,34.004],[-119.388,34.004],[-119.388,34.004],[-119.388,34.004],[-119.388,34.005],[-119.388,34.005],[-119.388,34.005],[-119.388,34.005],[-119.387,34.005],[-119.387,34.005],[-119.387,34.005],[-119.387,34.005],[-119.387,34.005],[-119.387,34.005],[-119.387,34.005],[-119.387,34.005],[-119.388,34.005],[-119.388,34.005],[-119.388,34.005],[-119.387,34.006],[-119.387,34.006],[-119.388,34.006],[-119.388,34.006],[-119.388,34.006],[-119.387,34.006],[-119.387,34.006],[-119.387,34.006],[-119.387,34.006],[-119.387,34.006],[-119.388,34.006],[-119.388,34.006],[-119.387,34.006],[-119.387,34.006],[-119.387,34.006],[-119.387,34.006],[-119.387,34.006],[-119.387,34.006],[-119.387,34.006],[-119.387,34.006],[-119.387,34.006],[-119.387,34.007],[-119.387,34.007],[-119.387,34.007],[-119.387,34.007],[-119.387,34.007],[-119.387,34.007],[-119.387,34.007],[-119.387,34.007],[-119.386,34.007],[-119.386,34.007],[-119.386,34.007],[-119.386,34.007],[-119.386,34.007],[-119.386,34.007],[-119.386,34.007],[-119.386,34.007],[-119.386,34.007],[-119.386,34.008],[-119.386,34.008],[-119.386,34.008],[-119.385,34.008],[-119.385,34.008],[-119.385,34.008],[-119.385,34.008],[-119.385,34.008],[-119.385,34.008],[-119.385,34.008],[-119.384,34.008],[-119.384,34.008],[-119.384,34.008],[-119.384,34.008],[-119.384,34.008],[-119.384,34.008],[-119.384,34.008],[-119.383,34.008],[-119.383,34.008],[-119.383,34.008],[-119.383,34.008],[-119.383,34.008],[-119.383,34.009],[-119.383,34.009],[-119.383,34.009],[-119.383,34.009],[-119.382,34.009],[-119.382,34.009],[-119.382,34.009],[-119.382,34.009],[-119.382,34.009],[-119.382,34.009],[-119.382,34.009],[-119.381,34.009],[-119.381,34.009],[-119.381,34.009],[-119.381,34.009],[-119.381,34.009],[-119.381,34.009],[-119.381,34.009],[-119.381,34.009],[-119.381,34.009],[-119.381,34.01],[-119.381,34.01],[-119.381,34.01],[-119.381,34.01],[-119.381,34.01],[-119.38,34.01],[-119.38,34.01],[-119.38,34.01],[-119.38,34.01],[-119.38,34.01],[-119.38,34.01],[-119.38,34.01],[-119.38,34.01],[-119.38,34.011],[-119.38,34.011],[-119.38,34.011],[-119.379,34.011],[-119.379,34.011],[-119.379,34.01],[-119.379,34.01],[-119.379,34.01],[-119.379,34.01],[-119.379,34.01],[-119.379,34.01],[-119.379,34.011],[-119.379,34.011],[-119.379,34.011],[-119.379,34.011],[-119.379,34.011],[-119.379,34.011],[-119.379,34.011],[-119.38,34.011],[-119.38,34.011],[-119.38,34.011],[-119.38,34.011],[-119.38,34.011],[-119.38,34.011],[-119.38,34.011],[-119.38,34.011],[-119.381,34.011],[-119.381,34.011],[-119.381,34.011],[-119.381,34.011],[-119.381,34.011],[-119.381,34.011],[-119.381,34.011],[-119.381,34.011],[-119.381,34.011],[-119.382,34.011],[-119.382,34.011],[-119.382,34.011],[-119.382,34.011],[-119.382,34.011],[-119.383,34.011],[-119.383,34.011],[-119.383,34.011],[-119.383,34.011],[-119.383,34.011],[-119.383,34.011],[-119.383,34.011],[-119.383,34.011],[-119.383,34.011],[-119.383,34.01],[-119.383,34.01],[-119.383,34.01],[-119.383,34.01],[-119.383,34.01],[-119.383,34.01],[-119.383,34.01],[-119.383,34.009],[-119.383,34.009],[-119.383,34.009],[-119.383,34.009],[-119.384,34.009],[-119.384,34.009],[-119.384,34.009],[-119.384,34.009],[-119.385,34.009],[-119.385,34.009],[-119.385,34.009],[-119.385,34.009],[-119.385,34.009],[-119.385,34.009],[-119.385,34.009],[-119.385,34.009],[-119.385,34.009],[-119.385,34.009],[-119.385,34.009],[-119.385,34.009],[-119.385,34.009],[-119.385,34.009],[-119.385,34.008],[-119.385,34.008],[-119.385,34.008],[-119.386,34.008],[-119.386,34.008],[-119.386,34.008],[-119.386,34.008],[-119.386,34.008],[-119.386,34.008],[-119.387,34.008],[-119.387,34.008],[-119.387,34.008],[-119.387,34.008],[-119.387,34.008],[-119.387,34.008],[-119.387,34.008],[-119.387,34.008],[-119.387,34.008],[-119.387,34.007],[-119.388,34.007],[-119.388,34.007],[-119.388,34.007],[-119.389,34.007],[-119.389,34.007],[-119.389,34.007],[-119.389,34.007],[-119.389,34.007],[-119.39,34.007]],[[-119.408,34.006],[-119.408,34.006],[-119.408,34.006],[-119.408,34.006],[-119.408,34.006],[-119.408,34.006],[-119.408,34.006],[-119.408,34.006],[-119.408,34.006],[-119.408,34.006],[-119.408,34.006],[-119.408,34.006],[-119.408,34.006],[-119.408,34.006],[-119.408,34.006],[-119.408,34.006],[-119.408,34.006],[-119.408,34.006],[-119.408,34.006],[-119.408,34.006],[-119.408,34.006],[-119.408,34.006]],[[-119.378,34.012],[-119.378,34.012],[-119.377,34.012],[-119.377,34.012],[-119.377,34.012],[-119.377,34.012],[-119.377,34.012],[-119.377,34.012],[-119.376,34.012],[-119.376,34.012],[-119.376,34.012],[-119.376,34.012],[-119.376,34.012],[-119.376,34.012],[-119.376,34.012],[-119.375,34.012],[-119.375,34.012],[-119.375,34.013],[-119.375,34.013],[-119.375,34.013],[-119.375,34.012],[-119.375,34.013],[-119.375,34.013],[-119.374,34.013],[-119.374,34.013],[-119.374,34.013],[-119.374,34.013],[-119.374,34.013],[-119.374,34.013],[-119.374,34.013],[-119.374,34.013],[-119.373,34.012],[-119.373,34.012],[-119.373,34.012],[-119.373,34.012],[-119.373,34.012],[-119.373,34.012],[-119.373,34.012],[-119.373,34.012],[-119.373,34.012],[-119.373,34.012],[-119.373,34.012],[-119.373,34.012],[-119.372,34.012],[-119.372,34.012],[-119.372,34.012],[-119.372,34.012],[-119.372,34.012],[-119.372,34.012],[-119.372,34.012],[-119.372,34.012],[-119.371,34.012],[-119.371,34.013],[-119.371,34.013],[-119.371,34.013],[-119.371,34.013],[-119.37,34.013],[-119.37,34.013],[-119.37,34.013],[-119.37,34.013],[-119.37,34.013],[-119.37,34.013],[-119.37,34.013],[-119.369,34.013],[-119.369,34.013],[-119.369,34.013],[-119.369,34.013],[-119.369,34.013],[-119.369,34.013],[-119.369,34.013],[-119.369,34.013],[-119.369,34.013],[-119.369,34.013],[-119.369,34.013],[-119.369,34.013],[-119.369,34.013],[-119.369,34.013],[-119.369,34.013],[-119.369,34.013],[-119.369,34.013],[-119.368,34.013],[-119.368,34.013],[-119.368,34.013],[-119.368,34.013],[-119.368,34.013],[-119.368,34.013],[-119.368,34.013],[-119.368,34.013],[-119.368,34.013],[-119.368,34.013],[-119.368,34.013],[-119.368,34.013],[-119.368,34.013],[-119.368,34.013],[-119.368,34.013],[-119.368,34.013],[-119.367,34.013],[-119.367,34.013],[-119.367,34.013],[-119.367,34.013],[-119.367,34.013],[-119.367,34.013],[-119.367,34.013],[-119.367,34.013],[-119.367,34.013],[-119.367,34.013],[-119.367,34.013],[-119.367,34.013],[-119.366,34.013],[-119.366,34.013],[-119.366,34.013],[-119.366,34.013],[-119.366,34.013],[-119.366,34.013],[-119.366,34.013],[-119.366,34.013],[-119.366,34.014],[-119.366,34.014],[-119.365,34.014],[-119.365,34.014],[-119.365,34.014],[-119.365,34.014],[-119.365,34.014],[-119.365,34.014],[-119.364,34.014],[-119.364,34.014],[-119.364,34.014],[-119.364,34.014],[-119.364,34.014],[-119.364,34.014],[-119.364,34.014],[-119.364,34.014],[-119.364,34.014],[-119.364,34.014],[-119.363,34.014],[-119.363,34.014],[-119.363,34.014],[-119.363,34.014],[-119.363,34.014],[-119.363,34.014],[-119.363,34.014],[-119.363,34.014],[-119.362,34.014],[-119.362,34.015],[-119.362,34.015],[-119.362,34.015],[-119.362,34.015],[-119.362,34.015],[-119.362,34.015],[-119.362,34.015],[-119.361,34.015],[-119.361,34.015],[-119.361,34.015],[-119.361,34.015],[-119.361,34.015],[-119.361,34.015],[-119.361,34.015],[-119.361,34.015],[-119.361,34.015],[-119.361,34.015],[-119.361,34.015],[-119.36,34.015],[-119.36,34.015],[-119.36,34.015],[-119.36,34.015],[-119.36,34.015],[-119.36,34.015],[-119.36,34.015],[-119.36,34.015],[-119.36,34.015],[-119.36,34.015],[-119.36,34.016],[-119.36,34.016],[-119.36,34.016],[-119.359,34.015],[-119.359,34.015],[-119.359,34.015],[-119.359,34.015],[-119.359,34.015],[-119.359,34.015],[-119.359,34.015],[-119.359,34.015],[-119.359,34.015],[-119.359,34.015],[-119.358,34.015],[-119.358,34.015],[-119.358,34.015],[-119.358,34.015],[-119.358,34.015],[-119.358,34.016],[-119.358,34.016],[-119.358,34.016],[-119.358,34.016],[-119.358,34.016],[-119.358,34.016],[-119.358,34.016],[-119.358,34.016],[-119.359,34.016],[-119.359,34.016],[-119.359,34.017],[-119.359,34.017],[-119.359,34.017],[-119.36,34.017],[-119.36,34.017],[-119.36,34.017],[-119.36,34.017],[-119.36,34.017],[-119.36,34.017],[-119.361,34.017],[-119.361,34.016],[-119.361,34.016],[-119.361,34.016],[-119.362,34.016],[-119.362,34.016],[-119.362,34.016],[-119.362,34.016],[-119.362,34.016],[-119.362,34.016],[-119.362,34.016],[-119.362,34.016],[-119.362,34.017],[-119.362,34.017],[-119.362,34.017],[-119.362,34.017],[-119.362,34.017],[-119.363,34.017],[-119.363,34.017],[-119.363,34.017],[-119.363,34.017],[-119.363,34.017],[-119.363,34.017],[-119.363,34.017],[-119.363,34.017],[-119.363,34.017],[-119.363,34.017],[-119.363,34.017],[-119.363,34.017],[-119.363,34.017],[-119.364,34.017],[-119.364,34.017],[-119.364,34.017],[-119.364,34.017],[-119.364,34.017],[-119.364,34.017],[-119.364,34.017],[-119.364,34.017],[-119.364,34.017],[-119.364,34.017],[-119.364,34.017],[-119.365,34.017],[-119.365,34.017],[-119.365,34.017],[-119.365,34.017],[-119.365,34.017],[-119.365,34.017],[-119.365,34.017],[-119.365,34.017],[-119.365,34.017],[-119.365,34.017],[-119.365,34.017],[-119.365,34.017],[-119.365,34.017],[-119.365,34.017],[-119.365,34.017],[-119.365,34.017],[-119.365,34.017],[-119.365,34.017],[-119.365,34.017],[-119.365,34.017],[-119.365,34.017],[-119.365,34.017],[-119.365,34.017],[-119.366,34.017],[-119.366,34.017],[-119.366,34.017],[-119.366,34.017],[-119.366,34.017],[-119.366,34.017],[-119.366,34.017],[-119.366,34.017],[-119.366,34.017],[-119.367,34.017],[-119.367,34.017],[-119.367,34.017],[-119.367,34.017],[-119.367,34.017],[-119.367,34.017],[-119.367,34.017],[-119.367,34.016],[-119.367,34.016],[-119.367,34.016],[-119.367,34.016],[-119.367,34.016],[-119.367,34.016],[-119.368,34.016],[-119.368,34.016],[-119.368,34.016],[-119.368,34.016],[-119.368,34.016],[-119.368,34.016],[-119.368,34.016],[-119.368,34.016],[-119.368,34.016],[-119.368,34.016],[-119.368,34.016],[-119.368,34.016],[-119.368,34.016],[-119.368,34.016],[-119.368,34.016],[-119.368,34.016],[-119.368,34.016],[-119.368,34.016],[-119.368,34.016],[-119.368,34.016],[-119.368,34.016],[-119.368,34.016],[-119.368,34.015],[-119.368,34.015],[-119.369,34.015],[-119.369,34.015],[-119.369,34.015],[-119.369,34.015],[-119.369,34.015],[-119.369,34.015],[-119.369,34.015],[-119.369,34.015],[-119.369,34.015],[-119.369,34.015],[-119.369,34.015],[-119.369,34.015],[-119.369,34.015],[-119.369,34.015],[-119.369,34.015],[-119.37,34.015],[-119.37,34.015],[-119.37,34.015],[-119.37,34.015],[-119.37,34.015],[-119.37,34.015],[-119.37,34.015],[-119.37,34.015],[-119.37,34.015],[-119.37,34.015],[-119.37,34.014],[-119.37,34.014],[-119.371,34.014],[-119.371,34.014],[-119.371,34.014],[-119.371,34.014],[-119.371,34.014],[-119.371,34.014],[-119.371,34.015],[-119.371,34.015],[-119.372,34.015],[-119.372,34.015],[-119.372,34.015],[-119.372,34.015],[-119.372,34.015],[-119.372,34.015],[-119.372,34.015],[-119.372,34.015],[-119.372,34.015],[-119.372,34.015],[-119.372,34.015],[-119.372,34.015],[-119.372,34.015],[-119.372,34.015],[-119.372,34.015],[-119.372,34.015],[-119.372,34.015],[-119.372,34.015],[-119.372,34.015],[-119.372,34.015],[-119.372,34.015],[-119.372,34.016],[-119.372,34.016],[-119.372,34.016],[-119.372,34.016],[-119.372,34.016],[-119.372,34.016],[-119.372,34.016],[-119.372,34.016],[-119.372,34.016],[-119.372,34.016],[-119.372,34.016],[-119.373,34.016],[-119.373,34.016],[-119.373,34.016],[-119.373,34.016],[-119.373,34.016],[-119.373,34.016],[-119.373,34.016],[-119.373,34.016],[-119.373,34.016],[-119.373,34.015],[-119.373,34.015],[-119.373,34.015],[-119.373,34.015],[-119.373,34.015],[-119.373,34.015],[-119.373,34.015],[-119.373,34.015],[-119.373,34.015],[-119.373,34.015],[-119.373,34.015],[-119.373,34.015],[-119.373,34.015],[-119.373,34.015],[-119.373,34.015],[-119.374,34.015],[-119.374,34.015],[-119.374,34.015],[-119.374,34.015],[-119.374,34.015],[-119.374,34.015],[-119.374,34.015],[-119.374,34.015],[-119.374,34.015],[-119.374,34.015],[-119.374,34.015],[-119.374,34.015],[-119.374,34.015],[-119.374,34.015],[-119.374,34.015],[-119.374,34.015],[-119.374,34.015],[-119.374,34.015],[-119.374,34.014],[-119.374,34.014],[-119.374,34.014],[-119.374,34.014],[-119.374,34.014],[-119.374,34.014],[-119.374,34.014],[-119.374,34.014],[-119.374,34.014],[-119.374,34.014],[-119.374,34.014],[-119.374,34.014],[-119.374,34.014],[-119.374,34.014],[-119.374,34.014],[-119.375,34.014],[-119.375,34.014],[-119.375,34.014],[-119.375,34.014],[-119.375,34.014],[-119.375,34.014],[-119.375,34.014],[-119.375,34.014],[-119.375,34.014],[-119.375,34.014],[-119.375,34.014],[-119.375,34.014],[-119.375,34.014],[-119.375,34.014],[-119.375,34.014],[-119.375,34.013],[-119.375,34.013],[-119.375,34.013],[-119.375,34.013],[-119.375,34.013],[-119.375,34.013],[-119.375,34.013],[-119.375,34.013],[-119.375,34.013],[-119.375,34.013],[-119.376,34.013],[-119.376,34.013],[-119.376,34.013],[-119.376,34.013],[-119.376,34.013],[-119.376,34.013],[-119.376,34.013],[-119.376,34.013],[-119.376,34.013],[-119.376,34.013],[-119.376,34.013],[-119.376,34.013],[-119.376,34.013],[-119.376,34.013],[-119.377,34.013],[-119.377,34.013],[-119.377,34.013],[-119.377,34.013],[-119.377,34.013],[-119.377,34.013],[-119.377,34.013],[-119.377,34.013],[-119.377,34.013],[-119.377,34.013],[-119.377,34.013],[-119.377,34.013],[-119.377,34.013],[-119.377,34.013],[-119.378,34.013],[-119.378,34.013],[-119.378,34.013],[-119.378,34.012],[-119.378,34.012],[-119.378,34.012],[-119.378,34.012],[-119.378,34.012],[-119.378,34.012],[-119.378,34.012],[-119.378,34.012],[-119.378,34.012],[-119.378,34.012],[-119.378,34.012],[-119.378,34.012],[-119.378,34.012],[-119.378,34.012],[-119.378,34.012]]]},"properties":{"id":"anacapa-island-special-closure","name":"Anacapa Island Special Closure","type":"Special Closure","shortName":"Anacapa Island Special Closure","areaKm2":null,"ccrCitation":null}},{"type":"Feature","geometry":{"type":"Polygon","coordinates":[[[-119.41,34.028],[-119.41,34.008],[-119.41,34.007],[-119.41,34.007],[-119.41,34.007],[-119.41,34.007],[-119.41,34.007],[-119.41,34.007],[-119.411,34.007],[-119.411,34.007],[-119.411,34.007],[-119.411,34.007],[-119.411,34.007],[-119.411,34.007],[-119.411,34.007],[-119.412,34.007],[-119.412,34.008],[-119.412,34.008],[-119.412,34.008],[-119.412,34.008],[-119.412,34.008],[-119.412,34.008],[-119.412,34.008],[-119.412,34.008],[-119.412,34.009],[-119.412,34.009],[-119.412,34.008],[-119.412,34.008],[-119.412,34.009],[-119.413,34.009],[-119.413,34.009],[-119.413,34.009],[-119.413,34.009],[-119.413,34.009],[-119.413,34.009],[-119.413,34.009],[-119.413,34.009],[-119.413,34.009],[-119.413,34.009],[-119.413,34.009],[-119.413,34.009],[-119.413,34.009],[-119.413,34.009],[-119.413,34.009],[-119.413,34.009],[-119.414,34.009],[-119.414,34.009],[-119.414,34.009],[-119.414,34.009],[-119.414,34.009],[-119.414,34.01],[-119.414,34.01],[-119.414,34.01],[-119.414,34.01],[-119.414,34.01],[-119.415,34.01],[-119.415,34.01],[-119.415,34.01],[-119.415,34.01],[-119.415,34.01],[-119.415,34.01],[-119.415,34.01],[-119.415,34.01],[-119.415,34.01],[-119.415,34.01],[-119.415,34.01],[-119.415,34.01],[-119.415,34.01],[-119.415,34.01],[-119.415,34.01],[-119.415,34.01],[-119.415,34.01],[-119.415,34.011],[-119.415,34.011],[-119.416,34.011],[-119.416,34.011],[-119.416,34.011],[-119.416,34.011],[-119.416,34.011],[-119.416,34.011],[-119.416,34.011],[-119.416,34.011],[-119.416,34.012],[-119.416,34.012],[-119.417,34.012],[-119.417,34.012],[-119.417,34.012],[-119.417,34.012],[-119.417,34.012],[-119.417,34.012],[-119.417,34.012],[-119.417,34.012],[-119.417,34.012],[-119.417,34.012],[-119.417,34.012],[-119.417,34.012],[-119.417,34.012],[-119.417,34.012],[-119.417,34.012],[-119.418,34.012],[-119.418,34.012],[-119.418,34.012],[-119.418,34.013],[-119.418,34.013],[-119.418,34.013],[-119.418,34.013],[-119.418,34.013],[-119.418,34.013],[-119.418,34.013],[-119.418,34.013],[-119.418,34.013],[-119.418,34.013],[-119.419,34.013],[-119.419,34.013],[-119.419,34.013],[-119.419,34.013],[-119.419,34.013],[-119.419,34.013],[-119.419,34.013],[-119.419,34.014],[-119.419,34.014],[-119.419,34.014],[-119.419,34.014],[-119.419,34.014],[-119.419,34.014],[-119.42,34.014],[-119.42,34.014],[-119.42,34.014],[-119.42,34.014],[-119.42,34.014],[-119.42,34.014],[-119.42,34.014],[-119.42,34.014],[-119.42,34.014],[-119.42,34.014],[-119.42,34.014],[-119.42,34.014],[-119.42,34.014],[-119.42,34.014],[-119.421,34.014],[-119.421,34.014],[-119.421,34.014],[-119.421,34.014],[-119.421,34.014],[-119.421,34.014],[-119.421,34.014],[-119.421,34.015],[-119.421,34.015],[-119.421,34.015],[-119.421,34.015],[-119.421,34.015],[-119.421,34.015],[-119.422,34.015],[-119.422,34.015],[-119.422,34.015],[-119.422,34.015],[-119.422,34.015],[-119.422,34.015],[-119.422,34.015],[-119.423,34.015],[-119.423,34.015],[-119.423,34.015],[-119.423,34.015],[-119.423,34.015],[-119.423,34.015],[-119.423,34.015],[-119.423,34.015],[-119.423,34.015],[-119.423,34.015],[-119.423,34.015],[-119.423,34.015],[-119.424,34.015],[-119.424,34.015],[-119.424,34.015],[-119.424,34.015],[-119.424,34.015],[-119.424,34.015],[-119.424,34.015],[-119.424,34.015],[-119.424,34.015],[-119.425,34.015],[-119.425,34.015],[-119.425,34.015],[-119.425,34.015],[-119.425,34.015],[-119.425,34.015],[-119.425,34.015],[-119.425,34.015],[-119.426,34.015],[-119.426,34.015],[-119.426,34.015],[-119.426,34.015],[-119.426,34.015],[-119.426,34.015],[-119.426,34.015],[-119.426,34.015],[-119.426,34.015],[-119.426,34.015],[-119.426,34.015],[-119.426,34.015],[-119.426,34.015],[-119.426,34.015],[-119.427,34.015],[-119.427,34.015],[-119.427,34.015],[-119.427,34.015],[-119.427,34.015],[-119.427,34.015],[-119.427,34.015],[-119.427,34.015],[-119.427,34.015],[-119.427,34.015],[-119.427,34.015],[-119.427,34.015],[-119.427,34.015],[-119.427,34.015],[-119.427,34.015],[-119.427,34.015],[-119.427,34.015],[-119.428,34.015],[-119.428,34.015],[-119.428,34.015],[-119.428,34.015],[-119.428,34.015],[-119.428,34.015],[-119.428,34.015],[-119.428,34.015],[-119.428,34.015],[-119.428,34.015],[-119.428,34.015],[-119.428,34.015],[-119.429,34.015],[-119.429,34.015],[-119.429,34.015],[-119.429,34.015],[-119.429,34.015],[-119.429,34.015],[-119.429,34.015],[-119.429,34.015],[-119.429,34.015],[-119.429,34.015],[-119.429,34.015],[-119.43,34.015],[-119.43,34.015],[-119.43,34.015],[-119.43,34.015],[-119.43,34.015],[-119.43,34.015],[-119.43,34.015],[-119.43,34.015],[-119.431,34.015],[-119.431,34.015],[-119.431,34.015],[-119.431,34.015],[-119.431,34.016],[-119.431,34.016],[-119.431,34.016],[-119.431,34.016],[-119.431,34.016],[-119.431,34.016],[-119.431,34.016],[-119.431,34.016],[-119.432,34.016],[-119.432,34.016],[-119.432,34.016],[-119.432,34.016],[-119.432,34.016],[-119.432,34.016],[-119.432,34.016],[-119.432,34.016],[-119.433,34.016],[-119.433,34.016],[-119.433,34.016],[-119.433,34.016],[-119.433,34.016],[-119.433,34.016],[-119.433,34.016],[-119.433,34.016],[-119.433,34.016],[-119.433,34.016],[-119.434,34.016],[-119.434,34.016],[-119.434,34.016],[-119.434,34.016],[-119.434,34.016],[-119.434,34.016],[-119.434,34.016],[-119.434,34.016],[-119.435,34.016],[-119.435,34.016],[-119.435,34.016],[-119.435,34.016],[-119.435,34.015],[-119.435,34.015],[-119.435,34.015],[-119.435,34.015],[-119.435,34.015],[-119.435,34.015],[-119.435,34.015],[-119.435,34.015],[-119.435,34.015],[-119.435,34.015],[-119.435,34.015],[-119.435,34.015],[-119.436,34.015],[-119.436,34.015],[-119.436,34.015],[-119.436,34.015],[-119.436,34.015],[-119.436,34.015],[-119.436,34.015],[-119.436,34.015],[-119.436,34.015],[-119.436,34.015],[-119.436,34.015],[-119.436,34.015],[-119.437,34.014],[-119.437,34.014],[-119.437,34.014],[-119.437,34.014],[-119.437,34.014],[-119.437,34.014],[-119.437,34.014],[-119.437,34.014],[-119.437,34.014],[-119.437,34.014],[-119.438,34.014],[-119.438,34.014],[-119.438,34.014],[-119.438,34.014],[-119.438,34.014],[-119.438,34.014],[-119.438,34.014],[-119.438,34.014],[-119.438,34.014],[-119.439,34.014],[-119.439,34.014],[-119.439,34.014],[-119.439,34.014],[-119.439,34.014],[-119.439,34.014],[-119.439,34.014],[-119.439,34.014],[-119.44,34.014],[-119.44,34.014],[-119.44,34.014],[-119.44,34.014],[-119.44,34.014],[-119.44,34.014],[-119.44,34.014],[-119.44,34.014],[-119.44,34.014],[-119.441,34.014],[-119.441,34.014],[-119.441,34.014],[-119.441,34.014],[-119.441,34.014],[-119.441,34.014],[-119.441,34.014],[-119.441,34.014],[-119.441,34.014],[-119.441,34.014],[-119.441,34.014],[-119.442,34.014],[-119.442,34.014],[-119.442,34.014],[-119.442,34.014],[-119.442,34.014],[-119.442,34.014],[-119.442,34.014],[-119.442,34.014],[-119.442,34.014],[-119.442,34.014],[-119.442,34.014],[-119.442,34.014],[-119.442,34.014],[-119.442,34.014],[-119.443,34.014],[-119.443,34.014],[-119.443,34.014],[-119.443,34.014],[-119.443,34.014],[-119.443,34.014],[-119.443,34.014],[-119.444,34.014],[-119.444,34.014],[-119.444,34.014],[-119.444,34.014],[-119.445,34.013],[-119.445,34.03],[-119.445,34.066],[-119.445,34.066],[-119.445,34.066],[-119.444,34.066],[-119.442,34.066],[-119.441,34.066],[-119.441,34.067],[-119.44,34.067],[-119.439,34.067],[-119.439,34.067],[-119.438,34.067],[-119.437,34.067],[-119.436,34.067],[-119.435,34.067],[-119.434,34.067],[-119.433,34.067],[-119.432,34.067],[-119.431,34.067],[-119.43,34.067],[-119.429,34.067],[-119.428,34.067],[-119.427,34.067],[-119.427,34.067],[-119.426,34.067],[-119.425,34.067],[-119.425,34.066],[-119.424,34.066],[-119.423,34.066],[-119.422,34.066],[-119.421,34.066],[-119.421,34.066],[-119.421,34.066],[-119.42,34.066],[-119.419,34.066],[-119.419,34.066],[-119.418,34.066],[-119.417,34.066],[-119.416,34.066],[-119.415,34.066],[-119.413,34.065],[-119.413,34.065],[-119.412,34.065],[-119.411,34.065],[-119.41,34.065],[-119.41,34.065],[-119.41,34.065],[-119.41,34.028]]]},"properties":{"id":"anacapa-island-state-marine-conservation-area","name":"Anacapa Island State Marine Conservation Area","type":"SMCA","shortName":"Anacapa Island","areaKm2":null,"ccrCitation":null}},{"type":"Feature","geometry":{"type":"Polygon","coordinates":[[[-119.359,34.067],[-119.359,34.067],[-119.358,34.067],[-119.357,34.067],[-119.357,34.067],[-119.357,34.067],[-119.357,34.067],[-119.357,34.032],[-119.357,34.017],[-119.357,34.017],[-119.357,34.016],[-119.357,34.016],[-119.358,34.016],[-119.358,34.016],[-119.358,34.016],[-119.358,34.016],[-119.358,34.016],[-119.358,34.016],[-119.359,34.016],[-119.359,34.016],[-119.359,34.017],[-119.359,34.017],[-119.359,34.017],[-119.36,34.017],[-119.36,34.017],[-119.36,34.017],[-119.36,34.017],[-119.36,34.017],[-119.36,34.017],[-119.361,34.017],[-119.361,34.016],[-119.361,34.016],[-119.361,34.016],[-119.362,34.016],[-119.362,34.016],[-119.362,34.016],[-119.362,34.016],[-119.362,34.016],[-119.362,34.016],[-119.362,34.016],[-119.362,34.016],[-119.362,34.017],[-119.362,34.017],[-119.362,34.017],[-119.362,34.017],[-119.362,34.017],[-119.363,34.017],[-119.363,34.017],[-119.363,34.017],[-119.363,34.017],[-119.363,34.017],[-119.363,34.017],[-119.363,34.017],[-119.363,34.017],[-119.363,34.017],[-119.363,34.017],[-119.363,34.017],[-119.363,34.017],[-119.363,34.017],[-119.364,34.017],[-119.364,34.017],[-119.364,34.017],[-119.364,34.017],[-119.364,34.017],[-119.364,34.017],[-119.364,34.017],[-119.364,34.017],[-119.364,34.017],[-119.364,34.017],[-119.364,34.017],[-119.365,34.017],[-119.365,34.017],[-119.365,34.017],[-119.365,34.017],[-119.365,34.017],[-119.365,34.017],[-119.365,34.017],[-119.365,34.017],[-119.365,34.017],[-119.365,34.017],[-119.365,34.017],[-119.365,34.017],[-119.365,34.017],[-119.365,34.017],[-119.365,34.017],[-119.365,34.017],[-119.365,34.017],[-119.365,34.017],[-119.365,34.017],[-119.365,34.017],[-119.365,34.017],[-119.365,34.017],[-119.365,34.017],[-119.366,34.017],[-119.366,34.017],[-119.366,34.017],[-119.366,34.017],[-119.366,34.017],[-119.366,34.017],[-119.366,34.017],[-119.366,34.017],[-119.366,34.017],[-119.367,34.017],[-119.367,34.017],[-119.367,34.017],[-119.367,34.017],[-119.367,34.017],[-119.367,34.017],[-119.367,34.017],[-119.367,34.016],[-119.367,34.016],[-119.367,34.016],[-119.367,34.016],[-119.367,34.016],[-119.367,34.016],[-119.368,34.016],[-119.368,34.016],[-119.368,34.016],[-119.368,34.016],[-119.368,34.016],[-119.368,34.016],[-119.368,34.016],[-119.368,34.016],[-119.368,34.016],[-119.368,34.016],[-119.368,34.016],[-119.368,34.016],[-119.368,34.016],[-119.368,34.016],[-119.368,34.016],[-119.368,34.016],[-119.368,34.016],[-119.368,34.016],[-119.368,34.016],[-119.368,34.016],[-119.368,34.016],[-119.368,34.016],[-119.368,34.015],[-119.368,34.015],[-119.369,34.015],[-119.369,34.015],[-119.369,34.015],[-119.369,34.015],[-119.369,34.015],[-119.369,34.015],[-119.369,34.015],[-119.369,34.015],[-119.369,34.015],[-119.369,34.015],[-119.369,34.015],[-119.369,34.015],[-119.369,34.015],[-119.369,34.015],[-119.369,34.015],[-119.37,34.015],[-119.37,34.015],[-119.37,34.015],[-119.37,34.015],[-119.37,34.015],[-119.37,34.015],[-119.37,34.015],[-119.37,34.015],[-119.37,34.015],[-119.37,34.015],[-119.37,34.014],[-119.37,34.014],[-119.371,34.014],[-119.371,34.014],[-119.371,34.014],[-119.371,34.014],[-119.371,34.014],[-119.371,34.014],[-119.371,34.015],[-119.371,34.015],[-119.372,34.015],[-119.372,34.015],[-119.372,34.015],[-119.372,34.015],[-119.372,34.015],[-119.372,34.015],[-119.372,34.015],[-119.372,34.015],[-119.372,34.015],[-119.372,34.015],[-119.372,34.015],[-119.372,34.015],[-119.372,34.015],[-119.372,34.015],[-119.372,34.015],[-119.372,34.015],[-119.372,34.015],[-119.372,34.015],[-119.372,34.015],[-119.372,34.015],[-119.372,34.015],[-119.372,34.016],[-119.372,34.016],[-119.372,34.016],[-119.372,34.016],[-119.372,34.016],[-119.372,34.016],[-119.372,34.016],[-119.372,34.016],[-119.372,34.016],[-119.372,34.016],[-119.372,34.016],[-119.373,34.016],[-119.373,34.016],[-119.373,34.016],[-119.373,34.016],[-119.373,34.016],[-119.373,34.016],[-119.373,34.016],[-119.373,34.016],[-119.373,34.016],[-119.373,34.015],[-119.373,34.015],[-119.373,34.015],[-119.373,34.015],[-119.373,34.015],[-119.373,34.015],[-119.373,34.015],[-119.373,34.015],[-119.373,34.015],[-119.373,34.015],[-119.373,34.015],[-119.373,34.015],[-119.373,34.015],[-119.373,34.015],[-119.373,34.015],[-119.374,34.015],[-119.374,34.015],[-119.374,34.015],[-119.374,34.015],[-119.374,34.015],[-119.374,34.015],[-119.374,34.015],[-119.374,34.015],[-119.374,34.015],[-119.374,34.015],[-119.374,34.015],[-119.374,34.015],[-119.374,34.015],[-119.374,34.015],[-119.374,34.015],[-119.374,34.015],[-119.374,34.015],[-119.374,34.015],[-119.374,34.014],[-119.374,34.014],[-119.374,34.014],[-119.374,34.014],[-119.374,34.014],[-119.374,34.014],[-119.374,34.014],[-119.374,34.014],[-119.374,34.014],[-119.374,34.014],[-119.374,34.014],[-119.374,34.014],[-119.374,34.014],[-119.374,34.014],[-119.374,34.014],[-119.375,34.014],[-119.375,34.014],[-119.375,34.014],[-119.375,34.014],[-119.375,34.014],[-119.375,34.014],[-119.375,34.014],[-119.375,34.014],[-119.375,34.014],[-119.375,34.014],[-119.375,34.014],[-119.375,34.014],[-119.375,34.014],[-119.375,34.014],[-119.375,34.014],[-119.375,34.013],[-119.375,34.013],[-119.375,34.013],[-119.375,34.013],[-119.375,34.013],[-119.375,34.013],[-119.375,34.013],[-119.375,34.013],[-119.375,34.013],[-119.375,34.013],[-119.376,34.013],[-119.376,34.013],[-119.376,34.013],[-119.376,34.013],[-119.376,34.013],[-119.376,34.013],[-119.376,34.013],[-119.376,34.013],[-119.376,34.013],[-119.376,34.013],[-119.376,34.013],[-119.376,34.013],[-119.376,34.013],[-119.376,34.013],[-119.377,34.013],[-119.377,34.013],[-119.377,34.013],[-119.377,34.013],[-119.377,34.013],[-119.377,34.013],[-119.377,34.013],[-119.377,34.013],[-119.377,34.013],[-119.377,34.013],[-119.377,34.013],[-119.377,34.013],[-119.377,34.013],[-119.377,34.013],[-119.378,34.013],[-119.378,34.013],[-119.378,34.013],[-119.378,34.012],[-119.378,34.012],[-119.378,34.012],[-119.378,34.012],[-119.378,34.012],[-119.378,34.012],[-119.378,34.012],[-119.378,34.012],[-119.378,34.012],[-119.379,34.012],[-119.379,34.011],[-119.379,34.011],[-119.379,34.011],[-119.38,34.011],[-119.38,34.011],[-119.38,34.011],[-119.38,34.011],[-119.38,34.011],[-119.38,34.011],[-119.38,34.011],[-119.38,34.011],[-119.381,34.011],[-119.381,34.011],[-119.381,34.011],[-119.381,34.011],[-119.381,34.011],[-119.381,34.011],[-119.381,34.011],[-119.381,34.011],[-119.381,34.011],[-119.382,34.011],[-119.382,34.011],[-119.382,34.011],[-119.382,34.011],[-119.382,34.011],[-119.383,34.011],[-119.383,34.011],[-119.383,34.011],[-119.383,34.011],[-119.383,34.011],[-119.383,34.011],[-119.383,34.011],[-119.383,34.011],[-119.383,34.011],[-119.383,34.01],[-119.383,34.01],[-119.383,34.01],[-119.383,34.01],[-119.383,34.01],[-119.383,34.01],[-119.383,34.01],[-119.383,34.009],[-119.383,34.009],[-119.383,34.009],[-119.383,34.009],[-119.384,34.009],[-119.384,34.009],[-119.384,34.009],[-119.384,34.009],[-119.385,34.009],[-119.385,34.009],[-119.385,34.009],[-119.385,34.009],[-119.385,34.009],[-119.385,34.009],[-119.385,34.009],[-119.385,34.009],[-119.385,34.009],[-119.385,34.009],[-119.385,34.009],[-119.385,34.009],[-119.385,34.009],[-119.385,34.009],[-119.385,34.008],[-119.385,34.008],[-119.385,34.008],[-119.386,34.008],[-119.386,34.008],[-119.386,34.008],[-119.386,34.008],[-119.386,34.008],[-119.386,34.008],[-119.387,34.008],[-119.387,34.008],[-119.387,34.008],[-119.387,34.008],[-119.387,34.008],[-119.387,34.008],[-119.387,34.008],[-119.387,34.008],[-119.387,34.008],[-119.387,34.007],[-119.388,34.007],[-119.388,34.007],[-119.388,34.007],[-119.389,34.007],[-119.389,34.007],[-119.389,34.007],[-119.389,34.007],[-119.389,34.007],[-119.39,34.007],[-119.39,34.007],[-119.39,34.007],[-119.39,34.007],[-119.39,34.007],[-119.39,34.007],[-119.39,34.007],[-119.39,34.006],[-119.39,34.006],[-119.39,34.006],[-119.39,34.006],[-119.39,34.006],[-119.39,34.006],[-119.39,34.006],[-119.39,34.006],[-119.39,34.006],[-119.391,34.006],[-119.391,34.006],[-119.391,34.006],[-119.391,34.006],[-119.391,34.006],[-119.392,34.006],[-119.392,34.006],[-119.392,34.006],[-119.392,34.006],[-119.392,34.006],[-119.392,34.006],[-119.392,34.006],[-119.392,34.006],[-119.393,34.006],[-119.393,34.006],[-119.393,34.006],[-119.393,34.007],[-119.393,34.007],[-119.393,34.007],[-119.393,34.007],[-119.394,34.006],[-119.394,34.006],[-119.394,34.006],[-119.394,34.006],[-119.394,34.006],[-119.394,34.006],[-119.394,34.006],[-119.394,34.006],[-119.394,34.006],[-119.394,34.006],[-119.395,34.006],[-119.395,34.006],[-119.395,34.006],[-119.395,34.005],[-119.395,34.005],[-119.395,34.005],[-119.395,34.006],[-119.395,34.006],[-119.395,34.006],[-119.395,34.005],[-119.396,34.006],[-119.396,34.006],[-119.396,34.006],[-119.396,34.006],[-119.396,34.006],[-119.396,34.006],[-119.396,34.006],[-119.397,34.006],[-119.397,34.006],[-119.397,34.006],[-119.397,34.006],[-119.397,34.006],[-119.397,34.006],[-119.397,34.006],[-119.397,34.006],[-119.397,34.006],[-119.398,34.006],[-119.398,34.006],[-119.398,34.006],[-119.398,34.006],[-119.398,34.006],[-119.398,34.006],[-119.399,34.006],[-119.399,34.006],[-119.399,34.006],[-119.399,34.006],[-119.399,34.006],[-119.399,34.005],[-119.399,34.005],[-119.399,34.005],[-119.399,34.005],[-119.399,34.006],[-119.399,34.006],[-119.399,34.006],[-119.399,34.006],[-119.4,34.006],[-119.4,34.006],[-119.4,34.006],[-119.4,34.006],[-119.4,34.006],[-119.4,34.006],[-119.4,34.006],[-119.4,34.006],[-119.4,34.006],[-119.401,34.006],[-119.401,34.006],[-119.401,34.006],[-119.4,34.006],[-119.4,34.006],[-119.4,34.006],[-119.4,34.006],[-119.4,34.006],[-119.4,34.006],[-119.4,34.006],[-119.4,34.007],[-119.4,34.007],[-119.4,34.007],[-119.4,34.007],[-119.4,34.006],[-119.4,34.006],[-119.4,34.006],[-119.401,34.006],[-119.401,34.006],[-119.401,34.006],[-119.401,34.007],[-119.401,34.007],[-119.401,34.007],[-119.401,34.007],[-119.401,34.007],[-119.401,34.007],[-119.401,34.007],[-119.402,34.007],[-119.402,34.006],[-119.402,34.007],[-119.402,34.007],[-119.402,34.007],[-119.402,34.007],[-119.402,34.007],[-119.402,34.007],[-119.402,34.007],[-119.402,34.007],[-119.402,34.007],[-119.402,34.007],[-119.403,34.007],[-119.403,34.007],[-119.403,34.007],[-119.403,34.007],[-119.403,34.007],[-119.403,34.007],[-119.404,34.006],[-119.404,34.006],[-119.404,34.006],[-119.404,34.006],[-119.404,34.006],[-119.404,34.006],[-119.404,34.006],[-119.404,34.006],[-119.404,34.006],[-119.404,34.007],[-119.404,34.007],[-119.404,34.007],[-119.404,34.007],[-119.404,34.007],[-119.404,34.007],[-119.404,34.007],[-119.404,34.007],[-119.405,34.007],[-119.405,34.007],[-119.405,34.007],[-119.405,34.007],[-119.405,34.007],[-119.405,34.007],[-119.405,34.007],[-119.406,34.007],[-119.406,34.007],[-119.406,34.007],[-119.406,34.006],[-119.406,34.006],[-119.406,34.006],[-119.406,34.006],[-119.406,34.006],[-119.406,34.006],[-119.406,34.006],[-119.406,34.006],[-119.406,34.006],[-119.406,34.006],[-119.406,34.007],[-119.407,34.007],[-119.407,34.006],[-119.407,34.006],[-119.407,34.006],[-119.407,34.006],[-119.407,34.006],[-119.407,34.006],[-119.407,34.006],[-119.407,34.006],[-119.407,34.006],[-119.407,34.006],[-119.407,34.006],[-119.408,34.006],[-119.408,34.006],[-119.408,34.006],[-119.408,34.006],[-119.408,34.006],[-119.408,34.006],[-119.408,34.006],[-119.408,34.006],[-119.408,34.006],[-119.408,34.006],[-119.408,34.006],[-119.408,34.006],[-119.408,34.006],[-119.408,34.006],[-119.408,34.006],[-119.408,34.006],[-119.408,34.006],[-119.408,34.006],[-119.408,34.006],[-119.408,34.006],[-119.408,34.007],[-119.408,34.007],[-119.408,34.007],[-119.408,34.007],[-119.408,34.007],[-119.409,34.007],[-119.409,34.007],[-119.409,34.007],[-119.409,34.007],[-119.409,34.007],[-119.409,34.007],[-119.409,34.007],[-119.409,34.007],[-119.409,34.007],[-119.409,34.007],[-119.409,34.007],[-119.409,34.007],[-119.409,34.007],[-119.409,34.007],[-119.41,34.007],[-119.41,34.007],[-119.41,34.007],[-119.41,34.007],[-119.41,34.007],[-119.41,34.007],[-119.41,34.007],[-119.41,34.007],[-119.41,34.007],[-119.41,34.007],[-119.41,34.007],[-119.41,34.007],[-119.41,34.007],[-119.41,34.007],[-119.41,34.007],[-119.41,34.007],[-119.41,34.007],[-119.41,34.008],[-119.41,34.028],[-119.41,34.065],[-119.41,34.065],[-119.409,34.065],[-119.408,34.065],[-119.407,34.064],[-119.406,34.064],[-119.405,34.064],[-119.405,34.064],[-119.405,34.064],[-119.404,34.064],[-119.403,34.064],[-119.403,34.063],[-119.403,34.063],[-119.402,34.063],[-119.401,34.063],[-119.4,34.063],[-119.399,34.062],[-119.398,34.062],[-119.398,34.062],[-119.397,34.062],[-119.397,34.062],[-119.397,34.062],[-119.396,34.062],[-119.395,34.063],[-119.395,34.063],[-119.395,34.063],[-119.394,34.063],[-119.393,34.063],[-119.392,34.064],[-119.392,34.064],[-119.391,34.064],[-119.391,34.064],[-119.39,34.064],[-119.389,34.064],[-119.389,34.064],[-119.388,34.065],[-119.388,34.065],[-119.387,34.065],[-119.386,34.065],[-119.386,34.065],[-119.386,34.065],[-119.385,34.065],[-119.384,34.065],[-119.383,34.066],[-119.382,34.066],[-119.382,34.066],[-119.381,34.066],[-119.381,34.066],[-119.38,34.066],[-119.38,34.066],[-119.379,34.066],[-119.378,34.066],[-119.377,34.067],[-119.377,34.067],[-119.376,34.067],[-119.376,34.067],[-119.376,34.067],[-119.375,34.067],[-119.374,34.067],[-119.373,34.067],[-119.372,34.067],[-119.37,34.067],[-119.37,34.067],[-119.369,34.067],[-119.368,34.067],[-119.367,34.067],[-119.366,34.068],[-119.365,34.068],[-119.364,34.068],[-119.363,34.068],[-119.362,34.068],[-119.361,34.067],[-119.36,34.067],[-119.359,34.067],[-119.359,34.067],[-119.359,34.067],[-119.359,34.067]]]},"properties":{"id":"anacapa-island-state-marine-reserve","name":"Anacapa Island State Marine Reserve","type":"SMR","shortName":"Anacapa Island","areaKm2":null,"ccrCitation":null}},{"type":"Feature","geometry":{"type":"Polygon","coordinates":[[[-119.433,33.988],[-119.433,33.954],[-119.434,33.955],[-119.435,33.955],[-119.436,33.955],[-119.436,33.955],[-119.437,33.955],[-119.438,33.955],[-119.439,33.956],[-119.44,33.956],[-119.441,33.956],[-119.442,33.956],[-119.443,33.957],[-119.444,33.957],[-119.444,33.957],[-119.445,33.957],[-119.445,33.957],[-119.446,33.958],[-119.447,33.958],[-119.447,33.958],[-119.448,33.958],[-119.448,33.958],[-119.449,33.959],[-119.45,33.959],[-119.451,33.96],[-119.452,33.96],[-119.453,33.96],[-119.454,33.961],[-119.455,33.961],[-119.455,33.962],[-119.456,33.962],[-119.456,33.962],[-119.456,33.962],[-119.457,33.963],[-119.457,33.963],[-119.458,33.963],[-119.459,33.963],[-119.46,33.964],[-119.461,33.964],[-119.462,33.964],[-119.463,33.965],[-119.464,33.965],[-119.464,33.965],[-119.464,33.965],[-119.465,33.966],[-119.466,33.966],[-119.467,33.967],[-119.467,33.967],[-119.467,33.967],[-119.468,33.967],[-119.469,33.967],[-119.47,33.968],[-119.471,33.968],[-119.471,33.969],[-119.471,33.969],[-119.471,33.969],[-119.472,33.969],[-119.473,33.969],[-119.473,33.969],[-119.473,33.969],[-119.474,33.97],[-119.474,33.97],[-119.475,33.97],[-119.475,33.97],[-119.475,33.971],[-119.476,33.971],[-119.476,33.971],[-119.476,33.971],[-119.477,33.971],[-119.477,33.972],[-119.478,33.972],[-119.479,33.972],[-119.48,33.973],[-119.481,33.974],[-119.482,33.974],[-119.482,33.975],[-119.483,33.975],[-119.484,33.976],[-119.485,33.976],[-119.485,33.977],[-119.485,33.977],[-119.486,33.977],[-119.486,33.977],[-119.486,33.978],[-119.487,33.978],[-119.487,33.978],[-119.488,33.979],[-119.488,33.979],[-119.489,33.98],[-119.49,33.98],[-119.49,33.981],[-119.491,33.982],[-119.491,33.982],[-119.491,33.982],[-119.492,33.982],[-119.492,33.983],[-119.492,33.983],[-119.492,33.983],[-119.493,33.983],[-119.493,33.983],[-119.493,33.982],[-119.494,33.982],[-119.494,33.981],[-119.494,33.981],[-119.494,33.981],[-119.495,33.98],[-119.495,33.979],[-119.495,33.979],[-119.496,33.979],[-119.496,33.978],[-119.496,33.978],[-119.497,33.977],[-119.497,33.976],[-119.498,33.976],[-119.498,33.976],[-119.499,33.975],[-119.499,33.975],[-119.499,33.974],[-119.5,33.974],[-119.5,33.974],[-119.5,33.974],[-119.501,33.973],[-119.501,33.973],[-119.501,33.972],[-119.502,33.972],[-119.502,33.972],[-119.503,33.971],[-119.503,33.97],[-119.504,33.97],[-119.504,33.97],[-119.505,33.969],[-119.505,33.969],[-119.505,33.969],[-119.505,33.969],[-119.505,33.969],[-119.505,33.969],[-119.506,33.968],[-119.507,33.967],[-119.507,33.967],[-119.508,33.966],[-119.508,33.965],[-119.509,33.965],[-119.51,33.964],[-119.51,33.963],[-119.511,33.963],[-119.512,33.962],[-119.513,33.961],[-119.513,33.961],[-119.514,33.96],[-119.514,33.96],[-119.514,33.96],[-119.515,33.96],[-119.516,33.959],[-119.516,33.959],[-119.516,33.988],[-119.433,33.988]]]},"properties":{"id":"footprint-state-marine-reserve","name":"Footprint State Marine Reserve","type":"SMR","shortName":"Footprint","areaKm2":null,"ccrCitation":null}},{"type":"Feature","geometry":{"type":"Polygon","coordinates":[[[-119.433,33.954],[-119.433,33.902],[-119.516,33.902],[-119.516,33.959],[-119.516,33.959],[-119.515,33.96],[-119.514,33.96],[-119.514,33.96],[-119.514,33.96],[-119.513,33.961],[-119.513,33.961],[-119.512,33.962],[-119.511,33.963],[-119.51,33.963],[-119.51,33.964],[-119.509,33.965],[-119.508,33.965],[-119.508,33.966],[-119.507,33.967],[-119.507,33.967],[-119.506,33.968],[-119.505,33.969],[-119.505,33.969],[-119.505,33.969],[-119.505,33.969],[-119.505,33.969],[-119.505,33.969],[-119.504,33.97],[-119.504,33.97],[-119.503,33.97],[-119.503,33.971],[-119.502,33.972],[-119.502,33.972],[-119.501,33.972],[-119.501,33.973],[-119.501,33.973],[-119.5,33.974],[-119.5,33.974],[-119.5,33.974],[-119.499,33.974],[-119.499,33.975],[-119.499,33.975],[-119.498,33.976],[-119.498,33.976],[-119.497,33.976],[-119.497,33.977],[-119.496,33.978],[-119.496,33.978],[-119.496,33.979],[-119.495,33.979],[-119.495,33.979],[-119.495,33.98],[-119.494,33.981],[-119.494,33.981],[-119.494,33.981],[-119.494,33.982],[-119.493,33.982],[-119.493,33.983],[-119.493,33.983],[-119.492,33.983],[-119.492,33.983],[-119.492,33.983],[-119.492,33.982],[-119.491,33.982],[-119.491,33.982],[-119.491,33.982],[-119.49,33.981],[-119.49,33.98],[-119.489,33.98],[-119.488,33.979],[-119.488,33.979],[-119.487,33.978],[-119.487,33.978],[-119.486,33.978],[-119.486,33.977],[-119.486,33.977],[-119.485,33.977],[-119.485,33.977],[-119.485,33.976],[-119.484,33.976],[-119.483,33.975],[-119.482,33.975],[-119.482,33.974],[-119.481,33.974],[-119.48,33.973],[-119.479,33.972],[-119.478,33.972],[-119.477,33.972],[-119.477,33.971],[-119.476,33.971],[-119.476,33.971],[-119.476,33.971],[-119.475,33.971],[-119.475,33.97],[-119.475,33.97],[-119.474,33.97],[-119.474,33.97],[-119.473,33.969],[-119.473,33.969],[-119.473,33.969],[-119.472,33.969],[-119.471,33.969],[-119.471,33.969],[-119.471,33.969],[-119.471,33.968],[-119.47,33.968],[-119.469,33.967],[-119.468,33.967],[-119.467,33.967],[-119.467,33.967],[-119.467,33.967],[-119.466,33.966],[-119.465,33.966],[-119.464,33.965],[-119.464,33.965],[-119.464,33.965],[-119.463,33.965],[-119.462,33.964],[-119.461,33.964],[-119.46,33.964],[-119.459,33.963],[-119.458,33.963],[-119.457,33.963],[-119.457,33.963],[-119.456,33.962],[-119.456,33.962],[-119.456,33.962],[-119.455,33.962],[-119.455,33.961],[-119.454,33.961],[-119.453,33.96],[-119.452,33.96],[-119.451,33.96],[-119.45,33.959],[-119.449,33.959],[-119.448,33.958],[-119.448,33.958],[-119.447,33.958],[-119.447,33.958],[-119.446,33.958],[-119.445,33.957],[-119.445,33.957],[-119.444,33.957],[-119.444,33.957],[-119.443,33.957],[-119.442,33.956],[-119.441,33.956],[-119.44,33.956],[-119.439,33.956],[-119.438,33.955],[-119.437,33.955],[-119.436,33.955],[-119.436,33.955],[-119.435,33.955],[-119.434,33.955],[-119.433,33.954]]]},"properties":{"id":"footprint-federal-marine-reserve","name":"Footprint Federal Marine Reserve","type":"FMR","shortName":"Footprint","areaKm2":null,"ccrCitation":null}},{"type":"Feature","geometry":{"type":"Polygon","coordinates":[[[-119.357,34.083],[-119.357,34.067],[-119.357,34.067],[-119.358,34.067],[-119.359,34.067],[-119.359,34.067],[-119.359,34.067],[-119.359,34.067],[-119.359,34.067],[-119.36,34.067],[-119.361,34.067],[-119.362,34.068],[-119.363,34.068],[-119.364,34.068],[-119.365,34.068],[-119.366,34.068],[-119.367,34.067],[-119.368,34.067],[-119.369,34.067],[-119.37,34.067],[-119.37,34.067],[-119.372,34.067],[-119.373,34.067],[-119.374,34.067],[-119.375,34.067],[-119.376,34.067],[-119.376,34.067],[-119.376,34.067],[-119.377,34.067],[-119.377,34.067],[-119.378,34.066],[-119.379,34.066],[-119.38,34.066],[-119.38,34.066],[-119.381,34.066],[-119.381,34.066],[-119.382,34.066],[-119.382,34.066],[-119.383,34.066],[-119.384,34.065],[-119.385,34.065],[-119.386,34.065],[-119.386,34.065],[-119.386,34.065],[-119.387,34.065],[-119.388,34.065],[-119.388,34.065],[-119.389,34.064],[-119.389,34.064],[-119.39,34.064],[-119.391,34.064],[-119.391,34.064],[-119.392,34.064],[-119.392,34.064],[-119.393,34.063],[-119.394,34.063],[-119.395,34.063],[-119.395,34.063],[-119.395,34.063],[-119.396,34.062],[-119.397,34.062],[-119.397,34.062],[-119.397,34.062],[-119.398,34.062],[-119.398,34.062],[-119.399,34.062],[-119.4,34.063],[-119.401,34.063],[-119.402,34.063],[-119.403,34.063],[-119.403,34.063],[-119.403,34.064],[-119.404,34.064],[-119.405,34.064],[-119.405,34.064],[-119.405,34.064],[-119.406,34.064],[-119.407,34.064],[-119.408,34.065],[-119.409,34.065],[-119.41,34.065],[-119.41,34.065],[-119.41,34.083],[-119.357,34.083]]]},"properties":{"id":"anacapa-island-federal-marine-reserve","name":"Anacapa Island Federal Marine Reserve","type":"FMR","shortName":"Anacapa","areaKm2":null,"ccrCitation":null}}]}