{"type":"FeatureCollection","features":[{"type":"Feature","geometry":{"type":"Point","coordinates":[-119.47895,34.06527]},"properties":{"depth_ft":275,"depth_m":83.9}},{"type":"Feature","geometry":{"type":"Point","coordinates":[-119.47139,34.06527]},"properties":{"depth_ft":283,"depth_m":86.2}},{"type":"Feature","geometry":{"type":"Point","coordinates":[-119.46383,34.06527]},"properties":{"depth_ft":300,"depth_m":91.6}},{"type":"Feature","geometry":{"type":"Point","coordinates":[-119.47895,34.059]},"properties":{"depth_ft":280,"depth_m":85.2}},{"type":"Feature","geometry":{"type":"Point","coordinates":[-119.47139,34.059]},"properties":{"depth_ft":280,"depth_m":85.3}},{"type":"Feature","geometry":{"type":"Point","coordinates":[-119.46383,34.059]},"properties":{"depth_ft":282,"depth_m":86.0}},{"type":"Feature","geometry":{"type":"Point","coordinates":[-119.45627,34.059]},"properties":{"depth_ft":281,"depth_m":85.5}},{"type":"Feature","geometry":{"type":"Point","coordinates":[-119.4487,34.059]},"properties":{"depth_ft":280,"depth_m":85.2}},{"type":"Feature","geometry":{"type":"Point","coordinates":[-119.44114,34.059]},"properties":{"depth_ft":280,"depth_m":85.5}},{"type":"Feature","geometry":{"type":"Point","coordinates":[-119.43358,34.059]},"properties":{"depth_ft":283,"depth_m":86.4}},{"type":"Feature","geometry":{"type":"Point","coordinates":[-119.42602,34.059]},"properties":{"depth_ft":296,"depth_m":90.3}},{"type":"Feature","geometry":{"type":"Point","coordinates":[-119.41846,34.059]},"properties":{"depth_ft":324,"depth_m":98.7}},{"type":"Feature","geometry":{"type":"Point","coordinates":[-119.47895,34.05274]},"properties":{"depth_ft":271,"depth_m":82.6}},{"type":"Feature","geometry":{"type":"Point","coordinates":[-119.47139,34.05274]},"properties":{"depth_ft":269,"depth_m":82.0}},{"type":"Feature","geometry":{"type":"Point","coordinates":[-119.46383,34.05274]},"properties":{"depth_ft":280,"depth_m":85.4}},{"type":"Feature","geometry":{"type":"Point","coordinates":[-119.45627,34.05274]},"properties":{"depth_ft":278,"depth_m":84.9}},{"type":"Feature","geometry":{"type":"Point","coordinates":[-119.4487,34.05274]},"properties":{"depth_ft":279,"depth_m":85.0}},{"type":"Feature","geometry":{"type":"Point","coordinates":[-119.44114,34.05274]},"properties":{"depth_ft":288,"depth_m":87.9}},{"type":"Feature","geometry":{"type":"Point","coordinates":[-119.43358,34.05274]},"properties":{"depth_ft":297,"depth_m":90.7}},{"type":"Feature","geometry":{"type":"Point","coordinates":[-119.42602,34.05274]},"properties":{"depth_ft":294,"depth_m":89.6}},{"type":"Feature","geometry":{"type":"Point","coordinates":[-119.41846,34.05274]},"properties":{"depth_ft":286,"depth_m":87.0}},{"type":"Feature","geometry":{"type":"Point","coordinates":[-119.4109,34.05274]},"properties":{"depth_ft":311,"depth_m":94.9}},{"type":"Feature","geometry":{"type":"Point","coordinates":[-119.40334,34.05274]},"properties":{"depth_ft":327,"depth_m":99.7}},{"type":"Feature","geometry":{"type":"Point","coordinates":[-119.39578,34.05274]},"properties":{"depth_ft":326,"depth_m":99.5}},{"type":"Feature","geometry":{"type":"Point","coordinates":[-119.47895,34.04647]},"properties":{"depth_ft":274,"depth_m":83.5}},{"type":"Feature","geometry":{"type":"Point","coordinates":[-119.47139,34.04647]},"properties":{"depth_ft":272,"depth_m":83.0}},{"type":"Feature","geometry":{"type":"Point","coordinates":[-119.46383,34.04647]},"properties":{"depth_ft":276,"depth_m":84.3}},{"type":"Feature","geometry":{"type":"Point","coordinates":[-119.45627,34.04647]},"properties":{"depth_ft":278,"depth_m":84.8}},{"type":"Feature","geometry":{"type":"Point","coordinates":[-119.4487,34.04647]},"properties":{"depth_ft":277,"depth_m":84.4}},{"type":"Feature","geometry":{"type":"Point","coordinates":[-119.44114,34.04647]},"properties":{"depth_ft":276,"depth_m":84.1}},{"type":"Feature","geometry":{"type":"Point","coordinates":[-119.43358,34.04647]},"properties":{"depth_ft":278,"depth_m":84.9}},{"type":"Feature","geometry":{"type":"Point","coordinates":[-119.42602,34.04647]},"properties":{"depth_ft":278,"depth_m":84.7}},{"type":"Feature","geometry":{"type":"Point","coordinates":[-119.41846,34.04647]},"properties":{"depth_ft":282,"depth_m":86.0}},{"type":"Feature","geometry":{"type":"Point","coordinates":[-119.4109,34.04647]},"properties":{"depth_ft":276,"depth_m":84.2}},{"type":"Feature","geometry":{"type":"Point","coordinates":[-119.40334,34.04647]},"properties":{"depth_ft":276,"depth_m":84.1}},{"type":"Feature","geometry":{"type":"Point","coordinates":[-119.39578,34.04647]},"properties":{"depth_ft":281,"depth_m":85.7}},{"type":"Feature","geometry":{"type":"Point","coordinates":[-119.38822,34.04647]},"properties":{"depth_ft":277,"depth_m":84.5}},{"type":"Feature","geometry":{"type":"Point","coordinates":[-119.38066,34.04647]},"properties":{"depth_ft":299,"depth_m":91.3}},{"type":"Feature","geometry":{"type":"Point","coordinates":[-119.47895,34.0402]},"properties":{"depth_ft":270,"depth_m":82.4}},{"type":"Feature","geometry":{"type":"Point","coordinates":[-119.47139,34.0402]},"properties":{"depth_ft":277,"depth_m":84.6}},{"type":"Feature","geometry":{"type":"Point","coordinates":[-119.46383,34.0402]},"properties":{"depth_ft":277,"depth_m":84.4}},{"type":"Feature","geometry":{"type":"Point","coordinates":[-119.45627,34.0402]},"properties":{"depth_ft":274,"depth_m":83.7}},{"type":"Feature","geometry":{"type":"Point","coordinates":[-119.4487,34.0402]},"properties":{"depth_ft":275,"depth_m":83.7}},{"type":"Feature","geometry":{"type":"Point","coordinates":[-119.44114,34.0402]},"properties":{"depth_ft":274,"depth_m":83.5}},{"type":"Feature","geometry":{"type":"Point","coordinates":[-119.43358,34.0402]},"properties":{"depth_ft":274,"depth_m":83.6}},{"type":"Feature","geometry":{"type":"Point","coordinates":[-119.42602,34.0402]},"properties":{"depth_ft":269,"depth_m":82.0}},{"type":"Feature","geometry":{"type":"Point","coordinates":[-119.41846,34.0402]},"properties":{"depth_ft":274,"depth_m":83.6}},{"type":"Feature","geometry":{"type":"Point","coordinates":[-119.4109,34.0402]},"properties":{"depth_ft":280,"depth_m":85.3}},{"type":"Feature","geometry":{"type":"Point","coordinates":[-119.40334,34.0402]},"properties":{"depth_ft":266,"depth_m":81.2}},{"type":"Feature","geometry":{"type":"Point","coordinates":[-119.39578,34.0402]},"properties":{"depth_ft":265,"depth_m":80.8}},{"type":"Feature","geometry":{"type":"Point","coordinates":[-119.38822,34.0402]},"properties":{"depth_ft":280,"depth_m":85.3}},{"type":"Feature","geometry":{"type":"Point","coordinates":[-119.38066,34.0402]},"properties":{"depth_ft":273,"depth_m":83.1}},{"type":"Feature","geometry":{"type":"Point","coordinates":[-119.3731,34.0402]},"properties":{"depth_ft":273,"depth_m":83.1}},{"type":"Feature","geometry":{"type":"Point","coordinates":[-119.36554,34.0402]},"properties":{"depth_ft":273,"depth_m":83.1}},{"type":"Feature","geometry":{"type":"Point","coordinates":[-119.35798,34.0402]},"properties":{"depth_ft":271,"depth_m":82.6}},{"type":"Feature","geometry":{"type":"Point","coordinates":[-119.35042,34.0402]},"properties":{"depth_ft":291,"depth_m":88.7}},{"type":"Feature","geometry":{"type":"Point","coordinates":[-119.34286,34.0402]},"properties":{"depth_ft":318,"depth_m":97.0}},{"type":"Feature","geometry":{"type":"Point","coordinates":[-119.47895,34.03393]},"properties":{"depth_ft":204,"depth_m":62.3}},{"type":"Feature","geometry":{"type":"Point","coordinates":[-119.47139,34.03393]},"properties":{"depth_ft":249,"depth_m":75.9}},{"type":"Feature","geometry":{"type":"Point","coordinates":[-119.46383,34.03393]},"properties":{"depth_ft":264,"depth_m":80.5}},{"type":"Feature","geometry":{"type":"Point","coordinates":[-119.45627,34.03393]},"properties":{"depth_ft":263,"depth_m":80.2}},{"type":"Feature","geometry":{"type":"Point","coordinates":[-119.4487,34.03393]},"properties":{"depth_ft":268,"depth_m":81.7}},{"type":"Feature","geometry":{"type":"Point","coordinates":[-119.44114,34.03393]},"properties":{"depth_ft":275,"depth_m":83.7}},{"type":"Feature","geometry":{"type":"Point","coordinates":[-119.43358,34.03393]},"properties":{"depth_ft":281,"depth_m":85.5}},{"type":"Feature","geometry":{"type":"Point","coordinates":[-119.42602,34.03393]},"properties":{"depth_ft":279,"depth_m":84.9}},{"type":"Feature","geometry":{"type":"Point","coordinates":[-119.41846,34.03393]},"properties":{"depth_ft":275,"depth_m":83.7}},{"type":"Feature","geometry":{"type":"Point","coordinates":[-119.4109,34.03393]},"properties":{"depth_ft":269,"depth_m":81.9}},{"type":"Feature","geometry":{"type":"Point","coordinates":[-119.40334,34.03393]},"properties":{"depth_ft":275,"depth_m":83.8}},{"type":"Feature","geometry":{"type":"Point","coordinates":[-119.39578,34.03393]},"properties":{"depth_ft":279,"depth_m":85.0}},{"type":"Feature","geometry":{"type":"Point","coordinates":[-119.38822,34.03393]},"properties":{"depth_ft":277,"depth_m":84.4}},{"type":"Feature","geometry":{"type":"Point","coordinates":[-119.38066,34.03393]},"properties":{"depth_ft":274,"depth_m":83.6}},{"type":"Feature","geometry":{"type":"Point","coordinates":[-119.3731,34.03393]},"properties":{"depth_ft":274,"depth_m":83.6}},{"type":"Feature","geometry":{"type":"Point","coordinates":[-119.36554,34.03393]},"properties":{"depth_ft":267,"depth_m":81.3}},{"type":"Feature","geometry":{"type":"Point","coordinates":[-119.35798,34.03393]},"properties":{"depth_ft":260,"depth_m":79.2}},{"type":"Feature","geometry":{"type":"Point","coordinates":[-119.35042,34.03393]},"properties":{"depth_ft":273,"depth_m":83.3}},{"type":"Feature","geometry":{"type":"Point","coordinates":[-119.34286,34.03393]},"properties":{"depth_ft":282,"depth_m":85.9}},{"type":"Feature","geometry":{"type":"Point","coordinates":[-119.3353,34.03393]},"properties":{"depth_ft":266,"depth_m":81.2}},{"type":"Feature","geometry":{"type":"Point","coordinates":[-119.32773,34.03393]},"properties":{"depth_ft":275,"depth_m":83.7}},{"type":"Feature","geometry":{"type":"Point","coordinates":[-119.32017,34.03393]},"properties":{"depth_ft":295,"depth_m":89.9}},{"type":"Feature","geometry":{"type":"Point","coordinates":[-119.47895,34.02767]},"properties":{"depth_ft":208,"depth_m":63.4}},{"type":"Feature","geometry":{"type":"Point","coordinates":[-119.47139,34.02767]},"properties":{"depth_ft":227,"depth_m":69.2}},{"type":"Feature","geometry":{"type":"Point","coordinates":[-119.46383,34.02767]},"properties":{"depth_ft":240,"depth_m":73.2}},{"type":"Feature","geometry":{"type":"Point","coordinates":[-119.45627,34.02767]},"properties":{"depth_ft":250,"depth_m":76.3}},{"type":"Feature","geometry":{"type":"Point","coordinates":[-119.4487,34.02767]},"properties":{"depth_ft":243,"depth_m":74.0}},{"type":"Feature","geometry":{"type":"Point","coordinates":[-119.44114,34.02767]},"properties":{"depth_ft":249,"depth_m":76.0}},{"type":"Feature","geometry":{"type":"Point","coordinates":[-119.43358,34.02767]},"properties":{"depth_ft":256,"depth_m":78.0}},{"type":"Feature","geometry":{"type":"Point","coordinates":[-119.42602,34.02767]},"properties":{"depth_ft":259,"depth_m":78.9}},{"type":"Feature","geometry":{"type":"Point","coordinates":[-119.41846,34.02767]},"properties":{"depth_ft":268,"depth_m":81.8}},{"type":"Feature","geometry":{"type":"Point","coordinates":[-119.4109,34.02767]},"properties":{"depth_ft":274,"depth_m":83.6}},{"type":"Feature","geometry":{"type":"Point","coordinates":[-119.40334,34.02767]},"properties":{"depth_ft":275,"depth_m":83.7}},{"type":"Feature","geometry":{"type":"Point","coordinates":[-119.39578,34.02767]},"properties":{"depth_ft":280,"depth_m":85.3}},{"type":"Feature","geometry":{"type":"Point","coordinates":[-119.38822,34.02767]},"properties":{"depth_ft":280,"depth_m":85.4}},{"type":"Feature","geometry":{"type":"Point","coordinates":[-119.38066,34.02767]},"properties":{"depth_ft":270,"depth_m":82.3}},{"type":"Feature","geometry":{"type":"Point","coordinates":[-119.3731,34.02767]},"properties":{"depth_ft":236,"depth_m":72.0}},{"type":"Feature","geometry":{"type":"Point","coordinates":[-119.36554,34.02767]},"properties":{"depth_ft":234,"depth_m":71.2}},{"type":"Feature","geometry":{"type":"Point","coordinates":[-119.35798,34.02767]},"properties":{"depth_ft":241,"depth_m":73.3}},{"type":"Feature","geometry":{"type":"Point","coordinates":[-119.35042,34.02767]},"properties":{"depth_ft":253,"depth_m":77.1}},{"type":"Feature","geometry":{"type":"Point","coordinates":[-119.34286,34.02767]},"properties":{"depth_ft":217,"depth_m":66.2}},{"type":"Feature","geometry":{"type":"Point","coordinates":[-119.3353,34.02767]},"properties":{"depth_ft":207,"depth_m":62.9}},{"type":"Feature","geometry":{"type":"Point","coordinates":[-119.32773,34.02767]},"properties":{"depth_ft":254,"depth_m":77.3}},{"type":"Feature","geometry":{"type":"Point","coordinates":[-119.32017,34.02767]},"properties":{"depth_ft":313,"depth_m":95.5}},{"type":"Feature","geometry":{"type":"Point","coordinates":[-119.47895,34.0214]},"properties":{"depth_ft":196,"depth_m":59.8}},{"type":"Feature","geometry":{"type":"Point","coordinates":[-119.47139,34.0214]},"properties":{"depth_ft":207,"depth_m":63.0}},{"type":"Feature","geometry":{"type":"Point","coordinates":[-119.46383,34.0214]},"properties":{"depth_ft":214,"depth_m":65.3}},{"type":"Feature","geometry":{"type":"Point","coordinates":[-119.45627,34.0214]},"properties":{"depth_ft":213,"depth_m":64.9}},{"type":"Feature","geometry":{"type":"Point","coordinates":[-119.4487,34.0214]},"properties":{"depth_ft":178,"depth_m":54.1}},{"type":"Feature","geometry":{"type":"Point","coordinates":[-119.44114,34.0214]},"properties":{"depth_ft":170,"depth_m":51.9}},{"type":"Feature","geometry":{"type":"Point","coordinates":[-119.43358,34.0214]},"properties":{"depth_ft":187,"depth_m":57.0}},{"type":"Feature","geometry":{"type":"Point","coordinates":[-119.42602,34.0214]},"properties":{"depth_ft":197,"depth_m":60.2}},{"type":"Feature","geometry":{"type":"Point","coordinates":[-119.41846,34.0214]},"properties":{"depth_ft":224,"depth_m":68.3}},{"type":"Feature","geometry":{"type":"Point","coordinates":[-119.4109,34.0214]},"properties":{"depth_ft":246,"depth_m":74.9}},{"type":"Feature","geometry":{"type":"Point","coordinates":[-119.40334,34.0214]},"properties":{"depth_ft":253,"depth_m":77.2}},{"type":"Feature","geometry":{"type":"Point","coordinates":[-119.39578,34.0214]},"properties":{"depth_ft":248,"depth_m":75.6}},{"type":"Feature","geometry":{"type":"Point","coordinates":[-119.38822,34.0214]},"properties":{"depth_ft":232,"depth_m":70.6}},{"type":"Feature","geometry":{"type":"Point","coordinates":[-119.38066,34.0214]},"properties":{"depth_ft":204,"depth_m":62.3}},{"type":"Feature","geometry":{"type":"Point","coordinates":[-119.3731,34.0214]},"properties":{"depth_ft":145,"depth_m":44.1}},{"type":"Feature","geometry":{"type":"Point","coordinates":[-119.36554,34.0214]},"properties":{"depth_ft":116,"depth_m":35.4}},{"type":"Feature","geometry":{"type":"Point","coordinates":[-119.35798,34.0214]},"properties":{"depth_ft":132,"depth_m":40.2}},{"type":"Feature","geometry":{"type":"Point","coordinates":[-119.35042,34.0214]},"properties":{"depth_ft":149,"depth_m":45.3}},{"type":"Feature","geometry":{"type":"Point","coordinates":[-119.34286,34.0214]},"properties":{"depth_ft":187,"depth_m":57.1}},{"type":"Feature","geometry":{"type":"Point","coordinates":[-119.3353,34.0214]},"properties":{"depth_ft":249,"depth_m":75.8}},{"type":"Feature","geometry":{"type":"Point","coordinates":[-119.32773,34.0214]},"properties":{"depth_ft":279,"depth_m":84.9}},{"type":"Feature","geometry":{"type":"Point","coordinates":[-119.32017,34.0214]},"properties":{"depth_ft":316,"depth_m":96.3}},{"type":"Feature","geometry":{"type":"Point","coordinates":[-119.47895,34.01513]},"properties":{"depth_ft":195,"depth_m":59.5}},{"type":"Feature","geometry":{"type":"Point","coordinates":[-119.47139,34.01513]},"properties":{"depth_ft":198,"depth_m":60.3}},{"type":"Feature","geometry":{"type":"Point","coordinates":[-119.46383,34.01513]},"properties":{"depth_ft":193,"depth_m":58.9}},{"type":"Feature","geometry":{"type":"Point","coordinates":[-119.45627,34.01513]},"properties":{"depth_ft":177,"depth_m":54.0}},{"type":"Feature","geometry":{"type":"Point","coordinates":[-119.4487,34.01513]},"properties":{"depth_ft":121,"depth_m":36.7}},{"type":"Feature","geometry":{"type":"Point","coordinates":[-119.44114,34.01513]},"properties":{"depth_ft":47,"depth_m":14.4}},{"type":"Feature","geometry":{"type":"Point","coordinates":[-119.41846,34.01513]},"properties":{"depth_ft":63,"depth_m":19.1}},{"type":"Feature","geometry":{"type":"Point","coordinates":[-119.4109,34.01513]},"properties":{"depth_ft":190,"depth_m":57.9}},{"type":"Feature","geometry":{"type":"Point","coordinates":[-119.40334,34.01513]},"properties":{"depth_ft":196,"depth_m":59.6}},{"type":"Feature","geometry":{"type":"Point","coordinates":[-119.39578,34.01513]},"properties":{"depth_ft":174,"depth_m":52.9}},{"type":"Feature","geometry":{"type":"Point","coordinates":[-119.38822,34.01513]},"properties":{"depth_ft":110,"depth_m":33.6}},{"type":"Feature","geometry":{"type":"Point","coordinates":[-119.38066,34.01513]},"properties":{"depth_ft":76,"depth_m":23.3}},{"type":"Feature","geometry":{"type":"Point","coordinates":[-119.35042,34.01513]},"properties":{"depth_ft":99,"depth_m":30.0}},{"type":"Feature","geometry":{"type":"Point","coordinates":[-119.34286,34.01513]},"properties":{"depth_ft":184,"depth_m":56.0}},{"type":"Feature","geometry":{"type":"Point","coordinates":[-119.3353,34.01513]},"properties":{"depth_ft":269,"depth_m":81.9}},{"type":"Feature","geometry":{"type":"Point","coordinates":[-119.32773,34.01513]},"properties":{"depth_ft":302,"depth_m":92.0}},{"type":"Feature","geometry":{"type":"Point","coordinates":[-119.47895,34.00887]},"properties":{"depth_ft":178,"depth_m":54.4}},{"type":"Feature","geometry":{"type":"Point","coordinates":[-119.47139,34.00887]},"properties":{"depth_ft":181,"depth_m":55.1}},{"type":"Feature","geometry":{"type":"Point","coordinates":[-119.46383,34.00887]},"properties":{"depth_ft":187,"depth_m":57.0}},{"type":"Feature","geometry":{"type":"Point","coordinates":[-119.45627,34.00887]},"properties":{"depth_ft":185,"depth_m":56.3}},{"type":"Feature","geometry":{"type":"Point","coordinates":[-119.4487,34.00887]},"properties":{"depth_ft":161,"depth_m":49.1}},{"type":"Feature","geometry":{"type":"Point","coordinates":[-119.44114,34.00887]},"properties":{"depth_ft":143,"depth_m":43.6}},{"type":"Feature","geometry":{"type":"Point","coordinates":[-119.43358,34.00887]},"properties":{"depth_ft":49,"depth_m":15.0}},{"type":"Feature","geometry":{"type":"Point","coordinates":[-119.4109,34.00887]},"properties":{"depth_ft":26,"depth_m":7.8}},{"type":"Feature","geometry":{"type":"Point","coordinates":[-119.40334,34.00887]},"properties":{"depth_ft":98,"depth_m":29.9}},{"type":"Feature","geometry":{"type":"Point","coordinates":[-119.39578,34.00887]},"properties":{"depth_ft":65,"depth_m":19.8}},{"type":"Feature","geometry":{"type":"Point","coordinates":[-119.38822,34.00887]},"properties":{"depth_ft":21,"depth_m":6.5}},{"type":"Feature","geometry":{"type":"Point","coordinates":[-119.38066,34.00887]},"properties":{"depth_ft":15,"depth_m":4.6}},{"type":"Feature","geometry":{"type":"Point","coordinates":[-119.3731,34.00887]},"properties":{"depth_ft":62,"depth_m":18.8}},{"type":"Feature","geometry":{"type":"Point","coordinates":[-119.36554,34.00887]},"properties":{"depth_ft":90,"depth_m":27.3}},{"type":"Feature","geometry":{"type":"Point","coordinates":[-119.35798,34.00887]},"properties":{"depth_ft":127,"depth_m":38.7}},{"type":"Feature","geometry":{"type":"Point","coordinates":[-119.35042,34.00887]},"properties":{"depth_ft":190,"depth_m":58.0}},{"type":"Feature","geometry":{"type":"Point","coordinates":[-119.34286,34.00887]},"properties":{"depth_ft":271,"depth_m":82.5}},{"type":"Feature","geometry":{"type":"Point","coordinates":[-119.3353,34.00887]},"properties":{"depth_ft":303,"depth_m":92.5}},{"type":"Feature","geometry":{"type":"Point","coordinates":[-119.47895,34.0026]},"properties":{"depth_ft":167,"depth_m":50.8}},{"type":"Feature","geometry":{"type":"Point","coordinates":[-119.47139,34.0026]},"properties":{"depth_ft":172,"depth_m":52.6}},{"type":"Feature","geometry":{"type":"Point","coordinates":[-119.46383,34.0026]},"properties":{"depth_ft":182,"depth_m":55.5}},{"type":"Feature","geometry":{"type":"Point","coordinates":[-119.45627,34.0026]},"properties":{"depth_ft":184,"depth_m":56.2}},{"type":"Feature","geometry":{"type":"Point","coordinates":[-119.4487,34.0026]},"properties":{"depth_ft":170,"depth_m":51.7}},{"type":"Feature","geometry":{"type":"Point","coordinates":[-119.44114,34.0026]},"properties":{"depth_ft":167,"depth_m":50.9}},{"type":"Feature","geometry":{"type":"Point","coordinates":[-119.43358,34.0026]},"properties":{"depth_ft":165,"depth_m":50.4}},{"type":"Feature","geometry":{"type":"Point","coordinates":[-119.42602,34.0026]},"properties":{"depth_ft":84,"depth_m":25.5}},{"type":"Feature","geometry":{"type":"Point","coordinates":[-119.41846,34.0026]},"properties":{"depth_ft":53,"depth_m":16.3}},{"type":"Feature","geometry":{"type":"Point","coordinates":[-119.4109,34.0026]},"properties":{"depth_ft":60,"depth_m":18.2}},{"type":"Feature","geometry":{"type":"Point","coordinates":[-119.40334,34.0026]},"properties":{"depth_ft":51,"depth_m":15.4}},{"type":"Feature","geometry":{"type":"Point","coordinates":[-119.39578,34.0026]},"properties":{"depth_ft":26,"depth_m":8.0}},{"type":"Feature","geometry":{"type":"Point","coordinates":[-119.38822,34.0026]},"properties":{"depth_ft":64,"depth_m":19.4}},{"type":"Feature","geometry":{"type":"Point","coordinates":[-119.38066,34.0026]},"properties":{"depth_ft":146,"depth_m":44.4}},{"type":"Feature","geometry":{"type":"Point","coordinates":[-119.3731,34.0026]},"properties":{"depth_ft":158,"depth_m":48.1}},{"type":"Feature","geometry":{"type":"Point","coordinates":[-119.36554,34.0026]},"properties":{"depth_ft":189,"depth_m":57.7}},{"type":"Feature","geometry":{"type":"Point","coordinates":[-119.35798,34.0026]},"properties":{"depth_ft":215,"depth_m":65.5}},{"type":"Feature","geometry":{"type":"Point","coordinates":[-119.35042,34.0026]},"properties":{"depth_ft":259,"depth_m":78.9}},{"type":"Feature","geometry":{"type":"Point","coordinates":[-119.34286,34.0026]},"properties":{"depth_ft":294,"depth_m":89.6}},{"type":"Feature","geometry":{"type":"Point","coordinates":[-119.47895,33.99633]},"properties":{"depth_ft":158,"depth_m":48.1}},{"type":"Feature","geometry":{"type":"Point","coordinates":[-119.47139,33.99633]},"properties":{"depth_ft":167,"depth_m":50.8}},{"type":"Feature","geometry":{"type":"Point","coordinates":[-119.46383,33.99633]},"properties":{"depth_ft":172,"depth_m":52.3}},{"type":"Feature","geometry":{"type":"Point","coordinates":[-119.45627,33.99633]},"properties":{"depth_ft":179,"depth_m":54.6}},{"type":"Feature","geometry":{"type":"Point","coordinates":[-119.4487,33.99633]},"properties":{"depth_ft":190,"depth_m":57.9}},{"type":"Feature","geometry":{"type":"Point","coordinates":[-119.44114,33.99633]},"properties":{"depth_ft":195,"depth_m":59.3}},{"type":"Feature","geometry":{"type":"Point","coordinates":[-119.43358,33.99633]},"properties":{"depth_ft":199,"depth_m":60.8}},{"type":"Feature","geometry":{"type":"Point","coordinates":[-119.42602,33.99633]},"properties":{"depth_ft":186,"depth_m":56.6}},{"type":"Feature","geometry":{"type":"Point","coordinates":[-119.41846,33.99633]},"properties":{"depth_ft":156,"depth_m":47.5}},{"type":"Feature","geometry":{"type":"Point","coordinates":[-119.4109,33.99633]},"properties":{"depth_ft":141,"depth_m":43.1}},{"type":"Feature","geometry":{"type":"Point","coordinates":[-119.40334,33.99633]},"properties":{"depth_ft":138,"depth_m":42.0}},{"type":"Feature","geometry":{"type":"Point","coordinates":[-119.39578,33.99633]},"properties":{"depth_ft":186,"depth_m":56.6}},{"type":"Feature","geometry":{"type":"Point","coordinates":[-119.38822,33.99633]},"properties":{"depth_ft":213,"depth_m":64.9}},{"type":"Feature","geometry":{"type":"Point","coordinates":[-119.38066,33.99633]},"properties":{"depth_ft":224,"depth_m":68.4}},{"type":"Feature","geometry":{"type":"Point","coordinates":[-119.3731,33.99633]},"properties":{"depth_ft":241,"depth_m":73.3}},{"type":"Feature","geometry":{"type":"Point","coordinates":[-119.36554,33.99633]},"properties":{"depth_ft":265,"depth_m":80.7}},{"type":"Feature","geometry":{"type":"Point","coordinates":[-119.35798,33.99633]},"properties":{"depth_ft":292,"depth_m":89.1}},{"type":"Feature","geometry":{"type":"Point","coordinates":[-119.47895,33.99007]},"properties":{"depth_ft":182,"depth_m":55.4}},{"type":"Feature","geometry":{"type":"Point","coordinates":[-119.47139,33.99007]},"properties":{"depth_ft":192,"depth_m":58.6}},{"type":"Feature","geometry":{"type":"Point","coordinates":[-119.46383,33.99007]},"properties":{"depth_ft":206,"depth_m":62.9}},{"type":"Feature","geometry":{"type":"Point","coordinates":[-119.45627,33.99007]},"properties":{"depth_ft":229,"depth_m":69.9}},{"type":"Feature","geometry":{"type":"Point","coordinates":[-119.4487,33.99007]},"properties":{"depth_ft":251,"depth_m":76.4}},{"type":"Feature","geometry":{"type":"Point","coordinates":[-119.44114,33.99007]},"properties":{"depth_ft":253,"depth_m":77.1}},{"type":"Feature","geometry":{"type":"Point","coordinates":[-119.43358,33.99007]},"properties":{"depth_ft":276,"depth_m":84.2}},{"type":"Feature","geometry":{"type":"Point","coordinates":[-119.42602,33.99007]},"properties":{"depth_ft":261,"depth_m":79.7}},{"type":"Feature","geometry":{"type":"Point","coordinates":[-119.41846,33.99007]},"properties":{"depth_ft":247,"depth_m":75.3}},{"type":"Feature","geometry":{"type":"Point","coordinates":[-119.4109,33.99007]},"properties":{"depth_ft":264,"depth_m":80.3}},{"type":"Feature","geometry":{"type":"Point","coordinates":[-119.38066,33.99007]},"properties":{"depth_ft":306,"depth_m":93.2}},{"type":"Feature","geometry":{"type":"Point","coordinates":[-119.47895,33.9838]},"properties":{"depth_ft":275,"depth_m":83.9}},{"type":"Feature","geometry":{"type":"Point","coordinates":[-119.47139,33.9838]},"properties":{"depth_ft":309,"depth_m":94.3}},{"type":"Feature","geometry":{"type":"Point","coordinates":[-119.46383,33.9838]},"properties":{"depth_ft":305,"depth_m":92.9}},{"type":"Feature","geometry":{"type":"Point","coordinates":[-119.45627,33.9838]},"properties":{"depth_ft":303,"depth_m":92.2}}]}