{"type":"FeatureCollection","features":[{"type":"Feature","geometry":{"type":"Polygon","coordinates":[[[-119.52996,33.28454],[-119.52933,33.28496],[-119.52857,33.28491],[-119.52848,33.28506],[-119.52824,33.28505],[-119.52771,33.28475],[-119.52773,33.28488],[-119.52739,33.28463],[-119.52757,33.28456],[-119.52714,33.28428],[-119.52615,33.28387],[-119.52577,33.28339],[-119.5258,33.28349],[-119.52458,33.2828],[-119.52488,33.28261],[-119.52435,33.28215],[-119.52411,33.28207],[-119.52396,33.28262],[-119.52324,33.282],[-119.52353,33.28191],[-119.5229,33.282],[-119.52276,33.28185],[-119.52287,33.28175],[-119.52252,33.2815],[-119.52267,33.28144],[-119.52258,33.28135],[-119.52278,33.28105],[-119.52255,33.28102],[-119.52242,33.2814],[-119.52203,33.2812],[-119.52194,33.28081],[-119.52218,33.28081],[-119.52209,33.28042],[-119.52101,33.27979],[-119.52108,33.27965],[-119.52088,33.27956],[-119.52075,33.27994],[-119.52059,33.27963],[-119.52047,33.27986],[-119.52025,33.27982],[-119.52035,33.27906],[-119.52022,33.27903],[-119.52012,33.27989],[-119.51988,33.27985],[-119.51987,33.27965],[-119.51965,33.27982],[-119.51932,33.2795],[-119.51926,33.27882],[-119.51924,33.27942],[-119.51906,33.27937],[-119.51903,33.2788],[-119.51918,33.27888],[-119.51911,33.27866],[-119.51892,33.27883],[-119.51912,33.27842],[-119.51902,33.27828],[-119.51884,33.27832],[-119.51851,33.27885],[-119.51757,33.27818],[-119.51734,33.27828],[-119.51744,33.2786],[-119.51682,33.27793],[-119.51624,33.27793],[-119.51592,33.27768],[-119.51618,33.27756],[-119.51582,33.27759],[-119.51533,33.27728],[-119.51546,33.27714],[-119.51588,33.27724],[-119.51598,33.27711],[-119.51594,33.27678],[-119.5156,33.27654],[-119.51468,33.27632],[-119.51458,33.27643],[-119.51489,33.27671],[-119.51485,33.27688],[-119.51419,33.27659],[-119.51408,33.27669],[-119.51385,33.27642],[-119.51322,33.27613],[-119.51347,33.27552],[-119.5133,33.27554],[-119.51315,33.27608],[-119.51301,33.27602],[-119.51316,33.27578],[-119.51301,33.27599],[-119.51292,33.27569],[-119.51311,33.27551],[-119.51304,33.27541],[-119.51264,33.27544],[-119.51286,33.27567],[-119.51283,33.27594],[-119.51268,33.27577],[-119.51282,33.27575],[-119.51245,33.27564],[-119.51258,33.27551],[-119.51237,33.27548],[-119.51237,33.27516],[-119.51221,33.2757],[-119.51153,33.27531],[-119.51111,33.27492],[-119.51121,33.27493],[-119.5113,33.2749],[-119.51068,33.27449],[-119.51131,33.27466],[-119.51129,33.27449],[-119.51083,33.27427],[-119.51109,33.27417],[-119.51107,33.27401],[-119.51041,33.27364],[-119.51051,33.27337],[-119.51027,33.27323],[-119.50999,33.27334],[-119.51003,33.27317],[-119.50989,33.27329],[-119.50982,33.27307],[-119.5094,33.27303],[-119.50929,33.27318],[-119.50948,33.27335],[-119.50911,33.27329],[-119.50895,33.27316],[-119.50929,33.27309],[-119.50925,33.27291],[-119.50888,33.27268],[-119.50855,33.27218],[-119.50817,33.27218],[-119.50825,33.27258],[-119.50791,33.27254],[-119.50804,33.27271],[-119.50757,33.27243],[-119.50765,33.27205],[-119.50747,33.27231],[-119.50743,33.27212],[-119.50738,33.27229],[-119.50715,33.27217],[-119.50727,33.27248],[-119.50695,33.27228],[-119.50706,33.27212],[-119.50692,33.27203],[-119.5067,33.27213],[-119.50675,33.27234],[-119.50648,33.27215],[-119.50662,33.27209],[-119.50642,33.27189],[-119.50645,33.27166],[-119.50626,33.27167],[-119.50631,33.27149],[-119.50622,33.27163],[-119.50601,33.27157],[-119.50625,33.27127],[-119.50577,33.27115],[-119.50559,33.27128],[-119.50552,33.27105],[-119.50528,33.27105],[-119.50516,33.27132],[-119.50498,33.27115],[-119.50443,33.27147],[-119.50434,33.27165],[-119.50465,33.27193],[-119.50429,33.27185],[-119.50433,33.27166],[-119.5034,33.27137],[-119.50364,33.27141],[-119.5034,33.27118],[-119.50367,33.27126],[-119.50354,33.27114],[-119.50371,33.27107],[-119.50334,33.27068],[-119.50347,33.27047],[-119.50297,33.2701],[-119.503,33.26997],[-119.50213,33.26957],[-119.50169,33.2692],[-119.50168,33.26904],[-119.50107,33.26894],[-119.50101,33.26915],[-119.50092,33.26899],[-119.50085,33.26909],[-119.49991,33.2681],[-119.49934,33.26783],[-119.49928,33.26741],[-119.49906,33.26748],[-119.49911,33.26692],[-119.4989,33.26686],[-119.49893,33.26619],[-119.49866,33.26606],[-119.4969,33.26579],[-119.49681,33.2659],[-119.4968,33.26571],[-119.49579,33.26555],[-119.49504,33.26515],[-119.49414,33.26511],[-119.4923,33.26554],[-119.49227,33.2659],[-119.49206,33.26579],[-119.49199,33.26554],[-119.4902,33.26559],[-119.48785,33.2666],[-119.48729,33.26704],[-119.48737,33.26729],[-119.48695,33.2668],[-119.48657,33.26566],[-119.48606,33.2649],[-119.48526,33.26451],[-119.48473,33.26446],[-119.48462,33.26462],[-119.48417,33.2642],[-119.48389,33.26414],[-119.48356,33.26426],[-119.48336,33.26416],[-119.4835,33.26436],[-119.48298,33.26392],[-119.48318,33.2638],[-119.48307,33.26363],[-119.48269,33.26351],[-119.48258,33.26362],[-119.48231,33.26335],[-119.48232,33.26317],[-119.48203,33.26312],[-119.48099,33.26237],[-119.48006,33.26208],[-119.47898,33.26239],[-119.47855,33.26181],[-119.47796,33.26157],[-119.47771,33.26171],[-119.47733,33.26131],[-119.47653,33.26111],[-119.47639,33.26155],[-119.47595,33.26174],[-119.47421,33.26068],[-119.47294,33.26038],[-119.4729,33.25998],[-119.47125,33.25964],[-119.47116,33.26002],[-119.47073,33.2598],[-119.47063,33.25921],[-119.47018,33.25893],[-119.46928,33.25876],[-119.46869,33.25941],[-119.46839,33.25944],[-119.46807,33.25937],[-119.46756,33.25866],[-119.46602,33.25873],[-119.46574,33.25906],[-119.4659,33.2595],[-119.4653,33.25895],[-119.46519,33.2586],[-119.46485,33.25871],[-119.46472,33.25844],[-119.46453,33.25844],[-119.46306,33.2572],[-119.4623,33.25686],[-119.4608,33.2568],[-119.46018,33.25631],[-119.4598,33.25549],[-119.45944,33.25542],[-119.45325,33.24956],[-119.45271,33.24917],[-119.45168,33.2488],[-119.45097,33.24782],[-119.44998,33.24747],[-119.44543,33.24321],[-119.44343,33.24203],[-119.44372,33.24109],[-119.44349,33.24023],[-119.44028,33.23804],[-119.4399,33.23757],[-119.43817,33.23619],[-119.43718,33.2339],[-119.43613,33.23317],[-119.43489,33.23134],[-119.43453,33.23112],[-119.43507,33.22876],[-119.43491,33.22799],[-119.43406,33.22713],[-119.43423,33.22653],[-119.4365,33.22492],[-119.43727,33.22411],[-119.43702,33.22394],[-119.43742,33.22389],[-119.43759,33.22359],[-119.43744,33.22351],[-119.43764,33.22335],[-119.43745,33.2229],[-119.43756,33.22275],[-119.43727,33.22261],[-119.43748,33.22237],[-119.43781,33.22234],[-119.43789,33.22208],[-119.43827,33.22214],[-119.43822,33.22195],[-119.43849,33.22169],[-119.43844,33.22147],[-119.43881,33.22093],[-119.43878,33.22047],[-119.43863,33.22053],[-119.43861,33.22036],[-119.43886,33.22008],[-119.44094,33.21991],[-119.44113,33.21974],[-119.44189,33.21989],[-119.44226,33.21972],[-119.44209,33.21937],[-119.44343,33.21939],[-119.44394,33.21916],[-119.44457,33.21953],[-119.44612,33.21957],[-119.44655,33.2198],[-119.44683,33.21964],[-119.4472,33.2198],[-119.44778,33.21957],[-119.44816,33.21973],[-119.44835,33.21947],[-119.45199,33.21862],[-119.45256,33.21826],[-119.45419,33.21767],[-119.45488,33.21696],[-119.45506,33.21654],[-119.45537,33.21636],[-119.45629,33.21635],[-119.4573,33.2161],[-119.45932,33.21606],[-119.46059,33.21623],[-119.46094,33.21605],[-119.46259,33.21614],[-119.46306,33.21646],[-119.46369,33.21618],[-119.46367,33.21594],[-119.4641,33.21579],[-119.46418,33.21547],[-119.46481,33.21577],[-119.46579,33.21566],[-119.46624,33.21602],[-119.46669,33.21592],[-119.46761,33.21527],[-119.46785,33.21489],[-119.46846,33.21499],[-119.46893,33.21469],[-119.46965,33.21495],[-119.47014,33.21465],[-119.47038,33.21492],[-119.47103,33.21486],[-119.47256,33.21552],[-119.47343,33.21544],[-119.47353,33.21505],[-119.47378,33.21487],[-119.47419,33.21543],[-119.47591,33.21609],[-119.47599,33.21574],[-119.47638,33.21581],[-119.47651,33.21556],[-119.47691,33.21565],[-119.47728,33.216],[-119.47794,33.21601],[-119.47816,33.21641],[-119.47863,33.21636],[-119.47867,33.21663],[-119.47952,33.21733],[-119.47962,33.21764],[-119.48016,33.21785],[-119.48043,33.21768],[-119.48239,33.21837],[-119.48311,33.21881],[-119.48367,33.21871],[-119.48581,33.21929],[-119.48993,33.2198],[-119.49375,33.21988],[-119.49412,33.22005],[-119.49453,33.21989],[-119.49446,33.21969],[-119.49558,33.21848],[-119.4961,33.21837],[-119.4973,33.21885],[-119.4978,33.2187],[-119.49831,33.2188],[-119.49857,33.21944],[-119.50009,33.22026],[-119.49994,33.2206],[-119.50031,33.22078],[-119.50069,33.22057],[-119.50238,33.2212],[-119.50264,33.22162],[-119.50298,33.2216],[-119.50297,33.22127],[-119.50341,33.2209],[-119.50434,33.22086],[-119.50472,33.22108],[-119.50551,33.22104],[-119.5058,33.22158],[-119.50584,33.22212],[-119.50626,33.22236],[-119.5066,33.2221],[-119.50834,33.22299],[-119.50906,33.22311],[-119.50957,33.22339],[-119.51111,33.22311],[-119.51127,33.22321],[-119.51124,33.22341],[-119.51305,33.22305],[-119.51571,33.22502],[-119.51671,33.22624],[-119.51665,33.22649],[-119.51732,33.22675],[-119.51741,33.22716],[-119.51788,33.22739],[-119.51801,33.22718],[-119.52039,33.22881],[-119.52148,33.22925],[-119.52248,33.22892],[-119.52403,33.22896],[-119.524,33.22932],[-119.52429,33.22962],[-119.52512,33.22964],[-119.52535,33.22993],[-119.52593,33.23003],[-119.52688,33.2299],[-119.52722,33.23026],[-119.52722,33.2305],[-119.52758,33.23034],[-119.52789,33.23043],[-119.52769,33.2306],[-119.52853,33.23056],[-119.5298,33.23106],[-119.53044,33.23115],[-119.5309,33.23146],[-119.53192,33.23145],[-119.53244,33.23172],[-119.53289,33.23174],[-119.53284,33.23162],[-119.53386,33.23146],[-119.53606,33.23131],[-119.53624,33.23165],[-119.53703,33.23209],[-119.53844,33.2326],[-119.53986,33.23253],[-119.53988,33.23283],[-119.54042,33.23262],[-119.54052,33.23223],[-119.54088,33.23205],[-119.54212,33.23224],[-119.54222,33.23199],[-119.54285,33.23193],[-119.54391,33.23231],[-119.54428,33.23211],[-119.54467,33.23241],[-119.54499,33.23235],[-119.54539,33.23283],[-119.54616,33.23282],[-119.54637,33.23308],[-119.54582,33.23307],[-119.54611,33.2334],[-119.54598,33.23376],[-119.54608,33.23404],[-119.54651,33.23477],[-119.54802,33.23602],[-119.5487,33.23641],[-119.55119,33.23713],[-119.55138,33.23762],[-119.55204,33.23815],[-119.55272,33.23817],[-119.55291,33.23825],[-119.55302,33.23866],[-119.55421,33.23897],[-119.55457,33.23923],[-119.555,33.24076],[-119.55571,33.24098],[-119.55609,33.24079],[-119.55663,33.24119],[-119.55663,33.24144],[-119.55686,33.24132],[-119.55706,33.24153],[-119.55695,33.24168],[-119.5571,33.24206],[-119.55704,33.24251],[-119.55807,33.24332],[-119.5587,33.24341],[-119.55917,33.24324],[-119.55961,33.24371],[-119.55999,33.24364],[-119.56061,33.24388],[-119.56039,33.24412],[-119.55983,33.24414],[-119.55969,33.24429],[-119.55961,33.24477],[-119.55991,33.24532],[-119.56022,33.24525],[-119.56107,33.24545],[-119.56167,33.2458],[-119.56205,33.24563],[-119.56266,33.2463],[-119.56303,33.24631],[-119.56343,33.24661],[-119.56421,33.24668],[-119.56426,33.24698],[-119.56454,33.2469],[-119.56488,33.24706],[-119.56546,33.24689],[-119.56579,33.24711],[-119.56568,33.24728],[-119.56492,33.24738],[-119.56489,33.24749],[-119.56538,33.24768],[-119.56494,33.24773],[-119.56487,33.24793],[-119.5652,33.24791],[-119.56579,33.24834],[-119.56578,33.24852],[-119.56527,33.24876],[-119.56574,33.24944],[-119.56622,33.24967],[-119.56622,33.24988],[-119.56579,33.25012],[-119.56501,33.25014],[-119.56456,33.25044],[-119.56482,33.25158],[-119.56474,33.2526],[-119.56533,33.25334],[-119.56722,33.25497],[-119.56877,33.2568],[-119.56987,33.25743],[-119.57201,33.25797],[-119.57237,33.25824],[-119.57277,33.25894],[-119.57265,33.2595],[-119.57304,33.25991],[-119.5727,33.26077],[-119.57325,33.26041],[-119.57375,33.26056],[-119.57352,33.26072],[-119.57356,33.26097],[-119.57334,33.26097],[-119.57355,33.26116],[-119.57355,33.2614],[-119.57288,33.26143],[-119.57254,33.26162],[-119.57185,33.26217],[-119.57157,33.26274],[-119.57239,33.26274],[-119.57225,33.26331],[-119.57239,33.26385],[-119.57218,33.264],[-119.57239,33.26429],[-119.57287,33.26402],[-119.57343,33.26443],[-119.57308,33.26466],[-119.57265,33.26458],[-119.57244,33.2648],[-119.573,33.26507],[-119.57314,33.26534],[-119.57344,33.26528],[-119.57352,33.26542],[-119.57347,33.26598],[-119.57303,33.26604],[-119.57273,33.26633],[-119.57302,33.26661],[-119.57302,33.26696],[-119.57332,33.26734],[-119.57315,33.2675],[-119.57323,33.26813],[-119.57369,33.26839],[-119.57386,33.26798],[-119.57424,33.26881],[-119.5743,33.2695],[-119.57411,33.27071],[-119.5747,33.27105],[-119.57524,33.27055],[-119.5756,33.27063],[-119.57566,33.27103],[-119.57514,33.27143],[-119.57531,33.2717],[-119.57615,33.27165],[-119.57643,33.27197],[-119.57659,33.27277],[-119.57687,33.27319],[-119.57674,33.27394],[-119.57661,33.27403],[-119.57632,33.2739],[-119.5759,33.27406],[-119.57605,33.27455],[-119.57623,33.27471],[-119.5767,33.27451],[-119.57677,33.27485],[-119.57727,33.27502],[-119.57738,33.27559],[-119.57769,33.27602],[-119.57755,33.27623],[-119.57787,33.27634],[-119.57861,33.2772],[-119.57862,33.27786],[-119.57903,33.2785],[-119.57878,33.2788],[-119.578,33.27856],[-119.57744,33.27868],[-119.57599,33.2777],[-119.57544,33.27774],[-119.57507,33.27727],[-119.57336,33.27607],[-119.57321,33.27627],[-119.57297,33.27595],[-119.57264,33.27603],[-119.5727,33.27644],[-119.5723,33.27651],[-119.57217,33.27636],[-119.57226,33.2761],[-119.57168,33.27622],[-119.57049,33.27513],[-119.56797,33.27465],[-119.56703,33.27357],[-119.56562,33.27255],[-119.56481,33.27229],[-119.56435,33.27195],[-119.56379,33.27119],[-119.56336,33.27102],[-119.56106,33.27118],[-119.55921,33.2717],[-119.55777,33.27269],[-119.55666,33.27281],[-119.55498,33.27359],[-119.55488,33.27494],[-119.55404,33.27483],[-119.55389,33.2755],[-119.55355,33.27552],[-119.5537,33.27637],[-119.55342,33.27612],[-119.55318,33.27628],[-119.5528,33.27604],[-119.55257,33.27648],[-119.55283,33.2772],[-119.55267,33.27727],[-119.55235,33.27699],[-119.55204,33.27746],[-119.55183,33.27739],[-119.55163,33.27812],[-119.55151,33.2798],[-119.55131,33.27988],[-119.55123,33.28026],[-119.55082,33.28061],[-119.54993,33.28061],[-119.54958,33.2804],[-119.54918,33.28041],[-119.54894,33.28017],[-119.54876,33.28051],[-119.54822,33.28005],[-119.54762,33.28024],[-119.54648,33.27963],[-119.54398,33.28033],[-119.54285,33.28087],[-119.54276,33.28112],[-119.54233,33.28088],[-119.54106,33.28132],[-119.5408,33.28111],[-119.54068,33.28072],[-119.5403,33.28053],[-119.53776,33.28137],[-119.53652,33.28257],[-119.53585,33.28297],[-119.5349,33.28401],[-119.53474,33.28448],[-119.53492,33.28496],[-119.53476,33.2853],[-119.5345,33.28528],[-119.53359,33.28469],[-119.53319,33.28488],[-119.53297,33.28479],[-119.53208,33.2842],[-119.5319,33.2838],[-119.53156,33.28364],[-119.53078,33.28369],[-119.52996,33.28427],[-119.52996,33.28454]]]},"properties":{"name":"san-nicolas-island"}}]}