{"type":"FeatureCollection","features":[{"type":"Feature","geometry":{"type":"Point","coordinates":[-119.62926,33.34811]},"properties":{"depth_ft":305,"depth_m":93.1}},{"type":"Feature","geometry":{"type":"Point","coordinates":[-119.61802,33.34811]},"properties":{"depth_ft":301,"depth_m":91.9}},{"type":"Feature","geometry":{"type":"Point","coordinates":[-119.60678,33.34811]},"properties":{"depth_ft":303,"depth_m":92.3}},{"type":"Feature","geometry":{"type":"Point","coordinates":[-119.59554,33.34811]},"properties":{"depth_ft":305,"depth_m":92.9}},{"type":"Feature","geometry":{"type":"Point","coordinates":[-119.5843,33.34811]},"properties":{"depth_ft":303,"depth_m":92.4}},{"type":"Feature","geometry":{"type":"Point","coordinates":[-119.57306,33.34811]},"properties":{"depth_ft":286,"depth_m":87.1}},{"type":"Feature","geometry":{"type":"Point","coordinates":[-119.56182,33.34811]},"properties":{"depth_ft":293,"depth_m":89.2}},{"type":"Feature","geometry":{"type":"Point","coordinates":[-119.55058,33.34811]},"properties":{"depth_ft":310,"depth_m":94.6}},{"type":"Feature","geometry":{"type":"Point","coordinates":[-119.53934,33.34811]},"properties":{"depth_ft":316,"depth_m":96.4}},{"type":"Feature","geometry":{"type":"Point","coordinates":[-119.5281,33.34811]},"properties":{"depth_ft":309,"depth_m":94.2}},{"type":"Feature","geometry":{"type":"Point","coordinates":[-119.51686,33.34811]},"properties":{"depth_ft":310,"depth_m":94.4}},{"type":"Feature","geometry":{"type":"Point","coordinates":[-119.50562,33.34811]},"properties":{"depth_ft":309,"depth_m":94.2}},{"type":"Feature","geometry":{"type":"Point","coordinates":[-119.49438,33.34811]},"properties":{"depth_ft":311,"depth_m":94.7}},{"type":"Feature","geometry":{"type":"Point","coordinates":[-119.48314,33.34811]},"properties":{"depth_ft":310,"depth_m":94.5}},{"type":"Feature","geometry":{"type":"Point","coordinates":[-119.4719,33.34811]},"properties":{"depth_ft":296,"depth_m":90.3}},{"type":"Feature","geometry":{"type":"Point","coordinates":[-119.46066,33.34811]},"properties":{"depth_ft":308,"depth_m":94.0}},{"type":"Feature","geometry":{"type":"Point","coordinates":[-119.62926,33.33871]},"properties":{"depth_ft":275,"depth_m":84.0}},{"type":"Feature","geometry":{"type":"Point","coordinates":[-119.61802,33.33871]},"properties":{"depth_ft":286,"depth_m":87.3}},{"type":"Feature","geometry":{"type":"Point","coordinates":[-119.60678,33.33871]},"properties":{"depth_ft":287,"depth_m":87.6}},{"type":"Feature","geometry":{"type":"Point","coordinates":[-119.59554,33.33871]},"properties":{"depth_ft":274,"depth_m":83.5}},{"type":"Feature","geometry":{"type":"Point","coordinates":[-119.5843,33.33871]},"properties":{"depth_ft":281,"depth_m":85.7}},{"type":"Feature","geometry":{"type":"Point","coordinates":[-119.57306,33.33871]},"properties":{"depth_ft":264,"depth_m":80.3}},{"type":"Feature","geometry":{"type":"Point","coordinates":[-119.56182,33.33871]},"properties":{"depth_ft":277,"depth_m":84.4}},{"type":"Feature","geometry":{"type":"Point","coordinates":[-119.55058,33.33871]},"properties":{"depth_ft":280,"depth_m":85.5}},{"type":"Feature","geometry":{"type":"Point","coordinates":[-119.53934,33.33871]},"properties":{"depth_ft":280,"depth_m":85.4}},{"type":"Feature","geometry":{"type":"Point","coordinates":[-119.5281,33.33871]},"properties":{"depth_ft":295,"depth_m":89.9}},{"type":"Feature","geometry":{"type":"Point","coordinates":[-119.51686,33.33871]},"properties":{"depth_ft":297,"depth_m":90.6}},{"type":"Feature","geometry":{"type":"Point","coordinates":[-119.50562,33.33871]},"properties":{"depth_ft":293,"depth_m":89.2}},{"type":"Feature","geometry":{"type":"Point","coordinates":[-119.49438,33.33871]},"properties":{"depth_ft":292,"depth_m":89.1}},{"type":"Feature","geometry":{"type":"Point","coordinates":[-119.48314,33.33871]},"properties":{"depth_ft":294,"depth_m":89.7}},{"type":"Feature","geometry":{"type":"Point","coordinates":[-119.4719,33.33871]},"properties":{"depth_ft":286,"depth_m":87.0}},{"type":"Feature","geometry":{"type":"Point","coordinates":[-119.46066,33.33871]},"properties":{"depth_ft":297,"depth_m":90.6}},{"type":"Feature","geometry":{"type":"Point","coordinates":[-119.44942,33.33871]},"properties":{"depth_ft":292,"depth_m":89.0}},{"type":"Feature","geometry":{"type":"Point","coordinates":[-119.62926,33.32931]},"properties":{"depth_ft":253,"depth_m":77.2}},{"type":"Feature","geometry":{"type":"Point","coordinates":[-119.61802,33.32931]},"properties":{"depth_ft":266,"depth_m":81.2}},{"type":"Feature","geometry":{"type":"Point","coordinates":[-119.60678,33.32931]},"properties":{"depth_ft":254,"depth_m":77.5}},{"type":"Feature","geometry":{"type":"Point","coordinates":[-119.59554,33.32931]},"properties":{"depth_ft":250,"depth_m":76.1}},{"type":"Feature","geometry":{"type":"Point","coordinates":[-119.5843,33.32931]},"properties":{"depth_ft":270,"depth_m":82.2}},{"type":"Feature","geometry":{"type":"Point","coordinates":[-119.57306,33.32931]},"properties":{"depth_ft":250,"depth_m":76.1}},{"type":"Feature","geometry":{"type":"Point","coordinates":[-119.56182,33.32931]},"properties":{"depth_ft":253,"depth_m":77.1}},{"type":"Feature","geometry":{"type":"Point","coordinates":[-119.55058,33.32931]},"properties":{"depth_ft":259,"depth_m":78.8}},{"type":"Feature","geometry":{"type":"Point","coordinates":[-119.53934,33.32931]},"properties":{"depth_ft":262,"depth_m":80.0}},{"type":"Feature","geometry":{"type":"Point","coordinates":[-119.5281,33.32931]},"properties":{"depth_ft":265,"depth_m":80.8}},{"type":"Feature","geometry":{"type":"Point","coordinates":[-119.51686,33.32931]},"properties":{"depth_ft":278,"depth_m":84.8}},{"type":"Feature","geometry":{"type":"Point","coordinates":[-119.50562,33.32931]},"properties":{"depth_ft":275,"depth_m":83.9}},{"type":"Feature","geometry":{"type":"Point","coordinates":[-119.49438,33.32931]},"properties":{"depth_ft":267,"depth_m":81.5}},{"type":"Feature","geometry":{"type":"Point","coordinates":[-119.48314,33.32931]},"properties":{"depth_ft":272,"depth_m":82.9}},{"type":"Feature","geometry":{"type":"Point","coordinates":[-119.4719,33.32931]},"properties":{"depth_ft":253,"depth_m":77.1}},{"type":"Feature","geometry":{"type":"Point","coordinates":[-119.46066,33.32931]},"properties":{"depth_ft":280,"depth_m":85.2}},{"type":"Feature","geometry":{"type":"Point","coordinates":[-119.44942,33.32931]},"properties":{"depth_ft":294,"depth_m":89.7}},{"type":"Feature","geometry":{"type":"Point","coordinates":[-119.43818,33.32931]},"properties":{"depth_ft":317,"depth_m":96.6}},{"type":"Feature","geometry":{"type":"Point","coordinates":[-119.62926,33.31991]},"properties":{"depth_ft":241,"depth_m":73.5}},{"type":"Feature","geometry":{"type":"Point","coordinates":[-119.61802,33.31991]},"properties":{"depth_ft":241,"depth_m":73.5}},{"type":"Feature","geometry":{"type":"Point","coordinates":[-119.60678,33.31991]},"properties":{"depth_ft":225,"depth_m":68.7}},{"type":"Feature","geometry":{"type":"Point","coordinates":[-119.59554,33.31991]},"properties":{"depth_ft":221,"depth_m":67.4}},{"type":"Feature","geometry":{"type":"Point","coordinates":[-119.5843,33.31991]},"properties":{"depth_ft":219,"depth_m":66.8}},{"type":"Feature","geometry":{"type":"Point","coordinates":[-119.57306,33.31991]},"properties":{"depth_ft":230,"depth_m":70.2}},{"type":"Feature","geometry":{"type":"Point","coordinates":[-119.56182,33.31991]},"properties":{"depth_ft":221,"depth_m":67.4}},{"type":"Feature","geometry":{"type":"Point","coordinates":[-119.55058,33.31991]},"properties":{"depth_ft":232,"depth_m":70.7}},{"type":"Feature","geometry":{"type":"Point","coordinates":[-119.53934,33.31991]},"properties":{"depth_ft":238,"depth_m":72.6}},{"type":"Feature","geometry":{"type":"Point","coordinates":[-119.5281,33.31991]},"properties":{"depth_ft":241,"depth_m":73.3}},{"type":"Feature","geometry":{"type":"Point","coordinates":[-119.51686,33.31991]},"properties":{"depth_ft":253,"depth_m":77.0}},{"type":"Feature","geometry":{"type":"Point","coordinates":[-119.50562,33.31991]},"properties":{"depth_ft":249,"depth_m":76.0}},{"type":"Feature","geometry":{"type":"Point","coordinates":[-119.49438,33.31991]},"properties":{"depth_ft":237,"depth_m":72.3}},{"type":"Feature","geometry":{"type":"Point","coordinates":[-119.48314,33.31991]},"properties":{"depth_ft":205,"depth_m":62.4}},{"type":"Feature","geometry":{"type":"Point","coordinates":[-119.4719,33.31991]},"properties":{"depth_ft":180,"depth_m":54.9}},{"type":"Feature","geometry":{"type":"Point","coordinates":[-119.46066,33.31991]},"properties":{"depth_ft":234,"depth_m":71.3}},{"type":"Feature","geometry":{"type":"Point","coordinates":[-119.44942,33.31991]},"properties":{"depth_ft":263,"depth_m":80.1}},{"type":"Feature","geometry":{"type":"Point","coordinates":[-119.43818,33.31991]},"properties":{"depth_ft":268,"depth_m":81.7}},{"type":"Feature","geometry":{"type":"Point","coordinates":[-119.62926,33.31051]},"properties":{"depth_ft":203,"depth_m":61.9}},{"type":"Feature","geometry":{"type":"Point","coordinates":[-119.61802,33.31051]},"properties":{"depth_ft":198,"depth_m":60.3}},{"type":"Feature","geometry":{"type":"Point","coordinates":[-119.60678,33.31051]},"properties":{"depth_ft":196,"depth_m":59.7}},{"type":"Feature","geometry":{"type":"Point","coordinates":[-119.59554,33.31051]},"properties":{"depth_ft":177,"depth_m":53.8}},{"type":"Feature","geometry":{"type":"Point","coordinates":[-119.5843,33.31051]},"properties":{"depth_ft":180,"depth_m":54.7}},{"type":"Feature","geometry":{"type":"Point","coordinates":[-119.57306,33.31051]},"properties":{"depth_ft":189,"depth_m":57.6}},{"type":"Feature","geometry":{"type":"Point","coordinates":[-119.56182,33.31051]},"properties":{"depth_ft":183,"depth_m":55.9}},{"type":"Feature","geometry":{"type":"Point","coordinates":[-119.55058,33.31051]},"properties":{"depth_ft":187,"depth_m":57.1}},{"type":"Feature","geometry":{"type":"Point","coordinates":[-119.53934,33.31051]},"properties":{"depth_ft":180,"depth_m":54.8}},{"type":"Feature","geometry":{"type":"Point","coordinates":[-119.5281,33.31051]},"properties":{"depth_ft":200,"depth_m":61.1}},{"type":"Feature","geometry":{"type":"Point","coordinates":[-119.51686,33.31051]},"properties":{"depth_ft":209,"depth_m":63.7}},{"type":"Feature","geometry":{"type":"Point","coordinates":[-119.50562,33.31051]},"properties":{"depth_ft":215,"depth_m":65.4}},{"type":"Feature","geometry":{"type":"Point","coordinates":[-119.49438,33.31051]},"properties":{"depth_ft":211,"depth_m":64.3}},{"type":"Feature","geometry":{"type":"Point","coordinates":[-119.48314,33.31051]},"properties":{"depth_ft":199,"depth_m":60.6}},{"type":"Feature","geometry":{"type":"Point","coordinates":[-119.4719,33.31051]},"properties":{"depth_ft":185,"depth_m":56.5}},{"type":"Feature","geometry":{"type":"Point","coordinates":[-119.46066,33.31051]},"properties":{"depth_ft":114,"depth_m":34.7}},{"type":"Feature","geometry":{"type":"Point","coordinates":[-119.44942,33.31051]},"properties":{"depth_ft":222,"depth_m":67.6}},{"type":"Feature","geometry":{"type":"Point","coordinates":[-119.43818,33.31051]},"properties":{"depth_ft":264,"depth_m":80.6}},{"type":"Feature","geometry":{"type":"Point","coordinates":[-119.42694,33.31051]},"properties":{"depth_ft":285,"depth_m":87.0}},{"type":"Feature","geometry":{"type":"Point","coordinates":[-119.4157,33.31051]},"properties":{"depth_ft":288,"depth_m":87.7}},{"type":"Feature","geometry":{"type":"Point","coordinates":[-119.62926,33.3011]},"properties":{"depth_ft":146,"depth_m":44.5}},{"type":"Feature","geometry":{"type":"Point","coordinates":[-119.61802,33.3011]},"properties":{"depth_ft":170,"depth_m":51.7}},{"type":"Feature","geometry":{"type":"Point","coordinates":[-119.60678,33.3011]},"properties":{"depth_ft":145,"depth_m":44.3}},{"type":"Feature","geometry":{"type":"Point","coordinates":[-119.59554,33.3011]},"properties":{"depth_ft":138,"depth_m":42.1}},{"type":"Feature","geometry":{"type":"Point","coordinates":[-119.5843,33.3011]},"properties":{"depth_ft":120,"depth_m":36.5}},{"type":"Feature","geometry":{"type":"Point","coordinates":[-119.57306,33.3011]},"properties":{"depth_ft":116,"depth_m":35.4}},{"type":"Feature","geometry":{"type":"Point","coordinates":[-119.56182,33.3011]},"properties":{"depth_ft":160,"depth_m":48.7}},{"type":"Feature","geometry":{"type":"Point","coordinates":[-119.55058,33.3011]},"properties":{"depth_ft":140,"depth_m":42.5}},{"type":"Feature","geometry":{"type":"Point","coordinates":[-119.53934,33.3011]},"properties":{"depth_ft":137,"depth_m":41.8}},{"type":"Feature","geometry":{"type":"Point","coordinates":[-119.5281,33.3011]},"properties":{"depth_ft":144,"depth_m":43.8}},{"type":"Feature","geometry":{"type":"Point","coordinates":[-119.51686,33.3011]},"properties":{"depth_ft":167,"depth_m":50.9}},{"type":"Feature","geometry":{"type":"Point","coordinates":[-119.50562,33.3011]},"properties":{"depth_ft":181,"depth_m":55.2}},{"type":"Feature","geometry":{"type":"Point","coordinates":[-119.49438,33.3011]},"properties":{"depth_ft":188,"depth_m":57.3}},{"type":"Feature","geometry":{"type":"Point","coordinates":[-119.48314,33.3011]},"properties":{"depth_ft":186,"depth_m":56.8}},{"type":"Feature","geometry":{"type":"Point","coordinates":[-119.4719,33.3011]},"properties":{"depth_ft":179,"depth_m":54.5}},{"type":"Feature","geometry":{"type":"Point","coordinates":[-119.46066,33.3011]},"properties":{"depth_ft":173,"depth_m":52.6}},{"type":"Feature","geometry":{"type":"Point","coordinates":[-119.44942,33.3011]},"properties":{"depth_ft":181,"depth_m":55.2}},{"type":"Feature","geometry":{"type":"Point","coordinates":[-119.43818,33.3011]},"properties":{"depth_ft":199,"depth_m":60.7}},{"type":"Feature","geometry":{"type":"Point","coordinates":[-119.42694,33.3011]},"properties":{"depth_ft":241,"depth_m":73.6}},{"type":"Feature","geometry":{"type":"Point","coordinates":[-119.4157,33.3011]},"properties":{"depth_ft":272,"depth_m":82.8}},{"type":"Feature","geometry":{"type":"Point","coordinates":[-119.62926,33.2917]},"properties":{"depth_ft":81,"depth_m":24.7}},{"type":"Feature","geometry":{"type":"Point","coordinates":[-119.61802,33.2917]},"properties":{"depth_ft":123,"depth_m":37.4}},{"type":"Feature","geometry":{"type":"Point","coordinates":[-119.60678,33.2917]},"properties":{"depth_ft":108,"depth_m":32.9}},{"type":"Feature","geometry":{"type":"Point","coordinates":[-119.59554,33.2917]},"properties":{"depth_ft":97,"depth_m":29.5}},{"type":"Feature","geometry":{"type":"Point","coordinates":[-119.5843,33.2917]},"properties":{"depth_ft":89,"depth_m":27.2}},{"type":"Feature","geometry":{"type":"Point","coordinates":[-119.57306,33.2917]},"properties":{"depth_ft":74,"depth_m":22.6}},{"type":"Feature","geometry":{"type":"Point","coordinates":[-119.56182,33.2917]},"properties":{"depth_ft":61,"depth_m":18.6}},{"type":"Feature","geometry":{"type":"Point","coordinates":[-119.55058,33.2917]},"properties":{"depth_ft":56,"depth_m":17.0}},{"type":"Feature","geometry":{"type":"Point","coordinates":[-119.53934,33.2917]},"properties":{"depth_ft":35,"depth_m":10.8}},{"type":"Feature","geometry":{"type":"Point","coordinates":[-119.5281,33.2917]},"properties":{"depth_ft":58,"depth_m":17.6}},{"type":"Feature","geometry":{"type":"Point","coordinates":[-119.51686,33.2917]},"properties":{"depth_ft":101,"depth_m":30.9}},{"type":"Feature","geometry":{"type":"Point","coordinates":[-119.50562,33.2917]},"properties":{"depth_ft":130,"depth_m":39.6}},{"type":"Feature","geometry":{"type":"Point","coordinates":[-119.49438,33.2917]},"properties":{"depth_ft":142,"depth_m":43.4}},{"type":"Feature","geometry":{"type":"Point","coordinates":[-119.48314,33.2917]},"properties":{"depth_ft":170,"depth_m":51.7}},{"type":"Feature","geometry":{"type":"Point","coordinates":[-119.4719,33.2917]},"properties":{"depth_ft":170,"depth_m":51.7}},{"type":"Feature","geometry":{"type":"Point","coordinates":[-119.46066,33.2917]},"properties":{"depth_ft":165,"depth_m":50.3}},{"type":"Feature","geometry":{"type":"Point","coordinates":[-119.44942,33.2917]},"properties":{"depth_ft":176,"depth_m":53.6}},{"type":"Feature","geometry":{"type":"Point","coordinates":[-119.43818,33.2917]},"properties":{"depth_ft":184,"depth_m":56.1}},{"type":"Feature","geometry":{"type":"Point","coordinates":[-119.42694,33.2917]},"properties":{"depth_ft":213,"depth_m":65.0}},{"type":"Feature","geometry":{"type":"Point","coordinates":[-119.4157,33.2917]},"properties":{"depth_ft":228,"depth_m":69.5}},{"type":"Feature","geometry":{"type":"Point","coordinates":[-119.40446,33.2917]},"properties":{"depth_ft":230,"depth_m":70.2}},{"type":"Feature","geometry":{"type":"Point","coordinates":[-119.39322,33.2917]},"properties":{"depth_ft":293,"depth_m":89.4}},{"type":"Feature","geometry":{"type":"Point","coordinates":[-119.62926,33.2823]},"properties":{"depth_ft":95,"depth_m":29.0}},{"type":"Feature","geometry":{"type":"Point","coordinates":[-119.61802,33.2823]},"properties":{"depth_ft":92,"depth_m":28.1}},{"type":"Feature","geometry":{"type":"Point","coordinates":[-119.60678,33.2823]},"properties":{"depth_ft":62,"depth_m":19.0}},{"type":"Feature","geometry":{"type":"Point","coordinates":[-119.59554,33.2823]},"properties":{"depth_ft":74,"depth_m":22.5}},{"type":"Feature","geometry":{"type":"Point","coordinates":[-119.5843,33.2823]},"properties":{"depth_ft":54,"depth_m":16.6}},{"type":"Feature","geometry":{"type":"Point","coordinates":[-119.57306,33.2823]},"properties":{"depth_ft":26,"depth_m":7.9}},{"type":"Feature","geometry":{"type":"Point","coordinates":[-119.56182,33.2823]},"properties":{"depth_ft":38,"depth_m":11.6}},{"type":"Feature","geometry":{"type":"Point","coordinates":[-119.55058,33.2823]},"properties":{"depth_ft":2,"depth_m":0.8}},{"type":"Feature","geometry":{"type":"Point","coordinates":[-119.51686,33.2823]},"properties":{"depth_ft":40,"depth_m":12.2}},{"type":"Feature","geometry":{"type":"Point","coordinates":[-119.50562,33.2823]},"properties":{"depth_ft":63,"depth_m":19.2}},{"type":"Feature","geometry":{"type":"Point","coordinates":[-119.49438,33.2823]},"properties":{"depth_ft":79,"depth_m":24.1}},{"type":"Feature","geometry":{"type":"Point","coordinates":[-119.48314,33.2823]},"properties":{"depth_ft":87,"depth_m":26.7}},{"type":"Feature","geometry":{"type":"Point","coordinates":[-119.4719,33.2823]},"properties":{"depth_ft":139,"depth_m":42.3}},{"type":"Feature","geometry":{"type":"Point","coordinates":[-119.46066,33.2823]},"properties":{"depth_ft":156,"depth_m":47.7}},{"type":"Feature","geometry":{"type":"Point","coordinates":[-119.44942,33.2823]},"properties":{"depth_ft":170,"depth_m":51.8}},{"type":"Feature","geometry":{"type":"Point","coordinates":[-119.43818,33.2823]},"properties":{"depth_ft":172,"depth_m":52.5}},{"type":"Feature","geometry":{"type":"Point","coordinates":[-119.42694,33.2823]},"properties":{"depth_ft":184,"depth_m":55.9}},{"type":"Feature","geometry":{"type":"Point","coordinates":[-119.4157,33.2823]},"properties":{"depth_ft":215,"depth_m":65.6}},{"type":"Feature","geometry":{"type":"Point","coordinates":[-119.40446,33.2823]},"properties":{"depth_ft":214,"depth_m":65.1}},{"type":"Feature","geometry":{"type":"Point","coordinates":[-119.39322,33.2823]},"properties":{"depth_ft":235,"depth_m":71.6}},{"type":"Feature","geometry":{"type":"Point","coordinates":[-119.37074,33.2823]},"properties":{"depth_ft":311,"depth_m":94.9}},{"type":"Feature","geometry":{"type":"Point","coordinates":[-119.62926,33.2729]},"properties":{"depth_ft":90,"depth_m":27.4}},{"type":"Feature","geometry":{"type":"Point","coordinates":[-119.61802,33.2729]},"properties":{"depth_ft":69,"depth_m":21.0}},{"type":"Feature","geometry":{"type":"Point","coordinates":[-119.60678,33.2729]},"properties":{"depth_ft":53,"depth_m":16.3}},{"type":"Feature","geometry":{"type":"Point","coordinates":[-119.59554,33.2729]},"properties":{"depth_ft":30,"depth_m":9.1}},{"type":"Feature","geometry":{"type":"Point","coordinates":[-119.5843,33.2729]},"properties":{"depth_ft":65,"depth_m":19.8}},{"type":"Feature","geometry":{"type":"Point","coordinates":[-119.56182,33.2729]},"properties":{"depth_ft":2,"depth_m":0.7}},{"type":"Feature","geometry":{"type":"Point","coordinates":[-119.50562,33.2729]},"properties":{"depth_ft":20,"depth_m":6.2}},{"type":"Feature","geometry":{"type":"Point","coordinates":[-119.49438,33.2729]},"properties":{"depth_ft":39,"depth_m":11.9}},{"type":"Feature","geometry":{"type":"Point","coordinates":[-119.48314,33.2729]},"properties":{"depth_ft":49,"depth_m":15.0}},{"type":"Feature","geometry":{"type":"Point","coordinates":[-119.4719,33.2729]},"properties":{"depth_ft":74,"depth_m":22.4}},{"type":"Feature","geometry":{"type":"Point","coordinates":[-119.46066,33.2729]},"properties":{"depth_ft":124,"depth_m":37.7}},{"type":"Feature","geometry":{"type":"Point","coordinates":[-119.44942,33.2729]},"properties":{"depth_ft":152,"depth_m":46.2}},{"type":"Feature","geometry":{"type":"Point","coordinates":[-119.43818,33.2729]},"properties":{"depth_ft":169,"depth_m":51.5}},{"type":"Feature","geometry":{"type":"Point","coordinates":[-119.42694,33.2729]},"properties":{"depth_ft":173,"depth_m":52.9}},{"type":"Feature","geometry":{"type":"Point","coordinates":[-119.4157,33.2729]},"properties":{"depth_ft":188,"depth_m":57.4}},{"type":"Feature","geometry":{"type":"Point","coordinates":[-119.40446,33.2729]},"properties":{"depth_ft":198,"depth_m":60.4}},{"type":"Feature","geometry":{"type":"Point","coordinates":[-119.39322,33.2729]},"properties":{"depth_ft":203,"depth_m":62.0}},{"type":"Feature","geometry":{"type":"Point","coordinates":[-119.38198,33.2729]},"properties":{"depth_ft":271,"depth_m":82.7}},{"type":"Feature","geometry":{"type":"Point","coordinates":[-119.37074,33.2729]},"properties":{"depth_ft":235,"depth_m":71.6}},{"type":"Feature","geometry":{"type":"Point","coordinates":[-119.62926,33.2635]},"properties":{"depth_ft":71,"depth_m":21.6}},{"type":"Feature","geometry":{"type":"Point","coordinates":[-119.61802,33.2635]},"properties":{"depth_ft":79,"depth_m":24.1}},{"type":"Feature","geometry":{"type":"Point","coordinates":[-119.60678,33.2635]},"properties":{"depth_ft":56,"depth_m":17.2}},{"type":"Feature","geometry":{"type":"Point","coordinates":[-119.59554,33.2635]},"properties":{"depth_ft":65,"depth_m":19.7}},{"type":"Feature","geometry":{"type":"Point","coordinates":[-119.5843,33.2635]},"properties":{"depth_ft":56,"depth_m":17.0}},{"type":"Feature","geometry":{"type":"Point","coordinates":[-119.4719,33.2635]},"properties":{"depth_ft":31,"depth_m":9.3}},{"type":"Feature","geometry":{"type":"Point","coordinates":[-119.46066,33.2635]},"properties":{"depth_ft":46,"depth_m":14.0}},{"type":"Feature","geometry":{"type":"Point","coordinates":[-119.44942,33.2635]},"properties":{"depth_ft":128,"depth_m":39.0}},{"type":"Feature","geometry":{"type":"Point","coordinates":[-119.43818,33.2635]},"properties":{"depth_ft":149,"depth_m":45.5}},{"type":"Feature","geometry":{"type":"Point","coordinates":[-119.42694,33.2635]},"properties":{"depth_ft":164,"depth_m":50.1}},{"type":"Feature","geometry":{"type":"Point","coordinates":[-119.4157,33.2635]},"properties":{"depth_ft":158,"depth_m":48.3}},{"type":"Feature","geometry":{"type":"Point","coordinates":[-119.40446,33.2635]},"properties":{"depth_ft":184,"depth_m":56.1}},{"type":"Feature","geometry":{"type":"Point","coordinates":[-119.39322,33.2635]},"properties":{"depth_ft":188,"depth_m":57.4}},{"type":"Feature","geometry":{"type":"Point","coordinates":[-119.38198,33.2635]},"properties":{"depth_ft":199,"depth_m":60.5}},{"type":"Feature","geometry":{"type":"Point","coordinates":[-119.37074,33.2635]},"properties":{"depth_ft":191,"depth_m":58.2}},{"type":"Feature","geometry":{"type":"Point","coordinates":[-119.62926,33.2541]},"properties":{"depth_ft":89,"depth_m":27.1}},{"type":"Feature","geometry":{"type":"Point","coordinates":[-119.61802,33.2541]},"properties":{"depth_ft":146,"depth_m":44.4}},{"type":"Feature","geometry":{"type":"Point","coordinates":[-119.60678,33.2541]},"properties":{"depth_ft":119,"depth_m":36.2}},{"type":"Feature","geometry":{"type":"Point","coordinates":[-119.59554,33.2541]},"properties":{"depth_ft":45,"depth_m":13.6}},{"type":"Feature","geometry":{"type":"Point","coordinates":[-119.5843,33.2541]},"properties":{"depth_ft":48,"depth_m":14.5}},{"type":"Feature","geometry":{"type":"Point","coordinates":[-119.57306,33.2541]},"properties":{"depth_ft":7,"depth_m":2.3}},{"type":"Feature","geometry":{"type":"Point","coordinates":[-119.44942,33.2541]},"properties":{"depth_ft":58,"depth_m":17.8}},{"type":"Feature","geometry":{"type":"Point","coordinates":[-119.43818,33.2541]},"properties":{"depth_ft":103,"depth_m":31.3}},{"type":"Feature","geometry":{"type":"Point","coordinates":[-119.42694,33.2541]},"properties":{"depth_ft":123,"depth_m":37.6}},{"type":"Feature","geometry":{"type":"Point","coordinates":[-119.4157,33.2541]},"properties":{"depth_ft":134,"depth_m":40.8}},{"type":"Feature","geometry":{"type":"Point","coordinates":[-119.40446,33.2541]},"properties":{"depth_ft":150,"depth_m":45.7}},{"type":"Feature","geometry":{"type":"Point","coordinates":[-119.39322,33.2541]},"properties":{"depth_ft":163,"depth_m":49.5}},{"type":"Feature","geometry":{"type":"Point","coordinates":[-119.38198,33.2541]},"properties":{"depth_ft":181,"depth_m":55.3}},{"type":"Feature","geometry":{"type":"Point","coordinates":[-119.37074,33.2541]},"properties":{"depth_ft":182,"depth_m":55.5}},{"type":"Feature","geometry":{"type":"Point","coordinates":[-119.62926,33.2447]},"properties":{"depth_ft":255,"depth_m":77.7}},{"type":"Feature","geometry":{"type":"Point","coordinates":[-119.61802,33.2447]},"properties":{"depth_ft":240,"depth_m":73.2}},{"type":"Feature","geometry":{"type":"Point","coordinates":[-119.60678,33.2447]},"properties":{"depth_ft":178,"depth_m":54.4}},{"type":"Feature","geometry":{"type":"Point","coordinates":[-119.59554,33.2447]},"properties":{"depth_ft":141,"depth_m":43.0}},{"type":"Feature","geometry":{"type":"Point","coordinates":[-119.5843,33.2447]},"properties":{"depth_ft":109,"depth_m":33.2}},{"type":"Feature","geometry":{"type":"Point","coordinates":[-119.57306,33.2447]},"properties":{"depth_ft":63,"depth_m":19.1}},{"type":"Feature","geometry":{"type":"Point","coordinates":[-119.56182,33.2447]},"properties":{"depth_ft":10,"depth_m":2.9}},{"type":"Feature","geometry":{"type":"Point","coordinates":[-119.43818,33.2447]},"properties":{"depth_ft":51,"depth_m":15.5}},{"type":"Feature","geometry":{"type":"Point","coordinates":[-119.42694,33.2447]},"properties":{"depth_ft":89,"depth_m":27.1}},{"type":"Feature","geometry":{"type":"Point","coordinates":[-119.4157,33.2447]},"properties":{"depth_ft":101,"depth_m":30.9}},{"type":"Feature","geometry":{"type":"Point","coordinates":[-119.40446,33.2447]},"properties":{"depth_ft":129,"depth_m":39.3}},{"type":"Feature","geometry":{"type":"Point","coordinates":[-119.39322,33.2447]},"properties":{"depth_ft":134,"depth_m":41.0}},{"type":"Feature","geometry":{"type":"Point","coordinates":[-119.38198,33.2447]},"properties":{"depth_ft":163,"depth_m":49.6}},{"type":"Feature","geometry":{"type":"Point","coordinates":[-119.37074,33.2447]},"properties":{"depth_ft":171,"depth_m":52.1}},{"type":"Feature","geometry":{"type":"Point","coordinates":[-119.59554,33.2353]},"properties":{"depth_ft":269,"depth_m":82.1}},{"type":"Feature","geometry":{"type":"Point","coordinates":[-119.5843,33.2353]},"properties":{"depth_ft":255,"depth_m":77.8}},{"type":"Feature","geometry":{"type":"Point","coordinates":[-119.57306,33.2353]},"properties":{"depth_ft":201,"depth_m":61.2}},{"type":"Feature","geometry":{"type":"Point","coordinates":[-119.56182,33.2353]},"properties":{"depth_ft":84,"depth_m":25.5}},{"type":"Feature","geometry":{"type":"Point","coordinates":[-119.55058,33.2353]},"properties":{"depth_ft":25,"depth_m":7.5}},{"type":"Feature","geometry":{"type":"Point","coordinates":[-119.42694,33.2353]},"properties":{"depth_ft":50,"depth_m":15.4}},{"type":"Feature","geometry":{"type":"Point","coordinates":[-119.4157,33.2353]},"properties":{"depth_ft":76,"depth_m":23.1}},{"type":"Feature","geometry":{"type":"Point","coordinates":[-119.40446,33.2353]},"properties":{"depth_ft":97,"depth_m":29.7}},{"type":"Feature","geometry":{"type":"Point","coordinates":[-119.39322,33.2353]},"properties":{"depth_ft":108,"depth_m":33.0}},{"type":"Feature","geometry":{"type":"Point","coordinates":[-119.38198,33.2353]},"properties":{"depth_ft":124,"depth_m":37.8}},{"type":"Feature","geometry":{"type":"Point","coordinates":[-119.37074,33.2353]},"properties":{"depth_ft":160,"depth_m":48.9}},{"type":"Feature","geometry":{"type":"Point","coordinates":[-119.56182,33.2259]},"properties":{"depth_ft":274,"depth_m":83.4}},{"type":"Feature","geometry":{"type":"Point","coordinates":[-119.55058,33.2259]},"properties":{"depth_ft":181,"depth_m":55.2}},{"type":"Feature","geometry":{"type":"Point","coordinates":[-119.53934,33.2259]},"properties":{"depth_ft":142,"depth_m":43.3}},{"type":"Feature","geometry":{"type":"Point","coordinates":[-119.5281,33.2259]},"properties":{"depth_ft":86,"depth_m":26.4}},{"type":"Feature","geometry":{"type":"Point","coordinates":[-119.51686,33.2259]},"properties":{"depth_ft":27,"depth_m":8.3}},{"type":"Feature","geometry":{"type":"Point","coordinates":[-119.42694,33.2259]},"properties":{"depth_ft":37,"depth_m":11.2}},{"type":"Feature","geometry":{"type":"Point","coordinates":[-119.4157,33.2259]},"properties":{"depth_ft":39,"depth_m":11.8}},{"type":"Feature","geometry":{"type":"Point","coordinates":[-119.40446,33.2259]},"properties":{"depth_ft":58,"depth_m":17.7}},{"type":"Feature","geometry":{"type":"Point","coordinates":[-119.39322,33.2259]},"properties":{"depth_ft":115,"depth_m":35.1}},{"type":"Feature","geometry":{"type":"Point","coordinates":[-119.38198,33.2259]},"properties":{"depth_ft":155,"depth_m":47.2}},{"type":"Feature","geometry":{"type":"Point","coordinates":[-119.37074,33.2259]},"properties":{"depth_ft":177,"depth_m":53.8}},{"type":"Feature","geometry":{"type":"Point","coordinates":[-119.53934,33.2165]},"properties":{"depth_ft":308,"depth_m":93.8}},{"type":"Feature","geometry":{"type":"Point","coordinates":[-119.5281,33.2165]},"properties":{"depth_ft":294,"depth_m":89.5}},{"type":"Feature","geometry":{"type":"Point","coordinates":[-119.51686,33.2165]},"properties":{"depth_ft":169,"depth_m":51.6}},{"type":"Feature","geometry":{"type":"Point","coordinates":[-119.50562,33.2165]},"properties":{"depth_ft":69,"depth_m":21.1}},{"type":"Feature","geometry":{"type":"Point","coordinates":[-119.49438,33.2165]},"properties":{"depth_ft":39,"depth_m":11.8}},{"type":"Feature","geometry":{"type":"Point","coordinates":[-119.48314,33.2165]},"properties":{"depth_ft":43,"depth_m":13.2}},{"type":"Feature","geometry":{"type":"Point","coordinates":[-119.44942,33.2165]},"properties":{"depth_ft":46,"depth_m":14.1}},{"type":"Feature","geometry":{"type":"Point","coordinates":[-119.43818,33.2165]},"properties":{"depth_ft":50,"depth_m":15.3}},{"type":"Feature","geometry":{"type":"Point","coordinates":[-119.42694,33.2165]},"properties":{"depth_ft":62,"depth_m":18.8}},{"type":"Feature","geometry":{"type":"Point","coordinates":[-119.4157,33.2165]},"properties":{"depth_ft":68,"depth_m":20.8}},{"type":"Feature","geometry":{"type":"Point","coordinates":[-119.40446,33.2165]},"properties":{"depth_ft":131,"depth_m":39.9}},{"type":"Feature","geometry":{"type":"Point","coordinates":[-119.39322,33.2165]},"properties":{"depth_ft":97,"depth_m":29.7}},{"type":"Feature","geometry":{"type":"Point","coordinates":[-119.38198,33.2165]},"properties":{"depth_ft":144,"depth_m":43.9}},{"type":"Feature","geometry":{"type":"Point","coordinates":[-119.37074,33.2165]},"properties":{"depth_ft":252,"depth_m":76.7}},{"type":"Feature","geometry":{"type":"Point","coordinates":[-119.50562,33.2071]},"properties":{"depth_ft":253,"depth_m":77.2}},{"type":"Feature","geometry":{"type":"Point","coordinates":[-119.49438,33.2071]},"properties":{"depth_ft":209,"depth_m":63.7}},{"type":"Feature","geometry":{"type":"Point","coordinates":[-119.48314,33.2071]},"properties":{"depth_ft":196,"depth_m":59.6}},{"type":"Feature","geometry":{"type":"Point","coordinates":[-119.4719,33.2071]},"properties":{"depth_ft":184,"depth_m":56.1}},{"type":"Feature","geometry":{"type":"Point","coordinates":[-119.46066,33.2071]},"properties":{"depth_ft":172,"depth_m":52.3}},{"type":"Feature","geometry":{"type":"Point","coordinates":[-119.44942,33.2071]},"properties":{"depth_ft":109,"depth_m":33.3}},{"type":"Feature","geometry":{"type":"Point","coordinates":[-119.43818,33.2071]},"properties":{"depth_ft":135,"depth_m":41.1}},{"type":"Feature","geometry":{"type":"Point","coordinates":[-119.42694,33.2071]},"properties":{"depth_ft":166,"depth_m":50.6}},{"type":"Feature","geometry":{"type":"Point","coordinates":[-119.4157,33.2071]},"properties":{"depth_ft":209,"depth_m":63.6}},{"type":"Feature","geometry":{"type":"Point","coordinates":[-119.40446,33.2071]},"properties":{"depth_ft":231,"depth_m":70.3}},{"type":"Feature","geometry":{"type":"Point","coordinates":[-119.39322,33.2071]},"properties":{"depth_ft":258,"depth_m":78.7}},{"type":"Feature","geometry":{"type":"Point","coordinates":[-119.4719,33.1977]},"properties":{"depth_ft":236,"depth_m":72.0}},{"type":"Feature","geometry":{"type":"Point","coordinates":[-119.46066,33.1977]},"properties":{"depth_ft":254,"depth_m":77.4}},{"type":"Feature","geometry":{"type":"Point","coordinates":[-119.44942,33.1977]},"properties":{"depth_ft":244,"depth_m":74.2}},{"type":"Feature","geometry":{"type":"Point","coordinates":[-119.43818,33.1977]},"properties":{"depth_ft":198,"depth_m":60.5}},{"type":"Feature","geometry":{"type":"Point","coordinates":[-119.42694,33.1977]},"properties":{"depth_ft":248,"depth_m":75.5}},{"type":"Feature","geometry":{"type":"Point","coordinates":[-119.4157,33.1977]},"properties":{"depth_ft":274,"depth_m":83.6}},{"type":"Feature","geometry":{"type":"Point","coordinates":[-119.40446,33.1977]},"properties":{"depth_ft":290,"depth_m":88.4}},{"type":"Feature","geometry":{"type":"Point","coordinates":[-119.39322,33.1977]},"properties":{"depth_ft":322,"depth_m":98.0}}]}