{"type":"FeatureCollection","features":[{"type":"Feature","geometry":{"type":"Polygon","coordinates":[[[-118.39161,33.8155],[-118.39093,33.82051],[-118.3909,33.82269],[-118.3912,33.82707],[-118.39129,33.83124],[-118.39158,33.83186],[-118.39257,33.83186],[-118.39111,33.83199],[-118.39092,33.83255],[-118.39066,33.83534],[-118.39082,33.83781],[-118.39147,33.83988],[-118.39216,33.84137],[-118.39161,33.84143],[-118.39115,33.84066],[-118.39083,33.84083],[-118.39178,33.84261],[-118.39217,33.84249],[-118.39211,33.84196],[-118.39255,33.84187],[-118.39317,33.84229],[-118.39341,33.84317],[-118.39395,33.8437],[-118.39486,33.84373],[-118.39446,33.84376],[-118.39442,33.84396],[-118.39524,33.84405],[-118.39655,33.84388],[-118.39817,33.84603],[-118.39813,33.84662],[-118.39739,33.84684],[-118.39662,33.84468],[-118.39466,33.84514],[-118.39591,33.84855],[-118.39649,33.84841],[-118.39664,33.84886],[-118.39895,33.84828],[-118.39859,33.8473],[-118.39881,33.84698],[-118.39994,33.84843],[-118.39676,33.84921],[-118.39742,33.85097],[-118.39756,33.85105],[-118.40041,33.85004],[-118.40014,33.84921],[-118.40042,33.84914],[-118.40042,33.84888],[-118.40184,33.84901],[-118.40113,33.8499],[-118.39951,33.85055],[-118.39949,33.85096],[-118.39987,33.8526],[-118.40418,33.86544],[-118.4054,33.86849],[-118.4071259517775,33.87202702702702],[-118.36245991690524,33.87202702702702],[-118.36245991690524,33.811972972972974],[-118.39230598604539,33.811972972972974],[-118.39161,33.8155]]]},"properties":{"name":"ca-mainland"}}]}