{"type":"FeatureCollection","features":[{"type":"Feature","geometry":{"type":"Polygon","coordinates":[[[-118.39726,33.84167],[-118.39947,33.84324],[-118.39714,33.84189],[-118.39708,33.84165],[-118.39726,33.84167]],[[-118.39726,33.84174],[-118.39723,33.84176],[-118.39726,33.84176],[-118.39726,33.84174]],[[-118.39772,33.84204],[-118.39768,33.84206],[-118.39772,33.84206],[-118.39772,33.84204]]]},"properties":{"id":"redondo-kelp-extent","name":"Redondo Beach surveyed kelp extent","className":"Kelp Subsurface","years":"2003-2016","areaKm2":0.0}},{"type":"Feature","geometry":{"type":"Polygon","coordinates":[[[-118.39836,33.84246],[-118.39903,33.84292],[-118.39911,33.84289],[-118.39911,33.84298],[-118.39947,33.84324],[-118.39917,33.84316],[-118.39873,33.84279],[-118.39855,33.84277],[-118.39823,33.84257],[-118.39828,33.84248],[-118.39798,33.8424],[-118.39785,33.84222],[-118.39772,33.84224],[-118.39734,33.842],[-118.39732,33.84189],[-118.39714,33.84189],[-118.39708,33.84165],[-118.39726,33.84167],[-118.3974,33.84189],[-118.39779,33.84206],[-118.39783,33.84217],[-118.39796,33.84217],[-118.39796,33.84226],[-118.39841,33.84241],[-118.39836,33.84246]],[[-118.39726,33.84174],[-118.39723,33.84176],[-118.39726,33.84176],[-118.39726,33.84174]],[[-118.39772,33.84204],[-118.39768,33.84206],[-118.39772,33.84206],[-118.39772,33.84204]]]},"properties":{"id":"redondo-kelp-canopy-2013","name":"Redondo Beach kelp canopy (2013 survey)","className":"Kelp Canopy","year":2013,"areaKm2":0.0}}]}