{"type":"FeatureCollection","features":[{"type":"Feature","geometry":{"type":"Point","coordinates":[-118.43054,33.86903]},"properties":{"depth_ft":91,"depth_m":27.7}},{"type":"Feature","geometry":{"type":"Point","coordinates":[-118.42771,33.86903]},"properties":{"depth_ft":85,"depth_m":25.9}},{"type":"Feature","geometry":{"type":"Point","coordinates":[-118.42488,33.86903]},"properties":{"depth_ft":81,"depth_m":24.6}},{"type":"Feature","geometry":{"type":"Point","coordinates":[-118.42205,33.86903]},"properties":{"depth_ft":74,"depth_m":22.6}},{"type":"Feature","geometry":{"type":"Point","coordinates":[-118.41922,33.86903]},"properties":{"depth_ft":70,"depth_m":21.3}},{"type":"Feature","geometry":{"type":"Point","coordinates":[-118.41639,33.86903]},"properties":{"depth_ft":55,"depth_m":16.7}},{"type":"Feature","geometry":{"type":"Point","coordinates":[-118.41356,33.86903]},"properties":{"depth_ft":45,"depth_m":13.6}},{"type":"Feature","geometry":{"type":"Point","coordinates":[-118.41073,33.86903]},"properties":{"depth_ft":37,"depth_m":11.4}},{"type":"Feature","geometry":{"type":"Point","coordinates":[-118.4079,33.86903]},"properties":{"depth_ft":17,"depth_m":5.2}},{"type":"Feature","geometry":{"type":"Point","coordinates":[-118.43054,33.86668]},"properties":{"depth_ft":99,"depth_m":30.1}},{"type":"Feature","geometry":{"type":"Point","coordinates":[-118.42771,33.86668]},"properties":{"depth_ft":86,"depth_m":26.2}},{"type":"Feature","geometry":{"type":"Point","coordinates":[-118.42488,33.86668]},"properties":{"depth_ft":81,"depth_m":24.8}},{"type":"Feature","geometry":{"type":"Point","coordinates":[-118.42205,33.86668]},"properties":{"depth_ft":77,"depth_m":23.3}},{"type":"Feature","geometry":{"type":"Point","coordinates":[-118.41922,33.86668]},"properties":{"depth_ft":71,"depth_m":21.6}},{"type":"Feature","geometry":{"type":"Point","coordinates":[-118.41639,33.86668]},"properties":{"depth_ft":56,"depth_m":16.9}},{"type":"Feature","geometry":{"type":"Point","coordinates":[-118.41356,33.86668]},"properties":{"depth_ft":47,"depth_m":14.4}},{"type":"Feature","geometry":{"type":"Point","coordinates":[-118.41073,33.86668]},"properties":{"depth_ft":41,"depth_m":12.5}},{"type":"Feature","geometry":{"type":"Point","coordinates":[-118.4079,33.86668]},"properties":{"depth_ft":27,"depth_m":8.1}},{"type":"Feature","geometry":{"type":"Point","coordinates":[-118.40507,33.86668]},"properties":{"depth_ft":7,"depth_m":2.2}},{"type":"Feature","geometry":{"type":"Point","coordinates":[-118.43054,33.86433]},"properties":{"depth_ft":107,"depth_m":32.7}},{"type":"Feature","geometry":{"type":"Point","coordinates":[-118.42771,33.86433]},"properties":{"depth_ft":93,"depth_m":28.3}},{"type":"Feature","geometry":{"type":"Point","coordinates":[-118.42488,33.86433]},"properties":{"depth_ft":81,"depth_m":24.8}},{"type":"Feature","geometry":{"type":"Point","coordinates":[-118.42205,33.86433]},"properties":{"depth_ft":78,"depth_m":23.8}},{"type":"Feature","geometry":{"type":"Point","coordinates":[-118.41922,33.86433]},"properties":{"depth_ft":74,"depth_m":22.4}},{"type":"Feature","geometry":{"type":"Point","coordinates":[-118.41639,33.86433]},"properties":{"depth_ft":60,"depth_m":18.2}},{"type":"Feature","geometry":{"type":"Point","coordinates":[-118.41356,33.86433]},"properties":{"depth_ft":49,"depth_m":15.1}},{"type":"Feature","geometry":{"type":"Point","coordinates":[-118.41073,33.86433]},"properties":{"depth_ft":42,"depth_m":12.9}},{"type":"Feature","geometry":{"type":"Point","coordinates":[-118.4079,33.86433]},"properties":{"depth_ft":36,"depth_m":10.8}},{"type":"Feature","geometry":{"type":"Point","coordinates":[-118.40507,33.86433]},"properties":{"depth_ft":13,"depth_m":3.9}},{"type":"Feature","geometry":{"type":"Point","coordinates":[-118.43054,33.86198]},"properties":{"depth_ft":111,"depth_m":33.8}},{"type":"Feature","geometry":{"type":"Point","coordinates":[-118.42771,33.86198]},"properties":{"depth_ft":102,"depth_m":31.2}},{"type":"Feature","geometry":{"type":"Point","coordinates":[-118.42488,33.86198]},"properties":{"depth_ft":87,"depth_m":26.5}},{"type":"Feature","geometry":{"type":"Point","coordinates":[-118.42205,33.86198]},"properties":{"depth_ft":76,"depth_m":23.3}},{"type":"Feature","geometry":{"type":"Point","coordinates":[-118.41922,33.86198]},"properties":{"depth_ft":73,"depth_m":22.2}},{"type":"Feature","geometry":{"type":"Point","coordinates":[-118.41639,33.86198]},"properties":{"depth_ft":66,"depth_m":20.3}},{"type":"Feature","geometry":{"type":"Point","coordinates":[-118.41356,33.86198]},"properties":{"depth_ft":52,"depth_m":15.9}},{"type":"Feature","geometry":{"type":"Point","coordinates":[-118.41073,33.86198]},"properties":{"depth_ft":44,"depth_m":13.6}},{"type":"Feature","geometry":{"type":"Point","coordinates":[-118.4079,33.86198]},"properties":{"depth_ft":38,"depth_m":11.4}},{"type":"Feature","geometry":{"type":"Point","coordinates":[-118.40507,33.86198]},"properties":{"depth_ft":16,"depth_m":5.0}},{"type":"Feature","geometry":{"type":"Point","coordinates":[-118.43054,33.85963]},"properties":{"depth_ft":119,"depth_m":36.4}},{"type":"Feature","geometry":{"type":"Point","coordinates":[-118.42771,33.85963]},"properties":{"depth_ft":106,"depth_m":32.2}},{"type":"Feature","geometry":{"type":"Point","coordinates":[-118.42488,33.85963]},"properties":{"depth_ft":97,"depth_m":29.7}},{"type":"Feature","geometry":{"type":"Point","coordinates":[-118.42205,33.85963]},"properties":{"depth_ft":83,"depth_m":25.3}},{"type":"Feature","geometry":{"type":"Point","coordinates":[-118.41922,33.85963]},"properties":{"depth_ft":75,"depth_m":23.0}},{"type":"Feature","geometry":{"type":"Point","coordinates":[-118.41639,33.85963]},"properties":{"depth_ft":69,"depth_m":21.0}},{"type":"Feature","geometry":{"type":"Point","coordinates":[-118.41356,33.85963]},"properties":{"depth_ft":63,"depth_m":19.1}},{"type":"Feature","geometry":{"type":"Point","coordinates":[-118.41073,33.85963]},"properties":{"depth_ft":48,"depth_m":14.5}},{"type":"Feature","geometry":{"type":"Point","coordinates":[-118.4079,33.85963]},"properties":{"depth_ft":40,"depth_m":12.2}},{"type":"Feature","geometry":{"type":"Point","coordinates":[-118.40507,33.85963]},"properties":{"depth_ft":25,"depth_m":7.7}},{"type":"Feature","geometry":{"type":"Point","coordinates":[-118.40224,33.85963]},"properties":{"depth_ft":6,"depth_m":1.8}},{"type":"Feature","geometry":{"type":"Point","coordinates":[-118.43054,33.85728]},"properties":{"depth_ft":133,"depth_m":40.7}},{"type":"Feature","geometry":{"type":"Point","coordinates":[-118.42771,33.85728]},"properties":{"depth_ft":114,"depth_m":34.8}},{"type":"Feature","geometry":{"type":"Point","coordinates":[-118.42488,33.85728]},"properties":{"depth_ft":101,"depth_m":30.9}},{"type":"Feature","geometry":{"type":"Point","coordinates":[-118.42205,33.85728]},"properties":{"depth_ft":93,"depth_m":28.3}},{"type":"Feature","geometry":{"type":"Point","coordinates":[-118.41922,33.85728]},"properties":{"depth_ft":79,"depth_m":24.1}},{"type":"Feature","geometry":{"type":"Point","coordinates":[-118.41639,33.85728]},"properties":{"depth_ft":73,"depth_m":22.1}},{"type":"Feature","geometry":{"type":"Point","coordinates":[-118.41356,33.85728]},"properties":{"depth_ft":68,"depth_m":20.7}},{"type":"Feature","geometry":{"type":"Point","coordinates":[-118.41073,33.85728]},"properties":{"depth_ft":52,"depth_m":15.8}},{"type":"Feature","geometry":{"type":"Point","coordinates":[-118.4079,33.85728]},"properties":{"depth_ft":43,"depth_m":13.0}},{"type":"Feature","geometry":{"type":"Point","coordinates":[-118.40507,33.85728]},"properties":{"depth_ft":31,"depth_m":9.4}},{"type":"Feature","geometry":{"type":"Point","coordinates":[-118.40224,33.85728]},"properties":{"depth_ft":9,"depth_m":2.7}},{"type":"Feature","geometry":{"type":"Point","coordinates":[-118.43054,33.85493]},"properties":{"depth_ft":160,"depth_m":48.9}},{"type":"Feature","geometry":{"type":"Point","coordinates":[-118.42771,33.85493]},"properties":{"depth_ft":132,"depth_m":40.2}},{"type":"Feature","geometry":{"type":"Point","coordinates":[-118.42488,33.85493]},"properties":{"depth_ft":111,"depth_m":33.8}},{"type":"Feature","geometry":{"type":"Point","coordinates":[-118.42205,33.85493]},"properties":{"depth_ft":98,"depth_m":29.7}},{"type":"Feature","geometry":{"type":"Point","coordinates":[-118.41922,33.85493]},"properties":{"depth_ft":89,"depth_m":27.2}},{"type":"Feature","geometry":{"type":"Point","coordinates":[-118.41639,33.85493]},"properties":{"depth_ft":73,"depth_m":22.1}},{"type":"Feature","geometry":{"type":"Point","coordinates":[-118.41356,33.85493]},"properties":{"depth_ft":65,"depth_m":19.9}},{"type":"Feature","geometry":{"type":"Point","coordinates":[-118.41073,33.85493]},"properties":{"depth_ft":60,"depth_m":18.2}},{"type":"Feature","geometry":{"type":"Point","coordinates":[-118.4079,33.85493]},"properties":{"depth_ft":46,"depth_m":14.0}},{"type":"Feature","geometry":{"type":"Point","coordinates":[-118.40507,33.85493]},"properties":{"depth_ft":36,"depth_m":11.0}},{"type":"Feature","geometry":{"type":"Point","coordinates":[-118.40224,33.85493]},"properties":{"depth_ft":15,"depth_m":4.5}},{"type":"Feature","geometry":{"type":"Point","coordinates":[-118.43054,33.85258]},"properties":{"depth_ft":206,"depth_m":62.9}},{"type":"Feature","geometry":{"type":"Point","coordinates":[-118.42771,33.85258]},"properties":{"depth_ft":178,"depth_m":54.4}},{"type":"Feature","geometry":{"type":"Point","coordinates":[-118.42488,33.85258]},"properties":{"depth_ft":143,"depth_m":43.5}},{"type":"Feature","geometry":{"type":"Point","coordinates":[-118.42205,33.85258]},"properties":{"depth_ft":122,"depth_m":37.2}},{"type":"Feature","geometry":{"type":"Point","coordinates":[-118.41922,33.85258]},"properties":{"depth_ft":99,"depth_m":30.1}},{"type":"Feature","geometry":{"type":"Point","coordinates":[-118.41639,33.85258]},"properties":{"depth_ft":83,"depth_m":25.3}},{"type":"Feature","geometry":{"type":"Point","coordinates":[-118.41356,33.85258]},"properties":{"depth_ft":66,"depth_m":20.2}},{"type":"Feature","geometry":{"type":"Point","coordinates":[-118.41073,33.85258]},"properties":{"depth_ft":60,"depth_m":18.3}},{"type":"Feature","geometry":{"type":"Point","coordinates":[-118.4079,33.85258]},"properties":{"depth_ft":48,"depth_m":14.7}},{"type":"Feature","geometry":{"type":"Point","coordinates":[-118.40507,33.85258]},"properties":{"depth_ft":39,"depth_m":11.9}},{"type":"Feature","geometry":{"type":"Point","coordinates":[-118.40224,33.85258]},"properties":{"depth_ft":25,"depth_m":7.7}},{"type":"Feature","geometry":{"type":"Point","coordinates":[-118.43054,33.85023]},"properties":{"depth_ft":276,"depth_m":84.1}},{"type":"Feature","geometry":{"type":"Point","coordinates":[-118.42771,33.85023]},"properties":{"depth_ft":254,"depth_m":77.4}},{"type":"Feature","geometry":{"type":"Point","coordinates":[-118.42488,33.85023]},"properties":{"depth_ft":218,"depth_m":66.6}},{"type":"Feature","geometry":{"type":"Point","coordinates":[-118.42205,33.85023]},"properties":{"depth_ft":206,"depth_m":62.7}},{"type":"Feature","geometry":{"type":"Point","coordinates":[-118.41922,33.85023]},"properties":{"depth_ft":144,"depth_m":43.9}},{"type":"Feature","geometry":{"type":"Point","coordinates":[-118.41639,33.85023]},"properties":{"depth_ft":87,"depth_m":26.4}},{"type":"Feature","geometry":{"type":"Point","coordinates":[-118.41356,33.85023]},"properties":{"depth_ft":77,"depth_m":23.6}},{"type":"Feature","geometry":{"type":"Point","coordinates":[-118.41073,33.85023]},"properties":{"depth_ft":64,"depth_m":19.6}},{"type":"Feature","geometry":{"type":"Point","coordinates":[-118.4079,33.85023]},"properties":{"depth_ft":56,"depth_m":16.9}},{"type":"Feature","geometry":{"type":"Point","coordinates":[-118.40507,33.85023]},"properties":{"depth_ft":43,"depth_m":13.1}},{"type":"Feature","geometry":{"type":"Point","coordinates":[-118.40224,33.85023]},"properties":{"depth_ft":23,"depth_m":7.1}},{"type":"Feature","geometry":{"type":"Point","coordinates":[-118.39941,33.85023]},"properties":{"depth_ft":5,"depth_m":1.5}},{"type":"Feature","geometry":{"type":"Point","coordinates":[-118.43054,33.84788]},"properties":{"depth_ft":322,"depth_m":98.1}},{"type":"Feature","geometry":{"type":"Point","coordinates":[-118.42771,33.84788]},"properties":{"depth_ft":307,"depth_m":93.7}},{"type":"Feature","geometry":{"type":"Point","coordinates":[-118.42488,33.84788]},"properties":{"depth_ft":296,"depth_m":90.3}},{"type":"Feature","geometry":{"type":"Point","coordinates":[-118.42205,33.84788]},"properties":{"depth_ft":259,"depth_m":78.8}},{"type":"Feature","geometry":{"type":"Point","coordinates":[-118.41922,33.84788]},"properties":{"depth_ft":177,"depth_m":53.9}},{"type":"Feature","geometry":{"type":"Point","coordinates":[-118.41639,33.84788]},"properties":{"depth_ft":88,"depth_m":26.7}},{"type":"Feature","geometry":{"type":"Point","coordinates":[-118.41356,33.84788]},"properties":{"depth_ft":72,"depth_m":22.0}},{"type":"Feature","geometry":{"type":"Point","coordinates":[-118.41073,33.84788]},"properties":{"depth_ft":62,"depth_m":18.9}},{"type":"Feature","geometry":{"type":"Point","coordinates":[-118.4079,33.84788]},"properties":{"depth_ft":53,"depth_m":16.0}},{"type":"Feature","geometry":{"type":"Point","coordinates":[-118.40507,33.84788]},"properties":{"depth_ft":40,"depth_m":12.1}},{"type":"Feature","geometry":{"type":"Point","coordinates":[-118.40224,33.84788]},"properties":{"depth_ft":25,"depth_m":7.5}},{"type":"Feature","geometry":{"type":"Point","coordinates":[-118.39659,33.84788]},"properties":{"depth_ft":14,"depth_m":4.3}},{"type":"Feature","geometry":{"type":"Point","coordinates":[-118.42205,33.84553]},"properties":{"depth_ft":290,"depth_m":88.4}},{"type":"Feature","geometry":{"type":"Point","coordinates":[-118.41922,33.84553]},"properties":{"depth_ft":203,"depth_m":61.7}},{"type":"Feature","geometry":{"type":"Point","coordinates":[-118.41639,33.84553]},"properties":{"depth_ft":102,"depth_m":31.0}},{"type":"Feature","geometry":{"type":"Point","coordinates":[-118.41356,33.84553]},"properties":{"depth_ft":78,"depth_m":23.8}},{"type":"Feature","geometry":{"type":"Point","coordinates":[-118.41073,33.84553]},"properties":{"depth_ft":68,"depth_m":20.7}},{"type":"Feature","geometry":{"type":"Point","coordinates":[-118.4079,33.84553]},"properties":{"depth_ft":58,"depth_m":17.6}},{"type":"Feature","geometry":{"type":"Point","coordinates":[-118.40507,33.84553]},"properties":{"depth_ft":48,"depth_m":14.8}},{"type":"Feature","geometry":{"type":"Point","coordinates":[-118.40224,33.84553]},"properties":{"depth_ft":36,"depth_m":11.0}},{"type":"Feature","geometry":{"type":"Point","coordinates":[-118.39941,33.84553]},"properties":{"depth_ft":27,"depth_m":8.3}},{"type":"Feature","geometry":{"type":"Point","coordinates":[-118.39659,33.84553]},"properties":{"depth_ft":15,"depth_m":4.4}},{"type":"Feature","geometry":{"type":"Point","coordinates":[-118.42488,33.84318]},"properties":{"depth_ft":330,"depth_m":100.5}},{"type":"Feature","geometry":{"type":"Point","coordinates":[-118.42205,33.84318]},"properties":{"depth_ft":304,"depth_m":92.6}},{"type":"Feature","geometry":{"type":"Point","coordinates":[-118.41922,33.84318]},"properties":{"depth_ft":198,"depth_m":60.4}},{"type":"Feature","geometry":{"type":"Point","coordinates":[-118.41639,33.84318]},"properties":{"depth_ft":119,"depth_m":36.3}},{"type":"Feature","geometry":{"type":"Point","coordinates":[-118.41356,33.84318]},"properties":{"depth_ft":84,"depth_m":25.5}},{"type":"Feature","geometry":{"type":"Point","coordinates":[-118.41073,33.84318]},"properties":{"depth_ft":72,"depth_m":22.1}},{"type":"Feature","geometry":{"type":"Point","coordinates":[-118.4079,33.84318]},"properties":{"depth_ft":63,"depth_m":19.2}},{"type":"Feature","geometry":{"type":"Point","coordinates":[-118.40507,33.84318]},"properties":{"depth_ft":55,"depth_m":16.8}},{"type":"Feature","geometry":{"type":"Point","coordinates":[-118.40224,33.84318]},"properties":{"depth_ft":44,"depth_m":13.3}},{"type":"Feature","geometry":{"type":"Point","coordinates":[-118.39941,33.84318]},"properties":{"depth_ft":26,"depth_m":8.1}},{"type":"Feature","geometry":{"type":"Point","coordinates":[-118.39659,33.84318]},"properties":{"depth_ft":30,"depth_m":9.2}},{"type":"Feature","geometry":{"type":"Point","coordinates":[-118.39376,33.84318]},"properties":{"depth_ft":11,"depth_m":3.4}},{"type":"Feature","geometry":{"type":"Point","coordinates":[-118.41922,33.84082]},"properties":{"depth_ft":280,"depth_m":85.2}},{"type":"Feature","geometry":{"type":"Point","coordinates":[-118.41639,33.84082]},"properties":{"depth_ft":187,"depth_m":56.9}},{"type":"Feature","geometry":{"type":"Point","coordinates":[-118.41356,33.84082]},"properties":{"depth_ft":94,"depth_m":28.6}},{"type":"Feature","geometry":{"type":"Point","coordinates":[-118.41073,33.84082]},"properties":{"depth_ft":77,"depth_m":23.3}},{"type":"Feature","geometry":{"type":"Point","coordinates":[-118.4079,33.84082]},"properties":{"depth_ft":70,"depth_m":21.4}},{"type":"Feature","geometry":{"type":"Point","coordinates":[-118.40507,33.84082]},"properties":{"depth_ft":63,"depth_m":19.2}},{"type":"Feature","geometry":{"type":"Point","coordinates":[-118.40224,33.84082]},"properties":{"depth_ft":58,"depth_m":17.8}},{"type":"Feature","geometry":{"type":"Point","coordinates":[-118.39941,33.84082]},"properties":{"depth_ft":48,"depth_m":14.7}},{"type":"Feature","geometry":{"type":"Point","coordinates":[-118.39659,33.84082]},"properties":{"depth_ft":55,"depth_m":16.7}},{"type":"Feature","geometry":{"type":"Point","coordinates":[-118.39376,33.84082]},"properties":{"depth_ft":25,"depth_m":7.6}},{"type":"Feature","geometry":{"type":"Point","coordinates":[-118.39093,33.84082]},"properties":{"depth_ft":8,"depth_m":2.4}},{"type":"Feature","geometry":{"type":"Point","coordinates":[-118.41922,33.83847]},"properties":{"depth_ft":244,"depth_m":74.3}},{"type":"Feature","geometry":{"type":"Point","coordinates":[-118.41639,33.83847]},"properties":{"depth_ft":188,"depth_m":57.2}},{"type":"Feature","geometry":{"type":"Point","coordinates":[-118.41356,33.83847]},"properties":{"depth_ft":104,"depth_m":31.8}},{"type":"Feature","geometry":{"type":"Point","coordinates":[-118.41073,33.83847]},"properties":{"depth_ft":79,"depth_m":23.9}},{"type":"Feature","geometry":{"type":"Point","coordinates":[-118.4079,33.83847]},"properties":{"depth_ft":70,"depth_m":21.3}},{"type":"Feature","geometry":{"type":"Point","coordinates":[-118.40507,33.83847]},"properties":{"depth_ft":70,"depth_m":21.4}},{"type":"Feature","geometry":{"type":"Point","coordinates":[-118.40224,33.83847]},"properties":{"depth_ft":68,"depth_m":20.7}},{"type":"Feature","geometry":{"type":"Point","coordinates":[-118.39941,33.83847]},"properties":{"depth_ft":71,"depth_m":21.5}},{"type":"Feature","geometry":{"type":"Point","coordinates":[-118.39659,33.83847]},"properties":{"depth_ft":144,"depth_m":43.8}},{"type":"Feature","geometry":{"type":"Point","coordinates":[-118.39376,33.83847]},"properties":{"depth_ft":89,"depth_m":27.1}},{"type":"Feature","geometry":{"type":"Point","coordinates":[-118.41639,33.83612]},"properties":{"depth_ft":265,"depth_m":80.9}},{"type":"Feature","geometry":{"type":"Point","coordinates":[-118.41356,33.83612]},"properties":{"depth_ft":182,"depth_m":55.4}},{"type":"Feature","geometry":{"type":"Point","coordinates":[-118.41073,33.83612]},"properties":{"depth_ft":87,"depth_m":26.5}},{"type":"Feature","geometry":{"type":"Point","coordinates":[-118.4079,33.83612]},"properties":{"depth_ft":71,"depth_m":21.8}},{"type":"Feature","geometry":{"type":"Point","coordinates":[-118.40507,33.83612]},"properties":{"depth_ft":70,"depth_m":21.5}},{"type":"Feature","geometry":{"type":"Point","coordinates":[-118.40224,33.83612]},"properties":{"depth_ft":119,"depth_m":36.1}},{"type":"Feature","geometry":{"type":"Point","coordinates":[-118.39941,33.83612]},"properties":{"depth_ft":248,"depth_m":75.7}},{"type":"Feature","geometry":{"type":"Point","coordinates":[-118.39659,33.83612]},"properties":{"depth_ft":205,"depth_m":62.5}},{"type":"Feature","geometry":{"type":"Point","coordinates":[-118.39376,33.83612]},"properties":{"depth_ft":115,"depth_m":35.0}},{"type":"Feature","geometry":{"type":"Point","coordinates":[-118.39093,33.83612]},"properties":{"depth_ft":2,"depth_m":0.6}},{"type":"Feature","geometry":{"type":"Point","coordinates":[-118.41356,33.83377]},"properties":{"depth_ft":233,"depth_m":70.9}},{"type":"Feature","geometry":{"type":"Point","coordinates":[-118.41073,33.83377]},"properties":{"depth_ft":211,"depth_m":64.4}},{"type":"Feature","geometry":{"type":"Point","coordinates":[-118.4079,33.83377]},"properties":{"depth_ft":241,"depth_m":73.4}},{"type":"Feature","geometry":{"type":"Point","coordinates":[-118.40507,33.83377]},"properties":{"depth_ft":103,"depth_m":31.5}},{"type":"Feature","geometry":{"type":"Point","coordinates":[-118.39941,33.83377]},"properties":{"depth_ft":188,"depth_m":57.2}},{"type":"Feature","geometry":{"type":"Point","coordinates":[-118.39659,33.83377]},"properties":{"depth_ft":150,"depth_m":45.6}},{"type":"Feature","geometry":{"type":"Point","coordinates":[-118.39376,33.83377]},"properties":{"depth_ft":84,"depth_m":25.5}},{"type":"Feature","geometry":{"type":"Point","coordinates":[-118.39093,33.83377]},"properties":{"depth_ft":1,"depth_m":0.3}},{"type":"Feature","geometry":{"type":"Point","coordinates":[-118.40507,33.83142]},"properties":{"depth_ft":328,"depth_m":99.9}},{"type":"Feature","geometry":{"type":"Point","coordinates":[-118.40224,33.83142]},"properties":{"depth_ft":254,"depth_m":77.5}},{"type":"Feature","geometry":{"type":"Point","coordinates":[-118.39941,33.83142]},"properties":{"depth_ft":72,"depth_m":21.9}},{"type":"Feature","geometry":{"type":"Point","coordinates":[-118.39659,33.83142]},"properties":{"depth_ft":41,"depth_m":12.4}},{"type":"Feature","geometry":{"type":"Point","coordinates":[-118.39376,33.83142]},"properties":{"depth_ft":26,"depth_m":7.9}},{"type":"Feature","geometry":{"type":"Point","coordinates":[-118.41073,33.82907]},"properties":{"depth_ft":320,"depth_m":97.5}},{"type":"Feature","geometry":{"type":"Point","coordinates":[-118.40224,33.82907]},"properties":{"depth_ft":72,"depth_m":21.9}},{"type":"Feature","geometry":{"type":"Point","coordinates":[-118.39941,33.82907]},"properties":{"depth_ft":52,"depth_m":16.0}},{"type":"Feature","geometry":{"type":"Point","coordinates":[-118.39659,33.82907]},"properties":{"depth_ft":51,"depth_m":15.6}},{"type":"Feature","geometry":{"type":"Point","coordinates":[-118.39376,33.82907]},"properties":{"depth_ft":25,"depth_m":7.5}},{"type":"Feature","geometry":{"type":"Point","coordinates":[-118.41922,33.82672]},"properties":{"depth_ft":221,"depth_m":67.4}},{"type":"Feature","geometry":{"type":"Point","coordinates":[-118.41639,33.82672]},"properties":{"depth_ft":310,"depth_m":94.6}},{"type":"Feature","geometry":{"type":"Point","coordinates":[-118.41356,33.82672]},"properties":{"depth_ft":270,"depth_m":82.4}},{"type":"Feature","geometry":{"type":"Point","coordinates":[-118.41073,33.82672]},"properties":{"depth_ft":90,"depth_m":27.5}},{"type":"Feature","geometry":{"type":"Point","coordinates":[-118.4079,33.82672]},"properties":{"depth_ft":181,"depth_m":55.1}},{"type":"Feature","geometry":{"type":"Point","coordinates":[-118.40507,33.82672]},"properties":{"depth_ft":70,"depth_m":21.4}},{"type":"Feature","geometry":{"type":"Point","coordinates":[-118.40224,33.82672]},"properties":{"depth_ft":60,"depth_m":18.2}},{"type":"Feature","geometry":{"type":"Point","coordinates":[-118.39941,33.82672]},"properties":{"depth_ft":51,"depth_m":15.6}},{"type":"Feature","geometry":{"type":"Point","coordinates":[-118.39659,33.82672]},"properties":{"depth_ft":45,"depth_m":13.6}},{"type":"Feature","geometry":{"type":"Point","coordinates":[-118.39376,33.82672]},"properties":{"depth_ft":27,"depth_m":8.3}},{"type":"Feature","geometry":{"type":"Point","coordinates":[-118.42205,33.82437]},"properties":{"depth_ft":226,"depth_m":68.8}},{"type":"Feature","geometry":{"type":"Point","coordinates":[-118.41922,33.82437]},"properties":{"depth_ft":171,"depth_m":52.0}},{"type":"Feature","geometry":{"type":"Point","coordinates":[-118.41639,33.82437]},"properties":{"depth_ft":137,"depth_m":41.9}},{"type":"Feature","geometry":{"type":"Point","coordinates":[-118.41356,33.82437]},"properties":{"depth_ft":100,"depth_m":30.5}},{"type":"Feature","geometry":{"type":"Point","coordinates":[-118.41073,33.82437]},"properties":{"depth_ft":88,"depth_m":26.7}},{"type":"Feature","geometry":{"type":"Point","coordinates":[-118.4079,33.82437]},"properties":{"depth_ft":72,"depth_m":22.0}},{"type":"Feature","geometry":{"type":"Point","coordinates":[-118.40507,33.82437]},"properties":{"depth_ft":66,"depth_m":20.2}},{"type":"Feature","geometry":{"type":"Point","coordinates":[-118.40224,33.82437]},"properties":{"depth_ft":60,"depth_m":18.2}},{"type":"Feature","geometry":{"type":"Point","coordinates":[-118.39941,33.82437]},"properties":{"depth_ft":51,"depth_m":15.6}},{"type":"Feature","geometry":{"type":"Point","coordinates":[-118.39659,33.82437]},"properties":{"depth_ft":44,"depth_m":13.3}},{"type":"Feature","geometry":{"type":"Point","coordinates":[-118.39376,33.82437]},"properties":{"depth_ft":28,"depth_m":8.6}},{"type":"Feature","geometry":{"type":"Point","coordinates":[-118.42488,33.82202]},"properties":{"depth_ft":265,"depth_m":80.8}},{"type":"Feature","geometry":{"type":"Point","coordinates":[-118.42205,33.82202]},"properties":{"depth_ft":208,"depth_m":63.4}},{"type":"Feature","geometry":{"type":"Point","coordinates":[-118.41922,33.82202]},"properties":{"depth_ft":165,"depth_m":50.4}},{"type":"Feature","geometry":{"type":"Point","coordinates":[-118.41639,33.82202]},"properties":{"depth_ft":129,"depth_m":39.2}},{"type":"Feature","geometry":{"type":"Point","coordinates":[-118.41356,33.82202]},"properties":{"depth_ft":97,"depth_m":29.7}},{"type":"Feature","geometry":{"type":"Point","coordinates":[-118.41073,33.82202]},"properties":{"depth_ft":85,"depth_m":25.8}},{"type":"Feature","geometry":{"type":"Point","coordinates":[-118.4079,33.82202]},"properties":{"depth_ft":70,"depth_m":21.3}},{"type":"Feature","geometry":{"type":"Point","coordinates":[-118.40507,33.82202]},"properties":{"depth_ft":64,"depth_m":19.5}},{"type":"Feature","geometry":{"type":"Point","coordinates":[-118.40224,33.82202]},"properties":{"depth_ft":56,"depth_m":17.2}},{"type":"Feature","geometry":{"type":"Point","coordinates":[-118.39941,33.82202]},"properties":{"depth_ft":52,"depth_m":15.8}},{"type":"Feature","geometry":{"type":"Point","coordinates":[-118.39659,33.82202]},"properties":{"depth_ft":46,"depth_m":13.9}},{"type":"Feature","geometry":{"type":"Point","coordinates":[-118.39376,33.82202]},"properties":{"depth_ft":30,"depth_m":9.1}},{"type":"Feature","geometry":{"type":"Point","coordinates":[-118.43054,33.81967]},"properties":{"depth_ft":293,"depth_m":89.4}},{"type":"Feature","geometry":{"type":"Point","coordinates":[-118.42771,33.81967]},"properties":{"depth_ft":260,"depth_m":79.4}},{"type":"Feature","geometry":{"type":"Point","coordinates":[-118.42488,33.81967]},"properties":{"depth_ft":230,"depth_m":70.2}},{"type":"Feature","geometry":{"type":"Point","coordinates":[-118.42205,33.81967]},"properties":{"depth_ft":202,"depth_m":61.7}},{"type":"Feature","geometry":{"type":"Point","coordinates":[-118.41922,33.81967]},"properties":{"depth_ft":161,"depth_m":49.0}},{"type":"Feature","geometry":{"type":"Point","coordinates":[-118.41639,33.81967]},"properties":{"depth_ft":117,"depth_m":35.8}},{"type":"Feature","geometry":{"type":"Point","coordinates":[-118.41356,33.81967]},"properties":{"depth_ft":97,"depth_m":29.4}},{"type":"Feature","geometry":{"type":"Point","coordinates":[-118.41073,33.81967]},"properties":{"depth_ft":79,"depth_m":24.0}},{"type":"Feature","geometry":{"type":"Point","coordinates":[-118.4079,33.81967]},"properties":{"depth_ft":69,"depth_m":20.9}},{"type":"Feature","geometry":{"type":"Point","coordinates":[-118.40507,33.81967]},"properties":{"depth_ft":60,"depth_m":18.3}},{"type":"Feature","geometry":{"type":"Point","coordinates":[-118.40224,33.81967]},"properties":{"depth_ft":55,"depth_m":16.7}},{"type":"Feature","geometry":{"type":"Point","coordinates":[-118.39941,33.81967]},"properties":{"depth_ft":49,"depth_m":14.8}},{"type":"Feature","geometry":{"type":"Point","coordinates":[-118.39659,33.81967]},"properties":{"depth_ft":44,"depth_m":13.4}},{"type":"Feature","geometry":{"type":"Point","coordinates":[-118.39376,33.81967]},"properties":{"depth_ft":29,"depth_m":8.9}},{"type":"Feature","geometry":{"type":"Point","coordinates":[-118.43054,33.81732]},"properties":{"depth_ft":262,"depth_m":79.9}},{"type":"Feature","geometry":{"type":"Point","coordinates":[-118.42771,33.81732]},"properties":{"depth_ft":244,"depth_m":74.3}},{"type":"Feature","geometry":{"type":"Point","coordinates":[-118.42488,33.81732]},"properties":{"depth_ft":221,"depth_m":67.3}},{"type":"Feature","geometry":{"type":"Point","coordinates":[-118.42205,33.81732]},"properties":{"depth_ft":194,"depth_m":59.1}},{"type":"Feature","geometry":{"type":"Point","coordinates":[-118.41922,33.81732]},"properties":{"depth_ft":153,"depth_m":46.8}},{"type":"Feature","geometry":{"type":"Point","coordinates":[-118.41639,33.81732]},"properties":{"depth_ft":120,"depth_m":36.4}},{"type":"Feature","geometry":{"type":"Point","coordinates":[-118.41356,33.81732]},"properties":{"depth_ft":91,"depth_m":27.7}},{"type":"Feature","geometry":{"type":"Point","coordinates":[-118.41073,33.81732]},"properties":{"depth_ft":77,"depth_m":23.5}},{"type":"Feature","geometry":{"type":"Point","coordinates":[-118.4079,33.81732]},"properties":{"depth_ft":67,"depth_m":20.3}},{"type":"Feature","geometry":{"type":"Point","coordinates":[-118.40507,33.81732]},"properties":{"depth_ft":60,"depth_m":18.3}},{"type":"Feature","geometry":{"type":"Point","coordinates":[-118.40224,33.81732]},"properties":{"depth_ft":53,"depth_m":16.0}},{"type":"Feature","geometry":{"type":"Point","coordinates":[-118.39941,33.81732]},"properties":{"depth_ft":44,"depth_m":13.5}},{"type":"Feature","geometry":{"type":"Point","coordinates":[-118.39659,33.81732]},"properties":{"depth_ft":40,"depth_m":12.3}},{"type":"Feature","geometry":{"type":"Point","coordinates":[-118.39376,33.81732]},"properties":{"depth_ft":26,"depth_m":8.0}},{"type":"Feature","geometry":{"type":"Point","coordinates":[-118.43054,33.81497]},"properties":{"depth_ft":253,"depth_m":77.2}},{"type":"Feature","geometry":{"type":"Point","coordinates":[-118.42771,33.81497]},"properties":{"depth_ft":235,"depth_m":71.7}},{"type":"Feature","geometry":{"type":"Point","coordinates":[-118.42488,33.81497]},"properties":{"depth_ft":212,"depth_m":64.7}},{"type":"Feature","geometry":{"type":"Point","coordinates":[-118.42205,33.81497]},"properties":{"depth_ft":189,"depth_m":57.5}},{"type":"Feature","geometry":{"type":"Point","coordinates":[-118.41922,33.81497]},"properties":{"depth_ft":148,"depth_m":45.2}},{"type":"Feature","geometry":{"type":"Point","coordinates":[-118.41639,33.81497]},"properties":{"depth_ft":113,"depth_m":34.4}},{"type":"Feature","geometry":{"type":"Point","coordinates":[-118.41356,33.81497]},"properties":{"depth_ft":87,"depth_m":26.4}},{"type":"Feature","geometry":{"type":"Point","coordinates":[-118.41073,33.81497]},"properties":{"depth_ft":75,"depth_m":23.0}},{"type":"Feature","geometry":{"type":"Point","coordinates":[-118.4079,33.81497]},"properties":{"depth_ft":66,"depth_m":20.1}},{"type":"Feature","geometry":{"type":"Point","coordinates":[-118.40507,33.81497]},"properties":{"depth_ft":59,"depth_m":18.0}},{"type":"Feature","geometry":{"type":"Point","coordinates":[-118.40224,33.81497]},"properties":{"depth_ft":51,"depth_m":15.4}},{"type":"Feature","geometry":{"type":"Point","coordinates":[-118.39941,33.81497]},"properties":{"depth_ft":43,"depth_m":13.2}},{"type":"Feature","geometry":{"type":"Point","coordinates":[-118.39659,33.81497]},"properties":{"depth_ft":36,"depth_m":10.9}},{"type":"Feature","geometry":{"type":"Point","coordinates":[-118.39376,33.81497]},"properties":{"depth_ft":21,"depth_m":6.3}}]}