{"type":"FeatureCollection","features":[{"type":"Feature","geometry":{"type":"MultiPolygon","coordinates":[[[[-117.21374,32.72409],[-117.21388,32.72435],[-117.21375,32.72476],[-117.21348021391277,32.724810447804934],[-117.21348021391277,32.72396010695638],[-117.21374,32.72409]]],[[[-117.21382,32.72813],[-117.21392,32.72866],[-117.21348021391277,32.729249713162424],[-117.21348021391277,32.72808345396065],[-117.21382,32.72813]]],[[[-117.21434,32.73206],[-117.21524,32.72894],[-117.21514,32.72861],[-117.21527,32.72795],[-117.21593,32.72701],[-117.21585,32.7265],[-117.21657,32.72487],[-117.21717,32.72237],[-117.21771,32.72181],[-117.21921,32.72232],[-117.22008,32.72284],[-117.22071,32.72293],[-117.22357,32.72471],[-117.22622,32.72489],[-117.22728,32.72424],[-117.22717,32.72411],[-117.2273,32.72394],[-117.22744,32.72403],[-117.22756,32.72337],[-117.22767,32.72338],[-117.22764,32.72273],[-117.2274,32.72259],[-117.22771,32.72222],[-117.22781,32.72148],[-117.22762,32.72121],[-117.22285,32.71843],[-117.22216,32.71849],[-117.22088,32.71988],[-117.22048,32.71988],[-117.22011,32.71938],[-117.22032,32.71886],[-117.22031,32.7183],[-117.22097,32.71736],[-117.22261,32.71582],[-117.22256,32.71547],[-117.22289,32.71521],[-117.22261,32.71547],[-117.22298,32.71586],[-117.22366,32.71532],[-117.22335,32.71489],[-117.22303,32.71511],[-117.22327,32.71492],[-117.22336,32.71485],[-117.22362,32.71509],[-117.226,32.71373],[-117.22899,32.71135],[-117.2314,32.70887],[-117.23313,32.70804],[-117.23448,32.70797],[-117.23482,32.70818],[-117.23481,32.70868],[-117.23441,32.70917],[-117.23245,32.70952],[-117.22968,32.71215],[-117.22469,32.7162],[-117.22416,32.71693],[-117.22472,32.71842],[-117.22733,32.72002],[-117.2275,32.71999],[-117.22896,32.71834],[-117.22915,32.71786],[-117.23092,32.71875],[-117.23097,32.71892],[-117.23202,32.71874],[-117.23398,32.71771],[-117.23456,32.71724],[-117.23533,32.71624],[-117.23588,32.71504],[-117.23602,32.71432],[-117.23544,32.71401],[-117.23364,32.71535],[-117.23312,32.71506],[-117.23369,32.71436],[-117.23556,32.71327],[-117.23651,32.71206],[-117.23689,32.71129],[-117.23687,32.71077],[-117.23657,32.71066],[-117.23652,32.71042],[-117.23704,32.70936],[-117.23698,32.70887],[-117.23668,32.70874],[-117.23702,32.70793],[-117.23636,32.70385],[-117.23755,32.7021],[-117.23757,32.70169],[-117.2381,32.70139],[-117.2382,32.70122],[-117.23807,32.70117],[-117.23918,32.69932],[-117.23911,32.69839],[-117.23965,32.69705],[-117.23978,32.69622],[-117.23983,32.69404],[-117.23952,32.69244],[-117.23973,32.6919],[-117.23939,32.69006],[-117.23889,32.68987],[-117.2388,32.68971],[-117.23895,32.68939],[-117.23767,32.6872],[-117.23707,32.68744],[-117.23669,32.68679],[-117.23588,32.68628],[-117.23587,32.68576],[-117.23529,32.68556],[-117.23477,32.6856],[-117.23453,32.68597],[-117.23342,32.68654],[-117.2329,32.68648],[-117.23276,32.68614],[-117.23649,32.68382],[-117.23781,32.6826],[-117.23847,32.6813],[-117.23834,32.68037],[-117.23789,32.67955],[-117.23792,32.6777],[-117.23681,32.67507],[-117.23687,32.67323],[-117.23648,32.67261],[-117.23624,32.67154],[-117.23655,32.67101],[-117.23714,32.6706],[-117.23742,32.67011],[-117.23735,32.66914],[-117.23706,32.66849],[-117.23723,32.66797],[-117.23766,32.66767],[-117.23798,32.66703],[-117.23916,32.66608],[-117.24074,32.66575],[-117.24153,32.66534],[-117.24213,32.66527],[-117.24267,32.66485],[-117.24303,32.66529],[-117.24346,32.6653],[-117.24344,32.66551],[-117.2446,32.66645],[-117.24498,32.66763],[-117.24476,32.66795],[-117.24469,32.66883],[-117.24546,32.66961],[-117.24536,32.66989],[-117.24516,32.66993],[-117.24532,32.67],[-117.24532,32.67044],[-117.24503,32.67115],[-117.24532,32.67149],[-117.24541,32.67257],[-117.24556,32.67268],[-117.24525,32.67313],[-117.24534,32.67357],[-117.24559,32.6733],[-117.24557,32.67388],[-117.24526,32.67404],[-117.24523,32.67423],[-117.24549,32.6744],[-117.24561,32.6741],[-117.24581,32.67406],[-117.24597,32.6743],[-117.24612,32.67421],[-117.24642,32.67491],[-117.24662,32.67501],[-117.24708,32.67665],[-117.24682,32.67672],[-117.24682,32.67724],[-117.24671,32.67728],[-117.24759,32.67751],[-117.24733,32.67809],[-117.24766,32.67851],[-117.24789,32.67847],[-117.24814,32.67972],[-117.24851,32.67994],[-117.2486,32.68024],[-117.24859,32.68061],[-117.24841,32.68078],[-117.24849,32.68089],[-117.24818,32.68103],[-117.24819,32.68124],[-117.2487,32.68119],[-117.24887,32.68163],[-117.2487,32.68195],[-117.2484,32.68205],[-117.24885,32.68286],[-117.24899,32.68293],[-117.24946,32.68267],[-117.24969,32.68286],[-117.24941,32.68304],[-117.24979,32.6831],[-117.24989,32.68332],[-117.25002,32.68395],[-117.2497,32.68478],[-117.25007,32.68548],[-117.25005,32.68586],[-117.25029,32.68627],[-117.25043,32.68704],[-117.25029,32.68737],[-117.25026,32.6893],[-117.25042,32.68954],[-117.2508,32.68965],[-117.25102,32.69018],[-117.25151,32.69043],[-117.25194,32.69118],[-117.25243,32.69149],[-117.25276,32.69202],[-117.25338,32.69206],[-117.25311,32.69245],[-117.25324,32.69268],[-117.25298,32.69304],[-117.25298,32.69391],[-117.25352,32.69449],[-117.25415,32.69461],[-117.2539,32.69556],[-117.25394,32.69608],[-117.2542,32.69616],[-117.25434,32.69674],[-117.2542,32.69726],[-117.25451,32.69763],[-117.25477,32.69872],[-117.2555,32.69925],[-117.25557,32.69952],[-117.25514,32.69996],[-117.25542,32.70066],[-117.25514,32.70238],[-117.25566,32.70355],[-117.25574,32.70504],[-117.25559,32.7062],[-117.25576,32.70682],[-117.25552,32.70729],[-117.25557,32.70823],[-117.25535,32.70902],[-117.25614,32.71092],[-117.25628,32.71182],[-117.2562,32.71217],[-117.25649,32.71345],[-117.25646,32.71461],[-117.25658,32.71478],[-117.25658,32.71518],[-117.25588,32.71562],[-117.25571,32.71625],[-117.25646,32.71854],[-117.25694,32.71879],[-117.25682,32.71891],[-117.25693,32.71938],[-117.25731,32.71958],[-117.25736,32.72125],[-117.25715,32.72198],[-117.25717,32.72284],[-117.25724,32.7231],[-117.25753,32.7232],[-117.25772,32.72379],[-117.25757,32.72396],[-117.25779,32.72454],[-117.2576,32.72476],[-117.25793,32.72484],[-117.25838,32.72541],[-117.25821,32.72564],[-117.25689,32.726],[-117.25679,32.72633],[-117.25647,32.72652],[-117.25647,32.72679],[-117.25621,32.72686],[-117.25574,32.72749],[-117.25585,32.7281],[-117.25635,32.72878],[-117.25623,32.72904],[-117.25629,32.72961],[-117.25729,32.73053],[-117.25726,32.73068],[-117.2568,32.73057],[-117.257,32.73091],[-117.25685,32.73113],[-117.25701,32.73142],[-117.25677,32.73156],[-117.25696,32.73206],[-117.2566,32.73243],[-117.25668,32.73276],[-117.25703,32.73283],[-117.25713963080727,32.733045045045046],[-117.21348021391277,32.733045045045046],[-117.21348021391277,32.73289061477356],[-117.21434,32.73206]]],[[[-117.21396,32.68715],[-117.21723,32.68635],[-117.22031,32.68525],[-117.22251,32.68424],[-117.22276,32.68379],[-117.2236,32.68326],[-117.22369,32.68435],[-117.22452,32.68568],[-117.22571,32.68649],[-117.22624,32.68735],[-117.22673,32.6888],[-117.22726,32.69335],[-117.22711,32.69345],[-117.22705,32.69619],[-117.2268,32.69622],[-117.22661,32.6976],[-117.22534,32.70009],[-117.22541,32.70055],[-117.2258,32.70063],[-117.22583,32.70084],[-117.22544,32.70085],[-117.22288,32.70474],[-117.22292,32.70501],[-117.22133,32.70653],[-117.21766,32.70945],[-117.21685,32.71038],[-117.21426,32.71178],[-117.21348021391277,32.71198904903615],[-117.21348021391277,32.687188473412654],[-117.21396,32.68715]]]]},"properties":{"name":"ca-mainland"}}]}