{"type":"FeatureCollection","features":[{"type":"Feature","geometry":{"type":"MultiPolygon","coordinates":[[[[-117.2435,32.6571],[-117.2433,32.657],[-117.2436,32.657],[-117.2436,32.6569],[-117.2434,32.6569],[-117.2434,32.6567],[-117.2434,32.6568],[-117.2432,32.6568],[-117.2432,32.6569],[-117.2433,32.6569],[-117.2433,32.6569],[-117.2432,32.6569],[-117.2432,32.657],[-117.2433,32.657],[-117.2433,32.6571],[-117.243,32.657],[-117.2432,32.6569],[-117.243,32.6568],[-117.2431,32.6567],[-117.2433,32.6568],[-117.2432,32.6566],[-117.2431,32.6566],[-117.2433,32.6563],[-117.2434,32.6564],[-117.2433,32.6564],[-117.2434,32.6565],[-117.2434,32.6566],[-117.2436,32.6565],[-117.2435,32.6566],[-117.2436,32.6567],[-117.2435,32.6569],[-117.2437,32.657],[-117.2437,32.6572],[-117.2435,32.6571]]],[[[-117.2479,32.6637],[-117.2477,32.6638],[-117.2479,32.6634],[-117.2477,32.6633],[-117.2476,32.6634],[-117.2476,32.6635],[-117.2475,32.6635],[-117.2475,32.6635],[-117.2474,32.6634],[-117.2476,32.6637],[-117.2475,32.6636],[-117.2473,32.6636],[-117.2473,32.6632],[-117.2473,32.6634],[-117.2472,32.6634],[-117.2472,32.6633],[-117.2473,32.6633],[-117.247,32.6631],[-117.2477,32.6632],[-117.2474,32.6633],[-117.2475,32.6634],[-117.2476,32.6633],[-117.248,32.6633],[-117.2481,32.6634],[-117.2479,32.6635],[-117.248,32.6636],[-117.2479,32.6636],[-117.2479,32.6636],[-117.2481,32.6636],[-117.248,32.6638],[-117.2482,32.6638],[-117.2479,32.6638],[-117.2479,32.6637]]]]},"properties":{"id":"imperial-beach-subsurface","name":"Imperial Beach","bedNumber":2,"className":"Kelp Subsurface","areaKm2":0.0343,"year":2016}},{"type":"Feature","geometry":{"type":"Polygon","coordinates":[[[-117.2473,32.6641],[-117.2473,32.664],[-117.2474,32.664],[-117.2474,32.6639],[-117.2476,32.6639],[-117.2477,32.664],[-117.2477,32.6639],[-117.2479,32.6639],[-117.2478,32.6639],[-117.2479,32.6639],[-117.2479,32.6639],[-117.2479,32.664],[-117.2479,32.664],[-117.2479,32.664],[-117.248,32.6641],[-117.2478,32.6641],[-117.2478,32.6642],[-117.2479,32.6642],[-117.2478,32.6643],[-117.2477,32.6644],[-117.2477,32.6642],[-117.2475,32.6642],[-117.2476,32.664],[-117.2473,32.6641]]]},"properties":{"id":"point-loma-subsurface","name":"Point Loma","bedNumber":3,"className":"Kelp Subsurface","areaKm2":0.005,"year":2016}}]}