{"type":"FeatureCollection","features":[{"type":"Feature","geometry":{"type":"Polygon","coordinates":[[[-117.239,32.666],[-117.239,32.666],[-117.239,32.666],[-117.239,32.666],[-117.239,32.666],[-117.239,32.667],[-117.238,32.667],[-117.238,32.667],[-117.238,32.667],[-117.238,32.662],[-117.25,32.662],[-117.25,32.677],[-117.247,32.677],[-117.247,32.677],[-117.247,32.677],[-117.247,32.677],[-117.247,32.677],[-117.247,32.676],[-117.247,32.676],[-117.247,32.676],[-117.247,32.676],[-117.247,32.676],[-117.247,32.676],[-117.247,32.676],[-117.247,32.676],[-117.247,32.676],[-117.247,32.676],[-117.247,32.676],[-117.247,32.676],[-117.247,32.675],[-117.247,32.675],[-117.247,32.675],[-117.247,32.675],[-117.247,32.675],[-117.247,32.675],[-117.246,32.675],[-117.246,32.675],[-117.246,32.675],[-117.246,32.675],[-117.246,32.675],[-117.246,32.675],[-117.246,32.675],[-117.246,32.675],[-117.246,32.675],[-117.246,32.675],[-117.246,32.674],[-117.246,32.674],[-117.246,32.674],[-117.246,32.674],[-117.246,32.674],[-117.246,32.674],[-117.246,32.674],[-117.246,32.674],[-117.246,32.674],[-117.246,32.674],[-117.246,32.674],[-117.246,32.674],[-117.246,32.674],[-117.246,32.674],[-117.246,32.674],[-117.246,32.674],[-117.246,32.674],[-117.246,32.674],[-117.246,32.674],[-117.246,32.674],[-117.246,32.674],[-117.246,32.674],[-117.246,32.674],[-117.246,32.674],[-117.246,32.674],[-117.245,32.674],[-117.245,32.674],[-117.245,32.674],[-117.245,32.674],[-117.245,32.674],[-117.245,32.674],[-117.245,32.674],[-117.245,32.674],[-117.245,32.674],[-117.245,32.674],[-117.246,32.674],[-117.246,32.674],[-117.246,32.674],[-117.246,32.674],[-117.246,32.674],[-117.245,32.674],[-117.245,32.674],[-117.245,32.674],[-117.245,32.674],[-117.245,32.674],[-117.245,32.673],[-117.245,32.673],[-117.245,32.673],[-117.245,32.673],[-117.245,32.673],[-117.245,32.673],[-117.245,32.673],[-117.245,32.673],[-117.245,32.673],[-117.245,32.673],[-117.246,32.673],[-117.246,32.673],[-117.245,32.673],[-117.245,32.673],[-117.245,32.672],[-117.245,32.672],[-117.245,32.672],[-117.246,32.672],[-117.245,32.672],[-117.245,32.672],[-117.245,32.672],[-117.246,32.672],[-117.246,32.672],[-117.246,32.672],[-117.245,32.672],[-117.245,32.672],[-117.245,32.672],[-117.245,32.672],[-117.245,32.672],[-117.245,32.672],[-117.245,32.672],[-117.245,32.671],[-117.245,32.671],[-117.245,32.671],[-117.245,32.671],[-117.245,32.671],[-117.245,32.671],[-117.245,32.671],[-117.245,32.671],[-117.245,32.671],[-117.245,32.671],[-117.245,32.671],[-117.245,32.671],[-117.245,32.671],[-117.245,32.671],[-117.245,32.671],[-117.245,32.671],[-117.245,32.671],[-117.245,32.671],[-117.245,32.671],[-117.245,32.671],[-117.245,32.671],[-117.245,32.671],[-117.245,32.671],[-117.245,32.671],[-117.245,32.671],[-117.245,32.67],[-117.245,32.67],[-117.245,32.67],[-117.245,32.67],[-117.245,32.67],[-117.245,32.67],[-117.245,32.67],[-117.245,32.67],[-117.245,32.67],[-117.245,32.67],[-117.245,32.67],[-117.245,32.67],[-117.245,32.67],[-117.245,32.67],[-117.245,32.67],[-117.245,32.67],[-117.245,32.67],[-117.245,32.67],[-117.245,32.67],[-117.245,32.67],[-117.245,32.67],[-117.245,32.669],[-117.245,32.669],[-117.245,32.669],[-117.245,32.669],[-117.245,32.669],[-117.245,32.669],[-117.245,32.669],[-117.245,32.669],[-117.245,32.669],[-117.245,32.669],[-117.245,32.669],[-117.245,32.669],[-117.245,32.669],[-117.245,32.669],[-117.245,32.669],[-117.245,32.669],[-117.245,32.669],[-117.245,32.669],[-117.245,32.669],[-117.245,32.669],[-117.245,32.669],[-117.245,32.668],[-117.245,32.668],[-117.245,32.668],[-117.245,32.668],[-117.245,32.668],[-117.245,32.668],[-117.245,32.668],[-117.245,32.668],[-117.245,32.668],[-117.245,32.668],[-117.245,32.668],[-117.245,32.668],[-117.245,32.668],[-117.245,32.668],[-117.245,32.668],[-117.245,32.668],[-117.245,32.668],[-117.245,32.668],[-117.245,32.668],[-117.245,32.667],[-117.245,32.667],[-117.245,32.667],[-117.245,32.667],[-117.245,32.667],[-117.245,32.667],[-117.245,32.667],[-117.245,32.667],[-117.245,32.667],[-117.245,32.667],[-117.245,32.666],[-117.245,32.666],[-117.245,32.666],[-117.245,32.666],[-117.245,32.666],[-117.244,32.666],[-117.244,32.666],[-117.244,32.666],[-117.244,32.666],[-117.244,32.666],[-117.244,32.666],[-117.244,32.666],[-117.244,32.666],[-117.244,32.666],[-117.244,32.666],[-117.244,32.666],[-117.244,32.666],[-117.244,32.666],[-117.244,32.666],[-117.244,32.666],[-117.244,32.666],[-117.243,32.666],[-117.243,32.665],[-117.243,32.665],[-117.243,32.665],[-117.243,32.665],[-117.243,32.665],[-117.243,32.665],[-117.243,32.665],[-117.243,32.665],[-117.243,32.665],[-117.243,32.665],[-117.243,32.665],[-117.243,32.665],[-117.243,32.665],[-117.243,32.665],[-117.243,32.665],[-117.243,32.665],[-117.243,32.665],[-117.243,32.665],[-117.243,32.665],[-117.243,32.665],[-117.243,32.665],[-117.243,32.665],[-117.243,32.665],[-117.242,32.665],[-117.242,32.665],[-117.242,32.665],[-117.242,32.665],[-117.242,32.665],[-117.242,32.665],[-117.242,32.665],[-117.242,32.665],[-117.242,32.665],[-117.242,32.665],[-117.241,32.665],[-117.241,32.665],[-117.241,32.666],[-117.241,32.666],[-117.241,32.666],[-117.241,32.666],[-117.24,32.666],[-117.24,32.666],[-117.24,32.666],[-117.24,32.666],[-117.24,32.666],[-117.239,32.666],[-117.239,32.666],[-117.239,32.666],[-117.239,32.666],[-117.239,32.666]]]},"properties":{"id":"cabrillo-state-marine-reserve","name":"Cabrillo State Marine Reserve","type":"SMR","shortName":"Cabrillo","areaKm2":null,"ccrCitation":null}}]}