{"type":"FeatureCollection","features":[{"type":"Feature","geometry":{"type":"Point","coordinates":[-117.32352,32.73005]},"properties":{"depth_ft":261,"depth_m":79.5}},{"type":"Feature","geometry":{"type":"Point","coordinates":[-117.31887,32.73005]},"properties":{"depth_ft":251,"depth_m":76.4}},{"type":"Feature","geometry":{"type":"Point","coordinates":[-117.31421,32.73005]},"properties":{"depth_ft":243,"depth_m":74.2}},{"type":"Feature","geometry":{"type":"Point","coordinates":[-117.30956,32.73005]},"properties":{"depth_ft":233,"depth_m":71.0}},{"type":"Feature","geometry":{"type":"Point","coordinates":[-117.3049,32.73005]},"properties":{"depth_ft":217,"depth_m":66.3}},{"type":"Feature","geometry":{"type":"Point","coordinates":[-117.30025,32.73005]},"properties":{"depth_ft":210,"depth_m":64.0}},{"type":"Feature","geometry":{"type":"Point","coordinates":[-117.2956,32.73005]},"properties":{"depth_ft":193,"depth_m":58.8}},{"type":"Feature","geometry":{"type":"Point","coordinates":[-117.29094,32.73005]},"properties":{"depth_ft":179,"depth_m":54.4}},{"type":"Feature","geometry":{"type":"Point","coordinates":[-117.28629,32.73005]},"properties":{"depth_ft":147,"depth_m":44.7}},{"type":"Feature","geometry":{"type":"Point","coordinates":[-117.28163,32.73005]},"properties":{"depth_ft":120,"depth_m":36.6}},{"type":"Feature","geometry":{"type":"Point","coordinates":[-117.27698,32.73005]},"properties":{"depth_ft":72,"depth_m":21.9}},{"type":"Feature","geometry":{"type":"Point","coordinates":[-117.27233,32.73005]},"properties":{"depth_ft":57,"depth_m":17.3}},{"type":"Feature","geometry":{"type":"Point","coordinates":[-117.26767,32.73005]},"properties":{"depth_ft":39,"depth_m":12.0}},{"type":"Feature","geometry":{"type":"Point","coordinates":[-117.26302,32.73005]},"properties":{"depth_ft":29,"depth_m":8.8}},{"type":"Feature","geometry":{"type":"Point","coordinates":[-117.25837,32.73005]},"properties":{"depth_ft":6,"depth_m":1.7}},{"type":"Feature","geometry":{"type":"Point","coordinates":[-117.32352,32.72613]},"properties":{"depth_ft":266,"depth_m":81.2}},{"type":"Feature","geometry":{"type":"Point","coordinates":[-117.31887,32.72613]},"properties":{"depth_ft":253,"depth_m":77.2}},{"type":"Feature","geometry":{"type":"Point","coordinates":[-117.31421,32.72613]},"properties":{"depth_ft":246,"depth_m":75.1}},{"type":"Feature","geometry":{"type":"Point","coordinates":[-117.30956,32.72613]},"properties":{"depth_ft":233,"depth_m":71.1}},{"type":"Feature","geometry":{"type":"Point","coordinates":[-117.3049,32.72613]},"properties":{"depth_ft":213,"depth_m":65.0}},{"type":"Feature","geometry":{"type":"Point","coordinates":[-117.30025,32.72613]},"properties":{"depth_ft":208,"depth_m":63.3}},{"type":"Feature","geometry":{"type":"Point","coordinates":[-117.2956,32.72613]},"properties":{"depth_ft":196,"depth_m":59.7}},{"type":"Feature","geometry":{"type":"Point","coordinates":[-117.29094,32.72613]},"properties":{"depth_ft":182,"depth_m":55.6}},{"type":"Feature","geometry":{"type":"Point","coordinates":[-117.28629,32.72613]},"properties":{"depth_ft":152,"depth_m":46.4}},{"type":"Feature","geometry":{"type":"Point","coordinates":[-117.28163,32.72613]},"properties":{"depth_ft":122,"depth_m":37.2}},{"type":"Feature","geometry":{"type":"Point","coordinates":[-117.27698,32.72613]},"properties":{"depth_ft":79,"depth_m":24.0}},{"type":"Feature","geometry":{"type":"Point","coordinates":[-117.27233,32.72613]},"properties":{"depth_ft":57,"depth_m":17.4}},{"type":"Feature","geometry":{"type":"Point","coordinates":[-117.26767,32.72613]},"properties":{"depth_ft":40,"depth_m":12.3}},{"type":"Feature","geometry":{"type":"Point","coordinates":[-117.26302,32.72613]},"properties":{"depth_ft":25,"depth_m":7.6}},{"type":"Feature","geometry":{"type":"Point","coordinates":[-117.25837,32.72613]},"properties":{"depth_ft":1,"depth_m":0.4}},{"type":"Feature","geometry":{"type":"Point","coordinates":[-117.32352,32.72221]},"properties":{"depth_ft":269,"depth_m":81.9}},{"type":"Feature","geometry":{"type":"Point","coordinates":[-117.31887,32.72221]},"properties":{"depth_ft":256,"depth_m":78.2}},{"type":"Feature","geometry":{"type":"Point","coordinates":[-117.31421,32.72221]},"properties":{"depth_ft":249,"depth_m":75.9}},{"type":"Feature","geometry":{"type":"Point","coordinates":[-117.30956,32.72221]},"properties":{"depth_ft":235,"depth_m":71.6}},{"type":"Feature","geometry":{"type":"Point","coordinates":[-117.3049,32.72221]},"properties":{"depth_ft":215,"depth_m":65.5}},{"type":"Feature","geometry":{"type":"Point","coordinates":[-117.30025,32.72221]},"properties":{"depth_ft":209,"depth_m":63.8}},{"type":"Feature","geometry":{"type":"Point","coordinates":[-117.2956,32.72221]},"properties":{"depth_ft":201,"depth_m":61.4}},{"type":"Feature","geometry":{"type":"Point","coordinates":[-117.29094,32.72221]},"properties":{"depth_ft":185,"depth_m":56.2}},{"type":"Feature","geometry":{"type":"Point","coordinates":[-117.28629,32.72221]},"properties":{"depth_ft":157,"depth_m":48.0}},{"type":"Feature","geometry":{"type":"Point","coordinates":[-117.28163,32.72221]},"properties":{"depth_ft":126,"depth_m":38.3}},{"type":"Feature","geometry":{"type":"Point","coordinates":[-117.27698,32.72221]},"properties":{"depth_ft":82,"depth_m":24.9}},{"type":"Feature","geometry":{"type":"Point","coordinates":[-117.27233,32.72221]},"properties":{"depth_ft":59,"depth_m":17.9}},{"type":"Feature","geometry":{"type":"Point","coordinates":[-117.26767,32.72221]},"properties":{"depth_ft":45,"depth_m":13.6}},{"type":"Feature","geometry":{"type":"Point","coordinates":[-117.26302,32.72221]},"properties":{"depth_ft":28,"depth_m":8.4}},{"type":"Feature","geometry":{"type":"Point","coordinates":[-117.25837,32.72221]},"properties":{"depth_ft":2,"depth_m":0.6}},{"type":"Feature","geometry":{"type":"Point","coordinates":[-117.22579,32.72221]},"properties":{"depth_ft":12,"depth_m":3.7}},{"type":"Feature","geometry":{"type":"Point","coordinates":[-117.22113,32.72221]},"properties":{"depth_ft":12,"depth_m":3.6}},{"type":"Feature","geometry":{"type":"Point","coordinates":[-117.21648,32.72221]},"properties":{"depth_ft":23,"depth_m":7.1}},{"type":"Feature","geometry":{"type":"Point","coordinates":[-117.32352,32.71829]},"properties":{"depth_ft":272,"depth_m":82.9}},{"type":"Feature","geometry":{"type":"Point","coordinates":[-117.31887,32.71829]},"properties":{"depth_ft":261,"depth_m":79.5}},{"type":"Feature","geometry":{"type":"Point","coordinates":[-117.31421,32.71829]},"properties":{"depth_ft":252,"depth_m":76.7}},{"type":"Feature","geometry":{"type":"Point","coordinates":[-117.30956,32.71829]},"properties":{"depth_ft":237,"depth_m":72.3}},{"type":"Feature","geometry":{"type":"Point","coordinates":[-117.3049,32.71829]},"properties":{"depth_ft":216,"depth_m":65.8}},{"type":"Feature","geometry":{"type":"Point","coordinates":[-117.30025,32.71829]},"properties":{"depth_ft":211,"depth_m":64.2}},{"type":"Feature","geometry":{"type":"Point","coordinates":[-117.2956,32.71829]},"properties":{"depth_ft":203,"depth_m":62.0}},{"type":"Feature","geometry":{"type":"Point","coordinates":[-117.29094,32.71829]},"properties":{"depth_ft":186,"depth_m":56.5}},{"type":"Feature","geometry":{"type":"Point","coordinates":[-117.28629,32.71829]},"properties":{"depth_ft":165,"depth_m":50.2}},{"type":"Feature","geometry":{"type":"Point","coordinates":[-117.28163,32.71829]},"properties":{"depth_ft":123,"depth_m":37.6}},{"type":"Feature","geometry":{"type":"Point","coordinates":[-117.27698,32.71829]},"properties":{"depth_ft":83,"depth_m":25.4}},{"type":"Feature","geometry":{"type":"Point","coordinates":[-117.27233,32.71829]},"properties":{"depth_ft":60,"depth_m":18.3}},{"type":"Feature","geometry":{"type":"Point","coordinates":[-117.26767,32.71829]},"properties":{"depth_ft":44,"depth_m":13.4}},{"type":"Feature","geometry":{"type":"Point","coordinates":[-117.26302,32.71829]},"properties":{"depth_ft":19,"depth_m":5.8}},{"type":"Feature","geometry":{"type":"Point","coordinates":[-117.25837,32.71829]},"properties":{"depth_ft":3,"depth_m":0.9}},{"type":"Feature","geometry":{"type":"Point","coordinates":[-117.22579,32.71829]},"properties":{"depth_ft":14,"depth_m":4.3}},{"type":"Feature","geometry":{"type":"Point","coordinates":[-117.21648,32.71829]},"properties":{"depth_ft":40,"depth_m":12.2}},{"type":"Feature","geometry":{"type":"Point","coordinates":[-117.32352,32.71438]},"properties":{"depth_ft":275,"depth_m":83.7}},{"type":"Feature","geometry":{"type":"Point","coordinates":[-117.31887,32.71438]},"properties":{"depth_ft":265,"depth_m":80.7}},{"type":"Feature","geometry":{"type":"Point","coordinates":[-117.31421,32.71438]},"properties":{"depth_ft":252,"depth_m":76.7}},{"type":"Feature","geometry":{"type":"Point","coordinates":[-117.30956,32.71438]},"properties":{"depth_ft":239,"depth_m":72.8}},{"type":"Feature","geometry":{"type":"Point","coordinates":[-117.3049,32.71438]},"properties":{"depth_ft":222,"depth_m":67.8}},{"type":"Feature","geometry":{"type":"Point","coordinates":[-117.30025,32.71438]},"properties":{"depth_ft":216,"depth_m":65.8}},{"type":"Feature","geometry":{"type":"Point","coordinates":[-117.2956,32.71438]},"properties":{"depth_ft":207,"depth_m":63.0}},{"type":"Feature","geometry":{"type":"Point","coordinates":[-117.29094,32.71438]},"properties":{"depth_ft":188,"depth_m":57.2}},{"type":"Feature","geometry":{"type":"Point","coordinates":[-117.28629,32.71438]},"properties":{"depth_ft":169,"depth_m":51.5}},{"type":"Feature","geometry":{"type":"Point","coordinates":[-117.28163,32.71438]},"properties":{"depth_ft":118,"depth_m":36.0}},{"type":"Feature","geometry":{"type":"Point","coordinates":[-117.27698,32.71438]},"properties":{"depth_ft":87,"depth_m":26.4}},{"type":"Feature","geometry":{"type":"Point","coordinates":[-117.27233,32.71438]},"properties":{"depth_ft":57,"depth_m":17.5}},{"type":"Feature","geometry":{"type":"Point","coordinates":[-117.26767,32.71438]},"properties":{"depth_ft":46,"depth_m":14.1}},{"type":"Feature","geometry":{"type":"Point","coordinates":[-117.26302,32.71438]},"properties":{"depth_ft":27,"depth_m":8.3}},{"type":"Feature","geometry":{"type":"Point","coordinates":[-117.25837,32.71438]},"properties":{"depth_ft":5,"depth_m":1.6}},{"type":"Feature","geometry":{"type":"Point","coordinates":[-117.2351,32.71438]},"properties":{"depth_ft":1,"depth_m":0.3}},{"type":"Feature","geometry":{"type":"Point","coordinates":[-117.23044,32.71438]},"properties":{"depth_ft":13,"depth_m":3.9}},{"type":"Feature","geometry":{"type":"Point","coordinates":[-117.22113,32.71438]},"properties":{"depth_ft":50,"depth_m":15.4}},{"type":"Feature","geometry":{"type":"Point","coordinates":[-117.21648,32.71438]},"properties":{"depth_ft":50,"depth_m":15.1}},{"type":"Feature","geometry":{"type":"Point","coordinates":[-117.32352,32.71046]},"properties":{"depth_ft":279,"depth_m":84.9}},{"type":"Feature","geometry":{"type":"Point","coordinates":[-117.31887,32.71046]},"properties":{"depth_ft":267,"depth_m":81.2}},{"type":"Feature","geometry":{"type":"Point","coordinates":[-117.31421,32.71046]},"properties":{"depth_ft":252,"depth_m":76.8}},{"type":"Feature","geometry":{"type":"Point","coordinates":[-117.30956,32.71046]},"properties":{"depth_ft":243,"depth_m":74.2}},{"type":"Feature","geometry":{"type":"Point","coordinates":[-117.3049,32.71046]},"properties":{"depth_ft":225,"depth_m":68.6}},{"type":"Feature","geometry":{"type":"Point","coordinates":[-117.30025,32.71046]},"properties":{"depth_ft":217,"depth_m":66.1}},{"type":"Feature","geometry":{"type":"Point","coordinates":[-117.2956,32.71046]},"properties":{"depth_ft":209,"depth_m":63.6}},{"type":"Feature","geometry":{"type":"Point","coordinates":[-117.29094,32.71046]},"properties":{"depth_ft":190,"depth_m":58.0}},{"type":"Feature","geometry":{"type":"Point","coordinates":[-117.28629,32.71046]},"properties":{"depth_ft":173,"depth_m":52.7}},{"type":"Feature","geometry":{"type":"Point","coordinates":[-117.28163,32.71046]},"properties":{"depth_ft":122,"depth_m":37.2}},{"type":"Feature","geometry":{"type":"Point","coordinates":[-117.27698,32.71046]},"properties":{"depth_ft":59,"depth_m":18.0}},{"type":"Feature","geometry":{"type":"Point","coordinates":[-117.27233,32.71046]},"properties":{"depth_ft":62,"depth_m":18.9}},{"type":"Feature","geometry":{"type":"Point","coordinates":[-117.26767,32.71046]},"properties":{"depth_ft":44,"depth_m":13.5}},{"type":"Feature","geometry":{"type":"Point","coordinates":[-117.26302,32.71046]},"properties":{"depth_ft":32,"depth_m":9.6}},{"type":"Feature","geometry":{"type":"Point","coordinates":[-117.25837,32.71046]},"properties":{"depth_ft":9,"depth_m":2.7}},{"type":"Feature","geometry":{"type":"Point","coordinates":[-117.2351,32.71046]},"properties":{"depth_ft":19,"depth_m":5.8}},{"type":"Feature","geometry":{"type":"Point","coordinates":[-117.22579,32.71046]},"properties":{"depth_ft":46,"depth_m":14.1}},{"type":"Feature","geometry":{"type":"Point","coordinates":[-117.22113,32.71046]},"properties":{"depth_ft":48,"depth_m":14.6}},{"type":"Feature","geometry":{"type":"Point","coordinates":[-117.32352,32.70654]},"properties":{"depth_ft":282,"depth_m":85.9}},{"type":"Feature","geometry":{"type":"Point","coordinates":[-117.31887,32.70654]},"properties":{"depth_ft":267,"depth_m":81.5}},{"type":"Feature","geometry":{"type":"Point","coordinates":[-117.31421,32.70654]},"properties":{"depth_ft":251,"depth_m":76.6}},{"type":"Feature","geometry":{"type":"Point","coordinates":[-117.30956,32.70654]},"properties":{"depth_ft":244,"depth_m":74.5}},{"type":"Feature","geometry":{"type":"Point","coordinates":[-117.3049,32.70654]},"properties":{"depth_ft":234,"depth_m":71.4}},{"type":"Feature","geometry":{"type":"Point","coordinates":[-117.30025,32.70654]},"properties":{"depth_ft":214,"depth_m":65.1}},{"type":"Feature","geometry":{"type":"Point","coordinates":[-117.2956,32.70654]},"properties":{"depth_ft":209,"depth_m":63.8}},{"type":"Feature","geometry":{"type":"Point","coordinates":[-117.29094,32.70654]},"properties":{"depth_ft":195,"depth_m":59.6}},{"type":"Feature","geometry":{"type":"Point","coordinates":[-117.28629,32.70654]},"properties":{"depth_ft":181,"depth_m":55.2}},{"type":"Feature","geometry":{"type":"Point","coordinates":[-117.28163,32.70654]},"properties":{"depth_ft":131,"depth_m":39.9}},{"type":"Feature","geometry":{"type":"Point","coordinates":[-117.27698,32.70654]},"properties":{"depth_ft":77,"depth_m":23.5}},{"type":"Feature","geometry":{"type":"Point","coordinates":[-117.27233,32.70654]},"properties":{"depth_ft":61,"depth_m":18.6}},{"type":"Feature","geometry":{"type":"Point","coordinates":[-117.26767,32.70654]},"properties":{"depth_ft":45,"depth_m":13.9}},{"type":"Feature","geometry":{"type":"Point","coordinates":[-117.26302,32.70654]},"properties":{"depth_ft":35,"depth_m":10.6}},{"type":"Feature","geometry":{"type":"Point","coordinates":[-117.25837,32.70654]},"properties":{"depth_ft":9,"depth_m":2.7}},{"type":"Feature","geometry":{"type":"Point","coordinates":[-117.2351,32.70654]},"properties":{"depth_ft":19,"depth_m":5.9}},{"type":"Feature","geometry":{"type":"Point","coordinates":[-117.23044,32.70654]},"properties":{"depth_ft":50,"depth_m":15.2}},{"type":"Feature","geometry":{"type":"Point","coordinates":[-117.22579,32.70654]},"properties":{"depth_ft":48,"depth_m":14.6}},{"type":"Feature","geometry":{"type":"Point","coordinates":[-117.32352,32.70263]},"properties":{"depth_ft":286,"depth_m":87.2}},{"type":"Feature","geometry":{"type":"Point","coordinates":[-117.31887,32.70263]},"properties":{"depth_ft":273,"depth_m":83.1}},{"type":"Feature","geometry":{"type":"Point","coordinates":[-117.31421,32.70263]},"properties":{"depth_ft":252,"depth_m":76.9}},{"type":"Feature","geometry":{"type":"Point","coordinates":[-117.30956,32.70263]},"properties":{"depth_ft":247,"depth_m":75.2}},{"type":"Feature","geometry":{"type":"Point","coordinates":[-117.3049,32.70263]},"properties":{"depth_ft":238,"depth_m":72.6}},{"type":"Feature","geometry":{"type":"Point","coordinates":[-117.30025,32.70263]},"properties":{"depth_ft":222,"depth_m":67.8}},{"type":"Feature","geometry":{"type":"Point","coordinates":[-117.2956,32.70263]},"properties":{"depth_ft":214,"depth_m":65.1}},{"type":"Feature","geometry":{"type":"Point","coordinates":[-117.29094,32.70263]},"properties":{"depth_ft":204,"depth_m":62.2}},{"type":"Feature","geometry":{"type":"Point","coordinates":[-117.28629,32.70263]},"properties":{"depth_ft":188,"depth_m":57.4}},{"type":"Feature","geometry":{"type":"Point","coordinates":[-117.28163,32.70263]},"properties":{"depth_ft":156,"depth_m":47.5}},{"type":"Feature","geometry":{"type":"Point","coordinates":[-117.27698,32.70263]},"properties":{"depth_ft":91,"depth_m":27.6}},{"type":"Feature","geometry":{"type":"Point","coordinates":[-117.27233,32.70263]},"properties":{"depth_ft":56,"depth_m":17.1}},{"type":"Feature","geometry":{"type":"Point","coordinates":[-117.26767,32.70263]},"properties":{"depth_ft":44,"depth_m":13.3}},{"type":"Feature","geometry":{"type":"Point","coordinates":[-117.26302,32.70263]},"properties":{"depth_ft":31,"depth_m":9.6}},{"type":"Feature","geometry":{"type":"Point","coordinates":[-117.25837,32.70263]},"properties":{"depth_ft":6,"depth_m":1.9}},{"type":"Feature","geometry":{"type":"Point","coordinates":[-117.2351,32.70263]},"properties":{"depth_ft":29,"depth_m":8.8}},{"type":"Feature","geometry":{"type":"Point","coordinates":[-117.23044,32.70263]},"properties":{"depth_ft":50,"depth_m":15.3}},{"type":"Feature","geometry":{"type":"Point","coordinates":[-117.22579,32.70263]},"properties":{"depth_ft":20,"depth_m":6.0}},{"type":"Feature","geometry":{"type":"Point","coordinates":[-117.32352,32.69871]},"properties":{"depth_ft":294,"depth_m":89.5}},{"type":"Feature","geometry":{"type":"Point","coordinates":[-117.31887,32.69871]},"properties":{"depth_ft":276,"depth_m":84.1}},{"type":"Feature","geometry":{"type":"Point","coordinates":[-117.31421,32.69871]},"properties":{"depth_ft":258,"depth_m":78.5}},{"type":"Feature","geometry":{"type":"Point","coordinates":[-117.30956,32.69871]},"properties":{"depth_ft":252,"depth_m":76.8}},{"type":"Feature","geometry":{"type":"Point","coordinates":[-117.3049,32.69871]},"properties":{"depth_ft":242,"depth_m":73.8}},{"type":"Feature","geometry":{"type":"Point","coordinates":[-117.30025,32.69871]},"properties":{"depth_ft":228,"depth_m":69.5}},{"type":"Feature","geometry":{"type":"Point","coordinates":[-117.2956,32.69871]},"properties":{"depth_ft":217,"depth_m":66.1}},{"type":"Feature","geometry":{"type":"Point","coordinates":[-117.29094,32.69871]},"properties":{"depth_ft":208,"depth_m":63.5}},{"type":"Feature","geometry":{"type":"Point","coordinates":[-117.28629,32.69871]},"properties":{"depth_ft":190,"depth_m":58.0}},{"type":"Feature","geometry":{"type":"Point","coordinates":[-117.28163,32.69871]},"properties":{"depth_ft":171,"depth_m":52.2}},{"type":"Feature","geometry":{"type":"Point","coordinates":[-117.27698,32.69871]},"properties":{"depth_ft":122,"depth_m":37.1}},{"type":"Feature","geometry":{"type":"Point","coordinates":[-117.27233,32.69871]},"properties":{"depth_ft":64,"depth_m":19.6}},{"type":"Feature","geometry":{"type":"Point","coordinates":[-117.26767,32.69871]},"properties":{"depth_ft":46,"depth_m":14.0}},{"type":"Feature","geometry":{"type":"Point","coordinates":[-117.26302,32.69871]},"properties":{"depth_ft":29,"depth_m":8.7}},{"type":"Feature","geometry":{"type":"Point","coordinates":[-117.25837,32.69871]},"properties":{"depth_ft":11,"depth_m":3.3}},{"type":"Feature","geometry":{"type":"Point","coordinates":[-117.2351,32.69871]},"properties":{"depth_ft":56,"depth_m":16.9}},{"type":"Feature","geometry":{"type":"Point","coordinates":[-117.23044,32.69871]},"properties":{"depth_ft":48,"depth_m":14.8}},{"type":"Feature","geometry":{"type":"Point","coordinates":[-117.32352,32.69479]},"properties":{"depth_ft":296,"depth_m":90.2}},{"type":"Feature","geometry":{"type":"Point","coordinates":[-117.31887,32.69479]},"properties":{"depth_ft":279,"depth_m":85.1}},{"type":"Feature","geometry":{"type":"Point","coordinates":[-117.31421,32.69479]},"properties":{"depth_ft":266,"depth_m":80.9}},{"type":"Feature","geometry":{"type":"Point","coordinates":[-117.30956,32.69479]},"properties":{"depth_ft":256,"depth_m":78.0}},{"type":"Feature","geometry":{"type":"Point","coordinates":[-117.3049,32.69479]},"properties":{"depth_ft":246,"depth_m":74.9}},{"type":"Feature","geometry":{"type":"Point","coordinates":[-117.30025,32.69479]},"properties":{"depth_ft":234,"depth_m":71.3}},{"type":"Feature","geometry":{"type":"Point","coordinates":[-117.2956,32.69479]},"properties":{"depth_ft":220,"depth_m":67.0}},{"type":"Feature","geometry":{"type":"Point","coordinates":[-117.29094,32.69479]},"properties":{"depth_ft":211,"depth_m":64.2}},{"type":"Feature","geometry":{"type":"Point","coordinates":[-117.28629,32.69479]},"properties":{"depth_ft":193,"depth_m":58.8}},{"type":"Feature","geometry":{"type":"Point","coordinates":[-117.28163,32.69479]},"properties":{"depth_ft":177,"depth_m":54.0}},{"type":"Feature","geometry":{"type":"Point","coordinates":[-117.27698,32.69479]},"properties":{"depth_ft":129,"depth_m":39.4}},{"type":"Feature","geometry":{"type":"Point","coordinates":[-117.27233,32.69479]},"properties":{"depth_ft":89,"depth_m":27.2}},{"type":"Feature","geometry":{"type":"Point","coordinates":[-117.26767,32.69479]},"properties":{"depth_ft":32,"depth_m":9.6}},{"type":"Feature","geometry":{"type":"Point","coordinates":[-117.26302,32.69479]},"properties":{"depth_ft":34,"depth_m":10.3}},{"type":"Feature","geometry":{"type":"Point","coordinates":[-117.25837,32.69479]},"properties":{"depth_ft":12,"depth_m":3.8}},{"type":"Feature","geometry":{"type":"Point","coordinates":[-117.23975,32.69479]},"properties":{"depth_ft":3,"depth_m":0.9}},{"type":"Feature","geometry":{"type":"Point","coordinates":[-117.2351,32.69479]},"properties":{"depth_ft":36,"depth_m":11.1}},{"type":"Feature","geometry":{"type":"Point","coordinates":[-117.23044,32.69479]},"properties":{"depth_ft":42,"depth_m":12.9}},{"type":"Feature","geometry":{"type":"Point","coordinates":[-117.32352,32.69088]},"properties":{"depth_ft":295,"depth_m":90.0}},{"type":"Feature","geometry":{"type":"Point","coordinates":[-117.31887,32.69088]},"properties":{"depth_ft":283,"depth_m":86.3}},{"type":"Feature","geometry":{"type":"Point","coordinates":[-117.31421,32.69088]},"properties":{"depth_ft":271,"depth_m":82.6}},{"type":"Feature","geometry":{"type":"Point","coordinates":[-117.30956,32.69088]},"properties":{"depth_ft":260,"depth_m":79.3}},{"type":"Feature","geometry":{"type":"Point","coordinates":[-117.3049,32.69088]},"properties":{"depth_ft":249,"depth_m":75.9}},{"type":"Feature","geometry":{"type":"Point","coordinates":[-117.30025,32.69088]},"properties":{"depth_ft":237,"depth_m":72.3}},{"type":"Feature","geometry":{"type":"Point","coordinates":[-117.2956,32.69088]},"properties":{"depth_ft":222,"depth_m":67.8}},{"type":"Feature","geometry":{"type":"Point","coordinates":[-117.29094,32.69088]},"properties":{"depth_ft":213,"depth_m":65.0}},{"type":"Feature","geometry":{"type":"Point","coordinates":[-117.28629,32.69088]},"properties":{"depth_ft":193,"depth_m":58.8}},{"type":"Feature","geometry":{"type":"Point","coordinates":[-117.28163,32.69088]},"properties":{"depth_ft":179,"depth_m":54.7}},{"type":"Feature","geometry":{"type":"Point","coordinates":[-117.27698,32.69088]},"properties":{"depth_ft":138,"depth_m":42.2}},{"type":"Feature","geometry":{"type":"Point","coordinates":[-117.27233,32.69088]},"properties":{"depth_ft":98,"depth_m":29.9}},{"type":"Feature","geometry":{"type":"Point","coordinates":[-117.26767,32.69088]},"properties":{"depth_ft":40,"depth_m":12.1}},{"type":"Feature","geometry":{"type":"Point","coordinates":[-117.26302,32.69088]},"properties":{"depth_ft":37,"depth_m":11.2}},{"type":"Feature","geometry":{"type":"Point","coordinates":[-117.25837,32.69088]},"properties":{"depth_ft":20,"depth_m":6.2}},{"type":"Feature","geometry":{"type":"Point","coordinates":[-117.25371,32.69088]},"properties":{"depth_ft":6,"depth_m":1.7}},{"type":"Feature","geometry":{"type":"Point","coordinates":[-117.2351,32.69088]},"properties":{"depth_ft":38,"depth_m":11.5}},{"type":"Feature","geometry":{"type":"Point","coordinates":[-117.23044,32.69088]},"properties":{"depth_ft":47,"depth_m":14.3}},{"type":"Feature","geometry":{"type":"Point","coordinates":[-117.32352,32.68696]},"properties":{"depth_ft":298,"depth_m":90.7}},{"type":"Feature","geometry":{"type":"Point","coordinates":[-117.31887,32.68696]},"properties":{"depth_ft":285,"depth_m":87.0}},{"type":"Feature","geometry":{"type":"Point","coordinates":[-117.31421,32.68696]},"properties":{"depth_ft":274,"depth_m":83.7}},{"type":"Feature","geometry":{"type":"Point","coordinates":[-117.30956,32.68696]},"properties":{"depth_ft":263,"depth_m":80.3}},{"type":"Feature","geometry":{"type":"Point","coordinates":[-117.3049,32.68696]},"properties":{"depth_ft":252,"depth_m":76.9}},{"type":"Feature","geometry":{"type":"Point","coordinates":[-117.30025,32.68696]},"properties":{"depth_ft":240,"depth_m":73.1}},{"type":"Feature","geometry":{"type":"Point","coordinates":[-117.2956,32.68696]},"properties":{"depth_ft":227,"depth_m":69.1}},{"type":"Feature","geometry":{"type":"Point","coordinates":[-117.29094,32.68696]},"properties":{"depth_ft":212,"depth_m":64.7}},{"type":"Feature","geometry":{"type":"Point","coordinates":[-117.28629,32.68696]},"properties":{"depth_ft":195,"depth_m":59.5}},{"type":"Feature","geometry":{"type":"Point","coordinates":[-117.28163,32.68696]},"properties":{"depth_ft":185,"depth_m":56.2}},{"type":"Feature","geometry":{"type":"Point","coordinates":[-117.27698,32.68696]},"properties":{"depth_ft":156,"depth_m":47.6}},{"type":"Feature","geometry":{"type":"Point","coordinates":[-117.27233,32.68696]},"properties":{"depth_ft":105,"depth_m":32.0}},{"type":"Feature","geometry":{"type":"Point","coordinates":[-117.26767,32.68696]},"properties":{"depth_ft":35,"depth_m":10.5}},{"type":"Feature","geometry":{"type":"Point","coordinates":[-117.26302,32.68696]},"properties":{"depth_ft":44,"depth_m":13.4}},{"type":"Feature","geometry":{"type":"Point","coordinates":[-117.25837,32.68696]},"properties":{"depth_ft":18,"depth_m":5.6}},{"type":"Feature","geometry":{"type":"Point","coordinates":[-117.25371,32.68696]},"properties":{"depth_ft":14,"depth_m":4.2}},{"type":"Feature","geometry":{"type":"Point","coordinates":[-117.2351,32.68696]},"properties":{"depth_ft":46,"depth_m":14.1}},{"type":"Feature","geometry":{"type":"Point","coordinates":[-117.23044,32.68696]},"properties":{"depth_ft":69,"depth_m":21.1}},{"type":"Feature","geometry":{"type":"Point","coordinates":[-117.32352,32.68304]},"properties":{"depth_ft":299,"depth_m":91.2}},{"type":"Feature","geometry":{"type":"Point","coordinates":[-117.31887,32.68304]},"properties":{"depth_ft":288,"depth_m":87.8}},{"type":"Feature","geometry":{"type":"Point","coordinates":[-117.31421,32.68304]},"properties":{"depth_ft":275,"depth_m":83.9}},{"type":"Feature","geometry":{"type":"Point","coordinates":[-117.30956,32.68304]},"properties":{"depth_ft":265,"depth_m":80.9}},{"type":"Feature","geometry":{"type":"Point","coordinates":[-117.3049,32.68304]},"properties":{"depth_ft":255,"depth_m":77.8}},{"type":"Feature","geometry":{"type":"Point","coordinates":[-117.30025,32.68304]},"properties":{"depth_ft":245,"depth_m":74.5}},{"type":"Feature","geometry":{"type":"Point","coordinates":[-117.2956,32.68304]},"properties":{"depth_ft":232,"depth_m":70.6}},{"type":"Feature","geometry":{"type":"Point","coordinates":[-117.29094,32.68304]},"properties":{"depth_ft":216,"depth_m":65.8}},{"type":"Feature","geometry":{"type":"Point","coordinates":[-117.28629,32.68304]},"properties":{"depth_ft":203,"depth_m":61.9}},{"type":"Feature","geometry":{"type":"Point","coordinates":[-117.28163,32.68304]},"properties":{"depth_ft":187,"depth_m":57.1}},{"type":"Feature","geometry":{"type":"Point","coordinates":[-117.27698,32.68304]},"properties":{"depth_ft":164,"depth_m":50.0}},{"type":"Feature","geometry":{"type":"Point","coordinates":[-117.27233,32.68304]},"properties":{"depth_ft":110,"depth_m":33.6}},{"type":"Feature","geometry":{"type":"Point","coordinates":[-117.26767,32.68304]},"properties":{"depth_ft":45,"depth_m":13.8}},{"type":"Feature","geometry":{"type":"Point","coordinates":[-117.26302,32.68304]},"properties":{"depth_ft":30,"depth_m":9.1}},{"type":"Feature","geometry":{"type":"Point","coordinates":[-117.25837,32.68304]},"properties":{"depth_ft":30,"depth_m":9.1}},{"type":"Feature","geometry":{"type":"Point","coordinates":[-117.25371,32.68304]},"properties":{"depth_ft":16,"depth_m":4.8}},{"type":"Feature","geometry":{"type":"Point","coordinates":[-117.2351,32.68304]},"properties":{"depth_ft":7,"depth_m":2.1}},{"type":"Feature","geometry":{"type":"Point","coordinates":[-117.23044,32.68304]},"properties":{"depth_ft":52,"depth_m":15.8}},{"type":"Feature","geometry":{"type":"Point","coordinates":[-117.22579,32.68304]},"properties":{"depth_ft":15,"depth_m":4.7}},{"type":"Feature","geometry":{"type":"Point","coordinates":[-117.22113,32.68304]},"properties":{"depth_ft":6,"depth_m":1.8}},{"type":"Feature","geometry":{"type":"Point","coordinates":[-117.21648,32.68304]},"properties":{"depth_ft":9,"depth_m":2.9}},{"type":"Feature","geometry":{"type":"Point","coordinates":[-117.32352,32.67912]},"properties":{"depth_ft":304,"depth_m":92.5}},{"type":"Feature","geometry":{"type":"Point","coordinates":[-117.31887,32.67912]},"properties":{"depth_ft":290,"depth_m":88.3}},{"type":"Feature","geometry":{"type":"Point","coordinates":[-117.31421,32.67912]},"properties":{"depth_ft":277,"depth_m":84.5}},{"type":"Feature","geometry":{"type":"Point","coordinates":[-117.30956,32.67912]},"properties":{"depth_ft":268,"depth_m":81.6}},{"type":"Feature","geometry":{"type":"Point","coordinates":[-117.3049,32.67912]},"properties":{"depth_ft":258,"depth_m":78.5}},{"type":"Feature","geometry":{"type":"Point","coordinates":[-117.30025,32.67912]},"properties":{"depth_ft":248,"depth_m":75.6}},{"type":"Feature","geometry":{"type":"Point","coordinates":[-117.2956,32.67912]},"properties":{"depth_ft":236,"depth_m":71.8}},{"type":"Feature","geometry":{"type":"Point","coordinates":[-117.29094,32.67912]},"properties":{"depth_ft":220,"depth_m":67.1}},{"type":"Feature","geometry":{"type":"Point","coordinates":[-117.28629,32.67912]},"properties":{"depth_ft":207,"depth_m":63.0}},{"type":"Feature","geometry":{"type":"Point","coordinates":[-117.28163,32.67912]},"properties":{"depth_ft":188,"depth_m":57.4}},{"type":"Feature","geometry":{"type":"Point","coordinates":[-117.27698,32.67912]},"properties":{"depth_ft":173,"depth_m":52.7}},{"type":"Feature","geometry":{"type":"Point","coordinates":[-117.27233,32.67912]},"properties":{"depth_ft":123,"depth_m":37.6}},{"type":"Feature","geometry":{"type":"Point","coordinates":[-117.26767,32.67912]},"properties":{"depth_ft":58,"depth_m":17.8}},{"type":"Feature","geometry":{"type":"Point","coordinates":[-117.26302,32.67912]},"properties":{"depth_ft":37,"depth_m":11.3}},{"type":"Feature","geometry":{"type":"Point","coordinates":[-117.25837,32.67912]},"properties":{"depth_ft":40,"depth_m":12.1}},{"type":"Feature","geometry":{"type":"Point","coordinates":[-117.25371,32.67912]},"properties":{"depth_ft":13,"depth_m":3.9}},{"type":"Feature","geometry":{"type":"Point","coordinates":[-117.24906,32.67912]},"properties":{"depth_ft":4,"depth_m":1.1}},{"type":"Feature","geometry":{"type":"Point","coordinates":[-117.2351,32.67912]},"properties":{"depth_ft":13,"depth_m":3.9}},{"type":"Feature","geometry":{"type":"Point","coordinates":[-117.23044,32.67912]},"properties":{"depth_ft":51,"depth_m":15.5}},{"type":"Feature","geometry":{"type":"Point","coordinates":[-117.22579,32.67912]},"properties":{"depth_ft":28,"depth_m":8.7}},{"type":"Feature","geometry":{"type":"Point","coordinates":[-117.22113,32.67912]},"properties":{"depth_ft":6,"depth_m":1.9}},{"type":"Feature","geometry":{"type":"Point","coordinates":[-117.21648,32.67912]},"properties":{"depth_ft":9,"depth_m":2.8}},{"type":"Feature","geometry":{"type":"Point","coordinates":[-117.32352,32.67521]},"properties":{"depth_ft":306,"depth_m":93.1}},{"type":"Feature","geometry":{"type":"Point","coordinates":[-117.31887,32.67521]},"properties":{"depth_ft":291,"depth_m":88.8}},{"type":"Feature","geometry":{"type":"Point","coordinates":[-117.31421,32.67521]},"properties":{"depth_ft":277,"depth_m":84.4}},{"type":"Feature","geometry":{"type":"Point","coordinates":[-117.30956,32.67521]},"properties":{"depth_ft":270,"depth_m":82.3}},{"type":"Feature","geometry":{"type":"Point","coordinates":[-117.3049,32.67521]},"properties":{"depth_ft":260,"depth_m":79.2}},{"type":"Feature","geometry":{"type":"Point","coordinates":[-117.30025,32.67521]},"properties":{"depth_ft":252,"depth_m":76.9}},{"type":"Feature","geometry":{"type":"Point","coordinates":[-117.2956,32.67521]},"properties":{"depth_ft":239,"depth_m":72.9}},{"type":"Feature","geometry":{"type":"Point","coordinates":[-117.29094,32.67521]},"properties":{"depth_ft":223,"depth_m":67.9}},{"type":"Feature","geometry":{"type":"Point","coordinates":[-117.28629,32.67521]},"properties":{"depth_ft":209,"depth_m":63.7}},{"type":"Feature","geometry":{"type":"Point","coordinates":[-117.28163,32.67521]},"properties":{"depth_ft":190,"depth_m":58.0}},{"type":"Feature","geometry":{"type":"Point","coordinates":[-117.27698,32.67521]},"properties":{"depth_ft":178,"depth_m":54.2}},{"type":"Feature","geometry":{"type":"Point","coordinates":[-117.27233,32.67521]},"properties":{"depth_ft":115,"depth_m":35.1}},{"type":"Feature","geometry":{"type":"Point","coordinates":[-117.26767,32.67521]},"properties":{"depth_ft":63,"depth_m":19.3}},{"type":"Feature","geometry":{"type":"Point","coordinates":[-117.26302,32.67521]},"properties":{"depth_ft":53,"depth_m":16.1}},{"type":"Feature","geometry":{"type":"Point","coordinates":[-117.25837,32.67521]},"properties":{"depth_ft":38,"depth_m":11.6}},{"type":"Feature","geometry":{"type":"Point","coordinates":[-117.25371,32.67521]},"properties":{"depth_ft":15,"depth_m":4.6}},{"type":"Feature","geometry":{"type":"Point","coordinates":[-117.24906,32.67521]},"properties":{"depth_ft":10,"depth_m":3.0}},{"type":"Feature","geometry":{"type":"Point","coordinates":[-117.2351,32.67521]},"properties":{"depth_ft":13,"depth_m":3.9}},{"type":"Feature","geometry":{"type":"Point","coordinates":[-117.23044,32.67521]},"properties":{"depth_ft":50,"depth_m":15.3}},{"type":"Feature","geometry":{"type":"Point","coordinates":[-117.22579,32.67521]},"properties":{"depth_ft":33,"depth_m":10.2}},{"type":"Feature","geometry":{"type":"Point","coordinates":[-117.22113,32.67521]},"properties":{"depth_ft":8,"depth_m":2.5}},{"type":"Feature","geometry":{"type":"Point","coordinates":[-117.21648,32.67521]},"properties":{"depth_ft":11,"depth_m":3.4}},{"type":"Feature","geometry":{"type":"Point","coordinates":[-117.32352,32.67129]},"properties":{"depth_ft":308,"depth_m":93.9}},{"type":"Feature","geometry":{"type":"Point","coordinates":[-117.31887,32.67129]},"properties":{"depth_ft":292,"depth_m":89.1}},{"type":"Feature","geometry":{"type":"Point","coordinates":[-117.31421,32.67129]},"properties":{"depth_ft":280,"depth_m":85.5}},{"type":"Feature","geometry":{"type":"Point","coordinates":[-117.30956,32.67129]},"properties":{"depth_ft":271,"depth_m":82.7}},{"type":"Feature","geometry":{"type":"Point","coordinates":[-117.3049,32.67129]},"properties":{"depth_ft":263,"depth_m":80.2}},{"type":"Feature","geometry":{"type":"Point","coordinates":[-117.30025,32.67129]},"properties":{"depth_ft":255,"depth_m":77.6}},{"type":"Feature","geometry":{"type":"Point","coordinates":[-117.2956,32.67129]},"properties":{"depth_ft":240,"depth_m":73.1}},{"type":"Feature","geometry":{"type":"Point","coordinates":[-117.29094,32.67129]},"properties":{"depth_ft":225,"depth_m":68.7}},{"type":"Feature","geometry":{"type":"Point","coordinates":[-117.28629,32.67129]},"properties":{"depth_ft":212,"depth_m":64.6}},{"type":"Feature","geometry":{"type":"Point","coordinates":[-117.28163,32.67129]},"properties":{"depth_ft":191,"depth_m":58.2}},{"type":"Feature","geometry":{"type":"Point","coordinates":[-117.27698,32.67129]},"properties":{"depth_ft":179,"depth_m":54.6}},{"type":"Feature","geometry":{"type":"Point","coordinates":[-117.27233,32.67129]},"properties":{"depth_ft":133,"depth_m":40.6}},{"type":"Feature","geometry":{"type":"Point","coordinates":[-117.26767,32.67129]},"properties":{"depth_ft":90,"depth_m":27.3}},{"type":"Feature","geometry":{"type":"Point","coordinates":[-117.26302,32.67129]},"properties":{"depth_ft":35,"depth_m":10.5}},{"type":"Feature","geometry":{"type":"Point","coordinates":[-117.25837,32.67129]},"properties":{"depth_ft":45,"depth_m":13.6}},{"type":"Feature","geometry":{"type":"Point","coordinates":[-117.25371,32.67129]},"properties":{"depth_ft":23,"depth_m":6.9}},{"type":"Feature","geometry":{"type":"Point","coordinates":[-117.24906,32.67129]},"properties":{"depth_ft":14,"depth_m":4.3}},{"type":"Feature","geometry":{"type":"Point","coordinates":[-117.2351,32.67129]},"properties":{"depth_ft":12,"depth_m":3.6}},{"type":"Feature","geometry":{"type":"Point","coordinates":[-117.23044,32.67129]},"properties":{"depth_ft":35,"depth_m":10.6}},{"type":"Feature","geometry":{"type":"Point","coordinates":[-117.22579,32.67129]},"properties":{"depth_ft":32,"depth_m":9.8}},{"type":"Feature","geometry":{"type":"Point","coordinates":[-117.22113,32.67129]},"properties":{"depth_ft":13,"depth_m":4.0}},{"type":"Feature","geometry":{"type":"Point","coordinates":[-117.21648,32.67129]},"properties":{"depth_ft":14,"depth_m":4.3}},{"type":"Feature","geometry":{"type":"Point","coordinates":[-117.32352,32.66737]},"properties":{"depth_ft":311,"depth_m":94.6}},{"type":"Feature","geometry":{"type":"Point","coordinates":[-117.31887,32.66737]},"properties":{"depth_ft":298,"depth_m":90.9}},{"type":"Feature","geometry":{"type":"Point","coordinates":[-117.31421,32.66737]},"properties":{"depth_ft":285,"depth_m":86.8}},{"type":"Feature","geometry":{"type":"Point","coordinates":[-117.30956,32.66737]},"properties":{"depth_ft":274,"depth_m":83.6}},{"type":"Feature","geometry":{"type":"Point","coordinates":[-117.3049,32.66737]},"properties":{"depth_ft":266,"depth_m":81.1}},{"type":"Feature","geometry":{"type":"Point","coordinates":[-117.30025,32.66737]},"properties":{"depth_ft":256,"depth_m":77.9}},{"type":"Feature","geometry":{"type":"Point","coordinates":[-117.2956,32.66737]},"properties":{"depth_ft":244,"depth_m":74.4}},{"type":"Feature","geometry":{"type":"Point","coordinates":[-117.29094,32.66737]},"properties":{"depth_ft":230,"depth_m":70.2}},{"type":"Feature","geometry":{"type":"Point","coordinates":[-117.28629,32.66737]},"properties":{"depth_ft":215,"depth_m":65.4}},{"type":"Feature","geometry":{"type":"Point","coordinates":[-117.28163,32.66737]},"properties":{"depth_ft":196,"depth_m":59.9}},{"type":"Feature","geometry":{"type":"Point","coordinates":[-117.27698,32.66737]},"properties":{"depth_ft":180,"depth_m":54.9}},{"type":"Feature","geometry":{"type":"Point","coordinates":[-117.27233,32.66737]},"properties":{"depth_ft":154,"depth_m":47.0}},{"type":"Feature","geometry":{"type":"Point","coordinates":[-117.26767,32.66737]},"properties":{"depth_ft":107,"depth_m":32.7}},{"type":"Feature","geometry":{"type":"Point","coordinates":[-117.26302,32.66737]},"properties":{"depth_ft":51,"depth_m":15.5}},{"type":"Feature","geometry":{"type":"Point","coordinates":[-117.25837,32.66737]},"properties":{"depth_ft":42,"depth_m":12.8}},{"type":"Feature","geometry":{"type":"Point","coordinates":[-117.25371,32.66737]},"properties":{"depth_ft":33,"depth_m":9.9}},{"type":"Feature","geometry":{"type":"Point","coordinates":[-117.24906,32.66737]},"properties":{"depth_ft":22,"depth_m":6.7}},{"type":"Feature","geometry":{"type":"Point","coordinates":[-117.2351,32.66737]},"properties":{"depth_ft":14,"depth_m":4.1}},{"type":"Feature","geometry":{"type":"Point","coordinates":[-117.23044,32.66737]},"properties":{"depth_ft":28,"depth_m":8.6}},{"type":"Feature","geometry":{"type":"Point","coordinates":[-117.22579,32.66737]},"properties":{"depth_ft":32,"depth_m":9.6}},{"type":"Feature","geometry":{"type":"Point","coordinates":[-117.22113,32.66737]},"properties":{"depth_ft":18,"depth_m":5.5}},{"type":"Feature","geometry":{"type":"Point","coordinates":[-117.21648,32.66737]},"properties":{"depth_ft":20,"depth_m":6.2}},{"type":"Feature","geometry":{"type":"Point","coordinates":[-117.32352,32.66346]},"properties":{"depth_ft":308,"depth_m":94.0}},{"type":"Feature","geometry":{"type":"Point","coordinates":[-117.31887,32.66346]},"properties":{"depth_ft":297,"depth_m":90.6}},{"type":"Feature","geometry":{"type":"Point","coordinates":[-117.31421,32.66346]},"properties":{"depth_ft":291,"depth_m":88.8}},{"type":"Feature","geometry":{"type":"Point","coordinates":[-117.30956,32.66346]},"properties":{"depth_ft":278,"depth_m":84.8}},{"type":"Feature","geometry":{"type":"Point","coordinates":[-117.3049,32.66346]},"properties":{"depth_ft":269,"depth_m":82.0}},{"type":"Feature","geometry":{"type":"Point","coordinates":[-117.30025,32.66346]},"properties":{"depth_ft":258,"depth_m":78.5}},{"type":"Feature","geometry":{"type":"Point","coordinates":[-117.2956,32.66346]},"properties":{"depth_ft":249,"depth_m":76.0}},{"type":"Feature","geometry":{"type":"Point","coordinates":[-117.29094,32.66346]},"properties":{"depth_ft":234,"depth_m":71.5}},{"type":"Feature","geometry":{"type":"Point","coordinates":[-117.28629,32.66346]},"properties":{"depth_ft":219,"depth_m":66.6}},{"type":"Feature","geometry":{"type":"Point","coordinates":[-117.28163,32.66346]},"properties":{"depth_ft":198,"depth_m":60.2}},{"type":"Feature","geometry":{"type":"Point","coordinates":[-117.27698,32.66346]},"properties":{"depth_ft":182,"depth_m":55.5}},{"type":"Feature","geometry":{"type":"Point","coordinates":[-117.27233,32.66346]},"properties":{"depth_ft":161,"depth_m":49.0}},{"type":"Feature","geometry":{"type":"Point","coordinates":[-117.26767,32.66346]},"properties":{"depth_ft":122,"depth_m":37.3}},{"type":"Feature","geometry":{"type":"Point","coordinates":[-117.26302,32.66346]},"properties":{"depth_ft":64,"depth_m":19.4}},{"type":"Feature","geometry":{"type":"Point","coordinates":[-117.25837,32.66346]},"properties":{"depth_ft":39,"depth_m":12.0}},{"type":"Feature","geometry":{"type":"Point","coordinates":[-117.25371,32.66346]},"properties":{"depth_ft":47,"depth_m":14.3}},{"type":"Feature","geometry":{"type":"Point","coordinates":[-117.24906,32.66346]},"properties":{"depth_ft":36,"depth_m":11.0}},{"type":"Feature","geometry":{"type":"Point","coordinates":[-117.2444,32.66346]},"properties":{"depth_ft":10,"depth_m":3.1}},{"type":"Feature","geometry":{"type":"Point","coordinates":[-117.23975,32.66346]},"properties":{"depth_ft":12,"depth_m":3.5}},{"type":"Feature","geometry":{"type":"Point","coordinates":[-117.2351,32.66346]},"properties":{"depth_ft":29,"depth_m":8.7}},{"type":"Feature","geometry":{"type":"Point","coordinates":[-117.23044,32.66346]},"properties":{"depth_ft":25,"depth_m":7.5}},{"type":"Feature","geometry":{"type":"Point","coordinates":[-117.22579,32.66346]},"properties":{"depth_ft":41,"depth_m":12.6}},{"type":"Feature","geometry":{"type":"Point","coordinates":[-117.22113,32.66346]},"properties":{"depth_ft":22,"depth_m":6.7}},{"type":"Feature","geometry":{"type":"Point","coordinates":[-117.21648,32.66346]},"properties":{"depth_ft":19,"depth_m":5.8}},{"type":"Feature","geometry":{"type":"Point","coordinates":[-117.32352,32.65954]},"properties":{"depth_ft":312,"depth_m":95.0}},{"type":"Feature","geometry":{"type":"Point","coordinates":[-117.31887,32.65954]},"properties":{"depth_ft":299,"depth_m":91.1}},{"type":"Feature","geometry":{"type":"Point","coordinates":[-117.31421,32.65954]},"properties":{"depth_ft":291,"depth_m":88.6}},{"type":"Feature","geometry":{"type":"Point","coordinates":[-117.30956,32.65954]},"properties":{"depth_ft":281,"depth_m":85.6}},{"type":"Feature","geometry":{"type":"Point","coordinates":[-117.3049,32.65954]},"properties":{"depth_ft":268,"depth_m":81.8}},{"type":"Feature","geometry":{"type":"Point","coordinates":[-117.30025,32.65954]},"properties":{"depth_ft":259,"depth_m":79.0}},{"type":"Feature","geometry":{"type":"Point","coordinates":[-117.2956,32.65954]},"properties":{"depth_ft":253,"depth_m":77.1}},{"type":"Feature","geometry":{"type":"Point","coordinates":[-117.29094,32.65954]},"properties":{"depth_ft":239,"depth_m":72.8}},{"type":"Feature","geometry":{"type":"Point","coordinates":[-117.28629,32.65954]},"properties":{"depth_ft":222,"depth_m":67.5}},{"type":"Feature","geometry":{"type":"Point","coordinates":[-117.28163,32.65954]},"properties":{"depth_ft":204,"depth_m":62.2}},{"type":"Feature","geometry":{"type":"Point","coordinates":[-117.27698,32.65954]},"properties":{"depth_ft":183,"depth_m":55.8}},{"type":"Feature","geometry":{"type":"Point","coordinates":[-117.27233,32.65954]},"properties":{"depth_ft":165,"depth_m":50.4}},{"type":"Feature","geometry":{"type":"Point","coordinates":[-117.26767,32.65954]},"properties":{"depth_ft":124,"depth_m":37.9}},{"type":"Feature","geometry":{"type":"Point","coordinates":[-117.26302,32.65954]},"properties":{"depth_ft":62,"depth_m":19.0}},{"type":"Feature","geometry":{"type":"Point","coordinates":[-117.25837,32.65954]},"properties":{"depth_ft":50,"depth_m":15.3}},{"type":"Feature","geometry":{"type":"Point","coordinates":[-117.25371,32.65954]},"properties":{"depth_ft":51,"depth_m":15.6}},{"type":"Feature","geometry":{"type":"Point","coordinates":[-117.24906,32.65954]},"properties":{"depth_ft":43,"depth_m":13.2}},{"type":"Feature","geometry":{"type":"Point","coordinates":[-117.2444,32.65954]},"properties":{"depth_ft":22,"depth_m":6.6}},{"type":"Feature","geometry":{"type":"Point","coordinates":[-117.23975,32.65954]},"properties":{"depth_ft":29,"depth_m":8.9}},{"type":"Feature","geometry":{"type":"Point","coordinates":[-117.2351,32.65954]},"properties":{"depth_ft":41,"depth_m":12.5}},{"type":"Feature","geometry":{"type":"Point","coordinates":[-117.23044,32.65954]},"properties":{"depth_ft":33,"depth_m":10.1}},{"type":"Feature","geometry":{"type":"Point","coordinates":[-117.22579,32.65954]},"properties":{"depth_ft":56,"depth_m":17.1}},{"type":"Feature","geometry":{"type":"Point","coordinates":[-117.22113,32.65954]},"properties":{"depth_ft":26,"depth_m":8.1}},{"type":"Feature","geometry":{"type":"Point","coordinates":[-117.21648,32.65954]},"properties":{"depth_ft":25,"depth_m":7.7}},{"type":"Feature","geometry":{"type":"Point","coordinates":[-117.32352,32.65562]},"properties":{"depth_ft":315,"depth_m":95.9}},{"type":"Feature","geometry":{"type":"Point","coordinates":[-117.31887,32.65562]},"properties":{"depth_ft":301,"depth_m":91.8}},{"type":"Feature","geometry":{"type":"Point","coordinates":[-117.31421,32.65562]},"properties":{"depth_ft":292,"depth_m":88.9}},{"type":"Feature","geometry":{"type":"Point","coordinates":[-117.30956,32.65562]},"properties":{"depth_ft":282,"depth_m":85.9}},{"type":"Feature","geometry":{"type":"Point","coordinates":[-117.3049,32.65562]},"properties":{"depth_ft":274,"depth_m":83.4}},{"type":"Feature","geometry":{"type":"Point","coordinates":[-117.30025,32.65562]},"properties":{"depth_ft":264,"depth_m":80.4}},{"type":"Feature","geometry":{"type":"Point","coordinates":[-117.2956,32.65562]},"properties":{"depth_ft":258,"depth_m":78.5}},{"type":"Feature","geometry":{"type":"Point","coordinates":[-117.29094,32.65562]},"properties":{"depth_ft":242,"depth_m":73.9}},{"type":"Feature","geometry":{"type":"Point","coordinates":[-117.28629,32.65562]},"properties":{"depth_ft":226,"depth_m":68.8}},{"type":"Feature","geometry":{"type":"Point","coordinates":[-117.28163,32.65562]},"properties":{"depth_ft":209,"depth_m":63.8}},{"type":"Feature","geometry":{"type":"Point","coordinates":[-117.27698,32.65562]},"properties":{"depth_ft":186,"depth_m":56.8}},{"type":"Feature","geometry":{"type":"Point","coordinates":[-117.27233,32.65562]},"properties":{"depth_ft":171,"depth_m":52.0}},{"type":"Feature","geometry":{"type":"Point","coordinates":[-117.26767,32.65562]},"properties":{"depth_ft":132,"depth_m":40.3}},{"type":"Feature","geometry":{"type":"Point","coordinates":[-117.26302,32.65562]},"properties":{"depth_ft":73,"depth_m":22.4}},{"type":"Feature","geometry":{"type":"Point","coordinates":[-117.25837,32.65562]},"properties":{"depth_ft":55,"depth_m":16.8}},{"type":"Feature","geometry":{"type":"Point","coordinates":[-117.25371,32.65562]},"properties":{"depth_ft":58,"depth_m":17.6}},{"type":"Feature","geometry":{"type":"Point","coordinates":[-117.24906,32.65562]},"properties":{"depth_ft":48,"depth_m":14.7}},{"type":"Feature","geometry":{"type":"Point","coordinates":[-117.2444,32.65562]},"properties":{"depth_ft":32,"depth_m":9.8}},{"type":"Feature","geometry":{"type":"Point","coordinates":[-117.23975,32.65562]},"properties":{"depth_ft":34,"depth_m":10.5}},{"type":"Feature","geometry":{"type":"Point","coordinates":[-117.2351,32.65562]},"properties":{"depth_ft":50,"depth_m":15.2}},{"type":"Feature","geometry":{"type":"Point","coordinates":[-117.23044,32.65562]},"properties":{"depth_ft":47,"depth_m":14.2}},{"type":"Feature","geometry":{"type":"Point","coordinates":[-117.22579,32.65562]},"properties":{"depth_ft":57,"depth_m":17.2}},{"type":"Feature","geometry":{"type":"Point","coordinates":[-117.22113,32.65562]},"properties":{"depth_ft":35,"depth_m":10.6}},{"type":"Feature","geometry":{"type":"Point","coordinates":[-117.21648,32.65562]},"properties":{"depth_ft":32,"depth_m":9.7}},{"type":"Feature","geometry":{"type":"Point","coordinates":[-117.32352,32.65171]},"properties":{"depth_ft":309,"depth_m":94.1}},{"type":"Feature","geometry":{"type":"Point","coordinates":[-117.31887,32.65171]},"properties":{"depth_ft":308,"depth_m":93.8}},{"type":"Feature","geometry":{"type":"Point","coordinates":[-117.31421,32.65171]},"properties":{"depth_ft":289,"depth_m":88.0}},{"type":"Feature","geometry":{"type":"Point","coordinates":[-117.30956,32.65171]},"properties":{"depth_ft":286,"depth_m":87.0}},{"type":"Feature","geometry":{"type":"Point","coordinates":[-117.3049,32.65171]},"properties":{"depth_ft":276,"depth_m":84.1}},{"type":"Feature","geometry":{"type":"Point","coordinates":[-117.30025,32.65171]},"properties":{"depth_ft":267,"depth_m":81.3}},{"type":"Feature","geometry":{"type":"Point","coordinates":[-117.2956,32.65171]},"properties":{"depth_ft":260,"depth_m":79.2}},{"type":"Feature","geometry":{"type":"Point","coordinates":[-117.29094,32.65171]},"properties":{"depth_ft":246,"depth_m":74.8}},{"type":"Feature","geometry":{"type":"Point","coordinates":[-117.28629,32.65171]},"properties":{"depth_ft":229,"depth_m":69.9}},{"type":"Feature","geometry":{"type":"Point","coordinates":[-117.28163,32.65171]},"properties":{"depth_ft":213,"depth_m":64.8}},{"type":"Feature","geometry":{"type":"Point","coordinates":[-117.27698,32.65171]},"properties":{"depth_ft":191,"depth_m":58.4}},{"type":"Feature","geometry":{"type":"Point","coordinates":[-117.27233,32.65171]},"properties":{"depth_ft":175,"depth_m":53.2}},{"type":"Feature","geometry":{"type":"Point","coordinates":[-117.26767,32.65171]},"properties":{"depth_ft":150,"depth_m":45.6}},{"type":"Feature","geometry":{"type":"Point","coordinates":[-117.26302,32.65171]},"properties":{"depth_ft":85,"depth_m":25.8}},{"type":"Feature","geometry":{"type":"Point","coordinates":[-117.25837,32.65171]},"properties":{"depth_ft":63,"depth_m":19.1}},{"type":"Feature","geometry":{"type":"Point","coordinates":[-117.25371,32.65171]},"properties":{"depth_ft":64,"depth_m":19.6}},{"type":"Feature","geometry":{"type":"Point","coordinates":[-117.24906,32.65171]},"properties":{"depth_ft":53,"depth_m":16.2}},{"type":"Feature","geometry":{"type":"Point","coordinates":[-117.2444,32.65171]},"properties":{"depth_ft":44,"depth_m":13.5}},{"type":"Feature","geometry":{"type":"Point","coordinates":[-117.23975,32.65171]},"properties":{"depth_ft":40,"depth_m":12.2}},{"type":"Feature","geometry":{"type":"Point","coordinates":[-117.2351,32.65171]},"properties":{"depth_ft":55,"depth_m":16.9}},{"type":"Feature","geometry":{"type":"Point","coordinates":[-117.23044,32.65171]},"properties":{"depth_ft":50,"depth_m":15.3}},{"type":"Feature","geometry":{"type":"Point","coordinates":[-117.22579,32.65171]},"properties":{"depth_ft":56,"depth_m":17.1}},{"type":"Feature","geometry":{"type":"Point","coordinates":[-117.22113,32.65171]},"properties":{"depth_ft":39,"depth_m":11.9}},{"type":"Feature","geometry":{"type":"Point","coordinates":[-117.21648,32.65171]},"properties":{"depth_ft":35,"depth_m":10.8}},{"type":"Feature","geometry":{"type":"Point","coordinates":[-117.32352,32.64779]},"properties":{"depth_ft":322,"depth_m":98.0}},{"type":"Feature","geometry":{"type":"Point","coordinates":[-117.31887,32.64779]},"properties":{"depth_ft":302,"depth_m":92.1}},{"type":"Feature","geometry":{"type":"Point","coordinates":[-117.31421,32.64779]},"properties":{"depth_ft":288,"depth_m":87.7}},{"type":"Feature","geometry":{"type":"Point","coordinates":[-117.30956,32.64779]},"properties":{"depth_ft":291,"depth_m":88.7}},{"type":"Feature","geometry":{"type":"Point","coordinates":[-117.3049,32.64779]},"properties":{"depth_ft":272,"depth_m":82.9}},{"type":"Feature","geometry":{"type":"Point","coordinates":[-117.30025,32.64779]},"properties":{"depth_ft":268,"depth_m":81.6}},{"type":"Feature","geometry":{"type":"Point","coordinates":[-117.2956,32.64779]},"properties":{"depth_ft":261,"depth_m":79.5}},{"type":"Feature","geometry":{"type":"Point","coordinates":[-117.29094,32.64779]},"properties":{"depth_ft":248,"depth_m":75.5}},{"type":"Feature","geometry":{"type":"Point","coordinates":[-117.28629,32.64779]},"properties":{"depth_ft":232,"depth_m":70.8}},{"type":"Feature","geometry":{"type":"Point","coordinates":[-117.28163,32.64779]},"properties":{"depth_ft":216,"depth_m":65.9}},{"type":"Feature","geometry":{"type":"Point","coordinates":[-117.27698,32.64779]},"properties":{"depth_ft":195,"depth_m":59.6}},{"type":"Feature","geometry":{"type":"Point","coordinates":[-117.27233,32.64779]},"properties":{"depth_ft":181,"depth_m":55.0}},{"type":"Feature","geometry":{"type":"Point","coordinates":[-117.26767,32.64779]},"properties":{"depth_ft":158,"depth_m":48.0}},{"type":"Feature","geometry":{"type":"Point","coordinates":[-117.26302,32.64779]},"properties":{"depth_ft":120,"depth_m":36.7}},{"type":"Feature","geometry":{"type":"Point","coordinates":[-117.25837,32.64779]},"properties":{"depth_ft":64,"depth_m":19.4}},{"type":"Feature","geometry":{"type":"Point","coordinates":[-117.25371,32.64779]},"properties":{"depth_ft":69,"depth_m":20.9}},{"type":"Feature","geometry":{"type":"Point","coordinates":[-117.24906,32.64779]},"properties":{"depth_ft":59,"depth_m":17.9}},{"type":"Feature","geometry":{"type":"Point","coordinates":[-117.2444,32.64779]},"properties":{"depth_ft":55,"depth_m":16.7}},{"type":"Feature","geometry":{"type":"Point","coordinates":[-117.23975,32.64779]},"properties":{"depth_ft":38,"depth_m":11.5}},{"type":"Feature","geometry":{"type":"Point","coordinates":[-117.2351,32.64779]},"properties":{"depth_ft":59,"depth_m":17.9}},{"type":"Feature","geometry":{"type":"Point","coordinates":[-117.23044,32.64779]},"properties":{"depth_ft":52,"depth_m":15.9}},{"type":"Feature","geometry":{"type":"Point","coordinates":[-117.22579,32.64779]},"properties":{"depth_ft":55,"depth_m":16.7}},{"type":"Feature","geometry":{"type":"Point","coordinates":[-117.22113,32.64779]},"properties":{"depth_ft":40,"depth_m":12.3}},{"type":"Feature","geometry":{"type":"Point","coordinates":[-117.21648,32.64779]},"properties":{"depth_ft":39,"depth_m":12.0}},{"type":"Feature","geometry":{"type":"Point","coordinates":[-117.32352,32.64387]},"properties":{"depth_ft":320,"depth_m":97.4}},{"type":"Feature","geometry":{"type":"Point","coordinates":[-117.31887,32.64387]},"properties":{"depth_ft":303,"depth_m":92.4}},{"type":"Feature","geometry":{"type":"Point","coordinates":[-117.31421,32.64387]},"properties":{"depth_ft":295,"depth_m":89.8}},{"type":"Feature","geometry":{"type":"Point","coordinates":[-117.30956,32.64387]},"properties":{"depth_ft":289,"depth_m":87.9}},{"type":"Feature","geometry":{"type":"Point","coordinates":[-117.3049,32.64387]},"properties":{"depth_ft":279,"depth_m":85.1}},{"type":"Feature","geometry":{"type":"Point","coordinates":[-117.30025,32.64387]},"properties":{"depth_ft":275,"depth_m":83.8}},{"type":"Feature","geometry":{"type":"Point","coordinates":[-117.2956,32.64387]},"properties":{"depth_ft":262,"depth_m":79.9}},{"type":"Feature","geometry":{"type":"Point","coordinates":[-117.29094,32.64387]},"properties":{"depth_ft":250,"depth_m":76.3}},{"type":"Feature","geometry":{"type":"Point","coordinates":[-117.28629,32.64387]},"properties":{"depth_ft":235,"depth_m":71.6}},{"type":"Feature","geometry":{"type":"Point","coordinates":[-117.28163,32.64387]},"properties":{"depth_ft":219,"depth_m":66.8}},{"type":"Feature","geometry":{"type":"Point","coordinates":[-117.27698,32.64387]},"properties":{"depth_ft":200,"depth_m":61.0}},{"type":"Feature","geometry":{"type":"Point","coordinates":[-117.27233,32.64387]},"properties":{"depth_ft":183,"depth_m":55.7}},{"type":"Feature","geometry":{"type":"Point","coordinates":[-117.26767,32.64387]},"properties":{"depth_ft":164,"depth_m":49.9}},{"type":"Feature","geometry":{"type":"Point","coordinates":[-117.26302,32.64387]},"properties":{"depth_ft":137,"depth_m":41.7}},{"type":"Feature","geometry":{"type":"Point","coordinates":[-117.25837,32.64387]},"properties":{"depth_ft":82,"depth_m":25.0}},{"type":"Feature","geometry":{"type":"Point","coordinates":[-117.25371,32.64387]},"properties":{"depth_ft":72,"depth_m":21.8}},{"type":"Feature","geometry":{"type":"Point","coordinates":[-117.24906,32.64387]},"properties":{"depth_ft":59,"depth_m":18.1}},{"type":"Feature","geometry":{"type":"Point","coordinates":[-117.2444,32.64387]},"properties":{"depth_ft":58,"depth_m":17.6}},{"type":"Feature","geometry":{"type":"Point","coordinates":[-117.23975,32.64387]},"properties":{"depth_ft":45,"depth_m":13.7}},{"type":"Feature","geometry":{"type":"Point","coordinates":[-117.2351,32.64387]},"properties":{"depth_ft":61,"depth_m":18.5}},{"type":"Feature","geometry":{"type":"Point","coordinates":[-117.23044,32.64387]},"properties":{"depth_ft":56,"depth_m":17.0}},{"type":"Feature","geometry":{"type":"Point","coordinates":[-117.22579,32.64387]},"properties":{"depth_ft":53,"depth_m":16.2}},{"type":"Feature","geometry":{"type":"Point","coordinates":[-117.22113,32.64387]},"properties":{"depth_ft":44,"depth_m":13.4}},{"type":"Feature","geometry":{"type":"Point","coordinates":[-117.21648,32.64387]},"properties":{"depth_ft":44,"depth_m":13.3}},{"type":"Feature","geometry":{"type":"Point","coordinates":[-117.32352,32.63995]},"properties":{"depth_ft":320,"depth_m":97.6}},{"type":"Feature","geometry":{"type":"Point","coordinates":[-117.31887,32.63995]},"properties":{"depth_ft":305,"depth_m":92.9}},{"type":"Feature","geometry":{"type":"Point","coordinates":[-117.31421,32.63995]},"properties":{"depth_ft":296,"depth_m":90.3}},{"type":"Feature","geometry":{"type":"Point","coordinates":[-117.30956,32.63995]},"properties":{"depth_ft":289,"depth_m":88.2}},{"type":"Feature","geometry":{"type":"Point","coordinates":[-117.3049,32.63995]},"properties":{"depth_ft":281,"depth_m":85.7}},{"type":"Feature","geometry":{"type":"Point","coordinates":[-117.30025,32.63995]},"properties":{"depth_ft":272,"depth_m":82.9}},{"type":"Feature","geometry":{"type":"Point","coordinates":[-117.2956,32.63995]},"properties":{"depth_ft":263,"depth_m":80.3}},{"type":"Feature","geometry":{"type":"Point","coordinates":[-117.29094,32.63995]},"properties":{"depth_ft":256,"depth_m":78.0}},{"type":"Feature","geometry":{"type":"Point","coordinates":[-117.28629,32.63995]},"properties":{"depth_ft":239,"depth_m":73.0}},{"type":"Feature","geometry":{"type":"Point","coordinates":[-117.28163,32.63995]},"properties":{"depth_ft":223,"depth_m":67.9}},{"type":"Feature","geometry":{"type":"Point","coordinates":[-117.27698,32.63995]},"properties":{"depth_ft":205,"depth_m":62.3}},{"type":"Feature","geometry":{"type":"Point","coordinates":[-117.27233,32.63995]},"properties":{"depth_ft":187,"depth_m":57.0}},{"type":"Feature","geometry":{"type":"Point","coordinates":[-117.26767,32.63995]},"properties":{"depth_ft":173,"depth_m":52.7}},{"type":"Feature","geometry":{"type":"Point","coordinates":[-117.26302,32.63995]},"properties":{"depth_ft":151,"depth_m":46.1}},{"type":"Feature","geometry":{"type":"Point","coordinates":[-117.25837,32.63995]},"properties":{"depth_ft":119,"depth_m":36.2}},{"type":"Feature","geometry":{"type":"Point","coordinates":[-117.25371,32.63995]},"properties":{"depth_ft":88,"depth_m":26.7}},{"type":"Feature","geometry":{"type":"Point","coordinates":[-117.24906,32.63995]},"properties":{"depth_ft":61,"depth_m":18.6}},{"type":"Feature","geometry":{"type":"Point","coordinates":[-117.2444,32.63995]},"properties":{"depth_ft":63,"depth_m":19.3}},{"type":"Feature","geometry":{"type":"Point","coordinates":[-117.23975,32.63995]},"properties":{"depth_ft":57,"depth_m":17.4}},{"type":"Feature","geometry":{"type":"Point","coordinates":[-117.2351,32.63995]},"properties":{"depth_ft":64,"depth_m":19.5}},{"type":"Feature","geometry":{"type":"Point","coordinates":[-117.23044,32.63995]},"properties":{"depth_ft":58,"depth_m":17.8}},{"type":"Feature","geometry":{"type":"Point","coordinates":[-117.22579,32.63995]},"properties":{"depth_ft":54,"depth_m":16.5}},{"type":"Feature","geometry":{"type":"Point","coordinates":[-117.22113,32.63995]},"properties":{"depth_ft":48,"depth_m":14.6}},{"type":"Feature","geometry":{"type":"Point","coordinates":[-117.21648,32.63995]},"properties":{"depth_ft":44,"depth_m":13.5}}]}