{"type":"FeatureCollection","features":[{"type":"Feature","geometry":{"type":"Polygon","coordinates":[[[-119.90647,34.05398],[-119.90694,34.05467],[-119.9074,34.05493],[-119.9087,34.05517],[-119.90888,34.05536],[-119.90881,34.05564],[-119.90901,34.05581],[-119.90936,34.05577],[-119.91003,34.05614],[-119.9105,34.05589],[-119.91139,34.05588],[-119.91259,34.05691],[-119.91416,34.05714],[-119.91538,34.05799],[-119.91641,34.05832],[-119.91799,34.05829],[-119.9203,34.05783],[-119.92124,34.05745],[-119.92205,34.05682],[-119.92341,34.05745],[-119.92436,34.05732],[-119.92476,34.05677],[-119.92529,34.05676],[-119.92545,34.05704],[-119.92691,34.05758],[-119.92687,34.05785],[-119.92662,34.05801],[-119.92706,34.05844],[-119.92705,34.05888],[-119.92747,34.05903],[-119.929,34.05906],[-119.92991,34.05967],[-119.9299,34.05989],[-119.9297,34.06007],[-119.9287,34.06016],[-119.92838,34.06038],[-119.92763,34.06014],[-119.92612,34.06036],[-119.9253,34.05975],[-119.9252,34.05987],[-119.92543,34.0601],[-119.92536,34.0603],[-119.92556,34.06073],[-119.9249,34.06079],[-119.92418,34.06049],[-119.92405,34.05973],[-119.92354,34.05949],[-119.92252,34.05969],[-119.92234,34.05993],[-119.92235,34.06028],[-119.92134,34.06029],[-119.92088,34.06003],[-119.92044,34.06019],[-119.92035,34.06045],[-119.92076,34.06129],[-119.92044,34.06157],[-119.91969,34.06178],[-119.91937,34.06242],[-119.91878,34.06267],[-119.91837,34.06309],[-119.91886,34.06389],[-119.919,34.06491],[-119.91885,34.06527],[-119.91949,34.06552],[-119.92037,34.06631],[-119.92157,34.06643],[-119.92192,34.06703],[-119.92256,34.06759],[-119.9224,34.06846],[-119.92339,34.0691],[-119.92346,34.06933],[-119.92306,34.06944],[-119.92233,34.06997],[-119.92135,34.07025],[-119.92177,34.07064],[-119.92178,34.07093],[-119.92133,34.07176],[-119.92129,34.07217],[-119.92061,34.07231],[-119.9207,34.07282],[-119.9197,34.07343],[-119.92053,34.07398],[-119.92006,34.0748],[-119.91955,34.07522],[-119.91863,34.07526],[-119.91791,34.07552],[-119.91793,34.0757],[-119.91867,34.07609],[-119.91859,34.07642],[-119.9192,34.07643],[-119.91931,34.07724],[-119.91802,34.07768],[-119.91667,34.07727],[-119.91365,34.07752],[-119.91306,34.07769],[-119.91228,34.07732],[-119.9121,34.0769],[-119.91171,34.07705],[-119.91107,34.07682],[-119.91146,34.07642],[-119.91023,34.0763],[-119.90796,34.0764],[-119.90754,34.07605],[-119.90808,34.0757],[-119.90806,34.07512],[-119.90715,34.07523],[-119.9062125395854,34.075019549702844],[-119.9062125395854,34.05388702818362],[-119.90647,34.05398]]]},"properties":{"name":"santa-cruz-island"}},{"type":"Feature","geometry":{"type":"Polygon","coordinates":[[[-120.04888,33.91627],[-120.04847,33.91589],[-120.04897,33.91523],[-120.04993,33.91465],[-120.05432,33.91435],[-120.05608,33.91349],[-120.05685,33.91329],[-120.05861,33.91325],[-120.0595,33.913],[-120.06037,33.91317],[-120.06095,33.91296],[-120.06337,33.91275],[-120.06363,33.91253],[-120.06373,33.91265],[-120.06428,33.91262],[-120.0646,33.91243],[-120.06538,33.91274],[-120.06751,33.91262],[-120.0676,33.91248],[-120.06854,33.91267],[-120.07081,33.9125],[-120.07162,33.91198],[-120.07395,33.91144],[-120.07465,33.91076],[-120.07482,33.91107],[-120.07483,33.91005],[-120.07707,33.90883],[-120.07803,33.90899],[-120.07944,33.90867],[-120.07983,33.90891],[-120.08186,33.90879],[-120.08398,33.90909],[-120.08476,33.90889],[-120.08549,33.90911],[-120.08626,33.90883],[-120.08983,33.90926],[-120.09184,33.90926],[-120.0944,33.90887],[-120.09497,33.90892],[-120.09562,33.90864],[-120.09562,33.90824],[-120.09609,33.90833],[-120.09607,33.90804],[-120.0969,33.90839],[-120.09802,33.90809],[-120.09885,33.90809],[-120.09931,33.90783],[-120.09979,33.90722],[-120.10031,33.90728],[-120.10137,33.90691],[-120.10225,33.90629],[-120.10338,33.90597],[-120.10418,33.90555],[-120.10421,33.9052],[-120.10495,33.90496],[-120.10527,33.90466],[-120.10535,33.90434],[-120.10521,33.90412],[-120.10569,33.90348],[-120.10576,33.90314],[-120.1064,33.90264],[-120.10708,33.90237],[-120.10717,33.90191],[-120.1074,33.902],[-120.10787,33.90139],[-120.10861,33.90134],[-120.10878,33.9012],[-120.10881,33.90014],[-120.10897,33.9002],[-120.10919,33.89995],[-120.10943,33.89938],[-120.1086,33.89864],[-120.10858,33.8984],[-120.10883,33.89841],[-120.10891,33.89822],[-120.10858,33.89784],[-120.10856,33.89746],[-120.10895,33.897],[-120.10918,33.89627],[-120.10965,33.89608],[-120.11013,33.89562],[-120.11077,33.89557],[-120.1111,33.89523],[-120.11252,33.89522],[-120.11264,33.89483],[-120.11343,33.89444],[-120.11489,33.89455],[-120.11535,33.89443],[-120.11544,33.89418],[-120.11596,33.89442],[-120.11631,33.89432],[-120.11664,33.89453],[-120.11679,33.89426],[-120.1172,33.89426],[-120.11811,33.89487],[-120.11938,33.89478],[-120.11953,33.89438],[-120.11988,33.89471],[-120.12045,33.89468],[-120.12102,33.89513],[-120.12157,33.89525],[-120.12158,33.8958],[-120.12247,33.8965],[-120.12315,33.89672],[-120.12345,33.89665],[-120.12418,33.89715],[-120.12441,33.89693],[-120.12471,33.89708],[-120.12457,33.89751],[-120.12544,33.89863],[-120.12686,33.89883],[-120.12692,33.89901],[-120.12789,33.89919],[-120.12938,33.90036],[-120.1304,33.9005],[-120.13094,33.90122],[-120.13153,33.90163],[-120.13217,33.9018],[-120.1333,33.90251],[-120.13391,33.90248],[-120.13391,33.90274],[-120.13503,33.90262],[-120.13597,33.90224],[-120.13643,33.90276],[-120.13701,33.90283],[-120.13721,33.90338],[-120.14002,33.90544],[-120.14102,33.90588],[-120.142,33.90555],[-120.14209,33.90591],[-120.14257,33.90602],[-120.14274,33.90621],[-120.14271,33.90657],[-120.1432,33.90699],[-120.14463,33.9079],[-120.14531,33.90813],[-120.14549,33.90836],[-120.14672,33.9088],[-120.14719,33.90937],[-120.14698,33.90965],[-120.14703,33.90984],[-120.14869,33.91066],[-120.14949,33.9105],[-120.14985,33.9108],[-120.14989,33.91122],[-120.15005,33.91138],[-120.15125,33.91138],[-120.15144,33.91222],[-120.15188,33.91261],[-120.15428,33.91269],[-120.1539,33.91225],[-120.15496,33.91261],[-120.15559,33.91241],[-120.15644,33.91254],[-120.15685,33.91298],[-120.15766,33.91339],[-120.15752,33.91395],[-120.15827,33.91487],[-120.16046,33.91635],[-120.16187,33.91687],[-120.16281,33.91703],[-120.1638,33.91697],[-120.16415,33.91673],[-120.16412,33.91609],[-120.1644,33.91587],[-120.16465,33.91615],[-120.16518,33.91635],[-120.16558,33.91617],[-120.16587,33.91625],[-120.16611,33.91638],[-120.16639,33.91691],[-120.16667,33.91688],[-120.16718,33.91742],[-120.16742,33.91739],[-120.16796,33.91777],[-120.16851,33.91793],[-120.16913,33.91862],[-120.16887,33.91935],[-120.169,33.91962],[-120.17038,33.92132],[-120.17168,33.9224],[-120.1738,33.92319],[-120.17558,33.92348],[-120.1787,33.92463],[-120.17998,33.92467],[-120.18002,33.92485],[-120.17984,33.92504],[-120.17897,33.92554],[-120.17881,33.92597],[-120.17871,33.92707],[-120.17902,33.92897],[-120.18067,33.93196],[-120.18196,33.93329],[-120.18395,33.93667],[-120.18422,33.93853],[-120.18468,33.93942],[-120.1862,33.94099],[-120.18739,33.94415],[-120.18902,33.9471],[-120.18973,33.94784],[-120.18985,33.94851],[-120.19048,33.94859],[-120.19116,33.94966],[-120.1921,33.95046],[-120.19405,33.95076],[-120.19447,33.95104],[-120.19629,33.95103],[-120.19733,33.95147],[-120.19851,33.95149],[-120.19887,33.95172],[-120.19822,33.9524],[-120.19832,33.95324],[-120.20075,33.95914],[-120.20096,33.95958],[-120.20203,33.96057],[-120.203,33.96095],[-120.20369,33.96161],[-120.20388,33.96226],[-120.20516,33.96418],[-120.20568,33.96526],[-120.20633,33.96757],[-120.20717,33.96919],[-120.20759,33.97041],[-120.20902,33.97224],[-120.21072,33.97373],[-120.21434,33.97557],[-120.21437,33.97578],[-120.21405,33.97593],[-120.21401,33.97621],[-120.21513,33.97713],[-120.21641,33.97746],[-120.21913,33.97862],[-120.21942,33.98039],[-120.21975,33.98065],[-120.21974,33.98099],[-120.22011,33.98087],[-120.22016,33.9811],[-120.22089,33.98127],[-120.22059,33.98198],[-120.22108,33.98262],[-120.221,33.98355],[-120.22252,33.98716],[-120.22328,33.98835],[-120.22543,33.98886],[-120.22545,33.989],[-120.22522,33.98905],[-120.22452,33.98889],[-120.22437,33.98898],[-120.22436,33.98932],[-120.22495,33.98968],[-120.22681,33.99011],[-120.22875,33.99102],[-120.22965,33.9912],[-120.23026,33.99113],[-120.23066,33.99152],[-120.23159,33.99174],[-120.23389,33.99192],[-120.23447,33.99218],[-120.23448,33.99231],[-120.23468,33.99228],[-120.23472,33.99245],[-120.23581,33.99277],[-120.23737,33.99289],[-120.23815,33.99263],[-120.23824,33.99275],[-120.23757,33.99305],[-120.23869,33.99282],[-120.23857,33.99298],[-120.2379,33.99309],[-120.23892,33.9931],[-120.23786,33.99348],[-120.23799,33.99381],[-120.23784,33.99441],[-120.23853,33.99554],[-120.23998,33.99721],[-120.24219,33.99858],[-120.24382,33.99897],[-120.24461,33.99884],[-120.2453,33.99783],[-120.24592,33.99806],[-120.24663,33.99747],[-120.24684,33.99751],[-120.24727,33.99811],[-120.24651,33.99881],[-120.24625,33.99967],[-120.24648,34.00005],[-120.24729,34.00053],[-120.24767,34.00058],[-120.2482,34.00029],[-120.24823,33.99982],[-120.24857,33.99969],[-120.24868,34.00031],[-120.24896,34.00081],[-120.25062,34.00131],[-120.24993,34.00158],[-120.24983,34.00188],[-120.25,34.00223],[-120.24984,34.00255],[-120.24942,34.00242],[-120.24919,34.00203],[-120.24884,34.00199],[-120.24855,34.00226],[-120.24814,34.00173],[-120.24731,34.00179],[-120.2436,34.00331],[-120.24028,34.00543],[-120.23875,34.00728],[-120.2387,34.00791],[-120.23937,34.00843],[-120.23937,34.00866],[-120.2392,34.00877],[-120.23846,34.00892],[-120.23765,34.00937],[-120.23635,34.00896],[-120.23529,34.00815],[-120.23382,34.00819],[-120.23356,34.00835],[-120.23366,34.00884],[-120.23301,34.00886],[-120.2327,34.0091],[-120.23081,34.00922],[-120.23027,34.00979],[-120.22964,34.01017],[-120.22821,34.01001],[-120.2258,34.01041],[-120.22462,34.01003],[-120.22369,34.01014],[-120.22321,34.01],[-120.22158,34.01035],[-120.21979,34.00974],[-120.2183,34.00985],[-120.21774,34.00959],[-120.21722,34.00894],[-120.21669,34.00863],[-120.21461,34.00827],[-120.21386,34.00836],[-120.21363,34.00864],[-120.21348,34.00833],[-120.21361,34.00781],[-120.21283,34.00717],[-120.21286,34.00682],[-120.21269,34.00673],[-120.21215,34.00679],[-120.21125,34.00661],[-120.21063,34.00682],[-120.21058,34.00654],[-120.21023,34.00668],[-120.20955,34.00652],[-120.20903,34.00593],[-120.20674,34.00551],[-120.20328,34.00614],[-120.20196,34.00562],[-120.20051,34.00531],[-120.20013,34.00506],[-120.19881,34.00488],[-120.19829,34.00455],[-120.19733,34.00452],[-120.19642,34.00427],[-120.19535,34.0044],[-120.19488,34.00459],[-120.19445,34.00506],[-120.19314,34.00516],[-120.19188,34.00587],[-120.1901,34.00652],[-120.18852,34.0068],[-120.18621,34.00756],[-120.18514,34.0072],[-120.18159,34.00721],[-120.1793,34.00603],[-120.17842,34.00592],[-120.17594,34.00649],[-120.17392,34.00756],[-120.17323,34.00771],[-120.17308,34.00784],[-120.17328,34.00813],[-120.17316,34.00819],[-120.17269,34.00813],[-120.17224,34.00845],[-120.17141,34.00816],[-120.17045,34.0081],[-120.17003,34.00822],[-120.16995,34.00867],[-120.16975,34.00866],[-120.16891,34.00824],[-120.16819,34.00835],[-120.16735,34.00814],[-120.165,34.00898],[-120.16139,34.01103],[-120.16019,34.0119],[-120.15872,34.01365],[-120.15607,34.01541],[-120.1538,34.01647],[-120.15309,34.01743],[-120.15122,34.01822],[-120.1515,34.01889],[-120.15131,34.01924],[-120.15094,34.0195],[-120.15064,34.0193],[-120.15044,34.01938],[-120.14973,34.02027],[-120.14915,34.02043],[-120.14915,34.02123],[-120.14847,34.02262],[-120.14833,34.02334],[-120.14769,34.02413],[-120.14766,34.02472],[-120.1473,34.02485],[-120.146,34.02463],[-120.14495,34.02457],[-120.14413,34.02473],[-120.14289,34.02461],[-120.14172,34.02526],[-120.14082,34.02543],[-120.14038,34.02579],[-120.13947,34.02597],[-120.13874,34.02582],[-120.13789,34.0262],[-120.13726,34.02585],[-120.13712,34.02603],[-120.13647,34.02617],[-120.13543,34.02607],[-120.13523,34.0258],[-120.13492,34.02597],[-120.13364,34.02489],[-120.13239,34.02492],[-120.13181,34.02461],[-120.13133,34.02492],[-120.13009,34.02406],[-120.12966,34.02418],[-120.12885,34.02407],[-120.12861,34.02377],[-120.1283,34.02381],[-120.12755,34.02334],[-120.12726,34.02299],[-120.1267,34.02339],[-120.12649,34.02324],[-120.12527,34.02317],[-120.12506,34.02293],[-120.12512,34.02246],[-120.12494,34.02242],[-120.12449,34.02261],[-120.12335,34.02262],[-120.12288,34.02245],[-120.12274,34.02223],[-120.1221,34.02218],[-120.12168,34.02262],[-120.12108,34.02249],[-120.12062,34.02301],[-120.11986,34.02325],[-120.11967,34.02307],[-120.11943,34.02311],[-120.11855,34.02277],[-120.11845,34.02247],[-120.11795,34.02239],[-120.11787,34.02199],[-120.11677,34.02109],[-120.11684,34.02074],[-120.11669,34.02044],[-120.11581,34.02015],[-120.11508,34.02022],[-120.11506,34.02004],[-120.11439,34.01981],[-120.11368,34.01983],[-120.11312,34.02021],[-120.11266,34.02028],[-120.11226,34.01993],[-120.11152,34.02027],[-120.11079,34.02015],[-120.11007,34.02045],[-120.10978,34.02016],[-120.108,34.02007],[-120.10764,34.01987],[-120.10678,34.02008],[-120.10596,34.02074],[-120.1051,34.02094],[-120.10496,34.0209],[-120.1049,34.02057],[-120.1043,34.02074],[-120.10313,34.02006],[-120.10261,34.02002],[-120.10128,34.02062],[-120.10061,34.02056],[-120.09924,34.02008],[-120.0981,34.02018],[-120.09787,34.01987],[-120.0976,34.0201],[-120.09735,34.01997],[-120.09741,34.01961],[-120.09721,34.01948],[-120.09603,34.0197],[-120.09546,34.01939],[-120.09507,34.01996],[-120.09405,34.02009],[-120.09328,34.01992],[-120.09288,34.02008],[-120.09259,34.01986],[-120.09198,34.02004],[-120.09133,34.02003],[-120.09011,34.01979],[-120.08991,34.01989],[-120.08998,34.02022],[-120.08976,34.02041],[-120.08846,34.02041],[-120.08574,34.02187],[-120.08508,34.02188],[-120.08436,34.02166],[-120.08264,34.02189],[-120.08219,34.02213],[-120.08205,34.02191],[-120.08173,34.02209],[-120.08114,34.02201],[-120.0807,34.02268],[-120.08017,34.02276],[-120.07925,34.02324],[-120.07614,34.02359],[-120.07396,34.02436],[-120.0735,34.02491],[-120.07341,34.02555],[-120.07306,34.02564],[-120.07241,34.02642],[-120.07224,34.02741],[-120.07175,34.02735],[-120.07161,34.02749],[-120.07158,34.02776],[-120.07194,34.0277],[-120.07188,34.02787],[-120.07109,34.02843],[-120.07101,34.02827],[-120.07061,34.0285],[-120.07043,34.02938],[-120.07013,34.02934],[-120.06969,34.02871],[-120.06892,34.02861],[-120.06641,34.02915],[-120.06567,34.02946],[-120.0653,34.02998],[-120.06259,34.03145],[-120.06149,34.03266],[-120.06155,34.03314],[-120.06203,34.03393],[-120.06047,34.03517],[-120.05997,34.03545],[-120.0595,34.03549],[-120.05946,34.03578],[-120.06,34.03613],[-120.05976,34.03656],[-120.05957,34.03653],[-120.05957,34.03629],[-120.05931,34.03605],[-120.05873,34.03634],[-120.0576,34.03738],[-120.05678,34.03764],[-120.05662,34.0375],[-120.05511,34.03774],[-120.05457,34.03768],[-120.05432,34.03745],[-120.05346,34.03757],[-120.05309,34.03712],[-120.05256,34.03728],[-120.05188,34.03703],[-120.05179,34.03675],[-120.05191,34.03655],[-120.05177,34.03651],[-120.05129,34.0369],[-120.05094,34.03698],[-120.05058,34.0358],[-120.05025,34.03542],[-120.05009,34.03548],[-120.0498,34.03635],[-120.0494,34.03627],[-120.04926,34.03646],[-120.04844,34.03656],[-120.04821,34.03641],[-120.04832,34.036],[-120.04822,34.0359],[-120.04767,34.03636],[-120.04785,34.03646],[-120.0478,34.03663],[-120.0471,34.03658],[-120.04653,34.03676],[-120.04617,34.03671],[-120.04558,34.03631],[-120.04527,34.0365],[-120.04478,34.03604],[-120.04408,34.03574],[-120.0437,34.03598],[-120.043,34.03601],[-120.04351,34.03541],[-120.04326,34.03492],[-120.04351,34.03404],[-120.0444,34.03316],[-120.04462,34.0317],[-120.0449,34.03123],[-120.04455,34.03035],[-120.04451,34.02944],[-120.04356,34.02837],[-120.0431,34.02812],[-120.04318,34.02717],[-120.04371,34.02569],[-120.0441,34.02541],[-120.04386,34.02523],[-120.04404,34.02495],[-120.04391,34.02475],[-120.04453,34.02414],[-120.04483,34.0232],[-120.04542,34.02271],[-120.04624,34.02248],[-120.04648,34.02199],[-120.04769,34.0212],[-120.04826,34.01831],[-120.0492,34.01749],[-120.04944,34.01694],[-120.04958,34.01412],[-120.05015,34.01356],[-120.05027,34.01323],[-120.04996,34.01244],[-120.04919,34.01159],[-120.04848,34.0093],[-120.04868,34.00868],[-120.04848,34.00818],[-120.04685,34.00589],[-120.04692,34.00518],[-120.04752,34.00412],[-120.04743,34.00264],[-120.04678,34.00072],[-120.04513,33.99831],[-120.04424,33.99739],[-120.04064,33.99438],[-120.03705,33.99177],[-120.03484,33.99072],[-120.03177,33.98955],[-120.02895,33.98883],[-120.02829,33.98899],[-120.02813,33.98878],[-120.02755,33.98858],[-120.02706,33.98849],[-120.02682,33.98862],[-120.02667,33.98811],[-120.02639,33.98795],[-120.02631,33.98767],[-120.0268,33.98723],[-120.02669,33.98685],[-120.02638,33.98653],[-120.02529,33.98606],[-120.02332,33.98544],[-120.02246,33.98539],[-120.02199,33.98512],[-120.02095,33.98513],[-120.02069,33.9849],[-120.02029,33.98497],[-120.02026,33.98483],[-120.01996,33.98495],[-120.01934,33.98466],[-120.01864,33.98464],[-120.01861,33.98451],[-120.01833,33.98456],[-120.01811,33.98436],[-120.01736,33.98421],[-120.01618,33.98441],[-120.01581,33.98408],[-120.01401,33.98354],[-120.01376,33.98314],[-120.01267,33.98287],[-120.01312,33.98261],[-120.01346,33.98213],[-120.01348,33.98182],[-120.01302,33.98118],[-120.01195,33.98047],[-120.00896,33.97987],[-120.00502,33.97983],[-120.00275,33.98002],[-119.99783,33.98094],[-119.99578,33.9819],[-119.99561,33.9818],[-119.99454,33.9821],[-119.99198,33.98193],[-119.98689,33.98333],[-119.98322,33.98356],[-119.98068,33.98311],[-119.97753,33.98133],[-119.97778,33.9807],[-119.97835,33.98023],[-119.97919,33.97898],[-119.97978,33.97748],[-119.97986,33.97595],[-119.97948,33.97361],[-119.97977,33.96944],[-119.97962,33.96857],[-119.97896,33.96743],[-119.97866,33.96724],[-119.97811,33.96742],[-119.97772,33.96696],[-119.97826,33.96337],[-119.97799,33.96227],[-119.97692,33.96058],[-119.97718,33.95876],[-119.97705,33.95753],[-119.97626,33.95612],[-119.97442,33.95552],[-119.97278,33.95447],[-119.97075,33.95166],[-119.97009,33.9512],[-119.9709,33.95058],[-119.97119,33.94976],[-119.9712,33.9459],[-119.97106,33.94505],[-119.97035,33.94409],[-119.96829,33.94324],[-119.96778,33.94264],[-119.96926,33.94193],[-119.97023,33.94206],[-119.97054,33.94192],[-119.97057,33.94162],[-119.97139,33.94208],[-119.97177,33.94213],[-119.97207,33.94196],[-119.97344,33.94244],[-119.97396,33.94233],[-119.97446,33.9418],[-119.97652,33.94223],[-119.977,33.94261],[-119.98247,33.9424],[-119.98409,33.94253],[-119.99165,33.9424],[-119.99585,33.94218],[-119.99988,33.94178],[-120.00384,33.94093],[-120.00507,33.94045],[-120.00631,33.94018],[-120.00723,33.93969],[-120.00748,33.93906],[-120.00777,33.93878],[-120.00833,33.93847],[-120.00901,33.93838],[-120.00916,33.93811],[-120.00936,33.93805],[-120.00975,33.93827],[-120.01083,33.93827],[-120.01238,33.93778],[-120.01359,33.93766],[-120.0172,33.93654],[-120.01958,33.93539],[-120.02041,33.93485],[-120.02088,33.9342],[-120.02105,33.93356],[-120.021,33.93281],[-120.02153,33.93233],[-120.02159,33.93186],[-120.02192,33.93165],[-120.0221,33.93174],[-120.02305,33.93146],[-120.02378,33.93102],[-120.02383,33.93092],[-120.02356,33.93086],[-120.02367,33.93069],[-120.02502,33.93059],[-120.02523,33.93016],[-120.02667,33.92942],[-120.02714,33.92864],[-120.02745,33.92849],[-120.02763,33.92795],[-120.02783,33.92784],[-120.02837,33.92807],[-120.02857,33.92789],[-120.02909,33.92795],[-120.03185,33.92644],[-120.03112,33.92657],[-120.03102,33.9265],[-120.03114,33.92639],[-120.03154,33.92633],[-120.03332,33.92544],[-120.03381,33.92548],[-120.03629,33.92497],[-120.03898,33.92401],[-120.04088,33.92299],[-120.04135,33.92244],[-120.04146,33.9217],[-120.0408,33.92124],[-120.04085,33.92091],[-120.04123,33.92121],[-120.0415,33.9212],[-120.04252,33.92045],[-120.04305,33.92055],[-120.04339,33.92031],[-120.04385,33.92049],[-120.04679,33.91966],[-120.04705,33.91948],[-120.04715,33.91915],[-120.0475,33.91913],[-120.04773,33.91878],[-120.04805,33.91872],[-120.04929,33.91768],[-120.04979,33.91678],[-120.04976,33.9166],[-120.04888,33.91627]]]},"properties":{"name":"santa-rosa-island"}}]}