{"type":"FeatureCollection","features":[{"type":"Feature","geometry":{"type":"Polygon","coordinates":[[[-120.017,34.067],[-120.017,34.008],[-120.049,34.008],[-120.049,34.008],[-120.049,34.009],[-120.049,34.009],[-120.049,34.009],[-120.049,34.009],[-120.049,34.009],[-120.049,34.009],[-120.049,34.009],[-120.049,34.009],[-120.049,34.009],[-120.049,34.009],[-120.049,34.009],[-120.049,34.01],[-120.049,34.01],[-120.049,34.01],[-120.049,34.01],[-120.049,34.01],[-120.049,34.01],[-120.049,34.01],[-120.049,34.01],[-120.049,34.01],[-120.049,34.01],[-120.049,34.01],[-120.049,34.011],[-120.049,34.011],[-120.049,34.011],[-120.049,34.011],[-120.049,34.011],[-120.049,34.011],[-120.049,34.011],[-120.049,34.011],[-120.049,34.011],[-120.049,34.011],[-120.049,34.011],[-120.049,34.011],[-120.049,34.011],[-120.049,34.011],[-120.049,34.011],[-120.049,34.011],[-120.049,34.011],[-120.049,34.011],[-120.049,34.012],[-120.049,34.012],[-120.049,34.012],[-120.049,34.012],[-120.049,34.012],[-120.05,34.012],[-120.05,34.012],[-120.05,34.012],[-120.05,34.012],[-120.05,34.012],[-120.05,34.012],[-120.05,34.012],[-120.05,34.012],[-120.05,34.012],[-120.05,34.012],[-120.05,34.012],[-120.05,34.012],[-120.05,34.012],[-120.05,34.013],[-120.05,34.013],[-120.05,34.013],[-120.05,34.013],[-120.051,34.013],[-120.051,34.013],[-120.051,34.013],[-120.05,34.013],[-120.05,34.013],[-120.05,34.013],[-120.05,34.014],[-120.05,34.014],[-120.05,34.014],[-120.05,34.014],[-120.05,34.014],[-120.05,34.014],[-120.05,34.014],[-120.05,34.014],[-120.05,34.014],[-120.05,34.014],[-120.05,34.014],[-120.05,34.014],[-120.05,34.014],[-120.05,34.015],[-120.05,34.015],[-120.05,34.015],[-120.05,34.015],[-120.05,34.015],[-120.05,34.015],[-120.05,34.015],[-120.05,34.015],[-120.05,34.015],[-120.05,34.016],[-120.05,34.016],[-120.05,34.016],[-120.05,34.016],[-120.05,34.016],[-120.05,34.016],[-120.05,34.016],[-120.05,34.017],[-120.05,34.017],[-120.05,34.017],[-120.05,34.017],[-120.05,34.017],[-120.05,34.017],[-120.049,34.017],[-120.049,34.018],[-120.049,34.018],[-120.049,34.018],[-120.049,34.018],[-120.049,34.018],[-120.049,34.018],[-120.049,34.018],[-120.049,34.018],[-120.049,34.018],[-120.049,34.018],[-120.049,34.018],[-120.049,34.018],[-120.049,34.018],[-120.049,34.018],[-120.049,34.018],[-120.048,34.018],[-120.048,34.018],[-120.048,34.018],[-120.048,34.018],[-120.048,34.018],[-120.048,34.018],[-120.048,34.018],[-120.048,34.018],[-120.048,34.018],[-120.048,34.018],[-120.049,34.018],[-120.049,34.019],[-120.049,34.019],[-120.048,34.019],[-120.048,34.019],[-120.048,34.019],[-120.048,34.019],[-120.048,34.019],[-120.048,34.019],[-120.048,34.019],[-120.048,34.019],[-120.048,34.019],[-120.048,34.02],[-120.048,34.02],[-120.048,34.02],[-120.048,34.02],[-120.048,34.02],[-120.048,34.02],[-120.048,34.02],[-120.048,34.02],[-120.048,34.02],[-120.048,34.02],[-120.048,34.02],[-120.048,34.02],[-120.048,34.021],[-120.048,34.021],[-120.048,34.021],[-120.048,34.021],[-120.048,34.021],[-120.048,34.021],[-120.048,34.021],[-120.048,34.021],[-120.048,34.021],[-120.048,34.021],[-120.048,34.021],[-120.048,34.021],[-120.048,34.021],[-120.047,34.021],[-120.047,34.021],[-120.047,34.021],[-120.047,34.021],[-120.047,34.021],[-120.047,34.022],[-120.047,34.022],[-120.047,34.022],[-120.047,34.022],[-120.047,34.022],[-120.047,34.022],[-120.047,34.022],[-120.047,34.022],[-120.047,34.022],[-120.047,34.022],[-120.047,34.022],[-120.047,34.022],[-120.047,34.022],[-120.047,34.022],[-120.047,34.022],[-120.047,34.022],[-120.047,34.022],[-120.046,34.022],[-120.046,34.022],[-120.046,34.022],[-120.046,34.022],[-120.046,34.022],[-120.046,34.022],[-120.046,34.023],[-120.046,34.023],[-120.046,34.023],[-120.046,34.023],[-120.046,34.023],[-120.046,34.023],[-120.046,34.023],[-120.046,34.023],[-120.046,34.023],[-120.046,34.023],[-120.046,34.023],[-120.046,34.023],[-120.045,34.023],[-120.045,34.023],[-120.045,34.023],[-120.045,34.023],[-120.045,34.023],[-120.045,34.023],[-120.045,34.024],[-120.045,34.024],[-120.045,34.024],[-120.045,34.024],[-120.045,34.024],[-120.044,34.024],[-120.044,34.024],[-120.044,34.025],[-120.044,34.025],[-120.044,34.025],[-120.044,34.025],[-120.044,34.025],[-120.044,34.025],[-120.044,34.025],[-120.044,34.025],[-120.044,34.025],[-120.044,34.025],[-120.044,34.025],[-120.044,34.025],[-120.044,34.025],[-120.044,34.025],[-120.045,34.025],[-120.045,34.025],[-120.044,34.025],[-120.044,34.025],[-120.044,34.025],[-120.044,34.025],[-120.044,34.025],[-120.044,34.025],[-120.044,34.025],[-120.044,34.025],[-120.044,34.026],[-120.044,34.026],[-120.044,34.026],[-120.044,34.026],[-120.044,34.026],[-120.044,34.026],[-120.044,34.026],[-120.044,34.026],[-120.044,34.026],[-120.044,34.026],[-120.044,34.026],[-120.044,34.026],[-120.044,34.026],[-120.044,34.027],[-120.043,34.027],[-120.043,34.027],[-120.043,34.027],[-120.043,34.027],[-120.043,34.027],[-120.043,34.027],[-120.043,34.027],[-120.043,34.027],[-120.043,34.027],[-120.043,34.027],[-120.043,34.027],[-120.043,34.027],[-120.043,34.027],[-120.043,34.027],[-120.043,34.028],[-120.043,34.028],[-120.043,34.028],[-120.043,34.028],[-120.043,34.028],[-120.043,34.028],[-120.043,34.028],[-120.043,34.028],[-120.043,34.028],[-120.043,34.028],[-120.043,34.028],[-120.043,34.028],[-120.043,34.028],[-120.044,34.028],[-120.044,34.028],[-120.044,34.028],[-120.044,34.028],[-120.044,34.028],[-120.044,34.028],[-120.044,34.028],[-120.044,34.028],[-120.044,34.028],[-120.044,34.029],[-120.044,34.029],[-120.044,34.029],[-120.044,34.029],[-120.044,34.029],[-120.044,34.029],[-120.044,34.029],[-120.044,34.029],[-120.044,34.029],[-120.044,34.029],[-120.044,34.029],[-120.044,34.029],[-120.044,34.029],[-120.044,34.029],[-120.044,34.029],[-120.044,34.029],[-120.045,34.029],[-120.045,34.029],[-120.045,34.029],[-120.045,34.029],[-120.045,34.03],[-120.045,34.03],[-120.045,34.03],[-120.045,34.03],[-120.045,34.03],[-120.045,34.03],[-120.045,34.03],[-120.045,34.03],[-120.045,34.03],[-120.045,34.03],[-120.045,34.03],[-120.045,34.03],[-120.045,34.03],[-120.045,34.03],[-120.045,34.03],[-120.045,34.03],[-120.045,34.03],[-120.045,34.03],[-120.045,34.031],[-120.045,34.031],[-120.045,34.031],[-120.045,34.031],[-120.045,34.031],[-120.045,34.031],[-120.045,34.031],[-120.045,34.031],[-120.045,34.031],[-120.045,34.031],[-120.045,34.031],[-120.045,34.031],[-120.045,34.031],[-120.045,34.031],[-120.045,34.031],[-120.045,34.031],[-120.045,34.031],[-120.045,34.031],[-120.045,34.031],[-120.045,34.032],[-120.045,34.032],[-120.045,34.032],[-120.045,34.032],[-120.045,34.032],[-120.045,34.032],[-120.045,34.032],[-120.045,34.032],[-120.045,34.032],[-120.045,34.032],[-120.045,34.032],[-120.045,34.032],[-120.045,34.032],[-120.045,34.032],[-120.045,34.032],[-120.045,34.032],[-120.045,34.032],[-120.045,34.033],[-120.045,34.033],[-120.045,34.033],[-120.045,34.033],[-120.045,34.033],[-120.044,34.033],[-120.044,34.033],[-120.044,34.033],[-120.044,34.033],[-120.044,34.033],[-120.044,34.033],[-120.044,34.033],[-120.044,34.033],[-120.044,34.034],[-120.044,34.034],[-120.044,34.034],[-120.044,34.034],[-120.044,34.034],[-120.044,34.034],[-120.044,34.034],[-120.044,34.034],[-120.044,34.034],[-120.044,34.034],[-120.044,34.034],[-120.044,34.034],[-120.044,34.034],[-120.044,34.034],[-120.044,34.034],[-120.044,34.034],[-120.044,34.034],[-120.043,34.034],[-120.043,34.034],[-120.043,34.035],[-120.043,34.035],[-120.043,34.035],[-120.044,34.035],[-120.043,34.035],[-120.043,34.035],[-120.043,34.035],[-120.043,34.035],[-120.043,34.035],[-120.043,34.035],[-120.043,34.035],[-120.043,34.035],[-120.043,34.035],[-120.043,34.035],[-120.043,34.035],[-120.043,34.035],[-120.043,34.035],[-120.044,34.035],[-120.044,34.035],[-120.044,34.035],[-120.044,34.036],[-120.043,34.036],[-120.043,34.036],[-120.043,34.036],[-120.043,34.036],[-120.043,34.036],[-120.043,34.036],[-120.044,34.036],[-120.044,34.036],[-120.044,34.036],[-120.044,34.036],[-120.044,34.036],[-120.044,34.036],[-120.044,34.036],[-120.044,34.036],[-120.044,34.036],[-120.044,34.036],[-120.044,34.036],[-120.045,34.036],[-120.045,34.036],[-120.045,34.036],[-120.045,34.036],[-120.045,34.036],[-120.045,34.036],[-120.045,34.036],[-120.045,34.036],[-120.045,34.036],[-120.045,34.036],[-120.045,34.036],[-120.045,34.036],[-120.045,34.036],[-120.045,34.036],[-120.045,34.036],[-120.045,34.036],[-120.045,34.036],[-120.046,34.036],[-120.046,34.036],[-120.046,34.036],[-120.046,34.036],[-120.046,34.036],[-120.046,34.036],[-120.046,34.036],[-120.046,34.036],[-120.046,34.036],[-120.046,34.037],[-120.046,34.037],[-120.046,34.037],[-120.046,34.037],[-120.047,34.037],[-120.047,34.037],[-120.047,34.037],[-120.047,34.036],[-120.047,34.036],[-120.047,34.036],[-120.047,34.036],[-120.047,34.036],[-120.047,34.036],[-120.047,34.036],[-120.048,34.036],[-120.048,34.036],[-120.048,34.036],[-120.048,34.036],[-120.048,34.036],[-120.048,34.036],[-120.048,34.036],[-120.048,34.036],[-120.048,34.036],[-120.048,34.036],[-120.048,34.036],[-120.048,34.036],[-120.048,34.036],[-120.048,34.036],[-120.048,34.036],[-120.048,34.036],[-120.048,34.036],[-120.048,34.036],[-120.048,34.036],[-120.048,34.036],[-120.048,34.036],[-120.048,34.036],[-120.048,34.036],[-120.048,34.036],[-120.048,34.036],[-120.048,34.036],[-120.048,34.036],[-120.048,34.036],[-120.049,34.036],[-120.049,34.036],[-120.049,34.036],[-120.049,34.036],[-120.049,34.036],[-120.049,34.036],[-120.049,34.036],[-120.049,34.036],[-120.049,34.036],[-120.049,34.036],[-120.049,34.036],[-120.049,34.036],[-120.049,34.036],[-120.049,34.036],[-120.049,34.036],[-120.049,34.036],[-120.049,34.036],[-120.049,34.036],[-120.049,34.036],[-120.05,34.036],[-120.05,34.036],[-120.05,34.036],[-120.05,34.036],[-120.05,34.036],[-120.05,34.036],[-120.05,34.036],[-120.05,34.036],[-120.05,34.036],[-120.05,34.036],[-120.05,34.036],[-120.05,34.036],[-120.05,34.036],[-120.05,34.036],[-120.05,34.036],[-120.05,34.036],[-120.05,34.036],[-120.05,34.035],[-120.05,34.035],[-120.05,34.035],[-120.05,34.035],[-120.05,34.035],[-120.05,34.035],[-120.05,34.035],[-120.05,34.035],[-120.05,34.035],[-120.05,34.035],[-120.051,34.035],[-120.051,34.035],[-120.051,34.035],[-120.051,34.036],[-120.051,34.036],[-120.051,34.036],[-120.051,34.036],[-120.051,34.036],[-120.051,34.036],[-120.051,34.036],[-120.051,34.036],[-120.051,34.036],[-120.051,34.036],[-120.051,34.036],[-120.051,34.036],[-120.051,34.036],[-120.051,34.036],[-120.051,34.036],[-120.051,34.036],[-120.051,34.036],[-120.051,34.037],[-120.051,34.037],[-120.051,34.037],[-120.051,34.037],[-120.051,34.037],[-120.052,34.037],[-120.052,34.037],[-120.052,34.036],[-120.052,34.036],[-120.052,34.036],[-120.052,34.036],[-120.052,34.036],[-120.052,34.036],[-120.052,34.036],[-120.052,34.037],[-120.052,34.037],[-120.052,34.037],[-120.052,34.037],[-120.052,34.037],[-120.052,34.037],[-120.052,34.037],[-120.052,34.037],[-120.052,34.037],[-120.052,34.037],[-120.052,34.037],[-120.052,34.037],[-120.053,34.037],[-120.053,34.037],[-120.053,34.037],[-120.053,34.037],[-120.053,34.037],[-120.053,34.037],[-120.053,34.037],[-120.053,34.037],[-120.053,34.037],[-120.053,34.037],[-120.053,34.037],[-120.053,34.037],[-120.054,34.037],[-120.054,34.037],[-120.054,34.037],[-120.054,34.037],[-120.054,34.037],[-120.054,34.037],[-120.055,34.037],[-120.055,34.037],[-120.055,34.037],[-120.055,34.037],[-120.055,34.038],[-120.055,34.038],[-120.055,34.038],[-120.055,34.038],[-120.055,34.037],[-120.056,34.037],[-120.056,34.037],[-120.056,34.037],[-120.056,34.037],[-120.056,34.037],[-120.056,34.037],[-120.056,34.037],[-120.056,34.037],[-120.057,34.037],[-120.057,34.037],[-120.057,34.037],[-120.057,34.037],[-120.057,34.037],[-120.057,34.037],[-120.057,34.037],[-120.057,34.037],[-120.057,34.037],[-120.058,34.037],[-120.058,34.037],[-120.058,34.037],[-120.058,34.037],[-120.058,34.037],[-120.058,34.037],[-120.058,34.036],[-120.058,34.036],[-120.059,34.036],[-120.059,34.036],[-120.059,34.036],[-120.059,34.036],[-120.059,34.036],[-120.059,34.036],[-120.059,34.036],[-120.059,34.036],[-120.059,34.036],[-120.059,34.036],[-120.059,34.036],[-120.059,34.035],[-120.059,34.035],[-120.06,34.035],[-120.06,34.035],[-120.06,34.035],[-120.06,34.035],[-120.06,34.035],[-120.06,34.035],[-120.06,34.035],[-120.061,34.035],[-120.061,34.035],[-120.061,34.035],[-120.061,34.035],[-120.061,34.034],[-120.061,34.034],[-120.061,34.034],[-120.061,34.034],[-120.062,34.034],[-120.062,34.034],[-120.062,34.034],[-120.062,34.034],[-120.062,34.034],[-120.062,34.034],[-120.062,34.034],[-120.062,34.034],[-120.062,34.034],[-120.062,34.033],[-120.062,34.033],[-120.061,34.033],[-120.061,34.033],[-120.061,34.033],[-120.061,34.033],[-120.061,34.033],[-120.061,34.033],[-120.061,34.032],[-120.062,34.032],[-120.062,34.032],[-120.062,34.032],[-120.062,34.032],[-120.062,34.032],[-120.062,34.032],[-120.062,34.032],[-120.062,34.032],[-120.062,34.031],[-120.063,34.031],[-120.063,34.031],[-120.063,34.031],[-120.063,34.031],[-120.063,34.031],[-120.063,34.031],[-120.063,34.031],[-120.064,34.031],[-120.064,34.03],[-120.064,34.03],[-120.065,34.03],[-120.065,34.03],[-120.065,34.03],[-120.066,34.029],[-120.066,34.029],[-120.066,34.029],[-120.067,34.029],[-120.067,34.029],[-120.067,34.029],[-120.068,34.029],[-120.068,34.029],[-120.068,34.029],[-120.069,34.028],[-120.069,34.028],[-120.069,34.028],[-120.069,34.029],[-120.07,34.029],[-120.07,34.029],[-120.07,34.029],[-120.07,34.029],[-120.07,34.029],[-120.07,34.029],[-120.07,34.029],[-120.07,34.029],[-120.07,34.029],[-120.07,34.029],[-120.07,34.029],[-120.071,34.029],[-120.071,34.029],[-120.071,34.029],[-120.071,34.029],[-120.071,34.029],[-120.071,34.029],[-120.071,34.028],[-120.071,34.028],[-120.071,34.028],[-120.071,34.028],[-120.071,34.028],[-120.071,34.028],[-120.071,34.028],[-120.071,34.028],[-120.071,34.028],[-120.071,34.028],[-120.071,34.028],[-120.071,34.028],[-120.071,34.028],[-120.071,34.028],[-120.071,34.028],[-120.071,34.028],[-120.071,34.028],[-120.071,34.028],[-120.071,34.028],[-120.071,34.028],[-120.071,34.028],[-120.071,34.028],[-120.072,34.028],[-120.072,34.028],[-120.072,34.028],[-120.072,34.028],[-120.072,34.028],[-120.072,34.028],[-120.072,34.028],[-120.072,34.028],[-120.072,34.028],[-120.072,34.028],[-120.072,34.028],[-120.072,34.028],[-120.072,34.028],[-120.072,34.028],[-120.071,34.028],[-120.071,34.028],[-120.071,34.028],[-120.071,34.028],[-120.071,34.027],[-120.071,34.027],[-120.072,34.027],[-120.072,34.027],[-120.072,34.027],[-120.072,34.027],[-120.072,34.027],[-120.072,34.027],[-120.072,34.027],[-120.072,34.027],[-120.072,34.027],[-120.072,34.027],[-120.072,34.027],[-120.072,34.027],[-120.072,34.027],[-120.072,34.027],[-120.072,34.027],[-120.072,34.027],[-120.072,34.027],[-120.072,34.027],[-120.072,34.027],[-120.072,34.027],[-120.072,34.027],[-120.072,34.027],[-120.072,34.027],[-120.072,34.027],[-120.072,34.026],[-120.072,34.026],[-120.072,34.026],[-120.072,34.026],[-120.072,34.026],[-120.072,34.026],[-120.072,34.026],[-120.072,34.026],[-120.072,34.026],[-120.073,34.026],[-120.073,34.026],[-120.073,34.025],[-120.073,34.025],[-120.073,34.025],[-120.073,34.025],[-120.073,34.025],[-120.073,34.025],[-120.073,34.025],[-120.073,34.025],[-120.074,34.025],[-120.074,34.025],[-120.074,34.025],[-120.074,34.025],[-120.074,34.025],[-120.074,34.025],[-120.074,34.025],[-120.074,34.025],[-120.074,34.025],[-120.074,34.025],[-120.074,34.025],[-120.073,34.025],[-120.073,34.025],[-120.073,34.025],[-120.074,34.025],[-120.074,34.025],[-120.074,34.024],[-120.074,34.024],[-120.074,34.024],[-120.074,34.024],[-120.074,34.024],[-120.074,34.024],[-120.074,34.024],[-120.074,34.024],[-120.075,34.024],[-120.075,34.024],[-120.075,34.024],[-120.075,34.024],[-120.075,34.024],[-120.075,34.024],[-120.076,34.024],[-120.076,34.024],[-120.076,34.024],[-120.076,34.024],[-120.076,34.024],[-120.076,34.024],[-120.076,34.024],[-120.076,34.023],[-120.076,34.023],[-120.076,34.023],[-120.076,34.023],[-120.076,34.024],[-120.076,34.023],[-120.076,34.023],[-120.077,34.023],[-120.077,34.023],[-120.077,34.023],[-120.077,34.023],[-120.077,34.023],[-120.077,34.023],[-120.077,34.023],[-120.077,34.023],[-120.077,34.023],[-120.078,34.023],[-120.078,34.023],[-120.078,34.023],[-120.078,34.023],[-120.078,34.023],[-120.078,34.023],[-120.079,34.023],[-120.079,34.023],[-120.079,34.023],[-120.079,34.023],[-120.079,34.023],[-120.079,34.023],[-120.08,34.023],[-120.08,34.023],[-120.08,34.023],[-120.08,34.023],[-120.08,34.023],[-120.08,34.023],[-120.08,34.023],[-120.08,34.023],[-120.08,34.023],[-120.081,34.023],[-120.081,34.023],[-120.081,34.022],[-120.081,34.022],[-120.081,34.022],[-120.081,34.022],[-120.081,34.022],[-120.081,34.022],[-120.081,34.022],[-120.081,34.022],[-120.082,34.022],[-120.082,34.022],[-120.082,34.022],[-120.082,34.022],[-120.082,34.022],[-120.082,34.022],[-120.082,34.022],[-120.082,34.022],[-120.082,34.022],[-120.082,34.022],[-120.082,34.022],[-120.082,34.022],[-120.082,34.022],[-120.082,34.022],[-120.082,34.022],[-120.082,34.022],[-120.082,34.022],[-120.082,34.022],[-120.082,34.022],[-120.082,34.022],[-120.082,34.022],[-120.083,34.022],[-120.083,34.022],[-120.083,34.022],[-120.083,34.022],[-120.083,34.022],[-120.083,34.022],[-120.083,34.022],[-120.083,34.022],[-120.083,34.022],[-120.083,34.022],[-120.083,34.022],[-120.083,34.022],[-120.083,34.022],[-120.083,34.022],[-120.083,34.022],[-120.084,34.022],[-120.084,34.022],[-120.084,34.022],[-120.084,34.022],[-120.084,34.022],[-120.084,34.022],[-120.084,34.022],[-120.084,34.022],[-120.084,34.021],[-120.084,34.021],[-120.085,34.022],[-120.085,34.022],[-120.085,34.022],[-120.085,34.022],[-120.085,34.022],[-120.085,34.022],[-120.085,34.022],[-120.085,34.022],[-120.085,34.022],[-120.085,34.022],[-120.085,34.022],[-120.085,34.022],[-120.086,34.022],[-120.086,34.022],[-120.086,34.022],[-120.086,34.022],[-120.086,34.022],[-120.086,34.022],[-120.086,34.022],[-120.086,34.022],[-120.087,34.021],[-120.087,34.021],[-120.087,34.022],[-120.087,34.067],[-120.017,34.067]]]},"properties":{"id":"carrington-point-state-marine-reserve","name":"Carrington Point State Marine Reserve","type":"SMR","shortName":"Carrington Point","areaKm2":null,"ccrCitation":null}},{"type":"Feature","geometry":{"type":"Polygon","coordinates":[[[-119.967,33.983],[-119.967,33.952],[-119.971,33.952],[-119.971,33.952],[-119.971,33.952],[-119.971,33.952],[-119.971,33.952],[-119.971,33.952],[-119.971,33.952],[-119.971,33.953],[-119.971,33.953],[-119.972,33.953],[-119.972,33.953],[-119.972,33.953],[-119.972,33.953],[-119.972,33.953],[-119.972,33.953],[-119.972,33.953],[-119.972,33.953],[-119.972,33.953],[-119.972,33.954],[-119.972,33.954],[-119.972,33.954],[-119.972,33.954],[-119.972,33.954],[-119.973,33.954],[-119.973,33.954],[-119.973,33.954],[-119.973,33.954],[-119.973,33.954],[-119.973,33.954],[-119.973,33.955],[-119.973,33.955],[-119.973,33.955],[-119.973,33.955],[-119.973,33.955],[-119.973,33.955],[-119.973,33.955],[-119.974,33.955],[-119.974,33.955],[-119.974,33.955],[-119.974,33.955],[-119.974,33.955],[-119.974,33.955],[-119.974,33.955],[-119.974,33.955],[-119.974,33.955],[-119.975,33.956],[-119.975,33.956],[-119.975,33.956],[-119.975,33.956],[-119.975,33.956],[-119.975,33.956],[-119.975,33.956],[-119.975,33.956],[-119.975,33.956],[-119.975,33.956],[-119.975,33.956],[-119.975,33.956],[-119.976,33.956],[-119.976,33.956],[-119.976,33.956],[-119.976,33.956],[-119.976,33.956],[-119.976,33.956],[-119.976,33.956],[-119.977,33.956],[-119.977,33.956],[-119.977,33.956],[-119.977,33.957],[-119.977,33.957],[-119.978,33.957],[-119.978,33.958],[-119.978,33.958],[-119.978,33.959],[-119.978,33.959],[-119.978,33.959],[-119.978,33.959],[-119.978,33.959],[-119.977,33.959],[-119.978,33.959],[-119.978,33.959],[-119.978,33.959],[-119.978,33.959],[-119.977,33.96],[-119.977,33.96],[-119.977,33.96],[-119.977,33.96],[-119.977,33.961],[-119.977,33.961],[-119.978,33.961],[-119.978,33.961],[-119.978,33.961],[-119.978,33.961],[-119.978,33.961],[-119.978,33.962],[-119.978,33.962],[-119.978,33.962],[-119.978,33.962],[-119.979,33.962],[-119.979,33.963],[-119.979,33.964],[-119.979,33.964],[-119.979,33.965],[-119.979,33.965],[-119.979,33.966],[-119.979,33.966],[-119.978,33.966],[-119.978,33.966],[-119.978,33.966],[-119.978,33.966],[-119.978,33.966],[-119.978,33.966],[-119.978,33.966],[-119.978,33.967],[-119.978,33.967],[-119.978,33.967],[-119.978,33.967],[-119.978,33.967],[-119.978,33.967],[-119.978,33.967],[-119.978,33.967],[-119.979,33.967],[-119.979,33.967],[-119.979,33.967],[-119.979,33.967],[-119.979,33.967],[-119.98,33.967],[-119.98,33.968],[-119.98,33.968],[-119.98,33.969],[-119.98,33.97],[-119.98,33.971],[-119.98,33.971],[-119.98,33.972],[-119.98,33.973],[-119.98,33.973],[-119.98,33.974],[-119.98,33.975],[-119.98,33.976],[-119.98,33.976],[-119.981,33.977],[-119.98,33.978],[-119.98,33.979],[-119.98,33.979],[-119.979,33.98],[-119.979,33.981],[-119.979,33.981],[-119.979,33.982],[-119.98,33.982],[-119.981,33.983],[-119.982,33.983],[-119.983,33.983],[-119.983,33.983],[-119.98,33.983],[-119.967,33.983]]]},"properties":{"id":"skunk-point-state-marine-reserve","name":"Skunk Point State Marine Reserve","type":"SMR","shortName":"Skunk Point","areaKm2":null,"ccrCitation":null}},{"type":"Feature","geometry":{"type":"Polygon","coordinates":[[[-120.16,33.916],[-120.16,33.916],[-120.16,33.916],[-120.159,33.916],[-120.159,33.916],[-120.159,33.916],[-120.159,33.915],[-120.159,33.915],[-120.159,33.915],[-120.159,33.915],[-120.159,33.915],[-120.159,33.915],[-120.159,33.915],[-120.159,33.915],[-120.158,33.915],[-120.158,33.915],[-120.158,33.915],[-120.158,33.915],[-120.158,33.915],[-120.158,33.915],[-120.158,33.914],[-120.158,33.914],[-120.158,33.914],[-120.158,33.914],[-120.157,33.914],[-120.157,33.914],[-120.157,33.914],[-120.157,33.913],[-120.157,33.913],[-120.157,33.913],[-120.157,33.913],[-120.157,33.913],[-120.157,33.913],[-120.157,33.913],[-120.157,33.913],[-120.157,33.913],[-120.157,33.913],[-120.157,33.913],[-120.157,33.913],[-120.157,33.913],[-120.156,33.913],[-120.156,33.913],[-120.156,33.913],[-120.156,33.913],[-120.156,33.913],[-120.156,33.912],[-120.156,33.912],[-120.156,33.912],[-120.156,33.912],[-120.155,33.912],[-120.155,33.913],[-120.155,33.913],[-120.155,33.913],[-120.155,33.913],[-120.155,33.913],[-120.155,33.913],[-120.155,33.913],[-120.155,33.913],[-120.154,33.913],[-120.154,33.913],[-120.154,33.913],[-120.154,33.913],[-120.154,33.913],[-120.154,33.913],[-120.154,33.913],[-120.153,33.913],[-120.153,33.913],[-120.153,33.913],[-120.153,33.913],[-120.153,33.913],[-120.153,33.913],[-120.152,33.913],[-120.152,33.913],[-120.152,33.913],[-120.152,33.913],[-120.152,33.913],[-120.152,33.913],[-120.152,33.913],[-120.152,33.913],[-120.151,33.913],[-120.151,33.912],[-120.151,33.912],[-120.151,33.912],[-120.151,33.912],[-120.151,33.912],[-120.151,33.912],[-120.151,33.912],[-120.151,33.912],[-120.151,33.912],[-120.151,33.912],[-120.151,33.912],[-120.151,33.912],[-120.151,33.912],[-120.151,33.912],[-120.151,33.911],[-120.151,33.911],[-120.151,33.911],[-120.151,33.911],[-120.15,33.912],[-120.15,33.912],[-120.15,33.912],[-120.15,33.911],[-120.15,33.911],[-120.15,33.911],[-120.15,33.911],[-120.15,33.911],[-120.15,33.911],[-120.149,33.911],[-120.149,33.911],[-120.149,33.911],[-120.149,33.911],[-120.149,33.911],[-120.149,33.911],[-120.148,33.911],[-120.148,33.91],[-120.148,33.91],[-120.148,33.91],[-120.148,33.91],[-120.148,33.91],[-120.148,33.91],[-120.147,33.91],[-120.147,33.91],[-120.147,33.91],[-120.147,33.91],[-120.147,33.91],[-120.147,33.91],[-120.147,33.91],[-120.147,33.91],[-120.147,33.91],[-120.147,33.909],[-120.147,33.909],[-120.147,33.909],[-120.147,33.909],[-120.147,33.909],[-120.147,33.909],[-120.147,33.909],[-120.147,33.909],[-120.147,33.909],[-120.147,33.909],[-120.147,33.909],[-120.147,33.909],[-120.147,33.909],[-120.147,33.909],[-120.147,33.909],[-120.147,33.909],[-120.147,33.909],[-120.147,33.909],[-120.147,33.909],[-120.146,33.909],[-120.146,33.909],[-120.146,33.909],[-120.146,33.909],[-120.146,33.909],[-120.146,33.909],[-120.146,33.909],[-120.146,33.909],[-120.146,33.909],[-120.146,33.909],[-120.146,33.909],[-120.145,33.909],[-120.145,33.909],[-120.145,33.908],[-120.145,33.908],[-120.145,33.908],[-120.145,33.908],[-120.145,33.908],[-120.145,33.908],[-120.145,33.908],[-120.145,33.908],[-120.145,33.908],[-120.144,33.908],[-120.144,33.908],[-120.144,33.908],[-120.144,33.908],[-120.143,33.907],[-120.143,33.907],[-120.143,33.907],[-120.143,33.907],[-120.143,33.907],[-120.143,33.907],[-120.143,33.907],[-120.143,33.907],[-120.143,33.907],[-120.143,33.906],[-120.143,33.906],[-120.142,33.906],[-120.142,33.906],[-120.142,33.906],[-120.142,33.906],[-120.142,33.906],[-120.142,33.906],[-120.142,33.906],[-120.142,33.906],[-120.142,33.906],[-120.142,33.906],[-120.142,33.906],[-120.142,33.906],[-120.141,33.906],[-120.141,33.906],[-120.141,33.906],[-120.141,33.906],[-120.141,33.906],[-120.141,33.906],[-120.141,33.906],[-120.141,33.906],[-120.141,33.906],[-120.14,33.906],[-120.14,33.906],[-120.14,33.906],[-120.14,33.906],[-120.14,33.906],[-120.14,33.905],[-120.14,33.905],[-120.14,33.905],[-120.14,33.905],[-120.139,33.905],[-120.139,33.905],[-120.139,33.905],[-120.139,33.905],[-120.139,33.905],[-120.139,33.905],[-120.139,33.905],[-120.139,33.905],[-120.139,33.905],[-120.139,33.905],[-120.139,33.905],[-120.139,33.905],[-120.139,33.905],[-120.138,33.904],[-120.138,33.904],[-120.138,33.904],[-120.138,33.904],[-120.138,33.904],[-120.138,33.904],[-120.138,33.904],[-120.138,33.904],[-120.138,33.904],[-120.138,33.904],[-120.138,33.904],[-120.138,33.904],[-120.138,33.904],[-120.138,33.904],[-120.138,33.904],[-120.137,33.904],[-120.137,33.903],[-120.137,33.903],[-120.137,33.903],[-120.137,33.903],[-120.137,33.903],[-120.137,33.903],[-120.137,33.903],[-120.137,33.903],[-120.137,33.903],[-120.137,33.903],[-120.137,33.903],[-120.137,33.903],[-120.137,33.903],[-120.137,33.903],[-120.137,33.903],[-120.137,33.903],[-120.137,33.903],[-120.137,33.903],[-120.137,33.903],[-120.137,33.903],[-120.136,33.903],[-120.136,33.903],[-120.136,33.903],[-120.136,33.903],[-120.136,33.903],[-120.136,33.903],[-120.136,33.902],[-120.136,33.902],[-120.136,33.902],[-120.136,33.902],[-120.136,33.902],[-120.136,33.902],[-120.136,33.902],[-120.136,33.902],[-120.136,33.902],[-120.136,33.902],[-120.136,33.902],[-120.136,33.903],[-120.135,33.903],[-120.135,33.903],[-120.135,33.903],[-120.135,33.903],[-120.135,33.903],[-120.135,33.903],[-120.134,33.903],[-120.134,33.903],[-120.134,33.903],[-120.134,33.903],[-120.134,33.903],[-120.134,33.903],[-120.134,33.903],[-120.134,33.903],[-120.134,33.903],[-120.134,33.903],[-120.134,33.903],[-120.134,33.902],[-120.134,33.902],[-120.134,33.902],[-120.134,33.903],[-120.134,33.903],[-120.134,33.903],[-120.134,33.903],[-120.133,33.903],[-120.133,33.903],[-120.133,33.903],[-120.133,33.902],[-120.133,33.902],[-120.133,33.902],[-120.133,33.902],[-120.133,33.902],[-120.133,33.902],[-120.133,33.902],[-120.133,33.902],[-120.133,33.902],[-120.133,33.902],[-120.133,33.902],[-120.133,33.902],[-120.133,33.902],[-120.133,33.902],[-120.133,33.902],[-120.132,33.902],[-120.132,33.902],[-120.132,33.902],[-120.132,33.902],[-120.132,33.902],[-120.132,33.902],[-120.132,33.902],[-120.132,33.902],[-120.132,33.902],[-120.132,33.902],[-120.131,33.902],[-120.131,33.902],[-120.131,33.901],[-120.131,33.901],[-120.131,33.901],[-120.131,33.901],[-120.131,33.901],[-120.131,33.901],[-120.131,33.901],[-120.131,33.901],[-120.13,33.901],[-120.13,33.901],[-120.13,33.901],[-120.13,33.901],[-120.13,33.901],[-120.13,33.901],[-120.13,33.9],[-120.13,33.9],[-120.13,33.901],[-120.13,33.901],[-120.13,33.901],[-120.13,33.901],[-120.13,33.901],[-120.129,33.9],[-120.129,33.9],[-120.129,33.9],[-120.129,33.9],[-120.129,33.9],[-120.129,33.9],[-120.129,33.9],[-120.129,33.9],[-120.129,33.9],[-120.129,33.9],[-120.129,33.9],[-120.129,33.9],[-120.129,33.9],[-120.129,33.9],[-120.129,33.9],[-120.129,33.9],[-120.129,33.9],[-120.129,33.9],[-120.128,33.9],[-120.128,33.9],[-120.128,33.9],[-120.128,33.9],[-120.128,33.9],[-120.128,33.899],[-120.128,33.899],[-120.128,33.899],[-120.128,33.899],[-120.128,33.899],[-120.128,33.899],[-120.128,33.899],[-120.128,33.899],[-120.128,33.899],[-120.128,33.899],[-120.128,33.899],[-120.127,33.899],[-120.127,33.899],[-120.127,33.899],[-120.127,33.899],[-120.127,33.899],[-120.127,33.899],[-120.127,33.899],[-120.127,33.899],[-120.127,33.899],[-120.127,33.899],[-120.127,33.899],[-120.127,33.899],[-120.127,33.899],[-120.127,33.899],[-120.127,33.899],[-120.127,33.899],[-120.126,33.899],[-120.127,33.899],[-120.126,33.899],[-120.126,33.899],[-120.126,33.899],[-120.126,33.899],[-120.126,33.899],[-120.126,33.899],[-120.126,33.899],[-120.126,33.899],[-120.125,33.899],[-120.125,33.899],[-120.125,33.899],[-120.125,33.898],[-120.125,33.898],[-120.125,33.898],[-120.125,33.898],[-120.125,33.898],[-120.125,33.898],[-120.125,33.898],[-120.124,33.898],[-120.124,33.897],[-120.124,33.897],[-120.125,33.897],[-120.125,33.897],[-120.125,33.897],[-120.125,33.897],[-120.125,33.897],[-120.124,33.897],[-120.124,33.897],[-120.124,33.897],[-120.124,33.897],[-120.124,33.897],[-120.124,33.897],[-120.124,33.897],[-120.124,33.897],[-120.124,33.897],[-120.124,33.897],[-120.124,33.897],[-120.124,33.897],[-120.124,33.897],[-120.124,33.897],[-120.124,33.897],[-120.124,33.897],[-120.124,33.897],[-120.124,33.897],[-120.123,33.897],[-120.123,33.897],[-120.123,33.897],[-120.123,33.897],[-120.123,33.897],[-120.123,33.897],[-120.123,33.897],[-120.123,33.897],[-120.123,33.897],[-120.123,33.897],[-120.122,33.896],[-120.122,33.896],[-120.122,33.896],[-120.122,33.896],[-120.122,33.896],[-120.122,33.896],[-120.122,33.896],[-120.122,33.896],[-120.122,33.896],[-120.122,33.896],[-120.122,33.895],[-120.122,33.895],[-120.122,33.895],[-120.122,33.895],[-120.122,33.895],[-120.122,33.895],[-120.122,33.895],[-120.122,33.895],[-120.122,33.895],[-120.121,33.895],[-120.121,33.895],[-120.121,33.895],[-120.121,33.895],[-120.121,33.895],[-120.121,33.895],[-120.121,33.895],[-120.121,33.895],[-120.121,33.895],[-120.121,33.895],[-120.121,33.895],[-120.121,33.895],[-120.121,33.895],[-120.121,33.895],[-120.121,33.895],[-120.121,33.895],[-120.121,33.895],[-120.121,33.895],[-120.121,33.895],[-120.121,33.895],[-120.121,33.895],[-120.121,33.895],[-120.121,33.895],[-120.12,33.895],[-120.12,33.895],[-120.12,33.895],[-120.12,33.895],[-120.12,33.895],[-120.12,33.895],[-120.12,33.895],[-120.12,33.895],[-120.12,33.895],[-120.12,33.895],[-120.12,33.895],[-120.12,33.895],[-120.12,33.895],[-120.12,33.895],[-120.12,33.895],[-120.12,33.895],[-120.12,33.895],[-120.12,33.895],[-120.12,33.895],[-120.12,33.895],[-120.12,33.894],[-120.12,33.894],[-120.12,33.894],[-120.12,33.894],[-120.12,33.894],[-120.12,33.895],[-120.12,33.895],[-120.12,33.895],[-120.12,33.895],[-120.12,33.895],[-120.119,33.895],[-120.119,33.895],[-120.119,33.895],[-120.119,33.895],[-120.119,33.895],[-120.119,33.895],[-120.119,33.895],[-120.119,33.895],[-120.119,33.895],[-120.119,33.895],[-120.118,33.895],[-120.118,33.895],[-120.118,33.895],[-120.118,33.895],[-120.118,33.895],[-120.118,33.895],[-120.118,33.895],[-120.118,33.895],[-120.118,33.895],[-120.118,33.895],[-120.118,33.895],[-120.118,33.895],[-120.118,33.895],[-120.118,33.895],[-120.118,33.895],[-120.118,33.895],[-120.118,33.895],[-120.117,33.895],[-120.117,33.894],[-120.117,33.894],[-120.117,33.894],[-120.117,33.894],[-120.117,33.894],[-120.117,33.894],[-120.117,33.894],[-120.117,33.894],[-120.117,33.895],[-120.117,33.895],[-120.117,33.895],[-120.117,33.895],[-120.116,33.895],[-120.116,33.895],[-120.116,33.895],[-120.116,33.894],[-120.116,33.894],[-120.116,33.894],[-120.116,33.894],[-120.116,33.894],[-120.116,33.894],[-120.116,33.895],[-120.116,33.895],[-120.116,33.895],[-120.116,33.894],[-120.116,33.894],[-120.116,33.894],[-120.116,33.894],[-120.116,33.894],[-120.116,33.894],[-120.116,33.894],[-120.116,33.894],[-120.116,33.894],[-120.116,33.894],[-120.116,33.894],[-120.115,33.894],[-120.115,33.895],[-120.115,33.895],[-120.115,33.895],[-120.115,33.895],[-120.115,33.895],[-120.115,33.895],[-120.115,33.895],[-120.115,33.895],[-120.115,33.895],[-120.115,33.895],[-120.115,33.895],[-120.115,33.895],[-120.115,33.895],[-120.114,33.895],[-120.114,33.895],[-120.114,33.895],[-120.114,33.895],[-120.114,33.895],[-120.114,33.895],[-120.114,33.895],[-120.114,33.895],[-120.114,33.895],[-120.114,33.895],[-120.114,33.895],[-120.114,33.895],[-120.113,33.895],[-120.113,33.895],[-120.113,33.895],[-120.113,33.895],[-120.113,33.895],[-120.113,33.895],[-120.113,33.895],[-120.113,33.895],[-120.113,33.895],[-120.113,33.895],[-120.113,33.895],[-120.113,33.895],[-120.113,33.895],[-120.113,33.895],[-120.113,33.895],[-120.113,33.895],[-120.113,33.895],[-120.113,33.895],[-120.112,33.895],[-120.112,33.895],[-120.112,33.895],[-120.112,33.895],[-120.112,33.895],[-120.112,33.895],[-120.112,33.895],[-120.112,33.895],[-120.112,33.895],[-120.112,33.895],[-120.112,33.895],[-120.112,33.895],[-120.112,33.895],[-120.112,33.895],[-120.112,33.895],[-120.111,33.895],[-120.111,33.895],[-120.111,33.895],[-120.111,33.895],[-120.111,33.895],[-120.111,33.895],[-120.111,33.895],[-120.111,33.896],[-120.111,33.896],[-120.111,33.896],[-120.111,33.896],[-120.111,33.896],[-120.111,33.896],[-120.111,33.896],[-120.111,33.896],[-120.111,33.896],[-120.11,33.896],[-120.11,33.896],[-120.11,33.896],[-120.11,33.896],[-120.11,33.896],[-120.11,33.896],[-120.11,33.896],[-120.11,33.896],[-120.11,33.896],[-120.11,33.896],[-120.11,33.896],[-120.11,33.896],[-120.11,33.896],[-120.11,33.896],[-120.11,33.896],[-120.11,33.896],[-120.11,33.896],[-120.11,33.896],[-120.11,33.896],[-120.11,33.896],[-120.11,33.896],[-120.11,33.896],[-120.11,33.896],[-120.11,33.896],[-120.11,33.896],[-120.11,33.896],[-120.11,33.896],[-120.11,33.896],[-120.11,33.896],[-120.11,33.896],[-120.11,33.896],[-120.11,33.896],[-120.109,33.896],[-120.109,33.896],[-120.109,33.896],[-120.109,33.896],[-120.109,33.896],[-120.109,33.896],[-120.109,33.896],[-120.109,33.896],[-120.109,33.896],[-120.109,33.896],[-120.109,33.896],[-120.109,33.896],[-120.109,33.897],[-120.109,33.897],[-120.109,33.897],[-120.108,33.897],[-120.108,33.857],[-120.108,33.844],[-120.108,33.844],[-120.109,33.844],[-120.11,33.844],[-120.111,33.844],[-120.111,33.844],[-120.112,33.844],[-120.113,33.844],[-120.114,33.844],[-120.115,33.844],[-120.116,33.844],[-120.117,33.844],[-120.118,33.844],[-120.119,33.844],[-120.12,33.844],[-120.121,33.844],[-120.121,33.844],[-120.122,33.844],[-120.122,33.844],[-120.122,33.844],[-120.123,33.844],[-120.123,33.844],[-120.124,33.844],[-120.125,33.844],[-120.126,33.844],[-120.126,33.844],[-120.127,33.844],[-120.128,33.844],[-120.129,33.845],[-120.13,33.845],[-120.131,33.845],[-120.132,33.845],[-120.133,33.845],[-120.134,33.845],[-120.134,33.845],[-120.134,33.845],[-120.135,33.846],[-120.136,33.846],[-120.137,33.846],[-120.138,33.846],[-120.139,33.847],[-120.139,33.847],[-120.139,33.847],[-120.14,33.847],[-120.141,33.847],[-120.142,33.848],[-120.143,33.848],[-120.144,33.848],[-120.145,33.849],[-120.146,33.849],[-120.147,33.849],[-120.147,33.85],[-120.148,33.85],[-120.149,33.85],[-120.15,33.851],[-120.151,33.851],[-120.152,33.852],[-120.153,33.852],[-120.154,33.852],[-120.154,33.853],[-120.155,33.853],[-120.156,33.853],[-120.156,33.854],[-120.157,33.854],[-120.158,33.855],[-120.158,33.855],[-120.158,33.855],[-120.159,33.855],[-120.16,33.856],[-120.161,33.856],[-120.162,33.856],[-120.163,33.857],[-120.163,33.857],[-120.164,33.857],[-120.165,33.858],[-120.166,33.858],[-120.167,33.858],[-120.167,33.858],[-120.167,33.917],[-120.167,33.917],[-120.167,33.917],[-120.167,33.917],[-120.167,33.917],[-120.167,33.917],[-120.166,33.917],[-120.166,33.917],[-120.166,33.917],[-120.166,33.917],[-120.166,33.917],[-120.166,33.916],[-120.166,33.916],[-120.166,33.916],[-120.166,33.917],[-120.166,33.917],[-120.166,33.916],[-120.166,33.916],[-120.166,33.916],[-120.166,33.916],[-120.166,33.916],[-120.166,33.916],[-120.166,33.916],[-120.166,33.916],[-120.166,33.916],[-120.166,33.916],[-120.166,33.916],[-120.166,33.916],[-120.166,33.916],[-120.166,33.916],[-120.166,33.916],[-120.166,33.916],[-120.166,33.916],[-120.166,33.916],[-120.165,33.916],[-120.165,33.916],[-120.165,33.916],[-120.165,33.917],[-120.165,33.917],[-120.165,33.917],[-120.165,33.917],[-120.165,33.917],[-120.165,33.917],[-120.165,33.917],[-120.165,33.916],[-120.165,33.916],[-120.165,33.916],[-120.165,33.916],[-120.165,33.916],[-120.165,33.916],[-120.165,33.916],[-120.165,33.916],[-120.165,33.916],[-120.165,33.916],[-120.165,33.916],[-120.165,33.916],[-120.164,33.916],[-120.164,33.916],[-120.164,33.916],[-120.164,33.916],[-120.164,33.916],[-120.164,33.916],[-120.164,33.916],[-120.164,33.916],[-120.164,33.916],[-120.164,33.916],[-120.164,33.916],[-120.164,33.916],[-120.164,33.916],[-120.164,33.917],[-120.164,33.917],[-120.164,33.917],[-120.164,33.917],[-120.164,33.917],[-120.164,33.917],[-120.164,33.917],[-120.164,33.917],[-120.164,33.917],[-120.164,33.917],[-120.164,33.917],[-120.163,33.917],[-120.163,33.917],[-120.163,33.917],[-120.162,33.917],[-120.162,33.917],[-120.162,33.917],[-120.161,33.917],[-120.161,33.917],[-120.16,33.916],[-120.16,33.916]]]},"properties":{"id":"south-point-state-marine-reserve","name":"South Point State Marine Reserve","type":"SMR","shortName":"South Point","areaKm2":null,"ccrCitation":null}},{"type":"Feature","geometry":{"type":"Polygon","coordinates":[[[-120.117,33.844],[-120.116,33.844],[-120.115,33.844],[-120.114,33.844],[-120.113,33.844],[-120.112,33.844],[-120.111,33.844],[-120.111,33.844],[-120.11,33.844],[-120.109,33.844],[-120.108,33.844],[-120.108,33.84],[-120.167,33.84],[-120.167,33.858],[-120.166,33.858],[-120.165,33.858],[-120.164,33.857],[-120.163,33.857],[-120.163,33.857],[-120.162,33.856],[-120.161,33.856],[-120.16,33.856],[-120.159,33.855],[-120.158,33.855],[-120.158,33.855],[-120.158,33.855],[-120.157,33.854],[-120.156,33.854],[-120.156,33.853],[-120.155,33.853],[-120.154,33.853],[-120.154,33.852],[-120.153,33.852],[-120.152,33.852],[-120.151,33.851],[-120.15,33.851],[-120.149,33.85],[-120.148,33.85],[-120.147,33.85],[-120.147,33.849],[-120.146,33.849],[-120.145,33.849],[-120.144,33.848],[-120.143,33.848],[-120.142,33.848],[-120.141,33.847],[-120.14,33.847],[-120.139,33.847],[-120.139,33.847],[-120.139,33.847],[-120.138,33.846],[-120.137,33.846],[-120.136,33.846],[-120.135,33.846],[-120.134,33.845],[-120.134,33.845],[-120.134,33.845],[-120.133,33.845],[-120.132,33.845],[-120.131,33.845],[-120.13,33.845],[-120.129,33.845],[-120.128,33.844],[-120.127,33.844],[-120.126,33.844],[-120.126,33.844],[-120.125,33.844],[-120.124,33.844],[-120.123,33.844],[-120.123,33.844],[-120.122,33.844],[-120.122,33.844],[-120.122,33.844],[-120.121,33.844],[-120.121,33.844],[-120.12,33.844],[-120.119,33.844],[-120.118,33.844],[-120.117,33.844]]]},"properties":{"id":"south-point-federal-marine-reserve","name":"South Point Federal Marine Reserve","type":"FMR","shortName":"South Point","areaKm2":null,"ccrCitation":null}}]}