{"type":"FeatureCollection","features":[{"type":"Feature","geometry":{"type":"Point","coordinates":[-120.25679,34.10414]},"properties":{"depth_ft":319,"depth_m":97.4}},{"type":"Feature","geometry":{"type":"Point","coordinates":[-120.22656,34.10414]},"properties":{"depth_ft":328,"depth_m":99.9}},{"type":"Feature","geometry":{"type":"Point","coordinates":[-120.19634,34.10414]},"properties":{"depth_ft":325,"depth_m":99.0}},{"type":"Feature","geometry":{"type":"Point","coordinates":[-120.18123,34.10414]},"properties":{"depth_ft":317,"depth_m":96.5}},{"type":"Feature","geometry":{"type":"Point","coordinates":[-120.16612,34.10414]},"properties":{"depth_ft":315,"depth_m":96.1}},{"type":"Feature","geometry":{"type":"Point","coordinates":[-120.151,34.10414]},"properties":{"depth_ft":325,"depth_m":99.1}},{"type":"Feature","geometry":{"type":"Point","coordinates":[-120.07544,34.10414]},"properties":{"depth_ft":323,"depth_m":98.6}},{"type":"Feature","geometry":{"type":"Point","coordinates":[-119.98477,34.10414]},"properties":{"depth_ft":328,"depth_m":100.1}},{"type":"Feature","geometry":{"type":"Point","coordinates":[-119.96966,34.10414]},"properties":{"depth_ft":312,"depth_m":95.2}},{"type":"Feature","geometry":{"type":"Point","coordinates":[-119.95455,34.10414]},"properties":{"depth_ft":309,"depth_m":94.1}},{"type":"Feature","geometry":{"type":"Point","coordinates":[-119.93944,34.10414]},"properties":{"depth_ft":310,"depth_m":94.4}},{"type":"Feature","geometry":{"type":"Point","coordinates":[-119.92432,34.10414]},"properties":{"depth_ft":318,"depth_m":96.8}},{"type":"Feature","geometry":{"type":"Point","coordinates":[-119.90921,34.10414]},"properties":{"depth_ft":329,"depth_m":100.2}},{"type":"Feature","geometry":{"type":"Point","coordinates":[-120.25679,34.09161]},"properties":{"depth_ft":294,"depth_m":89.6}},{"type":"Feature","geometry":{"type":"Point","coordinates":[-120.24168,34.09161]},"properties":{"depth_ft":287,"depth_m":87.6}},{"type":"Feature","geometry":{"type":"Point","coordinates":[-120.22656,34.09161]},"properties":{"depth_ft":288,"depth_m":87.7}},{"type":"Feature","geometry":{"type":"Point","coordinates":[-120.21145,34.09161]},"properties":{"depth_ft":283,"depth_m":86.3}},{"type":"Feature","geometry":{"type":"Point","coordinates":[-120.19634,34.09161]},"properties":{"depth_ft":290,"depth_m":88.3}},{"type":"Feature","geometry":{"type":"Point","coordinates":[-120.18123,34.09161]},"properties":{"depth_ft":310,"depth_m":94.6}},{"type":"Feature","geometry":{"type":"Point","coordinates":[-120.16612,34.09161]},"properties":{"depth_ft":312,"depth_m":95.0}},{"type":"Feature","geometry":{"type":"Point","coordinates":[-120.151,34.09161]},"properties":{"depth_ft":317,"depth_m":96.6}},{"type":"Feature","geometry":{"type":"Point","coordinates":[-120.13589,34.09161]},"properties":{"depth_ft":315,"depth_m":95.9}},{"type":"Feature","geometry":{"type":"Point","coordinates":[-120.12078,34.09161]},"properties":{"depth_ft":320,"depth_m":97.5}},{"type":"Feature","geometry":{"type":"Point","coordinates":[-120.10567,34.09161]},"properties":{"depth_ft":301,"depth_m":91.8}},{"type":"Feature","geometry":{"type":"Point","coordinates":[-120.09056,34.09161]},"properties":{"depth_ft":275,"depth_m":83.9}},{"type":"Feature","geometry":{"type":"Point","coordinates":[-120.07544,34.09161]},"properties":{"depth_ft":243,"depth_m":73.9}},{"type":"Feature","geometry":{"type":"Point","coordinates":[-120.06033,34.09161]},"properties":{"depth_ft":270,"depth_m":82.2}},{"type":"Feature","geometry":{"type":"Point","coordinates":[-120.04522,34.09161]},"properties":{"depth_ft":296,"depth_m":90.3}},{"type":"Feature","geometry":{"type":"Point","coordinates":[-120.03011,34.09161]},"properties":{"depth_ft":300,"depth_m":91.5}},{"type":"Feature","geometry":{"type":"Point","coordinates":[-120.015,34.09161]},"properties":{"depth_ft":295,"depth_m":89.9}},{"type":"Feature","geometry":{"type":"Point","coordinates":[-119.99988,34.09161]},"properties":{"depth_ft":303,"depth_m":92.4}},{"type":"Feature","geometry":{"type":"Point","coordinates":[-119.98477,34.09161]},"properties":{"depth_ft":295,"depth_m":89.8}},{"type":"Feature","geometry":{"type":"Point","coordinates":[-119.96966,34.09161]},"properties":{"depth_ft":251,"depth_m":76.5}},{"type":"Feature","geometry":{"type":"Point","coordinates":[-119.95455,34.09161]},"properties":{"depth_ft":247,"depth_m":75.4}},{"type":"Feature","geometry":{"type":"Point","coordinates":[-119.93944,34.09161]},"properties":{"depth_ft":258,"depth_m":78.7}},{"type":"Feature","geometry":{"type":"Point","coordinates":[-119.92432,34.09161]},"properties":{"depth_ft":236,"depth_m":71.9}},{"type":"Feature","geometry":{"type":"Point","coordinates":[-119.90921,34.09161]},"properties":{"depth_ft":252,"depth_m":76.9}},{"type":"Feature","geometry":{"type":"Point","coordinates":[-120.25679,34.07908]},"properties":{"depth_ft":252,"depth_m":76.9}},{"type":"Feature","geometry":{"type":"Point","coordinates":[-120.24168,34.07908]},"properties":{"depth_ft":244,"depth_m":74.5}},{"type":"Feature","geometry":{"type":"Point","coordinates":[-120.22656,34.07908]},"properties":{"depth_ft":238,"depth_m":72.6}},{"type":"Feature","geometry":{"type":"Point","coordinates":[-120.21145,34.07908]},"properties":{"depth_ft":220,"depth_m":67.0}},{"type":"Feature","geometry":{"type":"Point","coordinates":[-120.19634,34.07908]},"properties":{"depth_ft":236,"depth_m":71.9}},{"type":"Feature","geometry":{"type":"Point","coordinates":[-120.18123,34.07908]},"properties":{"depth_ft":241,"depth_m":73.6}},{"type":"Feature","geometry":{"type":"Point","coordinates":[-120.16612,34.07908]},"properties":{"depth_ft":264,"depth_m":80.5}},{"type":"Feature","geometry":{"type":"Point","coordinates":[-120.151,34.07908]},"properties":{"depth_ft":277,"depth_m":84.5}},{"type":"Feature","geometry":{"type":"Point","coordinates":[-120.13589,34.07908]},"properties":{"depth_ft":278,"depth_m":84.7}},{"type":"Feature","geometry":{"type":"Point","coordinates":[-120.12078,34.07908]},"properties":{"depth_ft":258,"depth_m":78.6}},{"type":"Feature","geometry":{"type":"Point","coordinates":[-120.10567,34.07908]},"properties":{"depth_ft":255,"depth_m":77.8}},{"type":"Feature","geometry":{"type":"Point","coordinates":[-120.09056,34.07908]},"properties":{"depth_ft":231,"depth_m":70.6}},{"type":"Feature","geometry":{"type":"Point","coordinates":[-120.07544,34.07908]},"properties":{"depth_ft":196,"depth_m":59.8}},{"type":"Feature","geometry":{"type":"Point","coordinates":[-120.06033,34.07908]},"properties":{"depth_ft":221,"depth_m":67.5}},{"type":"Feature","geometry":{"type":"Point","coordinates":[-120.04522,34.07908]},"properties":{"depth_ft":251,"depth_m":76.5}},{"type":"Feature","geometry":{"type":"Point","coordinates":[-120.03011,34.07908]},"properties":{"depth_ft":255,"depth_m":77.6}},{"type":"Feature","geometry":{"type":"Point","coordinates":[-120.015,34.07908]},"properties":{"depth_ft":230,"depth_m":70.0}},{"type":"Feature","geometry":{"type":"Point","coordinates":[-119.99988,34.07908]},"properties":{"depth_ft":240,"depth_m":73.3}},{"type":"Feature","geometry":{"type":"Point","coordinates":[-119.98477,34.07908]},"properties":{"depth_ft":237,"depth_m":72.2}},{"type":"Feature","geometry":{"type":"Point","coordinates":[-119.96966,34.07908]},"properties":{"depth_ft":225,"depth_m":68.7}},{"type":"Feature","geometry":{"type":"Point","coordinates":[-119.95455,34.07908]},"properties":{"depth_ft":190,"depth_m":57.8}},{"type":"Feature","geometry":{"type":"Point","coordinates":[-119.93944,34.07908]},"properties":{"depth_ft":165,"depth_m":50.4}},{"type":"Feature","geometry":{"type":"Point","coordinates":[-119.92432,34.07908]},"properties":{"depth_ft":158,"depth_m":48.2}},{"type":"Feature","geometry":{"type":"Point","coordinates":[-119.90921,34.07908]},"properties":{"depth_ft":134,"depth_m":40.8}},{"type":"Feature","geometry":{"type":"Point","coordinates":[-120.25679,34.06654]},"properties":{"depth_ft":205,"depth_m":62.6}},{"type":"Feature","geometry":{"type":"Point","coordinates":[-120.24168,34.06654]},"properties":{"depth_ft":189,"depth_m":57.7}},{"type":"Feature","geometry":{"type":"Point","coordinates":[-120.22656,34.06654]},"properties":{"depth_ft":169,"depth_m":51.5}},{"type":"Feature","geometry":{"type":"Point","coordinates":[-120.21145,34.06654]},"properties":{"depth_ft":169,"depth_m":51.5}},{"type":"Feature","geometry":{"type":"Point","coordinates":[-120.19634,34.06654]},"properties":{"depth_ft":176,"depth_m":53.7}},{"type":"Feature","geometry":{"type":"Point","coordinates":[-120.18123,34.06654]},"properties":{"depth_ft":188,"depth_m":57.2}},{"type":"Feature","geometry":{"type":"Point","coordinates":[-120.16612,34.06654]},"properties":{"depth_ft":210,"depth_m":64.1}},{"type":"Feature","geometry":{"type":"Point","coordinates":[-120.151,34.06654]},"properties":{"depth_ft":199,"depth_m":60.6}},{"type":"Feature","geometry":{"type":"Point","coordinates":[-120.13589,34.06654]},"properties":{"depth_ft":224,"depth_m":68.4}},{"type":"Feature","geometry":{"type":"Point","coordinates":[-120.12078,34.06654]},"properties":{"depth_ft":226,"depth_m":68.9}},{"type":"Feature","geometry":{"type":"Point","coordinates":[-120.10567,34.06654]},"properties":{"depth_ft":201,"depth_m":61.2}},{"type":"Feature","geometry":{"type":"Point","coordinates":[-120.09056,34.06654]},"properties":{"depth_ft":169,"depth_m":51.5}},{"type":"Feature","geometry":{"type":"Point","coordinates":[-120.07544,34.06654]},"properties":{"depth_ft":137,"depth_m":41.9}},{"type":"Feature","geometry":{"type":"Point","coordinates":[-120.06033,34.06654]},"properties":{"depth_ft":132,"depth_m":40.4}},{"type":"Feature","geometry":{"type":"Point","coordinates":[-120.04522,34.06654]},"properties":{"depth_ft":191,"depth_m":58.2}},{"type":"Feature","geometry":{"type":"Point","coordinates":[-120.03011,34.06654]},"properties":{"depth_ft":215,"depth_m":65.6}},{"type":"Feature","geometry":{"type":"Point","coordinates":[-120.015,34.06654]},"properties":{"depth_ft":174,"depth_m":53.0}},{"type":"Feature","geometry":{"type":"Point","coordinates":[-119.99988,34.06654]},"properties":{"depth_ft":201,"depth_m":61.3}},{"type":"Feature","geometry":{"type":"Point","coordinates":[-119.98477,34.06654]},"properties":{"depth_ft":214,"depth_m":65.2}},{"type":"Feature","geometry":{"type":"Point","coordinates":[-119.96966,34.06654]},"properties":{"depth_ft":183,"depth_m":55.9}},{"type":"Feature","geometry":{"type":"Point","coordinates":[-119.95455,34.06654]},"properties":{"depth_ft":136,"depth_m":41.5}},{"type":"Feature","geometry":{"type":"Point","coordinates":[-119.93944,34.06654]},"properties":{"depth_ft":114,"depth_m":34.7}},{"type":"Feature","geometry":{"type":"Point","coordinates":[-119.92432,34.06654]},"properties":{"depth_ft":65,"depth_m":19.9}},{"type":"Feature","geometry":{"type":"Point","coordinates":[-120.25679,34.05401]},"properties":{"depth_ft":178,"depth_m":54.4}},{"type":"Feature","geometry":{"type":"Point","coordinates":[-120.24168,34.05401]},"properties":{"depth_ft":156,"depth_m":47.5}},{"type":"Feature","geometry":{"type":"Point","coordinates":[-120.22656,34.05401]},"properties":{"depth_ft":104,"depth_m":31.6}},{"type":"Feature","geometry":{"type":"Point","coordinates":[-120.21145,34.05401]},"properties":{"depth_ft":118,"depth_m":36.1}},{"type":"Feature","geometry":{"type":"Point","coordinates":[-120.19634,34.05401]},"properties":{"depth_ft":112,"depth_m":34.1}},{"type":"Feature","geometry":{"type":"Point","coordinates":[-120.18123,34.05401]},"properties":{"depth_ft":102,"depth_m":31.0}},{"type":"Feature","geometry":{"type":"Point","coordinates":[-120.16612,34.05401]},"properties":{"depth_ft":146,"depth_m":44.5}},{"type":"Feature","geometry":{"type":"Point","coordinates":[-120.151,34.05401]},"properties":{"depth_ft":132,"depth_m":40.2}},{"type":"Feature","geometry":{"type":"Point","coordinates":[-120.13589,34.05401]},"properties":{"depth_ft":112,"depth_m":34.0}},{"type":"Feature","geometry":{"type":"Point","coordinates":[-120.12078,34.05401]},"properties":{"depth_ft":140,"depth_m":42.8}},{"type":"Feature","geometry":{"type":"Point","coordinates":[-120.10567,34.05401]},"properties":{"depth_ft":165,"depth_m":50.2}},{"type":"Feature","geometry":{"type":"Point","coordinates":[-120.09056,34.05401]},"properties":{"depth_ft":76,"depth_m":23.2}},{"type":"Feature","geometry":{"type":"Point","coordinates":[-120.07544,34.05401]},"properties":{"depth_ft":75,"depth_m":22.9}},{"type":"Feature","geometry":{"type":"Point","coordinates":[-120.06033,34.05401]},"properties":{"depth_ft":104,"depth_m":31.6}},{"type":"Feature","geometry":{"type":"Point","coordinates":[-120.04522,34.05401]},"properties":{"depth_ft":126,"depth_m":38.3}},{"type":"Feature","geometry":{"type":"Point","coordinates":[-120.03011,34.05401]},"properties":{"depth_ft":158,"depth_m":48.1}},{"type":"Feature","geometry":{"type":"Point","coordinates":[-120.015,34.05401]},"properties":{"depth_ft":157,"depth_m":47.8}},{"type":"Feature","geometry":{"type":"Point","coordinates":[-119.99988,34.05401]},"properties":{"depth_ft":166,"depth_m":50.7}},{"type":"Feature","geometry":{"type":"Point","coordinates":[-119.98477,34.05401]},"properties":{"depth_ft":161,"depth_m":49.0}},{"type":"Feature","geometry":{"type":"Point","coordinates":[-119.96966,34.05401]},"properties":{"depth_ft":166,"depth_m":50.5}},{"type":"Feature","geometry":{"type":"Point","coordinates":[-119.95455,34.05401]},"properties":{"depth_ft":96,"depth_m":29.1}},{"type":"Feature","geometry":{"type":"Point","coordinates":[-119.93944,34.05401]},"properties":{"depth_ft":80,"depth_m":24.4}},{"type":"Feature","geometry":{"type":"Point","coordinates":[-119.92432,34.05401]},"properties":{"depth_ft":38,"depth_m":11.7}},{"type":"Feature","geometry":{"type":"Point","coordinates":[-119.90921,34.05401]},"properties":{"depth_ft":27,"depth_m":8.2}},{"type":"Feature","geometry":{"type":"Point","coordinates":[-120.25679,34.04147]},"properties":{"depth_ft":122,"depth_m":37.3}},{"type":"Feature","geometry":{"type":"Point","coordinates":[-120.24168,34.04147]},"properties":{"depth_ft":88,"depth_m":26.9}},{"type":"Feature","geometry":{"type":"Point","coordinates":[-120.22656,34.04147]},"properties":{"depth_ft":66,"depth_m":20.2}},{"type":"Feature","geometry":{"type":"Point","coordinates":[-120.21145,34.04147]},"properties":{"depth_ft":72,"depth_m":21.9}},{"type":"Feature","geometry":{"type":"Point","coordinates":[-120.19634,34.04147]},"properties":{"depth_ft":82,"depth_m":25.0}},{"type":"Feature","geometry":{"type":"Point","coordinates":[-120.18123,34.04147]},"properties":{"depth_ft":79,"depth_m":24.2}},{"type":"Feature","geometry":{"type":"Point","coordinates":[-120.16612,34.04147]},"properties":{"depth_ft":72,"depth_m":22.1}},{"type":"Feature","geometry":{"type":"Point","coordinates":[-120.151,34.04147]},"properties":{"depth_ft":90,"depth_m":27.5}},{"type":"Feature","geometry":{"type":"Point","coordinates":[-120.13589,34.04147]},"properties":{"depth_ft":75,"depth_m":22.8}},{"type":"Feature","geometry":{"type":"Point","coordinates":[-120.12078,34.04147]},"properties":{"depth_ft":68,"depth_m":20.9}},{"type":"Feature","geometry":{"type":"Point","coordinates":[-120.10567,34.04147]},"properties":{"depth_ft":107,"depth_m":32.8}},{"type":"Feature","geometry":{"type":"Point","coordinates":[-120.09056,34.04147]},"properties":{"depth_ft":111,"depth_m":33.7}},{"type":"Feature","geometry":{"type":"Point","coordinates":[-120.07544,34.04147]},"properties":{"depth_ft":67,"depth_m":20.3}},{"type":"Feature","geometry":{"type":"Point","coordinates":[-120.06033,34.04147]},"properties":{"depth_ft":59,"depth_m":17.9}},{"type":"Feature","geometry":{"type":"Point","coordinates":[-120.04522,34.04147]},"properties":{"depth_ft":25,"depth_m":7.7}},{"type":"Feature","geometry":{"type":"Point","coordinates":[-120.03011,34.04147]},"properties":{"depth_ft":60,"depth_m":18.3}},{"type":"Feature","geometry":{"type":"Point","coordinates":[-120.015,34.04147]},"properties":{"depth_ft":96,"depth_m":29.2}},{"type":"Feature","geometry":{"type":"Point","coordinates":[-119.99988,34.04147]},"properties":{"depth_ft":102,"depth_m":31.0}},{"type":"Feature","geometry":{"type":"Point","coordinates":[-119.98477,34.04147]},"properties":{"depth_ft":113,"depth_m":34.3}},{"type":"Feature","geometry":{"type":"Point","coordinates":[-119.96966,34.04147]},"properties":{"depth_ft":126,"depth_m":38.3}},{"type":"Feature","geometry":{"type":"Point","coordinates":[-119.95455,34.04147]},"properties":{"depth_ft":123,"depth_m":37.4}},{"type":"Feature","geometry":{"type":"Point","coordinates":[-119.93944,34.04147]},"properties":{"depth_ft":142,"depth_m":43.2}},{"type":"Feature","geometry":{"type":"Point","coordinates":[-119.92432,34.04147]},"properties":{"depth_ft":94,"depth_m":28.8}},{"type":"Feature","geometry":{"type":"Point","coordinates":[-119.90921,34.04147]},"properties":{"depth_ft":95,"depth_m":29.1}},{"type":"Feature","geometry":{"type":"Point","coordinates":[-120.25679,34.02894]},"properties":{"depth_ft":82,"depth_m":24.9}},{"type":"Feature","geometry":{"type":"Point","coordinates":[-120.24168,34.02894]},"properties":{"depth_ft":55,"depth_m":16.7}},{"type":"Feature","geometry":{"type":"Point","coordinates":[-120.22656,34.02894]},"properties":{"depth_ft":55,"depth_m":16.8}},{"type":"Feature","geometry":{"type":"Point","coordinates":[-120.21145,34.02894]},"properties":{"depth_ft":71,"depth_m":21.5}},{"type":"Feature","geometry":{"type":"Point","coordinates":[-120.19634,34.02894]},"properties":{"depth_ft":64,"depth_m":19.6}},{"type":"Feature","geometry":{"type":"Point","coordinates":[-120.18123,34.02894]},"properties":{"depth_ft":66,"depth_m":20.1}},{"type":"Feature","geometry":{"type":"Point","coordinates":[-120.16612,34.02894]},"properties":{"depth_ft":62,"depth_m":18.9}},{"type":"Feature","geometry":{"type":"Point","coordinates":[-120.151,34.02894]},"properties":{"depth_ft":39,"depth_m":11.8}},{"type":"Feature","geometry":{"type":"Point","coordinates":[-120.13589,34.02894]},"properties":{"depth_ft":21,"depth_m":6.5}},{"type":"Feature","geometry":{"type":"Point","coordinates":[-120.12078,34.02894]},"properties":{"depth_ft":51,"depth_m":15.6}},{"type":"Feature","geometry":{"type":"Point","coordinates":[-120.10567,34.02894]},"properties":{"depth_ft":47,"depth_m":14.3}},{"type":"Feature","geometry":{"type":"Point","coordinates":[-120.09056,34.02894]},"properties":{"depth_ft":68,"depth_m":20.6}},{"type":"Feature","geometry":{"type":"Point","coordinates":[-120.07544,34.02894]},"properties":{"depth_ft":50,"depth_m":15.2}},{"type":"Feature","geometry":{"type":"Point","coordinates":[-120.03011,34.02894]},"properties":{"depth_ft":60,"depth_m":18.2}},{"type":"Feature","geometry":{"type":"Point","coordinates":[-120.015,34.02894]},"properties":{"depth_ft":96,"depth_m":29.3}},{"type":"Feature","geometry":{"type":"Point","coordinates":[-119.99988,34.02894]},"properties":{"depth_ft":111,"depth_m":33.8}},{"type":"Feature","geometry":{"type":"Point","coordinates":[-119.98477,34.02894]},"properties":{"depth_ft":118,"depth_m":36.1}},{"type":"Feature","geometry":{"type":"Point","coordinates":[-119.96966,34.02894]},"properties":{"depth_ft":120,"depth_m":36.5}},{"type":"Feature","geometry":{"type":"Point","coordinates":[-119.95455,34.02894]},"properties":{"depth_ft":144,"depth_m":43.9}},{"type":"Feature","geometry":{"type":"Point","coordinates":[-119.93944,34.02894]},"properties":{"depth_ft":139,"depth_m":42.4}},{"type":"Feature","geometry":{"type":"Point","coordinates":[-119.92432,34.02894]},"properties":{"depth_ft":107,"depth_m":32.5}},{"type":"Feature","geometry":{"type":"Point","coordinates":[-119.90921,34.02894]},"properties":{"depth_ft":109,"depth_m":33.2}},{"type":"Feature","geometry":{"type":"Point","coordinates":[-120.25679,34.0164]},"properties":{"depth_ft":95,"depth_m":28.9}},{"type":"Feature","geometry":{"type":"Point","coordinates":[-120.24168,34.0164]},"properties":{"depth_ft":54,"depth_m":16.4}},{"type":"Feature","geometry":{"type":"Point","coordinates":[-120.22656,34.0164]},"properties":{"depth_ft":37,"depth_m":11.3}},{"type":"Feature","geometry":{"type":"Point","coordinates":[-120.21145,34.0164]},"properties":{"depth_ft":41,"depth_m":12.5}},{"type":"Feature","geometry":{"type":"Point","coordinates":[-120.19634,34.0164]},"properties":{"depth_ft":47,"depth_m":14.3}},{"type":"Feature","geometry":{"type":"Point","coordinates":[-120.18123,34.0164]},"properties":{"depth_ft":40,"depth_m":12.1}},{"type":"Feature","geometry":{"type":"Point","coordinates":[-120.16612,34.0164]},"properties":{"depth_ft":37,"depth_m":11.4}},{"type":"Feature","geometry":{"type":"Point","coordinates":[-120.04522,34.0164]},"properties":{"depth_ft":33,"depth_m":9.9}},{"type":"Feature","geometry":{"type":"Point","coordinates":[-120.03011,34.0164]},"properties":{"depth_ft":64,"depth_m":19.5}},{"type":"Feature","geometry":{"type":"Point","coordinates":[-120.015,34.0164]},"properties":{"depth_ft":83,"depth_m":25.2}},{"type":"Feature","geometry":{"type":"Point","coordinates":[-119.99988,34.0164]},"properties":{"depth_ft":101,"depth_m":30.9}},{"type":"Feature","geometry":{"type":"Point","coordinates":[-119.98477,34.0164]},"properties":{"depth_ft":119,"depth_m":36.3}},{"type":"Feature","geometry":{"type":"Point","coordinates":[-119.96966,34.0164]},"properties":{"depth_ft":129,"depth_m":39.2}},{"type":"Feature","geometry":{"type":"Point","coordinates":[-119.95455,34.0164]},"properties":{"depth_ft":136,"depth_m":41.5}},{"type":"Feature","geometry":{"type":"Point","coordinates":[-119.93944,34.0164]},"properties":{"depth_ft":136,"depth_m":41.5}},{"type":"Feature","geometry":{"type":"Point","coordinates":[-119.92432,34.0164]},"properties":{"depth_ft":113,"depth_m":34.5}},{"type":"Feature","geometry":{"type":"Point","coordinates":[-119.90921,34.0164]},"properties":{"depth_ft":121,"depth_m":36.8}},{"type":"Feature","geometry":{"type":"Point","coordinates":[-120.25679,34.00387]},"properties":{"depth_ft":48,"depth_m":14.6}},{"type":"Feature","geometry":{"type":"Point","coordinates":[-120.04522,34.00387]},"properties":{"depth_ft":20,"depth_m":6.2}},{"type":"Feature","geometry":{"type":"Point","coordinates":[-120.03011,34.00387]},"properties":{"depth_ft":63,"depth_m":19.4}},{"type":"Feature","geometry":{"type":"Point","coordinates":[-120.015,34.00387]},"properties":{"depth_ft":78,"depth_m":23.8}},{"type":"Feature","geometry":{"type":"Point","coordinates":[-119.99988,34.00387]},"properties":{"depth_ft":88,"depth_m":26.9}},{"type":"Feature","geometry":{"type":"Point","coordinates":[-119.98477,34.00387]},"properties":{"depth_ft":122,"depth_m":37.2}},{"type":"Feature","geometry":{"type":"Point","coordinates":[-119.96966,34.00387]},"properties":{"depth_ft":122,"depth_m":37.3}},{"type":"Feature","geometry":{"type":"Point","coordinates":[-119.95455,34.00387]},"properties":{"depth_ft":131,"depth_m":40.0}},{"type":"Feature","geometry":{"type":"Point","coordinates":[-119.93944,34.00387]},"properties":{"depth_ft":155,"depth_m":47.1}},{"type":"Feature","geometry":{"type":"Point","coordinates":[-119.92432,34.00387]},"properties":{"depth_ft":117,"depth_m":35.7}},{"type":"Feature","geometry":{"type":"Point","coordinates":[-119.90921,34.00387]},"properties":{"depth_ft":155,"depth_m":47.3}},{"type":"Feature","geometry":{"type":"Point","coordinates":[-120.25679,33.99134]},"properties":{"depth_ft":93,"depth_m":28.4}},{"type":"Feature","geometry":{"type":"Point","coordinates":[-120.24168,33.99134]},"properties":{"depth_ft":31,"depth_m":9.6}},{"type":"Feature","geometry":{"type":"Point","coordinates":[-120.03011,33.99134]},"properties":{"depth_ft":37,"depth_m":11.3}},{"type":"Feature","geometry":{"type":"Point","coordinates":[-120.015,33.99134]},"properties":{"depth_ft":70,"depth_m":21.4}},{"type":"Feature","geometry":{"type":"Point","coordinates":[-119.99988,33.99134]},"properties":{"depth_ft":69,"depth_m":21.1}},{"type":"Feature","geometry":{"type":"Point","coordinates":[-119.98477,33.99134]},"properties":{"depth_ft":64,"depth_m":19.5}},{"type":"Feature","geometry":{"type":"Point","coordinates":[-119.96966,33.99134]},"properties":{"depth_ft":150,"depth_m":45.6}},{"type":"Feature","geometry":{"type":"Point","coordinates":[-119.95455,33.99134]},"properties":{"depth_ft":163,"depth_m":49.6}},{"type":"Feature","geometry":{"type":"Point","coordinates":[-119.93944,33.99134]},"properties":{"depth_ft":172,"depth_m":52.4}},{"type":"Feature","geometry":{"type":"Point","coordinates":[-119.92432,33.99134]},"properties":{"depth_ft":211,"depth_m":64.4}},{"type":"Feature","geometry":{"type":"Point","coordinates":[-119.90921,33.99134]},"properties":{"depth_ft":221,"depth_m":67.3}},{"type":"Feature","geometry":{"type":"Point","coordinates":[-120.25679,33.9788]},"properties":{"depth_ft":143,"depth_m":43.6}},{"type":"Feature","geometry":{"type":"Point","coordinates":[-120.24168,33.9788]},"properties":{"depth_ft":88,"depth_m":27.0}},{"type":"Feature","geometry":{"type":"Point","coordinates":[-120.22656,33.9788]},"properties":{"depth_ft":28,"depth_m":8.7}},{"type":"Feature","geometry":{"type":"Point","coordinates":[-119.96966,33.9788]},"properties":{"depth_ft":42,"depth_m":12.7}},{"type":"Feature","geometry":{"type":"Point","coordinates":[-119.95455,33.9788]},"properties":{"depth_ft":142,"depth_m":43.3}},{"type":"Feature","geometry":{"type":"Point","coordinates":[-119.93944,33.9788]},"properties":{"depth_ft":228,"depth_m":69.6}},{"type":"Feature","geometry":{"type":"Point","coordinates":[-119.90921,33.9788]},"properties":{"depth_ft":311,"depth_m":94.6}},{"type":"Feature","geometry":{"type":"Point","coordinates":[-120.25679,33.96627]},"properties":{"depth_ft":187,"depth_m":57.0}},{"type":"Feature","geometry":{"type":"Point","coordinates":[-120.24168,33.96627]},"properties":{"depth_ft":138,"depth_m":42.0}},{"type":"Feature","geometry":{"type":"Point","coordinates":[-120.22656,33.96627]},"properties":{"depth_ft":67,"depth_m":20.4}},{"type":"Feature","geometry":{"type":"Point","coordinates":[-120.21145,33.96627]},"properties":{"depth_ft":27,"depth_m":8.2}},{"type":"Feature","geometry":{"type":"Point","coordinates":[-119.96966,33.96627]},"properties":{"depth_ft":48,"depth_m":14.5}},{"type":"Feature","geometry":{"type":"Point","coordinates":[-119.95455,33.96627]},"properties":{"depth_ft":66,"depth_m":20.1}},{"type":"Feature","geometry":{"type":"Point","coordinates":[-119.93944,33.96627]},"properties":{"depth_ft":226,"depth_m":68.8}},{"type":"Feature","geometry":{"type":"Point","coordinates":[-120.25679,33.95373]},"properties":{"depth_ft":214,"depth_m":65.3}},{"type":"Feature","geometry":{"type":"Point","coordinates":[-120.24168,33.95373]},"properties":{"depth_ft":169,"depth_m":51.4}},{"type":"Feature","geometry":{"type":"Point","coordinates":[-120.22656,33.95373]},"properties":{"depth_ft":113,"depth_m":34.3}},{"type":"Feature","geometry":{"type":"Point","coordinates":[-120.21145,33.95373]},"properties":{"depth_ft":48,"depth_m":14.5}},{"type":"Feature","geometry":{"type":"Point","coordinates":[-119.96966,33.95373]},"properties":{"depth_ft":31,"depth_m":9.4}},{"type":"Feature","geometry":{"type":"Point","coordinates":[-119.95455,33.95373]},"properties":{"depth_ft":120,"depth_m":36.5}},{"type":"Feature","geometry":{"type":"Point","coordinates":[-119.93944,33.95373]},"properties":{"depth_ft":231,"depth_m":70.5}},{"type":"Feature","geometry":{"type":"Point","coordinates":[-119.92432,33.95373]},"properties":{"depth_ft":268,"depth_m":81.7}},{"type":"Feature","geometry":{"type":"Point","coordinates":[-120.25679,33.9412]},"properties":{"depth_ft":274,"depth_m":83.5}},{"type":"Feature","geometry":{"type":"Point","coordinates":[-120.24168,33.9412]},"properties":{"depth_ft":226,"depth_m":69.0}},{"type":"Feature","geometry":{"type":"Point","coordinates":[-120.22656,33.9412]},"properties":{"depth_ft":173,"depth_m":52.6}},{"type":"Feature","geometry":{"type":"Point","coordinates":[-120.21145,33.9412]},"properties":{"depth_ft":81,"depth_m":24.6}},{"type":"Feature","geometry":{"type":"Point","coordinates":[-120.19634,33.9412]},"properties":{"depth_ft":52,"depth_m":15.8}},{"type":"Feature","geometry":{"type":"Point","coordinates":[-119.99988,33.9412]},"properties":{"depth_ft":7,"depth_m":2.2}},{"type":"Feature","geometry":{"type":"Point","coordinates":[-119.98477,33.9412]},"properties":{"depth_ft":22,"depth_m":6.6}},{"type":"Feature","geometry":{"type":"Point","coordinates":[-119.96966,33.9412]},"properties":{"depth_ft":16,"depth_m":4.8}},{"type":"Feature","geometry":{"type":"Point","coordinates":[-119.95455,33.9412]},"properties":{"depth_ft":149,"depth_m":45.3}},{"type":"Feature","geometry":{"type":"Point","coordinates":[-119.93944,33.9412]},"properties":{"depth_ft":226,"depth_m":69.0}},{"type":"Feature","geometry":{"type":"Point","coordinates":[-119.92432,33.9412]},"properties":{"depth_ft":265,"depth_m":80.9}},{"type":"Feature","geometry":{"type":"Point","coordinates":[-119.90921,33.9412]},"properties":{"depth_ft":282,"depth_m":86.1}},{"type":"Feature","geometry":{"type":"Point","coordinates":[-120.24168,33.92866]},"properties":{"depth_ft":288,"depth_m":87.7}},{"type":"Feature","geometry":{"type":"Point","coordinates":[-120.22656,33.92866]},"properties":{"depth_ft":236,"depth_m":72.1}},{"type":"Feature","geometry":{"type":"Point","coordinates":[-120.21145,33.92866]},"properties":{"depth_ft":157,"depth_m":47.9}},{"type":"Feature","geometry":{"type":"Point","coordinates":[-120.19634,33.92866]},"properties":{"depth_ft":66,"depth_m":20.1}},{"type":"Feature","geometry":{"type":"Point","coordinates":[-120.18123,33.92866]},"properties":{"depth_ft":15,"depth_m":4.7}},{"type":"Feature","geometry":{"type":"Point","coordinates":[-120.015,33.92866]},"properties":{"depth_ft":66,"depth_m":20.0}},{"type":"Feature","geometry":{"type":"Point","coordinates":[-119.99988,33.92866]},"properties":{"depth_ft":93,"depth_m":28.2}},{"type":"Feature","geometry":{"type":"Point","coordinates":[-119.98477,33.92866]},"properties":{"depth_ft":89,"depth_m":27.0}},{"type":"Feature","geometry":{"type":"Point","coordinates":[-119.96966,33.92866]},"properties":{"depth_ft":97,"depth_m":29.6}},{"type":"Feature","geometry":{"type":"Point","coordinates":[-119.95455,33.92866]},"properties":{"depth_ft":156,"depth_m":47.6}},{"type":"Feature","geometry":{"type":"Point","coordinates":[-119.93944,33.92866]},"properties":{"depth_ft":231,"depth_m":70.5}},{"type":"Feature","geometry":{"type":"Point","coordinates":[-119.92432,33.92866]},"properties":{"depth_ft":267,"depth_m":81.5}},{"type":"Feature","geometry":{"type":"Point","coordinates":[-119.90921,33.92866]},"properties":{"depth_ft":295,"depth_m":89.9}},{"type":"Feature","geometry":{"type":"Point","coordinates":[-120.22656,33.91613]},"properties":{"depth_ft":275,"depth_m":83.8}},{"type":"Feature","geometry":{"type":"Point","coordinates":[-120.21145,33.91613]},"properties":{"depth_ft":216,"depth_m":65.8}},{"type":"Feature","geometry":{"type":"Point","coordinates":[-120.19634,33.91613]},"properties":{"depth_ft":139,"depth_m":42.4}},{"type":"Feature","geometry":{"type":"Point","coordinates":[-120.18123,33.91613]},"properties":{"depth_ft":74,"depth_m":22.5}},{"type":"Feature","geometry":{"type":"Point","coordinates":[-120.04522,33.91613]},"properties":{"depth_ft":29,"depth_m":8.8}},{"type":"Feature","geometry":{"type":"Point","coordinates":[-120.03011,33.91613]},"properties":{"depth_ft":59,"depth_m":18.1}},{"type":"Feature","geometry":{"type":"Point","coordinates":[-120.015,33.91613]},"properties":{"depth_ft":88,"depth_m":26.8}},{"type":"Feature","geometry":{"type":"Point","coordinates":[-119.99988,33.91613]},"properties":{"depth_ft":101,"depth_m":30.7}},{"type":"Feature","geometry":{"type":"Point","coordinates":[-119.98477,33.91613]},"properties":{"depth_ft":101,"depth_m":30.7}},{"type":"Feature","geometry":{"type":"Point","coordinates":[-119.96966,33.91613]},"properties":{"depth_ft":109,"depth_m":33.2}},{"type":"Feature","geometry":{"type":"Point","coordinates":[-119.95455,33.91613]},"properties":{"depth_ft":190,"depth_m":57.9}},{"type":"Feature","geometry":{"type":"Point","coordinates":[-119.93944,33.91613]},"properties":{"depth_ft":253,"depth_m":77.0}},{"type":"Feature","geometry":{"type":"Point","coordinates":[-119.92432,33.91613]},"properties":{"depth_ft":275,"depth_m":84.0}},{"type":"Feature","geometry":{"type":"Point","coordinates":[-119.90921,33.91613]},"properties":{"depth_ft":299,"depth_m":91.1}},{"type":"Feature","geometry":{"type":"Point","coordinates":[-120.21145,33.9036]},"properties":{"depth_ft":284,"depth_m":86.4}},{"type":"Feature","geometry":{"type":"Point","coordinates":[-120.19634,33.9036]},"properties":{"depth_ft":238,"depth_m":72.6}},{"type":"Feature","geometry":{"type":"Point","coordinates":[-120.18123,33.9036]},"properties":{"depth_ft":196,"depth_m":59.6}},{"type":"Feature","geometry":{"type":"Point","coordinates":[-120.16612,33.9036]},"properties":{"depth_ft":119,"depth_m":36.3}},{"type":"Feature","geometry":{"type":"Point","coordinates":[-120.151,33.9036]},"properties":{"depth_ft":78,"depth_m":23.6}},{"type":"Feature","geometry":{"type":"Point","coordinates":[-120.09056,33.9036]},"properties":{"depth_ft":63,"depth_m":19.1}},{"type":"Feature","geometry":{"type":"Point","coordinates":[-120.07544,33.9036]},"properties":{"depth_ft":67,"depth_m":20.6}},{"type":"Feature","geometry":{"type":"Point","coordinates":[-120.06033,33.9036]},"properties":{"depth_ft":79,"depth_m":24.1}},{"type":"Feature","geometry":{"type":"Point","coordinates":[-120.04522,33.9036]},"properties":{"depth_ft":98,"depth_m":30.0}},{"type":"Feature","geometry":{"type":"Point","coordinates":[-120.03011,33.9036]},"properties":{"depth_ft":105,"depth_m":32.0}},{"type":"Feature","geometry":{"type":"Point","coordinates":[-120.015,33.9036]},"properties":{"depth_ft":103,"depth_m":31.3}},{"type":"Feature","geometry":{"type":"Point","coordinates":[-119.99988,33.9036]},"properties":{"depth_ft":108,"depth_m":32.8}},{"type":"Feature","geometry":{"type":"Point","coordinates":[-119.98477,33.9036]},"properties":{"depth_ft":117,"depth_m":35.5}},{"type":"Feature","geometry":{"type":"Point","coordinates":[-119.96966,33.9036]},"properties":{"depth_ft":125,"depth_m":38.0}},{"type":"Feature","geometry":{"type":"Point","coordinates":[-119.95455,33.9036]},"properties":{"depth_ft":219,"depth_m":66.6}},{"type":"Feature","geometry":{"type":"Point","coordinates":[-119.93944,33.9036]},"properties":{"depth_ft":270,"depth_m":82.3}},{"type":"Feature","geometry":{"type":"Point","coordinates":[-119.92432,33.9036]},"properties":{"depth_ft":281,"depth_m":85.8}},{"type":"Feature","geometry":{"type":"Point","coordinates":[-119.90921,33.9036]},"properties":{"depth_ft":317,"depth_m":96.6}},{"type":"Feature","geometry":{"type":"Point","coordinates":[-120.16612,33.89106]},"properties":{"depth_ft":300,"depth_m":91.5}},{"type":"Feature","geometry":{"type":"Point","coordinates":[-120.151,33.89106]},"properties":{"depth_ft":248,"depth_m":75.5}},{"type":"Feature","geometry":{"type":"Point","coordinates":[-120.13589,33.89106]},"properties":{"depth_ft":184,"depth_m":56.1}},{"type":"Feature","geometry":{"type":"Point","coordinates":[-120.12078,33.89106]},"properties":{"depth_ft":66,"depth_m":20.1}},{"type":"Feature","geometry":{"type":"Point","coordinates":[-120.10567,33.89106]},"properties":{"depth_ft":85,"depth_m":25.8}},{"type":"Feature","geometry":{"type":"Point","coordinates":[-120.09056,33.89106]},"properties":{"depth_ft":144,"depth_m":44.0}},{"type":"Feature","geometry":{"type":"Point","coordinates":[-120.07544,33.89106]},"properties":{"depth_ft":136,"depth_m":41.6}},{"type":"Feature","geometry":{"type":"Point","coordinates":[-120.06033,33.89106]},"properties":{"depth_ft":110,"depth_m":33.7}},{"type":"Feature","geometry":{"type":"Point","coordinates":[-120.04522,33.89106]},"properties":{"depth_ft":134,"depth_m":40.8}},{"type":"Feature","geometry":{"type":"Point","coordinates":[-120.03011,33.89106]},"properties":{"depth_ft":162,"depth_m":49.4}},{"type":"Feature","geometry":{"type":"Point","coordinates":[-120.015,33.89106]},"properties":{"depth_ft":163,"depth_m":49.6}},{"type":"Feature","geometry":{"type":"Point","coordinates":[-119.99988,33.89106]},"properties":{"depth_ft":156,"depth_m":47.6}},{"type":"Feature","geometry":{"type":"Point","coordinates":[-119.98477,33.89106]},"properties":{"depth_ft":174,"depth_m":52.9}},{"type":"Feature","geometry":{"type":"Point","coordinates":[-119.96966,33.89106]},"properties":{"depth_ft":194,"depth_m":59.1}},{"type":"Feature","geometry":{"type":"Point","coordinates":[-119.95455,33.89106]},"properties":{"depth_ft":228,"depth_m":69.5}},{"type":"Feature","geometry":{"type":"Point","coordinates":[-119.93944,33.89106]},"properties":{"depth_ft":284,"depth_m":86.4}},{"type":"Feature","geometry":{"type":"Point","coordinates":[-119.92432,33.89106]},"properties":{"depth_ft":313,"depth_m":95.3}},{"type":"Feature","geometry":{"type":"Point","coordinates":[-120.13589,33.87853]},"properties":{"depth_ft":324,"depth_m":98.9}},{"type":"Feature","geometry":{"type":"Point","coordinates":[-120.12078,33.87853]},"properties":{"depth_ft":263,"depth_m":80.0}},{"type":"Feature","geometry":{"type":"Point","coordinates":[-120.10567,33.87853]},"properties":{"depth_ft":232,"depth_m":70.8}},{"type":"Feature","geometry":{"type":"Point","coordinates":[-120.09056,33.87853]},"properties":{"depth_ft":231,"depth_m":70.4}},{"type":"Feature","geometry":{"type":"Point","coordinates":[-120.07544,33.87853]},"properties":{"depth_ft":221,"depth_m":67.3}},{"type":"Feature","geometry":{"type":"Point","coordinates":[-120.06033,33.87853]},"properties":{"depth_ft":180,"depth_m":55.0}},{"type":"Feature","geometry":{"type":"Point","coordinates":[-120.04522,33.87853]},"properties":{"depth_ft":181,"depth_m":55.2}},{"type":"Feature","geometry":{"type":"Point","coordinates":[-120.03011,33.87853]},"properties":{"depth_ft":193,"depth_m":58.9}},{"type":"Feature","geometry":{"type":"Point","coordinates":[-120.015,33.87853]},"properties":{"depth_ft":190,"depth_m":57.8}},{"type":"Feature","geometry":{"type":"Point","coordinates":[-119.99988,33.87853]},"properties":{"depth_ft":196,"depth_m":59.9}},{"type":"Feature","geometry":{"type":"Point","coordinates":[-119.98477,33.87853]},"properties":{"depth_ft":213,"depth_m":64.9}},{"type":"Feature","geometry":{"type":"Point","coordinates":[-119.96966,33.87853]},"properties":{"depth_ft":230,"depth_m":70.2}},{"type":"Feature","geometry":{"type":"Point","coordinates":[-119.95455,33.87853]},"properties":{"depth_ft":245,"depth_m":74.7}},{"type":"Feature","geometry":{"type":"Point","coordinates":[-119.93944,33.87853]},"properties":{"depth_ft":285,"depth_m":86.7}},{"type":"Feature","geometry":{"type":"Point","coordinates":[-119.92432,33.87853]},"properties":{"depth_ft":330,"depth_m":100.6}},{"type":"Feature","geometry":{"type":"Point","coordinates":[-120.09056,33.86599]},"properties":{"depth_ft":301,"depth_m":91.8}},{"type":"Feature","geometry":{"type":"Point","coordinates":[-120.07544,33.86599]},"properties":{"depth_ft":282,"depth_m":86.1}},{"type":"Feature","geometry":{"type":"Point","coordinates":[-120.06033,33.86599]},"properties":{"depth_ft":244,"depth_m":74.4}},{"type":"Feature","geometry":{"type":"Point","coordinates":[-120.04522,33.86599]},"properties":{"depth_ft":223,"depth_m":67.9}},{"type":"Feature","geometry":{"type":"Point","coordinates":[-120.03011,33.86599]},"properties":{"depth_ft":228,"depth_m":69.5}},{"type":"Feature","geometry":{"type":"Point","coordinates":[-120.015,33.86599]},"properties":{"depth_ft":244,"depth_m":74.4}},{"type":"Feature","geometry":{"type":"Point","coordinates":[-119.99988,33.86599]},"properties":{"depth_ft":240,"depth_m":73.2}},{"type":"Feature","geometry":{"type":"Point","coordinates":[-119.98477,33.86599]},"properties":{"depth_ft":247,"depth_m":75.3}},{"type":"Feature","geometry":{"type":"Point","coordinates":[-119.96966,33.86599]},"properties":{"depth_ft":264,"depth_m":80.5}},{"type":"Feature","geometry":{"type":"Point","coordinates":[-119.95455,33.86599]},"properties":{"depth_ft":281,"depth_m":85.7}},{"type":"Feature","geometry":{"type":"Point","coordinates":[-119.93944,33.86599]},"properties":{"depth_ft":303,"depth_m":92.5}},{"type":"Feature","geometry":{"type":"Point","coordinates":[-120.07544,33.85346]},"properties":{"depth_ft":322,"depth_m":98.2}},{"type":"Feature","geometry":{"type":"Point","coordinates":[-120.06033,33.85346]},"properties":{"depth_ft":291,"depth_m":88.6}},{"type":"Feature","geometry":{"type":"Point","coordinates":[-120.04522,33.85346]},"properties":{"depth_ft":265,"depth_m":80.8}},{"type":"Feature","geometry":{"type":"Point","coordinates":[-120.03011,33.85346]},"properties":{"depth_ft":266,"depth_m":81.2}},{"type":"Feature","geometry":{"type":"Point","coordinates":[-120.015,33.85346]},"properties":{"depth_ft":256,"depth_m":78.0}},{"type":"Feature","geometry":{"type":"Point","coordinates":[-119.99988,33.85346]},"properties":{"depth_ft":255,"depth_m":77.6}},{"type":"Feature","geometry":{"type":"Point","coordinates":[-119.98477,33.85346]},"properties":{"depth_ft":270,"depth_m":82.4}},{"type":"Feature","geometry":{"type":"Point","coordinates":[-119.96966,33.85346]},"properties":{"depth_ft":293,"depth_m":89.5}},{"type":"Feature","geometry":{"type":"Point","coordinates":[-119.95455,33.85346]},"properties":{"depth_ft":305,"depth_m":93.0}},{"type":"Feature","geometry":{"type":"Point","coordinates":[-119.93944,33.85346]},"properties":{"depth_ft":324,"depth_m":98.7}},{"type":"Feature","geometry":{"type":"Point","coordinates":[-120.06033,33.84092]},"properties":{"depth_ft":322,"depth_m":98.2}},{"type":"Feature","geometry":{"type":"Point","coordinates":[-120.04522,33.84092]},"properties":{"depth_ft":303,"depth_m":92.5}},{"type":"Feature","geometry":{"type":"Point","coordinates":[-120.03011,33.84092]},"properties":{"depth_ft":291,"depth_m":88.8}},{"type":"Feature","geometry":{"type":"Point","coordinates":[-120.015,33.84092]},"properties":{"depth_ft":299,"depth_m":91.2}},{"type":"Feature","geometry":{"type":"Point","coordinates":[-119.99988,33.84092]},"properties":{"depth_ft":293,"depth_m":89.3}},{"type":"Feature","geometry":{"type":"Point","coordinates":[-119.98477,33.84092]},"properties":{"depth_ft":309,"depth_m":94.1}},{"type":"Feature","geometry":{"type":"Point","coordinates":[-119.96966,33.84092]},"properties":{"depth_ft":317,"depth_m":96.6}},{"type":"Feature","geometry":{"type":"Point","coordinates":[-119.95455,33.84092]},"properties":{"depth_ft":330,"depth_m":100.7}},{"type":"Feature","geometry":{"type":"Point","coordinates":[-120.03011,33.82839]},"properties":{"depth_ft":327,"depth_m":99.7}}]}