{"type":"FeatureCollection","features":[{"type":"Feature","geometry":{"type":"Polygon","coordinates":[[[-118.39647,32.82172],[-118.39732,32.82173],[-118.39854,32.82107],[-118.39875,32.82131],[-118.39931,32.82136],[-118.40142,32.82045],[-118.4021,32.8192],[-118.40247,32.8163],[-118.40297,32.81509],[-118.40308,32.81403],[-118.40336,32.8133],[-118.40329,32.81255],[-118.40384,32.81176],[-118.4065,32.81113],[-118.40815,32.81122],[-118.41042,32.8102],[-118.41162,32.81022],[-118.41203,32.81056],[-118.41218,32.81097],[-118.4131,32.81144],[-118.41485,32.81148],[-118.41575,32.81119],[-118.41619,32.81031],[-118.41685,32.80986],[-118.41708,32.80942],[-118.41706,32.80848],[-118.41736,32.80761],[-118.41724,32.80719],[-118.41745,32.80708],[-118.41872,32.80725],[-118.42016,32.80598],[-118.42085,32.80635],[-118.42146,32.80585],[-118.42233,32.80609],[-118.4232,32.80515],[-118.42351,32.80507],[-118.42371,32.80519],[-118.42429,32.80479],[-118.42421,32.80381],[-118.42443,32.80337],[-118.42422,32.80334],[-118.42401,32.80294],[-118.42412,32.80246],[-118.42472,32.80239],[-118.42402,32.80158],[-118.42444,32.80139],[-118.42452,32.80174],[-118.42473,32.80098],[-118.42545,32.80075],[-118.42542,32.80041],[-118.42561,32.80045],[-118.42596,32.80087],[-118.42635,32.80089],[-118.42659,32.80119],[-118.42608,32.8021],[-118.4254,32.80231],[-118.42581,32.80311],[-118.42609,32.8032],[-118.42678,32.80302],[-118.42708,32.80381],[-118.42754,32.80394],[-118.4284,32.80385],[-118.42874,32.80442],[-118.42859,32.80472],[-118.42929,32.8054],[-118.42916,32.80558],[-118.42863,32.80556],[-118.42886,32.80644],[-118.42762,32.80714],[-118.42768,32.80812],[-118.42805,32.8088],[-118.42855,32.80879],[-118.42859,32.80987],[-118.42935,32.81013],[-118.42971,32.81048],[-118.43046,32.81056],[-118.43034,32.81184],[-118.431,32.81266],[-118.4316,32.81284],[-118.43135,32.81316],[-118.43153,32.81364],[-118.43225,32.81447],[-118.43271,32.81472],[-118.43305,32.81471],[-118.43294,32.81505],[-118.43511,32.81622],[-118.43645,32.81662],[-118.43697,32.81653],[-118.4373,32.8162],[-118.43757,32.81626],[-118.43776,32.81576],[-118.43804,32.81562],[-118.43854,32.81476],[-118.43914,32.81484],[-118.4391,32.81526],[-118.43944,32.81571],[-118.43969,32.8165],[-118.44199,32.81795],[-118.44327,32.81943],[-118.44406,32.81974],[-118.44452,32.82042],[-118.44488,32.82061],[-118.44523,32.82036],[-118.44596,32.82074],[-118.44653,32.82075],[-118.44673,32.82053],[-118.4468,32.81962],[-118.44702,32.8194],[-118.44798,32.81925],[-118.44955,32.81933],[-118.45078,32.82063],[-118.45115,32.82143],[-118.45196,32.82191],[-118.45244,32.82275],[-118.45345,32.82352],[-118.4542,32.82466],[-118.45422,32.82513],[-118.45452,32.82591],[-118.45479,32.82606],[-118.45495,32.82646],[-118.45565,32.827],[-118.45674,32.82749],[-118.45704,32.82755],[-118.45725,32.82734],[-118.45787,32.82772],[-118.45846,32.82778],[-118.45858,32.82808],[-118.45987,32.82916],[-118.46028,32.83014],[-118.46065,32.8304],[-118.46063,32.83066],[-118.46092,32.83098],[-118.46258,32.83135],[-118.46398,32.83245],[-118.46496,32.8329],[-118.46557,32.83293],[-118.46641,32.83325],[-118.46667,32.83355],[-118.46742,32.83327],[-118.46811,32.83327],[-118.46792,32.83367],[-118.46823,32.83363],[-118.46831,32.83397],[-118.46857,32.83412],[-118.46904,32.83407],[-118.46905,32.83429],[-118.46959,32.83433],[-118.46992,32.83466],[-118.4698,32.83491],[-118.46988,32.83551],[-118.47016,32.83556],[-118.47025,32.83574],[-118.46999,32.83736],[-118.47035,32.8378],[-118.47081,32.83755],[-118.47092,32.83797],[-118.47139,32.83797],[-118.47158,32.83855],[-118.47214,32.83918],[-118.47246,32.83899],[-118.47375,32.83926],[-118.4739,32.83962],[-118.47346,32.84016],[-118.47413,32.84048],[-118.47477,32.84054],[-118.47503,32.84139],[-118.47619,32.84171],[-118.47796,32.84162],[-118.47821,32.84167],[-118.4784,32.84204],[-118.47877,32.84216],[-118.48078,32.84221],[-118.48147,32.843],[-118.48154,32.84341],[-118.48227,32.8434],[-118.48335,32.84298],[-118.48352,32.84315],[-118.48441,32.8429],[-118.48456,32.84344],[-118.48437,32.84378],[-118.48431,32.84454],[-118.48468,32.845],[-118.48537,32.84498],[-118.48593,32.84464],[-118.48602,32.84499],[-118.4869,32.84498],[-118.48708,32.84445],[-118.48731,32.84443],[-118.48739,32.84466],[-118.48796,32.84484],[-118.48817,32.8443],[-118.48894,32.84411],[-118.48928,32.84459],[-118.48964,32.84456],[-118.48961,32.84485],[-118.48998,32.84512],[-118.4899,32.84542],[-118.49009,32.84575],[-118.48991,32.84595],[-118.49002,32.84635],[-118.48989,32.84646],[-118.49064,32.84649],[-118.49012,32.84685],[-118.48964,32.84763],[-118.49128,32.84907],[-118.4918,32.84934],[-118.49215,32.84979],[-118.49278,32.84996],[-118.49334,32.85093],[-118.49547,32.85137],[-118.49585,32.85112],[-118.49652,32.85155],[-118.49736,32.85145],[-118.49754,32.85126],[-118.49833,32.85171],[-118.49957,32.85177],[-118.49947,32.85202],[-118.49964,32.85204],[-118.50038,32.85148],[-118.50012,32.85224],[-118.50077,32.85238],[-118.5009,32.85263],[-118.50035,32.85318],[-118.49963,32.85428],[-118.49963,32.8556],[-118.49975,32.85632],[-118.49999,32.85677],[-118.50067,32.85727],[-118.50049,32.85776],[-118.50107,32.85895],[-118.50146,32.85915],[-118.50156,32.85991],[-118.50144,32.86119],[-118.50211,32.86174],[-118.5018,32.86203],[-118.50185,32.86222],[-118.5022,32.8629],[-118.50258,32.86324],[-118.50529,32.86498],[-118.50583,32.86564],[-118.50607,32.86646],[-118.50642,32.86676],[-118.50688,32.86686],[-118.50657,32.86728],[-118.50659,32.86765],[-118.50726,32.86853],[-118.50764,32.86974],[-118.50834,32.87096],[-118.50831,32.87154],[-118.50805,32.87193],[-118.50828,32.87212],[-118.50797,32.8724],[-118.50758,32.87316],[-118.50785,32.87408],[-118.50749,32.87457],[-118.50706,32.87472],[-118.50721,32.87486],[-118.50697,32.87504],[-118.50708,32.87523],[-118.50692,32.87529],[-118.50715,32.8754],[-118.50735,32.87606],[-118.50694,32.87633],[-118.50698,32.87667],[-118.50662,32.87676],[-118.50721,32.87776],[-118.50727,32.87817],[-118.50779,32.87849],[-118.50796,32.87884],[-118.5087,32.87947],[-118.50891,32.87944],[-118.50909,32.87994],[-118.50937,32.87999],[-118.50958,32.87971],[-118.50971,32.88013],[-118.50989,32.88007],[-118.50997,32.88039],[-118.51032,32.88069],[-118.511,32.88055],[-118.51128,32.88087],[-118.51196,32.88107],[-118.51234,32.88148],[-118.51269,32.88165],[-118.51321,32.88161],[-118.51339,32.8819],[-118.51422,32.88238],[-118.51672,32.88317],[-118.51729,32.88439],[-118.51812,32.88457],[-118.51897,32.88525],[-118.51924,32.88531],[-118.52039,32.8847],[-118.52066,32.88483],[-118.52061,32.88553],[-118.51984,32.88603],[-118.51954,32.88569],[-118.51954,32.88634],[-118.5182,32.88688],[-118.51855,32.88793],[-118.51873,32.88826],[-118.5201,32.8891],[-118.52115,32.8893],[-118.52125,32.89057],[-118.52233,32.89092],[-118.52268,32.89151],[-118.52338,32.8919],[-118.52385,32.89245],[-118.5243,32.89258],[-118.52445,32.89301],[-118.52465,32.89307],[-118.52457,32.89337],[-118.52491,32.89373],[-118.52497,32.89399],[-118.52458,32.89457],[-118.52472,32.89534],[-118.52538,32.8961],[-118.52627,32.89664],[-118.52701,32.89773],[-118.52793,32.89806],[-118.52801,32.89857],[-118.52905,32.89963],[-118.52922,32.90058],[-118.52973,32.90024],[-118.52971,32.90097],[-118.52898,32.90167],[-118.52896,32.90239],[-118.52938,32.90237],[-118.52929,32.90265],[-118.52946,32.90318],[-118.52986,32.90329],[-118.53002,32.90394],[-118.5305,32.90403],[-118.53051,32.90454],[-118.53126,32.90545],[-118.53149,32.90614],[-118.53225,32.90657],[-118.53275,32.90651],[-118.53332,32.9073],[-118.53379,32.90757],[-118.53448,32.9072],[-118.53495,32.90736],[-118.53528,32.90698],[-118.53559,32.90734],[-118.53593,32.90738],[-118.53623,32.90704],[-118.53598,32.90613],[-118.53661,32.90595],[-118.53695,32.90563],[-118.53712,32.9057],[-118.5371,32.90603],[-118.53734,32.90609],[-118.53768,32.90598],[-118.53767,32.90574],[-118.53787,32.90561],[-118.53814,32.90572],[-118.53814,32.90611],[-118.53872,32.9063],[-118.53839,32.9066],[-118.53797,32.90647],[-118.53784,32.90657],[-118.53849,32.90706],[-118.53823,32.90748],[-118.5383,32.9078],[-118.53924,32.90779],[-118.53909,32.9081],[-118.53932,32.9084],[-118.53897,32.90874],[-118.53922,32.90866],[-118.53955,32.90901],[-118.54014,32.90901],[-118.54044,32.90961],[-118.54119,32.90966],[-118.54129,32.91019],[-118.54195,32.91035],[-118.54172,32.91057],[-118.54178,32.91078],[-118.54102,32.91098],[-118.54112,32.91136],[-118.54149,32.91134],[-118.5407,32.91174],[-118.54049,32.91209],[-118.54055,32.9124],[-118.54033,32.91304],[-118.54047,32.91375],[-118.5407,32.91407],[-118.54026,32.91559],[-118.54042,32.91607],[-118.54216,32.9174],[-118.54369,32.91783],[-118.54456,32.91838],[-118.54565,32.91793],[-118.54604,32.91739],[-118.5462,32.9178],[-118.54673,32.91769],[-118.54708,32.91815],[-118.54688,32.91858],[-118.54623,32.91841],[-118.54526,32.91898],[-118.54524,32.91985],[-118.54482,32.92014],[-118.54492,32.92057],[-118.54448,32.92154],[-118.54449,32.92196],[-118.54478,32.92248],[-118.54443,32.92341],[-118.54392,32.92394],[-118.5443,32.92449],[-118.54422,32.92477],[-118.54472,32.92479],[-118.5449,32.92559],[-118.54477,32.92567],[-118.54511,32.92591],[-118.54497,32.92622],[-118.5461,32.92799],[-118.54609,32.92864],[-118.54678,32.9295],[-118.54735,32.93088],[-118.5482,32.93211],[-118.54944,32.93293],[-118.5495,32.93322],[-118.54923,32.93366],[-118.54916,32.93428],[-118.54936,32.93543],[-118.54944,32.93554],[-118.54983,32.93546],[-118.54991,32.93561],[-118.55,32.93674],[-118.54993,32.93747],[-118.54975,32.93764],[-118.54959,32.93839],[-118.55007,32.93987],[-118.55044,32.94011],[-118.55057,32.94111],[-118.55042,32.94239],[-118.55077,32.94275],[-118.55074,32.94318],[-118.55098,32.94359],[-118.55099,32.94465],[-118.55118,32.94513],[-118.55259,32.94652],[-118.55281,32.94747],[-118.55353,32.94807],[-118.55446,32.94935],[-118.55453,32.94993],[-118.55499,32.95023],[-118.55564,32.95036],[-118.55652,32.95103],[-118.55642,32.95254],[-118.5572,32.95299],[-118.55755,32.95418],[-118.55828,32.95502],[-118.55853,32.95627],[-118.55941,32.95663],[-118.55983,32.95719],[-118.56129,32.95813],[-118.56148,32.95837],[-118.56136,32.95854],[-118.56208,32.95879],[-118.56304,32.95948],[-118.56438,32.95989],[-118.56467,32.96082],[-118.56588,32.96247],[-118.56646,32.96268],[-118.56709,32.9632],[-118.56892,32.96382],[-118.56943,32.96419],[-118.56969,32.96457],[-118.5696,32.96492],[-118.56979,32.96527],[-118.57163,32.96718],[-118.57147,32.96757],[-118.57161,32.96786],[-118.57248,32.96812],[-118.57331,32.96875],[-118.57355,32.96916],[-118.57365,32.97146],[-118.57383,32.97173],[-118.57457,32.97212],[-118.57492,32.97263],[-118.57515,32.97305],[-118.57525,32.97401],[-118.57613,32.97547],[-118.57719,32.97801],[-118.5772,32.97914],[-118.5765,32.98069],[-118.57659,32.98106],[-118.57709,32.9816],[-118.57756,32.98417],[-118.57735,32.98504],[-118.5767,32.98581],[-118.5766,32.98627],[-118.57804,32.98733],[-118.57865,32.98809],[-118.57918,32.98833],[-118.57998,32.98905],[-118.57994,32.98955],[-118.58012,32.99009],[-118.58071,32.99069],[-118.58186,32.9932],[-118.58218,32.9934],[-118.58222,32.9936],[-118.5817,32.99407],[-118.58135,32.9947],[-118.58178,32.99522],[-118.58202,32.99593],[-118.58287,32.99679],[-118.58335,32.99771],[-118.58337,32.99845],[-118.5836,32.99909],[-118.58357,33.00035],[-118.58396,33.00129],[-118.58389,33.00203],[-118.58415,33.00353],[-118.58453,33.00353],[-118.58554,33.00421],[-118.58569,33.00478],[-118.58622,33.00515],[-118.5861,33.00597],[-118.58654,33.00651],[-118.5869,33.00738],[-118.58692,33.00842],[-118.58824,33.00909],[-118.5882,33.01042],[-118.59095,33.01213],[-118.59195,33.01245],[-118.59274,33.01239],[-118.593,33.01219],[-118.59328,33.01225],[-118.59351,33.01246],[-118.59405,33.01383],[-118.59448,33.01381],[-118.59606,33.01538],[-118.59707,33.01581],[-118.59744,33.01582],[-118.59794,33.01559],[-118.59972,33.01579],[-118.60134,33.01511],[-118.60203,33.01456],[-118.6025,33.01442],[-118.60322,33.01441],[-118.60413,33.01473],[-118.60611,33.01452],[-118.60654,33.01467],[-118.60626,33.0158],[-118.6064,33.01618],[-118.60625,33.01689],[-118.60573,33.01808],[-118.60574,33.01947],[-118.6061,33.02006],[-118.60596,33.02055],[-118.60612,33.02153],[-118.6059,33.02181],[-118.60581,33.02245],[-118.60545,33.02277],[-118.60538,33.02309],[-118.6056,33.02381],[-118.60537,33.02445],[-118.60564,33.02509],[-118.60513,33.02627],[-118.60537,33.02779],[-118.60526,33.03009],[-118.60581,33.0313],[-118.60738,33.03231],[-118.60355,33.03238],[-118.60218,33.03262],[-118.60078,33.03328],[-118.60002,33.03345],[-118.59923,33.03416],[-118.59889,33.03395],[-118.59841,33.03403],[-118.59805,33.03449],[-118.59702,33.03424],[-118.59619,33.0348],[-118.59596,33.03563],[-118.59564,33.03592],[-118.5944,33.03592],[-118.59335,33.03525],[-118.59255,33.03499],[-118.59278,33.03457],[-118.59269,33.03411],[-118.59175,33.03332],[-118.59179,33.03291],[-118.59166,33.03267],[-118.5915,33.03261],[-118.59115,33.03282],[-118.59144,33.0324],[-118.59095,33.03229],[-118.59098,33.0319],[-118.59052,33.032],[-118.59096,33.03108],[-118.59061,33.03033],[-118.59059,33.02979],[-118.59027,33.02942],[-118.58918,33.02897],[-118.58736,33.02864],[-118.58594,33.02857],[-118.58464,33.0293],[-118.5837,33.03037],[-118.58298,33.03074],[-118.58147,33.03078],[-118.5807,33.03051],[-118.57976,33.03054],[-118.57833,33.03109],[-118.57776,33.03147],[-118.57623,33.03324],[-118.57545,33.03389],[-118.57496,33.03368],[-118.5744,33.03257],[-118.57412,33.03256],[-118.57362,33.03224],[-118.57349,33.03188],[-118.57319,33.03167],[-118.57308,33.03122],[-118.57278,33.03098],[-118.57278,33.03062],[-118.57257,33.0304],[-118.57166,33.02992],[-118.57148,33.02959],[-118.57122,33.02963],[-118.57031,33.02922],[-118.5703,33.02944],[-118.57015,33.02933],[-118.56991,33.02944],[-118.56938,33.02913],[-118.56843,33.02819],[-118.56864,33.02813],[-118.56854,33.02792],[-118.56816,33.02804],[-118.56805,33.02783],[-118.56784,33.02786],[-118.56732,33.02707],[-118.56683,33.02688],[-118.56664,33.02648],[-118.5664,33.02639],[-118.56611,33.02578],[-118.56622,33.02518],[-118.56525,33.02491],[-118.56494,33.02454],[-118.56439,33.02459],[-118.56403,33.02436],[-118.56391,33.02404],[-118.56353,33.02391],[-118.56419,33.02228],[-118.56459,33.0218],[-118.56446,33.02162],[-118.56459,33.02048],[-118.56481,33.02004],[-118.56476,33.01905],[-118.56451,33.01834],[-118.56404,33.01789],[-118.56408,33.01746],[-118.563,33.01586],[-118.5622,33.01513],[-118.56182,33.01394],[-118.56111,33.01288],[-118.56127,33.01264],[-118.56123,33.01187],[-118.561,33.01109],[-118.56063,33.01074],[-118.56103,33.0104],[-118.56101,33.00947],[-118.55994,33.00756],[-118.55942,33.0062],[-118.558,33.00523],[-118.55647,33.0048],[-118.55584,33.00491],[-118.55425,33.00583],[-118.55344,33.0056],[-118.55241,33.00479],[-118.5516,33.00389],[-118.55015,33.00308],[-118.54955,33.00213],[-118.54829,33.00139],[-118.54801,33.00106],[-118.54689,32.99651],[-118.54652,32.99572],[-118.54642,32.99384],[-118.5466,32.99269],[-118.54635,32.9912],[-118.54499,32.9878],[-118.54312,32.98479],[-118.54138,32.98246],[-118.53935,32.98036],[-118.53603,32.9778],[-118.53486,32.97737],[-118.53378,32.97724],[-118.53293,32.97659],[-118.53178,32.97602],[-118.53116,32.97533],[-118.53048,32.9732],[-118.52918,32.97091],[-118.52744,32.9693],[-118.5266,32.96899],[-118.52255,32.96542],[-118.52124,32.96444],[-118.52018,32.96392],[-118.51999,32.96306],[-118.51874,32.96193],[-118.51582,32.95837],[-118.51525,32.95723],[-118.51526,32.95672],[-118.51466,32.95517],[-118.51451,32.95403],[-118.5139,32.95278],[-118.51098,32.94987],[-118.50809,32.94631],[-118.50481,32.94317],[-118.50392,32.94117],[-118.50197,32.9391],[-118.49977,32.93725],[-118.4954,32.93226],[-118.49345,32.93086],[-118.49107,32.9282],[-118.48754,32.92544],[-118.48691,32.92471],[-118.4851,32.9233],[-118.48331,32.92258],[-118.48319,32.92226],[-118.48267,32.92176],[-118.48134,32.92102],[-118.48049,32.92071],[-118.47912,32.9205],[-118.47707,32.91909],[-118.47617,32.91857],[-118.47557,32.91842],[-118.47552,32.91816],[-118.47508,32.91781],[-118.47346,32.9174],[-118.4721,32.91648],[-118.46921,32.91504],[-118.46794,32.91475],[-118.46741,32.91441],[-118.46537,32.91239],[-118.46306,32.91073],[-118.46065,32.90931],[-118.45956,32.90834],[-118.45907,32.90817],[-118.45842,32.90711],[-118.45808,32.90614],[-118.45741,32.90527],[-118.45456,32.9027],[-118.45223,32.89983],[-118.44989,32.89786],[-118.44816,32.8967],[-118.44691,32.89533],[-118.44048,32.8915],[-118.4386,32.88977],[-118.43669,32.88879],[-118.43531,32.88742],[-118.43249,32.8853],[-118.4308,32.88382],[-118.42924,32.88216],[-118.42769,32.8814],[-118.42646,32.87995],[-118.42419,32.87826],[-118.42238,32.87739],[-118.42088,32.87621],[-118.41902,32.87538],[-118.41885,32.87508],[-118.41808,32.87474],[-118.41624,32.87251],[-118.4142,32.87107],[-118.4133,32.86992],[-118.4119,32.86905],[-118.40838,32.86771],[-118.40812,32.86709],[-118.40653,32.86564],[-118.40581,32.86523],[-118.40481,32.86404],[-118.40358,32.86354],[-118.40271,32.86352],[-118.40248,32.86321],[-118.40238,32.86247],[-118.40121,32.86163],[-118.40071,32.8609],[-118.40081,32.86046],[-118.40067,32.86022],[-118.39929,32.85916],[-118.39806,32.85851],[-118.39677,32.85683],[-118.39643,32.85661],[-118.39549,32.85643],[-118.39459,32.85647],[-118.39383,32.85609],[-118.39334,32.85608],[-118.39205,32.85556],[-118.39179,32.8553],[-118.39173,32.85474],[-118.3909,32.85419],[-118.39075,32.85342],[-118.39021,32.85241],[-118.38961,32.8522],[-118.38821,32.85127],[-118.38715,32.85133],[-118.38682,32.85087],[-118.38634,32.85062],[-118.38616,32.84983],[-118.38559,32.84931],[-118.38483,32.84927],[-118.38363,32.84837],[-118.3816,32.84775],[-118.38113,32.84736],[-118.38088,32.84654],[-118.38042,32.84613],[-118.38,32.84529],[-118.37964,32.84497],[-118.37956,32.84427],[-118.3794,32.84409],[-118.37809,32.84321],[-118.37728,32.84285],[-118.37553,32.84269],[-118.37524,32.84251],[-118.37508,32.84217],[-118.37529,32.84161],[-118.37484,32.84118],[-118.37241,32.84055],[-118.37009,32.83937],[-118.36922,32.83809],[-118.36863,32.83766],[-118.36742,32.83714],[-118.36719,32.83691],[-118.36721,32.83656],[-118.36674,32.83631],[-118.36593,32.83532],[-118.36542,32.83495],[-118.36465,32.83395],[-118.36443,32.83334],[-118.36302,32.83213],[-118.36322,32.83175],[-118.36313,32.83149],[-118.36276,32.83126],[-118.36204,32.83119],[-118.36164,32.83074],[-118.36083,32.8303],[-118.35941,32.82991],[-118.35937,32.82972],[-118.36035,32.82979],[-118.36043,32.82962],[-118.35963,32.82742],[-118.35884,32.82697],[-118.35893,32.82678],[-118.35866,32.82686],[-118.35732,32.8257],[-118.35684,32.82496],[-118.35592,32.82432],[-118.35397,32.82226],[-118.35286,32.82157],[-118.35201,32.82157],[-118.35105,32.8209],[-118.35098,32.8203],[-118.35085,32.82025],[-118.34986,32.82054],[-118.34866,32.82051],[-118.34868,32.82031],[-118.34922,32.81984],[-118.35038,32.81944],[-118.35054,32.81908],[-118.35019,32.81879],[-118.35063,32.81832],[-118.35176,32.81796],[-118.35227,32.81809],[-118.35254,32.81783],[-118.35289,32.81789],[-118.35416,32.81748],[-118.35446,32.81709],[-118.35414,32.81654],[-118.35419,32.81629],[-118.35456,32.81602],[-118.35526,32.81597],[-118.35547,32.81577],[-118.35596,32.81596],[-118.35624,32.81674],[-118.35581,32.81699],[-118.35574,32.81721],[-118.35608,32.81714],[-118.35656,32.81729],[-118.35704,32.8185],[-118.35824,32.81828],[-118.35841,32.81862],[-118.35887,32.81881],[-118.35893,32.81924],[-118.36073,32.81995],[-118.36216,32.82019],[-118.36329,32.82013],[-118.36537,32.82029],[-118.3686,32.81991],[-118.37097,32.81981],[-118.37121,32.81994],[-118.3713,32.8204],[-118.3725,32.82032],[-118.37255,32.82118],[-118.3727,32.82114],[-118.37286,32.82153],[-118.37541,32.82202],[-118.37731,32.82319],[-118.37888,32.82376],[-118.37936,32.82425],[-118.38128,32.82479],[-118.38489,32.82529],[-118.38748,32.82539],[-118.39368,32.8244],[-118.39489,32.82395],[-118.39523,32.82345],[-118.39564,32.82321],[-118.39554,32.82256],[-118.39593,32.82208],[-118.39589,32.82151],[-118.39606,32.82135],[-118.39647,32.82172]]]},"properties":{"name":"san-clemente-island"}},{"type":"Feature","geometry":{"type":"Polygon","coordinates":[[[-118.43186,32.8028],[-118.43176,32.80362],[-118.43193,32.80393],[-118.43182,32.80408],[-118.43154,32.80397],[-118.43147,32.80439],[-118.43041,32.80481],[-118.42956,32.80441],[-118.43088,32.80279],[-118.43119,32.80262],[-118.43186,32.8028]]]},"properties":{"name":"unnamed-land"}},{"type":"Feature","geometry":{"type":"Polygon","coordinates":[[[-118.59176,33.03672],[-118.59271,33.03729],[-118.59262,33.0374],[-118.59169,33.03721],[-118.59166,33.03738],[-118.59208,33.03779],[-118.59086,33.03809],[-118.59055,33.03778],[-118.59049,33.03736],[-118.59113,33.0366],[-118.59157,33.03577],[-118.59176,33.03672]]]},"properties":{"name":"unnamed-land"}}]}