{"type":"FeatureCollection","features":[{"type":"Feature","geometry":{"type":"Point","coordinates":[-118.64505,33.04926]},"properties":{"depth_ft":328,"depth_m":99.9}},{"type":"Feature","geometry":{"type":"Point","coordinates":[-118.62452,33.04926]},"properties":{"depth_ft":144,"depth_m":43.8}},{"type":"Feature","geometry":{"type":"Point","coordinates":[-118.60399,33.04926]},"properties":{"depth_ft":238,"depth_m":72.6}},{"type":"Feature","geometry":{"type":"Point","coordinates":[-118.62452,33.03203]},"properties":{"depth_ft":195,"depth_m":59.5}},{"type":"Feature","geometry":{"type":"Point","coordinates":[-118.58345,33.03203]},"properties":{"depth_ft":25,"depth_m":7.7}},{"type":"Feature","geometry":{"type":"Point","coordinates":[-118.62452,33.01479]},"properties":{"depth_ft":219,"depth_m":66.6}},{"type":"Feature","geometry":{"type":"Point","coordinates":[-118.62452,32.99756]},"properties":{"depth_ft":304,"depth_m":92.7}},{"type":"Feature","geometry":{"type":"Point","coordinates":[-118.60399,32.99756]},"properties":{"depth_ft":228,"depth_m":69.6}},{"type":"Feature","geometry":{"type":"Point","coordinates":[-118.58345,32.99756]},"properties":{"depth_ft":2,"depth_m":0.6}},{"type":"Feature","geometry":{"type":"Point","coordinates":[-118.54239,32.99756]},"properties":{"depth_ft":241,"depth_m":73.4}},{"type":"Feature","geometry":{"type":"Point","coordinates":[-118.60399,32.98032]},"properties":{"depth_ft":283,"depth_m":86.4}},{"type":"Feature","geometry":{"type":"Point","coordinates":[-118.58345,32.98032]},"properties":{"depth_ft":80,"depth_m":24.3}},{"type":"Feature","geometry":{"type":"Point","coordinates":[-118.60399,32.96309]},"properties":{"depth_ft":313,"depth_m":95.6}},{"type":"Feature","geometry":{"type":"Point","coordinates":[-118.58345,32.96309]},"properties":{"depth_ft":153,"depth_m":46.5}},{"type":"Feature","geometry":{"type":"Point","coordinates":[-118.58345,32.94585]},"properties":{"depth_ft":305,"depth_m":92.9}},{"type":"Feature","geometry":{"type":"Point","coordinates":[-118.56292,32.94585]},"properties":{"depth_ft":121,"depth_m":36.8}},{"type":"Feature","geometry":{"type":"Point","coordinates":[-118.50133,32.94585]},"properties":{"depth_ft":172,"depth_m":52.5}},{"type":"Feature","geometry":{"type":"Point","coordinates":[-118.56292,32.92862]},"properties":{"depth_ft":220,"depth_m":67.0}},{"type":"Feature","geometry":{"type":"Point","coordinates":[-118.56292,32.91138]},"properties":{"depth_ft":255,"depth_m":77.7}},{"type":"Feature","geometry":{"type":"Point","coordinates":[-118.54239,32.91138]},"properties":{"depth_ft":12,"depth_m":3.6}},{"type":"Feature","geometry":{"type":"Point","coordinates":[-118.46027,32.91138]},"properties":{"depth_ft":172,"depth_m":52.4}},{"type":"Feature","geometry":{"type":"Point","coordinates":[-118.54239,32.89415]},"properties":{"depth_ft":261,"depth_m":79.4}},{"type":"Feature","geometry":{"type":"Point","coordinates":[-118.43973,32.89415]},"properties":{"depth_ft":163,"depth_m":49.6}},{"type":"Feature","geometry":{"type":"Point","coordinates":[-118.52186,32.87691]},"properties":{"depth_ft":134,"depth_m":40.9}},{"type":"Feature","geometry":{"type":"Point","coordinates":[-118.4192,32.87691]},"properties":{"depth_ft":42,"depth_m":12.8}},{"type":"Feature","geometry":{"type":"Point","coordinates":[-118.52186,32.85968]},"properties":{"depth_ft":253,"depth_m":77.0}},{"type":"Feature","geometry":{"type":"Point","coordinates":[-118.50133,32.85968]},"properties":{"depth_ft":3,"depth_m":0.9}},{"type":"Feature","geometry":{"type":"Point","coordinates":[-118.39867,32.85968]},"properties":{"depth_ft":133,"depth_m":40.7}},{"type":"Feature","geometry":{"type":"Point","coordinates":[-118.52186,32.84244]},"properties":{"depth_ft":316,"depth_m":96.4}},{"type":"Feature","geometry":{"type":"Point","coordinates":[-118.50133,32.84244]},"properties":{"depth_ft":157,"depth_m":47.9}},{"type":"Feature","geometry":{"type":"Point","coordinates":[-118.50133,32.82521]},"properties":{"depth_ft":317,"depth_m":96.8}},{"type":"Feature","geometry":{"type":"Point","coordinates":[-118.4808,32.82521]},"properties":{"depth_ft":259,"depth_m":79.1}},{"type":"Feature","geometry":{"type":"Point","coordinates":[-118.46027,32.82521]},"properties":{"depth_ft":50,"depth_m":15.1}},{"type":"Feature","geometry":{"type":"Point","coordinates":[-118.4808,32.80797]},"properties":{"depth_ft":327,"depth_m":99.7}},{"type":"Feature","geometry":{"type":"Point","coordinates":[-118.46027,32.80797]},"properties":{"depth_ft":232,"depth_m":70.8}},{"type":"Feature","geometry":{"type":"Point","coordinates":[-118.43973,32.80797]},"properties":{"depth_ft":82,"depth_m":25.0}},{"type":"Feature","geometry":{"type":"Point","coordinates":[-118.39867,32.80797]},"properties":{"depth_ft":167,"depth_m":51.0}},{"type":"Feature","geometry":{"type":"Point","coordinates":[-118.37814,32.80797]},"properties":{"depth_ft":246,"depth_m":74.9}},{"type":"Feature","geometry":{"type":"Point","coordinates":[-118.35761,32.80797]},"properties":{"depth_ft":269,"depth_m":82.0}},{"type":"Feature","geometry":{"type":"Point","coordinates":[-118.33708,32.80797]},"properties":{"depth_ft":319,"depth_m":97.2}},{"type":"Feature","geometry":{"type":"Point","coordinates":[-118.46027,32.79074]},"properties":{"depth_ft":320,"depth_m":97.6}},{"type":"Feature","geometry":{"type":"Point","coordinates":[-118.43973,32.79074]},"properties":{"depth_ft":220,"depth_m":67.1}},{"type":"Feature","geometry":{"type":"Point","coordinates":[-118.4192,32.79074]},"properties":{"depth_ft":134,"depth_m":40.7}},{"type":"Feature","geometry":{"type":"Point","coordinates":[-118.39867,32.79074]},"properties":{"depth_ft":274,"depth_m":83.5}},{"type":"Feature","geometry":{"type":"Point","coordinates":[-118.37814,32.79074]},"properties":{"depth_ft":309,"depth_m":94.1}},{"type":"Feature","geometry":{"type":"Point","coordinates":[-118.4192,32.77351]},"properties":{"depth_ft":299,"depth_m":91.1}},{"type":"Feature","geometry":{"type":"Point","coordinates":[-118.39867,32.77351]},"properties":{"depth_ft":287,"depth_m":87.4}},{"type":"Feature","geometry":{"type":"Point","coordinates":[-118.39867,32.75627]},"properties":{"depth_ft":303,"depth_m":92.3}}]}