{"type":"FeatureCollection","features":[{"type":"Feature","geometry":{"type":"Polygon","coordinates":[[[-109.85844,22.89856],[-109.85845,22.89875],[-109.85985,22.89884],[-109.86023,22.89908],[-109.86043,22.89902],[-109.86049,22.89868],[-109.86059,22.89897],[-109.86077,22.89901],[-109.86116,22.8988],[-109.86124,22.89892],[-109.86197,22.8989],[-109.86202,22.89876],[-109.86241,22.89866],[-109.86266,22.89891],[-109.86281,22.89863],[-109.86272,22.89856],[-109.86283,22.89855],[-109.86291,22.89876],[-109.86304,22.89847],[-109.8634,22.89876],[-109.86383,22.89864],[-109.86426,22.89887],[-109.86479,22.89855],[-109.86483,22.89827],[-109.86448,22.89813],[-109.86504,22.89768],[-109.86491,22.89744],[-109.86527,22.89687],[-109.86515,22.8966],[-109.86554,22.89668],[-109.86553,22.89627],[-109.86559,22.89653],[-109.86582,22.89646],[-109.86602,22.89665],[-109.86638,22.89659],[-109.86692,22.89608],[-109.86769,22.89626],[-109.86822,22.89621],[-109.86836,22.89635],[-109.86829,22.8966],[-109.86879,22.89694],[-109.86888,22.89678],[-109.86927,22.89696],[-109.86961,22.89782],[-109.86988,22.89803],[-109.87095,22.89842],[-109.87182,22.89837],[-109.87239,22.89867],[-109.8726,22.89841],[-109.87295,22.89841],[-109.87306,22.89804],[-109.87333,22.89852],[-109.87384,22.89794],[-109.87408,22.8982],[-109.87447,22.89815],[-109.87446,22.89778],[-109.87467,22.89766],[-109.87484,22.8977],[-109.8748,22.89801],[-109.8751,22.89775],[-109.87512,22.89796],[-109.87537,22.89814],[-109.87561,22.89802],[-109.87573,22.89827],[-109.87596,22.89808],[-109.87652,22.89815],[-109.88363,22.8974],[-109.88815,22.89655],[-109.89094,22.89581],[-109.89275,22.89515],[-109.89677,22.89331],[-109.89846,22.89199],[-109.89992,22.89044],[-109.9018,22.88964],[-109.90309,22.88861],[-109.90511,22.88657],[-109.90573,22.88547],[-109.90613,22.88311],[-109.906,22.88208],[-109.90587,22.88185],[-109.90548,22.88186],[-109.90548,22.88168],[-109.90722,22.8815],[-109.90817,22.88173],[-109.90899,22.88278],[-109.9096,22.88438],[-109.9087,22.88474],[-109.90943,22.88642],[-109.91032,22.88611],[-109.91025,22.88589],[-109.9104,22.88608],[-109.91033,22.88586],[-109.91054,22.88637],[-109.91068,22.88632],[-109.91058,22.88603],[-109.91149,22.8857],[-109.91014,22.88255],[-109.91148,22.88046],[-109.90998,22.87866],[-109.90847,22.87974],[-109.90848,22.88054],[-109.90865,22.88073],[-109.90783,22.88072],[-109.90838,22.88054],[-109.90837,22.87958],[-109.90739,22.879],[-109.90704,22.87929],[-109.90641,22.87938],[-109.90645,22.88041],[-109.90558,22.88076],[-109.90497,22.87994],[-109.90434,22.87952],[-109.90408,22.87946],[-109.90332,22.87983],[-109.90301,22.8795],[-109.90258,22.87952],[-109.90173,22.87888],[-109.90031,22.87891],[-109.89924,22.87857],[-109.89889,22.87822],[-109.89829,22.87794],[-109.89794,22.87816],[-109.89802,22.87788],[-109.89761,22.87779],[-109.89752,22.87796],[-109.89741,22.87753],[-109.89683,22.87757],[-109.89686,22.87739],[-109.89663,22.87729],[-109.89681,22.87714],[-109.89675,22.877],[-109.89604,22.87649],[-109.89532,22.87717],[-109.89534,22.87689],[-109.89516,22.87691],[-109.89531,22.87678],[-109.89509,22.87659],[-109.89491,22.87673],[-109.89469,22.87661],[-109.89416,22.8767],[-109.89428,22.87639],[-109.89463,22.87626],[-109.89443,22.87591],[-109.89496,22.87608],[-109.8954,22.87543],[-109.89591,22.87533],[-109.89609,22.8755],[-109.89636,22.87547],[-109.89937,22.87477],[-109.89962,22.87451],[-109.8998,22.87472],[-109.90033,22.87476],[-109.90059,22.87456],[-109.90075,22.87468],[-109.9021,22.87466],[-109.90226,22.87446],[-109.90282,22.87438],[-109.904,22.87437],[-109.90449,22.87453],[-109.90494,22.87439],[-109.90511,22.87454],[-109.90683,22.87398],[-109.90778,22.87387],[-109.90954,22.87399],[-109.91144,22.87387],[-109.91398,22.87346],[-109.91409,22.8732],[-109.91464,22.87308],[-109.91459,22.87294],[-109.91491,22.87268],[-109.9161,22.87251],[-109.91609,22.87224],[-109.91643,22.87224],[-109.91652,22.87208],[-109.91703,22.87225],[-109.91714,22.87206],[-109.91724,22.87223],[-109.91734,22.87206],[-109.91748,22.87218],[-109.91764,22.87205],[-109.91783,22.87226],[-109.91862,22.8723],[-109.92197,22.8722],[-109.92488,22.87192],[-109.92497,22.87177],[-109.92611,22.87163],[-109.93172,22.87196],[-109.93358,22.8719],[-109.93394,22.87175],[-109.93548,22.87203],[-109.93745,22.872],[-109.94753,22.87273],[-109.95084,22.87305],[-109.9518,22.87334],[-109.95339,22.87331],[-109.95781,22.87383],[-109.95897,22.87301],[-109.95963,22.87295],[-109.96,22.8726],[-109.96072,22.87288],[-109.96209,22.87281],[-109.96247,22.87274],[-109.96269,22.87235],[-109.96347,22.87206],[-109.96394,22.87214],[-109.96515,22.87304],[-109.96575,22.87307],[-109.9661,22.87328],[-109.96828,22.87379],[-109.96861,22.874],[-109.96894,22.87456],[-109.96993,22.87494],[-109.97117,22.87579],[-109.98167447495067,22.880340851725524],[-109.98167447495067,22.947054054054053],[-109.85832552504934,22.947054054054053],[-109.85832552504934,22.898552105175817],[-109.85844,22.89856]]]},"properties":{"name":"baja-north-pacific"}}]}