{"type":"FeatureCollection","features":[{"type":"Feature","geometry":{"type":"Point","coordinates":[-109.89704,22.89235]},"properties":{"depth_ft":15,"depth_m":4.5}},{"type":"Feature","geometry":{"type":"Point","coordinates":[-109.89194,22.89235]},"properties":{"depth_ft":67,"depth_m":20.5}},{"type":"Feature","geometry":{"type":"Point","coordinates":[-109.88684,22.89235]},"properties":{"depth_ft":73,"depth_m":22.2}},{"type":"Feature","geometry":{"type":"Point","coordinates":[-109.88173,22.89235]},"properties":{"depth_ft":90,"depth_m":27.4}},{"type":"Feature","geometry":{"type":"Point","coordinates":[-109.87663,22.89235]},"properties":{"depth_ft":92,"depth_m":27.9}},{"type":"Feature","geometry":{"type":"Point","coordinates":[-109.87153,22.89235]},"properties":{"depth_ft":87,"depth_m":26.4}},{"type":"Feature","geometry":{"type":"Point","coordinates":[-109.86643,22.89235]},"properties":{"depth_ft":89,"depth_m":27.2}},{"type":"Feature","geometry":{"type":"Point","coordinates":[-109.86133,22.89235]},"properties":{"depth_ft":87,"depth_m":26.4}},{"type":"Feature","geometry":{"type":"Point","coordinates":[-109.89704,22.88765]},"properties":{"depth_ft":52,"depth_m":15.8}},{"type":"Feature","geometry":{"type":"Point","coordinates":[-109.89194,22.88765]},"properties":{"depth_ft":108,"depth_m":32.8}},{"type":"Feature","geometry":{"type":"Point","coordinates":[-109.88684,22.88765]},"properties":{"depth_ft":193,"depth_m":58.8}},{"type":"Feature","geometry":{"type":"Point","coordinates":[-109.88173,22.88765]},"properties":{"depth_ft":265,"depth_m":80.7}},{"type":"Feature","geometry":{"type":"Point","coordinates":[-109.87663,22.88765]},"properties":{"depth_ft":282,"depth_m":85.9}},{"type":"Feature","geometry":{"type":"Point","coordinates":[-109.87153,22.88765]},"properties":{"depth_ft":262,"depth_m":79.8}},{"type":"Feature","geometry":{"type":"Point","coordinates":[-109.86643,22.88765]},"properties":{"depth_ft":240,"depth_m":73.0}},{"type":"Feature","geometry":{"type":"Point","coordinates":[-109.86133,22.88765]},"properties":{"depth_ft":203,"depth_m":61.9}},{"type":"Feature","geometry":{"type":"Point","coordinates":[-109.90214,22.88295]},"properties":{"depth_ft":19,"depth_m":5.7}},{"type":"Feature","geometry":{"type":"Point","coordinates":[-109.89704,22.88295]},"properties":{"depth_ft":29,"depth_m":8.8}},{"type":"Feature","geometry":{"type":"Point","coordinates":[-109.89194,22.88295]},"properties":{"depth_ft":129,"depth_m":39.4}},{"type":"Feature","geometry":{"type":"Point","coordinates":[-109.89194,22.87825]},"properties":{"depth_ft":271,"depth_m":82.7}},{"type":"Feature","geometry":{"type":"Point","coordinates":[-109.90724,22.87355]},"properties":{"depth_ft":54,"depth_m":16.6}},{"type":"Feature","geometry":{"type":"Point","coordinates":[-109.90214,22.87355]},"properties":{"depth_ft":148,"depth_m":45.1}},{"type":"Feature","geometry":{"type":"Point","coordinates":[-109.89704,22.87355]},"properties":{"depth_ft":305,"depth_m":93.1}},{"type":"Feature","geometry":{"type":"Point","coordinates":[-109.97867,22.86885]},"properties":{"depth_ft":93,"depth_m":28.3}},{"type":"Feature","geometry":{"type":"Point","coordinates":[-109.96337,22.86885]},"properties":{"depth_ft":8,"depth_m":2.5}},{"type":"Feature","geometry":{"type":"Point","coordinates":[-109.95827,22.86885]},"properties":{"depth_ft":24,"depth_m":7.3}},{"type":"Feature","geometry":{"type":"Point","coordinates":[-109.95316,22.86885]},"properties":{"depth_ft":53,"depth_m":16.2}},{"type":"Feature","geometry":{"type":"Point","coordinates":[-109.94806,22.86885]},"properties":{"depth_ft":62,"depth_m":19.0}},{"type":"Feature","geometry":{"type":"Point","coordinates":[-109.94296,22.86885]},"properties":{"depth_ft":41,"depth_m":12.5}},{"type":"Feature","geometry":{"type":"Point","coordinates":[-109.91745,22.86885]},"properties":{"depth_ft":20,"depth_m":6.1}},{"type":"Feature","geometry":{"type":"Point","coordinates":[-109.91235,22.86885]},"properties":{"depth_ft":111,"depth_m":34.0}},{"type":"Feature","geometry":{"type":"Point","coordinates":[-109.90724,22.86885]},"properties":{"depth_ft":196,"depth_m":59.6}},{"type":"Feature","geometry":{"type":"Point","coordinates":[-109.97867,22.86415]},"properties":{"depth_ft":261,"depth_m":79.6}},{"type":"Feature","geometry":{"type":"Point","coordinates":[-109.97357,22.86415]},"properties":{"depth_ft":201,"depth_m":61.1}},{"type":"Feature","geometry":{"type":"Point","coordinates":[-109.96847,22.86415]},"properties":{"depth_ft":189,"depth_m":57.8}},{"type":"Feature","geometry":{"type":"Point","coordinates":[-109.96337,22.86415]},"properties":{"depth_ft":197,"depth_m":60.1}},{"type":"Feature","geometry":{"type":"Point","coordinates":[-109.95827,22.86415]},"properties":{"depth_ft":207,"depth_m":63.1}},{"type":"Feature","geometry":{"type":"Point","coordinates":[-109.95316,22.86415]},"properties":{"depth_ft":217,"depth_m":66.1}},{"type":"Feature","geometry":{"type":"Point","coordinates":[-109.94806,22.86415]},"properties":{"depth_ft":219,"depth_m":66.8}},{"type":"Feature","geometry":{"type":"Point","coordinates":[-109.94296,22.86415]},"properties":{"depth_ft":197,"depth_m":60.0}},{"type":"Feature","geometry":{"type":"Point","coordinates":[-109.93786,22.86415]},"properties":{"depth_ft":134,"depth_m":40.8}},{"type":"Feature","geometry":{"type":"Point","coordinates":[-109.93276,22.86415]},"properties":{"depth_ft":45,"depth_m":13.6}},{"type":"Feature","geometry":{"type":"Point","coordinates":[-109.92255,22.86415]},"properties":{"depth_ft":23,"depth_m":7.2}},{"type":"Feature","geometry":{"type":"Point","coordinates":[-109.91745,22.86415]},"properties":{"depth_ft":140,"depth_m":42.6}},{"type":"Feature","geometry":{"type":"Point","coordinates":[-109.91235,22.86415]},"properties":{"depth_ft":237,"depth_m":72.1}},{"type":"Feature","geometry":{"type":"Point","coordinates":[-109.97357,22.85945]},"properties":{"depth_ft":326,"depth_m":99.5}},{"type":"Feature","geometry":{"type":"Point","coordinates":[-109.96847,22.85945]},"properties":{"depth_ft":325,"depth_m":99.0}},{"type":"Feature","geometry":{"type":"Point","coordinates":[-109.96337,22.85945]},"properties":{"depth_ft":325,"depth_m":99.2}},{"type":"Feature","geometry":{"type":"Point","coordinates":[-109.95827,22.85945]},"properties":{"depth_ft":328,"depth_m":100.1}},{"type":"Feature","geometry":{"type":"Point","coordinates":[-109.95316,22.85945]},"properties":{"depth_ft":330,"depth_m":100.5}},{"type":"Feature","geometry":{"type":"Point","coordinates":[-109.94806,22.85945]},"properties":{"depth_ft":330,"depth_m":100.5}},{"type":"Feature","geometry":{"type":"Point","coordinates":[-109.94296,22.85945]},"properties":{"depth_ft":322,"depth_m":98.0}},{"type":"Feature","geometry":{"type":"Point","coordinates":[-109.93786,22.85945]},"properties":{"depth_ft":274,"depth_m":83.6}},{"type":"Feature","geometry":{"type":"Point","coordinates":[-109.93276,22.85945]},"properties":{"depth_ft":201,"depth_m":61.2}},{"type":"Feature","geometry":{"type":"Point","coordinates":[-109.92765,22.85945]},"properties":{"depth_ft":140,"depth_m":42.7}},{"type":"Feature","geometry":{"type":"Point","coordinates":[-109.92255,22.85945]},"properties":{"depth_ft":181,"depth_m":55.2}},{"type":"Feature","geometry":{"type":"Point","coordinates":[-109.91745,22.85945]},"properties":{"depth_ft":327,"depth_m":99.8}}]}