{
  "type": "FeatureCollection",
  "features": [
    {
      "type": "Feature",
      "geometry": { "type": "Point", "coordinates": [-123.435, 37.352] },
      "properties": {
        "id": "pioneer-seamount",
        "name": "Pioneer Seamount",
        "shortName": "Pioneer",
        "class": "seamount",
        "minDepthM": 820,
        "minDepthFt": 2690,
        "importanceTier": "marquee",
        "source": "GEBCO-UFN",
        "positionSource": "Published summit 37°21.1'N 123°26.1'W, 820 m (GMRT 813 m)",
        "description": "About 45 nmi WSW of Pillar Point. Top ~820 m. Pelagic structure on warm-water years.",
        "commonSpecies": ["albacore", "bluefin tuna", "swordfish"]
      }
    },
    {
      "type": "Feature",
      "geometry": { "type": "Point", "coordinates": [-123.35, 37.01] },
      "properties": {
        "id": "guide-seamount",
        "name": "Guide Seamount",
        "shortName": "Guide",
        "class": "seamount",
        "minDepthM": 1682,
        "importanceTier": "major",
        "source": "GEBCO-UFN",
        "positionSource": "Published summit 37°00.6'N 123°21.0'W, 1,682 m (GMRT 1,671 m)",
        "description": "About 50 nmi southwest of Pillar Point. Deep: primarily a navigation reference and longliner mark."
      }
    },
    {
      "type": "Feature",
      "geometry": { "type": "Point", "coordinates": [-122.703, 35.761] },
      "properties": {
        "id": "davidson-seamount",
        "name": "Davidson Seamount",
        "shortName": "Davidson",
        "class": "seamount",
        "minDepthM": 1250,
        "importanceTier": "marquee",
        "source": "GEBCO-UFN",
        "positionSource": "GMRT summit, 1,250 m (matches the published summit depth)",
        "description": "About 80 mi WSW of Monterey. Top ~1,250 m, base 3,650 m. Within Monterey Bay National Marine Sanctuary; deep-sea coral / sponge habitat protected."
      }
    },
    {
      "type": "Feature",
      "geometry": { "type": "Point", "coordinates": [-122.313, 36.349] },
      "properties": {
        "id": "sur-ridge",
        "name": "Sur Ridge",
        "shortName": "Sur Ridge",
        "class": "ridge",
        "minDepthM": 800,
        "importanceTier": "major",
        "source": "GEBCO-UFN",
        "positionSource": "GMRT ridge crest ~790 m; MBNMS: ridge 28 mi offshore, 817-1,569 m",
        "description": "About 25-30 mi off Big Sur. Deep cold-water coral and sponge habitat. Inside Monterey Bay NMS."
      }
    },
    {
      "type": "Feature",
      "geometry": { "type": "Point", "coordinates": [-121.95, 36.78] },
      "properties": {
        "id": "monterey-canyon",
        "name": "Monterey Canyon",
        "shortName": "Monterey Cyn",
        "class": "canyon",
        "minDepthM": 100,
        "importanceTier": "marquee",
        "source": "NOAA-ENC",
        "description": "Largest submarine canyon on the US west coast. Drops from 100 m to 4,000+ m within a few miles of Moss Landing.",
        "commonSpecies": ["albacore", "salmon", "rockfish"]
      }
    },
    {
      "type": "Feature",
      "geometry": { "type": "Point", "coordinates": [-122.00, 36.86] },
      "properties": {
        "id": "soquel-canyon",
        "name": "Soquel Canyon",
        "shortName": "Soquel Cyn",
        "class": "canyon",
        "importanceTier": "major",
        "source": "NOAA-ENC",
        "description": "North arm of Monterey Bay. Historic albacore grounds.",
        "commonSpecies": ["albacore", "rockfish"]
      }
    },
    {
      "type": "Feature",
      "geometry": { "type": "Point", "coordinates": [-122.95, 37.05] },
      "properties": {
        "id": "ascension-canyon",
        "name": "Ascension Canyon",
        "shortName": "Ascension",
        "class": "canyon",
        "importanceTier": "major",
        "source": "NOAA-ENC",
        "description": "Off Año Nuevo. Productive deep edge in fall albacore season."
      }
    },
    {
      "type": "Feature",
      "geometry": { "type": "Point", "coordinates": [-121.95, 36.50] },
      "properties": {
        "id": "carmel-canyon",
        "name": "Carmel Canyon",
        "shortName": "Carmel Cyn",
        "class": "canyon",
        "importanceTier": "major",
        "source": "NOAA-ENC",
        "description": "Off Pt. Lobos. Productive deep edge for rockfish and lingcod.",
        "commonSpecies": ["lingcod", "rockfish"]
      }
    },
    {
      "type": "Feature",
      "geometry": { "type": "Point", "coordinates": [-121.966, 36.5574] },
      "properties": {
        "id": "carmel-pinnacles",
        "name": "Carmel Pinnacles",
        "shortName": "Carmel Pinn",
        "class": "reef",
        "minDepthM": 5,
        "minDepthFt": 16,
        "importanceTier": "major",
        "source": "NOAA-ENC",
        "positionSource": "CDFW Carmel Pinnacles SMR boundary",
        "divable": true,
        "description": "Inside Carmel Bay. Famous shore- and boat-launch dive — within Carmel Pinnacles SMR; check the MPAs layer for take rules.",
        "commonSpecies": []
      }
    },
    {
      "type": "Feature",
      "geometry": { "type": "Point", "coordinates": [-121.90, 36.31] },
      "properties": {
        "id": "pt-sur",
        "name": "Pt. Sur",
        "shortName": "Pt. Sur",
        "class": "landmark",
        "importanceTier": "major",
        "source": "NOAA-ENC",
        "description": "Big Sur coast. Upwelling boundary — SST breaks consistently form here."
      }
    },
    {
      "type": "Feature",
      "geometry": { "type": "Point", "coordinates": [-120.47, 34.45] },
      "properties": {
        "id": "pt-conception",
        "name": "Pt. Conception",
        "shortName": "Pt. Conception",
        "class": "landmark",
        "importanceTier": "marquee",
        "source": "NOAA-ENC",
        "description": "The thermal hinge of the California coast. Cold/warm divider — relevant context for any session north or south of it."
      }
    },
    {
      "type": "Feature",
      "geometry": { "type": "Point", "coordinates": [-120.439, 34.4444] },
      "properties": {
        "id": "cojo-anchorage",
        "name": "Cojo / Government Point",
        "shortName": "Cojo",
        "class": "anchorage",
        "importanceTier": "major",
        "source": "NOAA-ENC",
        "positionSource": "GNIS (Cojo Anchorage); CP7 anchorage in 5-10 fathoms",
        "description": "Famous lee anchorage just inside Pt. Conception. The classic wait-out for southbound boats when the point is howling."
      }
    },
    {
      "type": "Feature",
      "geometry": { "type": "Point", "coordinates": [-119.93571, 34.41472] },
      "properties": {
        "id": "naples-reef",
        "name": "Naples Reef",
        "shortName": "Naples",
        "class": "reef",
        "minDepthFt": 50,
        "minDepthM": 15,
        "importanceTier": "major",
        "source": "NOAA-ENC",
        "positionSource": "GNIS",
        "divable": true,
        "description": "Kelp-fringed reef off the Goleta coast. Popular shore-launch dive and freedive spot. Inside Naples SMCA.",
        "commonSpecies": ["calico bass", "sheephead", "lobster"]
      }
    },
    {
      "type": "Feature",
      "geometry": { "type": "Point", "coordinates": [-119.42291, 34.00418] },
      "properties": {
        "id": "anacapa-west-end",
        "name": "Anacapa West End / Cat Rock",
        "shortName": "Anacapa W",
        "class": "reef",
        "minDepthFt": 30,
        "minDepthM": 9,
        "importanceTier": "marquee",
        "source": "NOAA-ENC",
        "positionSource": "GNIS (Cat Rock)",
        "divable": true,
        "description": "Iconic dive and fishing spot at Anacapa Island's west tip. Partly inside the Anacapa SMR — see the MPAs layer for boundaries.",
        "commonSpecies": ["calico bass", "sheephead", "white seabass", "lobster"]
      }
    },
    {
      "type": "Feature",
      "geometry": { "type": "Point", "coordinates": [-119.4953, 33.9645] },
      "properties": {
        "id": "footprint-reef",
        "name": "The Footprint",
        "shortName": "Footprint",
        "class": "bank",
        "minDepthFt": 282,
        "minDepthM": 86,
        "importanceTier": "major",
        "source": "GMRT + CDFW MPA boundary",
        "positionSource": "GMRT summit (~96 m) inside the Footprint SMR/FMR polygon; least depth from the CDFW CRFS map's '47 fathom spot'",
        "description": "Deep bank about 4 nmi southwest of West Anacapa, on the south side of Anacapa Passage. Inside the Footprint State and Federal Marine Reserves: no take.",
        "commonSpecies": []
      }
    },
    {
      "type": "Feature",
      "geometry": { "type": "Point", "coordinates": [-119.5403, 34.0116] },
      "properties": {
        "id": "yellowbanks",
        "name": "Yellowbanks",
        "shortName": "Yellowbanks",
        "class": "reef",
        "importanceTier": "major",
        "source": "NOAA-ENC",
        "positionSource": "GNIS (Yellowbanks Anchorage), nearest 10-30 m water",
        "description": "Off the southeast end of Santa Cruz Island. Reliable yellowtail when warm water pushes through the channel.",
        "commonSpecies": ["yellowtail", "calico bass"]
      }
    },
    {
      "type": "Feature",
      "geometry": { "type": "Point", "coordinates": [-119.82542, 33.95057] },
      "properties": {
        "id": "gull-island",
        "name": "Gull Island",
        "shortName": "Gull I.",
        "class": "rock",
        "importanceTier": "major",
        "source": "NOAA-ENC",
        "positionSource": "GNIS",
        "description": "South side of Santa Cruz Island. Sheltered hook-and-line and dive ground."
      }
    },
    {
      "type": "Feature",
      "geometry": { "type": "Point", "coordinates": [-120.3869, 34.0173] },
      "properties": {
        "id": "wyckoff-ledge",
        "name": "San Miguel — Wyckoff Ledge",
        "shortName": "Wyckoff",
        "class": "reef",
        "importanceTier": "major",
        "source": "NOAA-ENC",
        "positionSource": "CP7: 1.4 mi west of Crook Point, 0.5 mi offshore, covered 1.5 fathoms",
        "description": "Ledge off the south side of San Miguel Island, west of Crook Point. Cold-water big-fish territory: white seabass, halibut, big calicos.",
        "commonSpecies": ["white seabass", "calico bass", "halibut"]
      }
    },
    {
      "type": "Feature",
      "geometry": { "type": "Point", "coordinates": [-120.2375, 34.0245] },
      "properties": {
        "id": "talcott-shoal",
        "name": "Talcott Shoal",
        "shortName": "Talcott",
        "class": "reef",
        "importanceTier": "major",
        "source": "NOAA-ENC",
        "positionSource": "CP7: 1.5 mi north-northeast of Sandy Point, least depth 1.75 fathoms",
        "description": "Broad reef off the northwest corner of Santa Rosa Island. Productive in spring and fall."
      }
    },
    {
      "type": "Feature",
      "geometry": { "type": "Point", "coordinates": [-119.8267, 33.25] },
      "properties": {
        "id": "potato-bank",
        "name": "Potato Bank",
        "shortName": "Potato",
        "class": "bank",
        "importanceTier": "major",
        "source": "BD chart + GMRT",
        "positionSource": "BD Outdoors SoCal chart; GMRT shows an isolated rise topping out near 90 m",
        "description": "Isolated bank about 12 nmi west of San Nicolas Island. Pelagic structure on warm-water years.",
        "minDepthM": 90,
        "minDepthFt": 295
      }
    },
    {
      "type": "Feature",
      "geometry": { "type": "Point", "coordinates": [-119.1333, 32.7] },
      "properties": {
        "id": "tanner-bank",
        "name": "Tanner Bank",
        "shortName": "Tanner",
        "class": "bank",
        "minDepthFt": 54,
        "minDepthM": 16,
        "importanceTier": "marquee",
        "source": "BD chart + CP7",
        "positionSource": "BD Outdoors SoCal chart (GMRT ~35-45 m); CP7 least survey depth 9 fathoms",
        "description": "Bank about 12 mi long and 5 mi wide, about 110 mi west of San Diego; least depth 9 fathoms. Tuna, yellowtail, and white seabass when the temp break aligns.",
        "commonSpecies": ["yellowtail", "bluefin tuna", "yellowfin tuna", "white seabass"]
      }
    },
    {
      "type": "Feature",
      "geometry": { "type": "Point", "coordinates": [-119.1256, 32.4461] },
      "properties": {
        "id": "cortes-bank",
        "name": "Cortes Bank — Bishop Rock",
        "shortName": "Cortes",
        "class": "seamount",
        "minDepthFt": 6,
        "minDepthM": 1.8,
        "importanceTier": "marquee",
        "source": "NOAA-ENC",
        "positionSource": "CP7: Bishop Rock 'in about 32°27'N 119°08'W'; GMRT shallowest cell",
        "description": "About 100 nmi WSW of San Diego. Bishop Rock is awash: the farthest outlying danger on the coast. Famous big-wave break and pelagic fishing destination.",
        "commonSpecies": ["yellowtail", "white seabass", "bluefin tuna", "yellowfin tuna", "dorado"]
      }
    },
    {
      "type": "Feature",
      "geometry": { "type": "Point", "coordinates": [-120.9586, 33.0937] },
      "properties": {
        "id": "san-juan-seamount",
        "name": "San Juan Seamount",
        "shortName": "San Juan",
        "class": "seamount",
        "minDepthM": 553,
        "importanceTier": "major",
        "source": "GEBCO-UFN",
        "positionSource": "GMRT summit, 553 m",
        "description": "Far offshore. Deep — primarily of interest to longliners and oceanographers."
      }
    },
    {
      "type": "Feature",
      "geometry": { "type": "Point", "coordinates": [-121.0564, 34.0481] },
      "properties": {
        "id": "rodriguez-seamount",
        "name": "Rodriguez Seamount",
        "shortName": "Rodriguez",
        "class": "seamount",
        "minDepthM": 632,
        "importanceTier": "major",
        "source": "GEBCO-UFN",
        "positionSource": "GMRT summit, 632 m (BD chart agrees)",
        "description": "Far offshore. Top ~800 m. Pelagic structure on years when warm water reaches that far north."
      }
    },
    {
      "type": "Feature",
      "geometry": { "type": "Point", "coordinates": [-118.51759, 33.34337] },
      "properties": {
        "id": "farnsworth-bank",
        "name": "Farnsworth Bank",
        "shortName": "Farnsworth",
        "class": "bank",
        "minDepthFt": 54,
        "minDepthM": 16,
        "importanceTier": "marquee",
        "source": "GNIS + CP7",
        "positionSource": "GNIS; CP7: 9.2 mi SSE of West End, 1.6 mi offshore, least depth 9 fathoms",
        "divable": true,
        "description": "Off the back (southwest) side of Catalina. Premier white seabass and dive site, famous for purple hydrocoral. Inside the Farnsworth SMCAs: check the MPAs layer for take rules.",
        "commonSpecies": ["white seabass", "yellowtail", "calico bass"]
      }
    },
    {
      "type": "Feature",
      "geometry": { "type": "Point", "coordinates": [-118.49176, 33.46253] },
      "properties": {
        "id": "ship-rock",
        "name": "Ship Rock",
        "shortName": "Ship Rock",
        "class": "rock",
        "importanceTier": "major",
        "source": "NOAA-ENC",
        "positionSource": "GNIS",
        "description": "North end of Catalina. Reliable yellowtail boil spot when there's any current.",
        "commonSpecies": ["yellowtail", "calico bass", "bonito"]
      }
    },
    {
      "type": "Feature",
      "geometry": { "type": "Point", "coordinates": [-118.48704, 33.45142] },
      "properties": {
        "id": "bird-rock",
        "name": "Bird Rock",
        "shortName": "Bird Rock",
        "class": "rock",
        "importanceTier": "major",
        "source": "NOAA-ENC",
        "positionSource": "GNIS",
        "description": "North end Catalina. Adjacent to Ship Rock — both fish on the same conditions.",
        "commonSpecies": ["yellowtail", "calico bass"]
      }
    },
    {
      "type": "Feature",
      "geometry": { "type": "Point", "coordinates": [-118.32481, 33.34864] },
      "properties": {
        "id": "casino-point",
        "name": "Casino Point Underwater Park",
        "shortName": "Casino Pt",
        "class": "reef",
        "minDepthFt": 30,
        "minDepthM": 9,
        "importanceTier": "marquee",
        "source": "NOAA-ENC",
        "positionSource": "GNIS",
        "divable": true,
        "description": "World-famous shore dive at Avalon. Inside the Casino Point Marine Park — no take.",
        "commonSpecies": []
      }
    },
    {
      "type": "Feature",
      "geometry": { "type": "Point", "coordinates": [-118.47731, 33.44809] },
      "properties": {
        "id": "blue-cavern-point",
        "name": "Blue Cavern Point",
        "shortName": "Blue Cavern",
        "class": "reef",
        "importanceTier": "major",
        "source": "NOAA-ENC",
        "positionSource": "GNIS",
        "divable": true,
        "description": "North Catalina. Classic dive site with healthy kelp forest."
      }
    },
    {
      "type": "Feature",
      "geometry": { "type": "Point", "coordinates": [-118.4345, 33.4298] },
      "properties": {
        "id": "empire-landing",
        "name": "Empire Landing",
        "shortName": "Empire",
        "class": "reef",
        "importanceTier": "major",
        "source": "NOAA-ENC",
        "positionSource": "GNIS, nearest ~9 m water",
        "description": "Catalina inshore — productive sand-bass and calico spot."
      }
    },
    {
      "type": "Feature",
      "geometry": { "type": "Point", "coordinates": [-118.3098, 33.3359] },
      "properties": {
        "id": "east-end-quarry",
        "name": "East End Quarry (Pebbly Beach)",
        "shortName": "Quarry",
        "class": "reef",
        "importanceTier": "major",
        "source": "NOAA-ENC",
        "positionSource": "Pebbly Beach quarry (OpenStreetMap), nearest ~18 m water",
        "description": "Off the Pebbly Beach quarry, east of Avalon. Reliable late-summer yellowtail mark.",
        "commonSpecies": ["yellowtail", "calico bass"]
      }
    },
    {
      "type": "Feature",
      "geometry": { "type": "Point", "coordinates": [-118.3851, 32.8189] },
      "properties": {
        "id": "pyramid-cove",
        "name": "Pyramid Cove",
        "shortName": "Pyramid",
        "class": "anchorage",
        "minDepthFt": 35,
        "minDepthM": 11,
        "importanceTier": "major",
        "source": "NOAA-ENC",
        "positionSource": "GNIS, nearest ~11 m water",
        "description": "South end of San Clemente Island. Anchorage and yellowtail spot. Note: Navy range — closures common, check NOTMARs.",
        "commonSpecies": ["yellowtail", "calico bass", "white seabass"]
      }
    },
    {
      "type": "Feature",
      "geometry": { "type": "Point", "coordinates": [-118.5548, 33.0085] },
      "properties": {
        "id": "wilson-cove",
        "name": "Wilson Cove",
        "shortName": "Wilson",
        "class": "anchorage",
        "importanceTier": "major",
        "source": "NOAA-ENC",
        "positionSource": "GNIS, nearest ~10 m water",
        "description": "Northeast San Clemente Island. Sheltered anchorage."
      }
    },
    {
      "type": "Feature",
      "geometry": { "type": "Point", "coordinates": [-118.5807, 33.0355] },
      "properties": {
        "id": "nw-harbor",
        "name": "NW Harbor",
        "shortName": "NW Harbor",
        "class": "anchorage",
        "importanceTier": "major",
        "source": "NOAA-ENC",
        "positionSource": "GNIS (Northwest Harbor)",
        "description": "Northwest end of San Clemente Island."
      }
    },
    {
      "type": "Feature",
      "geometry": { "type": "Point", "coordinates": [-118.42592, 32.8006] },
      "properties": {
        "id": "china-point",
        "name": "China Point",
        "shortName": "China Pt",
        "class": "landmark",
        "importanceTier": "major",
        "source": "NOAA-ENC",
        "positionSource": "GNIS; CP7: southwest extremity of San Clemente Island",
        "description": "Southwest tip of San Clemente Island, on the west side of Pyramid Cove. Navy range: closures are common, check NOTMARs."
      }
    },
    {
      "type": "Feature",
      "geometry": { "type": "Point", "coordinates": [-118.61398, 33.0342] },
      "properties": {
        "id": "castle-rock",
        "name": "Castle Rock",
        "shortName": "Castle Rk",
        "class": "rock",
        "importanceTier": "major",
        "source": "NOAA-ENC",
        "positionSource": "GNIS; CP7: 0.4 mi off the northwest point",
        "description": "Off northwest San Clemente Island. Pinnacle structure for yellowtail."
      }
    },
    {
      "type": "Feature",
      "geometry": { "type": "Point", "coordinates": [-117.4333, 32.6333] },
      "properties": {
        "id": "nine-mile-bank",
        "name": "9 Mile Bank",
        "shortName": "9 Mile",
        "class": "bank",
        "minDepthFt": 425,
        "minDepthM": 130,
        "importanceTier": "marquee",
        "source": "BD chart + GMRT",
        "positionSource": "BD Outdoors SoCal chart ('North 9 Mile Bank'); GMRT top ~130 m",
        "description": "About 10 nmi west of Point Loma. Sand bass year-round; reliable yellowtail when warm water pushes in.",
        "commonSpecies": ["sand bass", "yellowtail", "rockfish"]
      }
    },
    {
      "type": "Feature",
      "geometry": { "type": "Point", "coordinates": [-117.9972, 33.4] },
      "properties": {
        "id": "fourteen-mile-bank",
        "name": "14 Mile Bank",
        "shortName": "14 Mile",
        "class": "bank",
        "minDepthFt": 330,
        "minDepthM": 100,
        "importanceTier": "major",
        "source": "BD chart + GMRT",
        "positionSource": "BD Outdoors SoCal chart; GMRT top ~100 m",
        "description": "In the San Pedro Channel about 14 mi SSW of Newport Harbor, toward Catalina's east end. Reliable summer-fall yellowtail and tuna ground.",
        "commonSpecies": ["yellowtail", "bluefin tuna", "yellowfin tuna"]
      }
    },
    {
      "type": "Feature",
      "geometry": { "type": "Point", "coordinates": [-117.9736, 32.6555] },
      "properties": {
        "id": "spot-43",
        "name": "The 43 Spot",
        "shortName": "43",
        "class": "community-spot",
        "minDepthFt": 258,
        "minDepthM": 79,
        "importanceTier": "major",
        "source": "BD chart + GMRT",
        "positionSource": "BD Outdoors SoCal chart; GMRT ~80-86 m, matching its 43-fathom name",
        "verifyLocally": true,
        "description": "Named for its 43-fathom chart sounding, about 37 nmi west of Point Loma.",
        "commonSpecies": ["yellowtail", "bluefin tuna"]
      }
    },
    {
      "type": "Feature",
      "geometry": { "type": "Point", "coordinates": [-117.264, 32.69] },
      "properties": {
        "id": "pt-loma-kelp",
        "name": "Pt. Loma Kelp",
        "shortName": "Pt. Loma Kelp",
        "class": "reef",
        "minDepthFt": 60,
        "minDepthM": 18,
        "importanceTier": "major",
        "source": "NOAA-ENC",
        "positionSource": "Inside the Point Loma kelp bed (GMRT ~11 m)",
        "divable": true,
        "description": "Inshore kelp forest off Pt. Loma. Classic yellowtail / calico spot. Partly inside the Cabrillo SMR — see MPAs.",
        "commonSpecies": ["yellowtail", "calico bass", "halibut"]
      }
    },
    {
      "type": "Feature",
      "geometry": { "type": "Point", "coordinates": [-117.8722, 33.1056] },
      "properties": {
        "id": "spot-209",
        "name": "The 209",
        "shortName": "209",
        "class": "community-spot",
        "minDepthFt": 1254,
        "minDepthM": 382,
        "importanceTier": "minor",
        "source": "BD chart + GMRT",
        "positionSource": "BD Outdoors SoCal chart; GMRT high ~381 m = 209 fathoms",
        "verifyLocally": true,
        "description": "Named for its 209-fathom chart sounding, about 25 nmi WSW of Oceanside.",
        "commonSpecies": ["rockfish", "yellowtail"]
      }
    },
    {
      "type": "Feature",
      "geometry": { "type": "Point", "coordinates": [-117.8192, 33.2967] },
      "properties": {
        "id": "spot-267",
        "name": "The 267",
        "shortName": "267",
        "class": "community-spot",
        "minDepthFt": 1602,
        "minDepthM": 488,
        "importanceTier": "minor",
        "source": "BD chart + GMRT",
        "positionSource": "BD Outdoors SoCal chart; GMRT ~540 m (267 fathoms = 488 m)",
        "verifyLocally": true,
        "description": "Named for its 267-fathom chart sounding, about 22 nmi west of Oceanside.",
        "commonSpecies": ["bluefin tuna"]
      }
    },
    {
      "type": "Feature",
      "geometry": { "type": "Point", "coordinates": [-118.0889, 33.2] },
      "properties": {
        "id": "spot-277",
        "name": "The 277",
        "shortName": "277",
        "class": "community-spot",
        "minDepthFt": 1662,
        "minDepthM": 507,
        "importanceTier": "minor",
        "source": "BD chart + GMRT",
        "positionSource": "BD Outdoors SoCal chart; GMRT high ~456-507 m, matching 277 fathoms",
        "verifyLocally": true,
        "description": "Named for its 277-fathom chart sounding, between Catalina and Oceanside about 15 nmi southeast of Avalon.",
        "commonSpecies": ["bluefin tuna", "yellowtail"]
      }
    },
    {
      "type": "Feature",
      "geometry": { "type": "Point", "coordinates": [-117.5833, 32.4472] },
      "properties": {
        "id": "spot-302",
        "name": "The 302",
        "shortName": "302",
        "class": "community-spot",
        "minDepthFt": 1812,
        "minDepthM": 552,
        "importanceTier": "minor",
        "source": "BD chart + GMRT",
        "positionSource": "BD Outdoors SoCal chart; GMRT ~557-675 m (302 fathoms = 552 m)",
        "verifyLocally": true,
        "description": "Named for its 302-fathom chart sounding, about 22 nmi southwest of Point Loma."
      }
    },
    {
      "type": "Feature",
      "geometry": { "type": "Point", "coordinates": [-117.8083, 33.0236] },
      "properties": {
        "id": "spot-312",
        "name": "The 312",
        "shortName": "312",
        "class": "community-spot",
        "minDepthFt": 1872,
        "minDepthM": 571,
        "importanceTier": "minor",
        "source": "BD chart + GMRT",
        "positionSource": "BD Outdoors SoCal chart; GMRT high ~569 m = 312 fathoms",
        "verifyLocally": true,
        "description": "Named for its 312-fathom chart sounding, about 24 nmi southwest of Oceanside.",
        "commonSpecies": ["bluefin tuna"]
      }
    },
    {
      "type": "Feature",
      "geometry": { "type": "Point", "coordinates": [-117.7333, 31.7639] },
      "properties": {
        "id": "trench-1010",
        "name": "The 1010 Trench",
        "shortName": "1010",
        "class": "trough",
        "importanceTier": "major",
        "source": "BD chart + GMRT",
        "positionSource": "BD Outdoors SoCal chart; GMRT ~1,845 m = 1,010 fathoms",
        "description": "Deep trench off northern Baja about 60 nmi south-southwest of Point Loma, named for its 1,010-fathom sounding. Summer bluefin when the temp break aligns over it."
      }
    },
    {
      "type": "Feature",
      "geometry": { "type": "Point", "coordinates": [-118.2472, 32.0667] },
      "properties": {
        "id": "sixty-mile-bank",
        "name": "60 Mile Bank",
        "shortName": "60 Mile",
        "class": "bank",
        "minDepthFt": 318,
        "minDepthM": 97,
        "importanceTier": "marquee",
        "source": "BD chart + CP7",
        "positionSource": "BD Outdoors SoCal chart (GMRT ~90-140 m); CP7: 62 mi from Point Loma, least depth 53 fathoms",
        "description": "About 62 nmi southwest of Point Loma; least depth 53 fathoms. Premier offshore ground for yellowfin, bluefin, and yellowtail.",
        "commonSpecies": ["yellowfin tuna", "bluefin tuna", "yellowtail", "dorado"]
      }
    },
    {
      "type": "Feature",
      "geometry": { "type": "Point", "coordinates": [-118.5, 32.0667] },
      "properties": {
        "id": "mushroom-60mile",
        "name": "The Mushroom",
        "shortName": "Mushroom",
        "class": "community-spot",
        "importanceTier": "minor",
        "source": "community-curated",
        "positionSource": "BD Outdoors SoCal chart only (GMRT ~320-460 m); not independently confirmed",
        "verifyLocally": true,
        "description": "Deep high spot about 13 nmi west of 60 Mile Bank, as placed on the BD Outdoors chart. Verify locally.",
        "commonSpecies": ["yellowfin tuna", "yellowtail"]
      }
    },
    {
      "type": "Feature",
      "geometry": { "type": "Point", "coordinates": [-117.5, 31.9] },
      "properties": {
        "id": "hidden-bank",
        "name": "The Hidden Bank",
        "shortName": "Hidden",
        "class": "bank",
        "importanceTier": "minor",
        "source": "NOAA-ENC",
        "positionSource": "BD Outdoors SoCal chart label position only; GMRT shows no shallow top nearby",
        "description": "Offshore northern Baja, as placed on the BD Outdoors chart. Position approximate; verify locally.",
        "commonSpecies": ["yellowtail", "white seabass", "albacore"],
        "verifyLocally": true
      }
    },
    {
      "type": "Feature",
      "geometry": { "type": "Point", "coordinates": [-119.64, 32.3467] },
      "properties": {
        "id": "northeast-bank",
        "name": "Northeast Bank",
        "shortName": "NE Bank",
        "class": "bank",
        "importanceTier": "minor",
        "source": "NOAA-ENC",
        "positionSource": "BD Outdoors SoCal chart only (GMRT top ~360 m); not independently confirmed",
        "description": "Deep bank west of Cortes Bank, as placed on the BD Outdoors chart. Verify locally.",
        "commonSpecies": [],
        "verifyLocally": true
      }
    },
    {
      "type": "Feature",
      "geometry": { "type": "Point", "coordinates": [-118.3933, 33.0367] },
      "properties": {
        "id": "mackerel-bank",
        "name": "Mackerel Bank",
        "shortName": "Mackerel",
        "class": "bank",
        "importanceTier": "minor",
        "source": "NOAA-ENC",
        "positionSource": "BD Outdoors SoCal chart only (GMRT top ~630 m); not independently confirmed",
        "description": "Deep bank east of the north end of San Clemente Island, as placed on the BD Outdoors chart. Verify locally.",
        "commonSpecies": [],
        "verifyLocally": true
      }
    },
    {
      "type": "Feature",
      "geometry": { "type": "Point", "coordinates": [-117.247, 32.668] },
      "properties": {
        "id": "cabrillo-pt-loma-north",
        "name": "Cabrillo SMR (Pt. Loma tip)",
        "shortName": "Cabrillo",
        "class": "reef",
        "importanceTier": "major",
        "source": "NOAA-ENC",
        "positionSource": "CDFW Cabrillo SMR boundary (public/data/mpa-boundaries.geojson)",
        "divable": true,
        "description": "Southern tip of Point Loma. Inside the Cabrillo SMR: no take, see the MPAs layer."
      }
    },
    {
      "type": "Feature",
      "geometry": { "type": "Point", "coordinates": [-117.27, 32.42] },
      "properties": {
        "id": "las-coronados",
        "name": "Las Islas Coronado",
        "shortName": "Coronados",
        "class": "islands",
        "importanceTier": "marquee",
        "source": "NOAA-ENC",
        "divable": true,
        "description": "Four-island cluster (N/M/S + Pukey Point) about 15 mi south of the US border. Inside Mexico's Islas del Pacífico Biosphere Reserve — see CONANP.",
        "commonSpecies": ["yellowtail", "calico bass"]
      }
    },
    {
      "type": "Feature",
      "geometry": { "type": "Point", "coordinates": [-116.787, 31.974] },
      "properties": {
        "id": "salsipuedes",
        "name": "Salsipuedes",
        "shortName": "Salsipuedes",
        "class": "reef",
        "importanceTier": "major",
        "source": "NOAA-ENC",
        "positionSource": "Bahía Salsipuedes; same point as the Salsipuedes spot in src/lib/mapData.js",
        "description": "Kelp coast and reefs at Bahía Salsipuedes, north of Ensenada. Bottom fishing and white seabass. Mexican waters."
      }
    },
    {
      "type": "Feature",
      "geometry": { "type": "Point", "coordinates": [-116.8, 31.805] },
      "properties": {
        "id": "todos-santos-islands",
        "name": "Todos Santos Islands",
        "shortName": "Todos Santos",
        "class": "islands",
        "importanceTier": "major",
        "source": "NOAA-ENC",
        "positionSource": "Islas de Todos Santos, 31°48'N 116°48'W",
        "description": "Off Ensenada. Killers reef — famous big-wave break. Mexican waters."
      }
    }
  ]
}
