{"type":"FeatureCollection","features":[{"type":"Feature","geometry":{"type":"Polygon","coordinates":[[[-116.8039,31.9787],[-116.8423,31.9865],[-116.8654,32.013],[-116.8753,32.0345],[-116.8787,32.0692],[-116.8869,32.132],[-116.9051,32.1784],[-116.9227,32.2194],[-116.9334,32.2338],[-116.9483,32.247],[-116.9667,32.2566],[-117.0099,32.2651],[-117.025,32.2769],[-117.0735,32.3695],[-117.0886,32.4049],[-117.1073,32.4376],[-117.1184,32.4545],[-117.1212,32.4719],[-117.1234,32.4906],[-117.1245,32.5129],[-117.1241,32.5241],[-117.1261,32.5395],[-117.1322,32.5681],[-117.1339,32.5929],[-117.137,32.6158],[-117.1498,32.6463],[-117.1664,32.6695],[-117.1884,32.6827],[-117.224,32.6847],[-117.2262,32.6972],[-117.22,32.7066],[-117.2058,32.7134],[-117.191,32.7137],[-117.1879,32.7059],[-117.1681,32.6988],[-117.1642,32.6838],[-117.1559,32.6724],[-117.1428,32.6531],[-117.1313,32.631],[-117.1241,32.6068],[-117.1151,32.6003],[-117.1034,32.6068],[-117.1023,32.6205],[-117.1199,32.6526],[-117.119,32.6706],[-117.1332,32.6898],[-117.1463,32.6943],[-117.1666,32.7068],[-117.1773,32.715],[-117.1746,32.7267],[-117.2099,32.7253],[-117.2242,32.7186],[-117.2378,32.7072],[-117.2366,32.6696],[-117.2453,32.6746],[-117.2553,32.6914],[-117.2575,32.7017],[-117.2547,32.7464],[-117.2539,32.7635],[-117.2576,32.7842],[-117.2788,32.8228],[-117.2836,32.8377],[-117.2738,32.8511],[-117.266,32.847],[-117.2599,32.8541],[-117.2536,32.8851],[-117.2581,32.909],[-117.2748,32.9935],[-117.2796,33.0072],[-117.286,33.0239],[-117.2981,33.0359],[-117.3222,33.1085],[-117.3619,33.1659],[-117.5088,33.3352],[-117.5963,33.3904],[-117.6544,33.442],[-117.6707,33.4523],[-117.7152,33.4748],[-117.7352,33.4848],[-117.7765,33.5294],[-117.8246,33.5617],[-117.8803,33.5929],[-117.9302,33.6079],[-117.9785,33.636],[-118.0905,33.731],[-118.1174,33.7436],[-118.1526,33.7588],[-118.1736,33.7633],[-118.1855,33.7575],[-118.199,33.764],[-118.2072,33.7638],[-118.1925,33.7523],[-118.1866,33.7415],[-118.1852,33.7324],[-118.1929,33.7317],[-118.2025,33.7393],[-118.2027,33.7466],[-118.2097,33.7423],[-118.2138,33.749],[-118.2215,33.7709],[-118.2307,33.7691],[-118.2403,33.7676],[-118.2501,33.7637],[-118.2546,33.7654],[-118.2604,33.7604],[-118.2695,33.7536],[-118.2768,33.7566],[-118.2738,33.7503],[-118.2783,33.7387],[-118.2745,33.7238],[-118.2722,33.7153],[-118.2824,33.7162],[-118.2817,33.7117],[-118.2761,33.7077],[-118.2827,33.708],[-118.2913,33.7032],[-118.3009,33.7098],[-118.3175,33.714],[-118.3315,33.7201],[-118.3548,33.7263],[-118.3623,33.7357],[-118.3761,33.7372],[-118.385,33.7401],[-118.3942,33.7367],[-118.4014,33.7356],[-118.4048,33.74],[-118.412,33.7417],[-118.4152,33.7544],[-118.4228,33.7638],[-118.4276,33.7737],[-118.4218,33.7839],[-118.4093,33.7911],[-118.4086,33.798],[-118.3957,33.8057],[-118.3918,33.8176],[-118.3914,33.8359],[-118.3972,33.844],[-118.3997,33.8513],[-118.4099,33.8734],[-118.4249,33.9055],[-118.4447,33.9494],[-118.4827,33.999],[-118.5141,34.0222],[-118.5441,34.0389],[-118.5573,34.0379],[-118.5706,34.0411],[-118.5826,34.0365],[-118.5907,34.0391],[-118.6034,34.0388],[-118.6093,34.0357],[-118.6369,34.0364],[-118.6666,34.0389],[-118.6757,34.0381],[-118.6782,34.033],[-118.6801,34.0303],[-118.6932,34.0319],[-118.7068,34.0294],[-118.7305,34.0325],[-118.7484,34.0319],[-118.7561,34.0257],[-118.773,34.0238],[-118.7834,34.0218],[-118.7879,34.0197],[-118.7892,34.0146],[-118.7928,34.0116],[-118.7937,34.0073],[-118.7966,34.0067],[-118.8028,34.0048],[-118.8041,34.001],[-118.807,33.9994],[-118.8298,34.0208],[-118.8526,34.0337],[-118.8627,34.0344],[-118.8757,34.0376],[-118.8942,34.0386],[-118.9027,34.0401],[-118.9147,34.0406],[-118.9209,34.0443],[-118.93,34.0459],[-118.9368,34.0432],[-118.954,34.0479],[-118.9775,34.0596],[-118.9974,34.0657],[-119.0081,34.0661],[-119.0383,34.0836],[-119.0609,34.0855],[-119.0897,34.1005],[-119.1002,34.1028],[-119.1171,34.1064],[-119.1198,34.1061],[-119.1196,34.1037],[-119.1143,34.1018],[-119.1007,34.099],[-119.1065,34.0945],[-119.1287,34.1005],[-119.1538,34.1163],[-119.1937,34.1417],[-119.2044,34.1441],[-119.2058,34.1458],[-119.2042,34.1484],[-119.2047,34.1495],[-119.2083,34.1523],[-119.2101,34.1523],[-119.211,34.148],[-119.2148,34.1457],[-119.2171,34.1455],[-119.2208,34.1532],[-119.2247,34.1571],[-119.2261,34.1591],[-119.2312,34.1673],[-119.2372,34.1769],[-119.244,34.1901],[-119.2527,34.2039],[-119.2602,34.2171],[-119.2634,34.2266],[-119.2589,34.2334],[-119.2639,34.2351],[-119.2672,34.2445],[-119.2693,34.255],[-119.2812,34.2687],[-119.2899,34.2746],[-119.296,34.2743],[-119.3044,34.2724],[-119.3134,34.2771],[-119.3207,34.2826],[-119.3291,34.2859],[-119.3386,34.2905],[-119.3495,34.3041],[-119.3588,34.3101],[-119.3647,34.3157],[-119.3709,34.3197],[-119.3752,34.3203],[-119.3821,34.3194],[-119.3869,34.3181],[-119.3915,34.3184],[-119.3941,34.3226],[-119.4011,34.3306],[-119.4098,34.3362],[-119.4183,34.3424],[-119.43,34.3535],[-119.4366,34.3557],[-119.4432,34.3548],[-119.453,34.3684],[-119.4602,34.374],[-119.4662,34.375],[-119.4702,34.3758],[-119.473,34.3739],[-119.4752,34.3724],[-119.4778,34.3726],[-119.4796,34.3745],[-119.4835,34.3786],[-119.4882,34.3811],[-119.4949,34.384],[-119.5025,34.3843],[-119.5168,34.3869],[-119.5207,34.3907],[-119.5294,34.3948],[-119.5368,34.3956],[-119.5557,34.4105],[-119.5632,34.4148],[-119.568,34.4139],[-119.5729,34.4128],[-119.5759,34.4119],[-119.5818,34.4127],[-119.5959,34.4189],[-119.6172,34.4205],[-119.6212,34.4182],[-119.6289,34.4181],[-119.6385,34.4152],[-119.6579,34.4165],[-119.6781,34.4144],[-119.6877,34.4109],[-119.6902,34.4081],[-119.6917,34.4054],[-119.6909,34.4035],[-119.7008,34.4009],[-119.702,34.3981],[-119.7079,34.3954],[-119.7199,34.3953],[-119.7329,34.3975],[-119.7432,34.4026],[-119.7545,34.4048],[-119.7876,34.4172],[-119.803,34.4181],[-119.8085,34.4163],[-119.832,34.4163],[-119.8364,34.4149],[-119.841,34.413],[-119.8409,34.41],[-119.8424,34.4062],[-119.8444,34.4039],[-119.8547,34.4088],[-119.8682,34.4095],[-119.8744,34.4088],[-119.8786,34.4066],[-119.8904,34.4191],[-119.9006,34.4204],[-119.9215,34.4334],[-119.9348,34.4355],[-119.9428,34.4352],[-119.9499,34.4343],[-119.9571,34.4359],[-119.9622,34.4398],[-119.9759,34.4472],[-119.9847,34.45],[-119.9895,34.4498],[-120.01,34.461],[-120.0221,34.4577],[-120.0366,34.4631],[-120.0914,34.4588],[-120.1334,34.4727],[-120.1719,34.47],[-120.2932,34.4685],[-120.4252,34.4513],[-120.4443,34.4512],[-120.4541,34.4428],[-120.4727,34.4503],[-120.4916,34.4914],[-120.51,34.5214],[-120.5364,34.5353],[-120.5578,34.5412],[-120.5779,34.5535],[-120.5946,34.5547],[-120.6216,34.5526],[-120.6366,34.5629],[-120.6444,34.5741],[-120.6478,34.5857],[-120.6421,34.601],[-120.6306,34.6282],[-120.6141,34.6594],[-120.6061,34.6793],[-120.6031,34.7048],[-120.617,34.7257],[-120.6276,34.7435],[-120.6402,34.7585],[-120.6299,34.7819],[-120.6192,34.8192],[-120.6174,34.8436],[-120.6156,34.858],[-120.6222,34.8673],[-120.6326,34.8714],[-120.6402,34.8792],[-120.6446,34.8951],[-120.655,34.9012],[-120.6676,34.8988],[-120.6728,34.9075],[-120.6662,34.9318],[-120.6424,35.0009],[-120.6337,35.0351],[-120.6307,35.0739],[-120.6357,35.1086],[-120.6449,35.1394],[-120.6529,35.1442],[-120.6586,35.1505],[-120.6712,35.1502],[-120.679,35.1531],[-120.6981,35.1691],[-120.7064,35.1742],[-120.7238,35.1752],[-120.7497,35.1774],[-120.7556,35.1719],[-120.7553,35.1631],[-120.7594,35.1592],[-120.7655,35.1602],[-120.7908,35.179],[-120.8498,35.2029],[-120.8767,35.2238],[-120.8861,35.2338],[-120.8977,35.2498],[-120.8956,35.2735],[-120.8871,35.2859],[-120.8678,35.3304],[-120.8622,35.3619],[-120.8538,35.3475],[-120.8574,35.3268],[-120.8556,35.3215],[-120.8432,35.3243],[-120.8421,35.3317],[-120.8314,35.3361],[-120.8358,35.3429],[-120.8416,35.3459],[-120.8521,35.3671],[-120.8603,35.3738],[-120.8667,35.371],[-120.8711,35.4053],[-120.8791,35.4201],[-120.8873,35.4329],[-120.9082,35.4482],[-120.9462,35.4463],[-120.9635,35.4567],[-120.9828,35.46],[-121.0054,35.4607],[-121.037,35.4892],[-121.0683,35.5179],[-121.1018,35.5497],[-121.1309,35.6007],[-121.1433,35.605],[-121.1591,35.6272],[-121.1694,35.6369],[-121.1874,35.6419],[-121.1931,35.6396],[-121.1915,35.6339],[-121.195,35.6323],[-121.2165,35.6477],[-121.234,35.652],[-121.252,35.6574],[-121.2691,35.6642],[-121.2883,35.6648],[-121.2885,35.6815],[-121.2984,35.6975],[-121.309,35.7077],[-121.3146,35.7137],[-121.3231,35.7646],[-121.3372,35.7865],[-121.368,35.8104],[-121.3871,35.8214],[-121.4089,35.844],[-121.4133,35.8547],[-121.4255,35.8584],[-121.442,35.8692],[-121.4632,35.8867],[-121.4627,35.9037],[-121.4722,35.9136],[-121.4784,35.9316],[-121.4822,35.949],[-121.4869,35.9658],[-121.49,35.9822],[-121.5067,36.0033],[-121.5226,36.0101],[-121.5411,36.015],[-121.5667,36.0201],[-121.5822,36.036],[-121.5927,36.0506],[-121.5945,36.0642],[-121.6064,36.0715],[-121.6182,36.0844],[-121.6302,36.1131],[-121.6427,36.1235],[-121.6578,36.1426],[-121.6779,36.1627],[-121.6936,36.1717],[-121.7039,36.1822],[-121.7291,36.1981],[-121.754,36.2115],[-121.7814,36.2263],[-121.7989,36.2345],[-121.8104,36.2324],[-121.8249,36.2392],[-121.8356,36.2492],[-121.8401,36.2593],[-121.8454,36.2724],[-121.8522,36.2794],[-121.8632,36.2832],[-121.8736,36.29],[-121.881,36.2995],[-121.8997,36.3044],[-121.8956,36.3139],[-121.8971,36.328],[-121.8937,36.3321],[-121.8936,36.3386],[-121.8979,36.3439],[-121.9011,36.3528],[-121.9036,36.3621],[-121.9058,36.3718],[-121.9061,36.3771],[-121.9042,36.3845],[-121.9061,36.3885],[-121.9083,36.3964],[-121.9144,36.403],[-121.9177,36.4155],[-121.9153,36.4232],[-121.9184,36.4303],[-121.929,36.4478],[-121.9302,36.4546],[-121.9315,36.463],[-121.938,36.4683],[-121.9447,36.4862],[-121.9463,36.4919],[-121.9425,36.4967],[-121.9432,36.5028],[-121.9442,36.5057],[-121.9423,36.5119],[-121.9496,36.5142],[-121.9569,36.5176],[-121.9554,36.5227],[-121.9482,36.5237],[-121.9401,36.5228],[-121.9275,36.5239],[-121.9283,36.5314],[-121.9299,36.5378],[-121.9331,36.5385],[-121.9356,36.5442],[-121.9313,36.5472],[-121.9325,36.5551],[-121.9346,36.5612],[-121.9403,36.5585],[-121.9428,36.5631],[-121.9465,36.5648],[-121.9509,36.5629],[-121.9539,36.5596],[-121.9701,36.5689],[-121.978,36.5748],[-121.9811,36.5837],[-121.9739,36.5843],[-121.9672,36.5852],[-121.9666,36.5921],[-121.9639,36.6005],[-121.9599,36.6115],[-121.9564,36.6141],[-121.9503,36.6099],[-121.9466,36.618],[-121.9425,36.6264],[-121.9415,36.6344],[-121.9377,36.6392],[-121.9295,36.638],[-121.9212,36.6336],[-121.9205,36.6289],[-121.9131,36.6244],[-121.9022,36.6208],[-121.8959,36.6126],[-121.8874,36.602],[-121.8788,36.6026],[-121.87,36.6072],[-121.8539,36.6196],[-121.8379,36.6356],[-121.8271,36.6562],[-121.8143,36.6832],[-121.8099,36.7188],[-121.8054,36.7377],[-121.7924,36.7309],[-121.7637,36.7221],[-121.7613,36.7303],[-121.7664,36.7352],[-121.7702,36.7391],[-121.7751,36.7375],[-121.7837,36.738],[-121.7902,36.7418],[-121.7949,36.7464],[-121.8032,36.7505],[-121.7982,36.7799],[-121.7898,36.8062],[-121.8042,36.836],[-121.8599,36.9275],[-121.8871,36.9549],[-121.9056,36.9691],[-121.9372,36.9783],[-121.9528,36.971],[-121.9636,36.9595],[-121.9742,36.9552],[-121.994,36.9599],[-122.0067,36.9624],[-122.0212,36.9627],[-122.0252,36.9597],[-122.0241,36.9561],[-122.0252,36.951],[-122.0348,36.9532],[-122.0468,36.9482],[-122.0609,36.9488],[-122.0809,36.9515],[-122.106,36.9558],[-122.1208,36.9633],[-122.135,36.9657],[-122.1422,36.9753],[-122.1536,36.9771],[-122.1776,36.9951],[-122.2079,37.0193],[-122.2221,37.0243],[-122.2279,37.0401],[-122.2538,37.0591],[-122.266,37.0765],[-122.281,37.0966],[-122.2901,37.1042],[-122.2977,37.1112],[-122.3084,37.1167],[-122.3187,37.1156],[-122.3277,37.1128],[-122.3393,37.1186],[-122.3379,37.1349],[-122.3595,37.1505],[-122.361,37.1624],[-122.3694,37.174],[-122.3834,37.1823],[-122.3961,37.1819],[-122.4045,37.1945],[-122.4079,37.2161],[-122.4107,37.2269],[-122.4165,37.2339],[-122.4184,37.2523],[-122.4102,37.2688],[-122.4074,37.295],[-122.4025,37.3405],[-122.4003,37.3597],[-122.4087,37.3642],[-122.4116,37.3749],[-122.4292,37.4073],[-122.4444,37.4375],[-122.4492,37.4767],[-122.4632,37.4966],[-122.4793,37.5028],[-122.4861,37.5026],[-122.4942,37.5008],[-122.4953,37.4954],[-122.4993,37.4931],[-122.5011,37.5013],[-122.512,37.51],[-122.5205,37.5314],[-122.5176,37.5453],[-122.5148,37.5609],[-122.52,37.5741],[-122.519,37.5897],[-122.5224,37.5932],[-122.5175,37.5945],[-122.5131,37.5978],[-122.5076,37.5977],[-122.5049,37.6],[-122.3631,37.6],[-122.3623,37.5997],[-122.3585,37.5928],[-122.3304,37.5894],[-122.3168,37.5898],[-122.3158,37.5839],[-122.2991,37.5769],[-122.2833,37.5747],[-122.2579,37.5715],[-122.251,37.5681],[-122.2453,37.5532],[-122.2396,37.5469],[-122.2305,37.5448],[-122.2103,37.5399],[-122.1993,37.535],[-122.1989,37.5268],[-122.2073,37.5175],[-122.193,37.5154],[-122.1831,37.5076],[-122.1713,37.5036],[-122.1587,37.5034],[-122.1479,37.4966],[-122.1341,37.4978],[-122.1227,37.4849],[-122.1119,37.4675],[-122.1002,37.4551],[-122.0809,37.4487],[-122.0589,37.4474],[-122.0386,37.4514],[-122.0321,37.4634],[-122.0408,37.4679],[-122.0483,37.4687],[-122.0522,37.4714],[-122.0519,37.4774],[-122.0505,37.4843],[-122.0517,37.4892],[-122.0578,37.4975],[-122.0624,37.5017],[-122.0691,37.5036],[-122.0933,37.5036],[-122.109,37.518],[-122.1166,37.5426],[-122.1463,37.579],[-122.1497,37.6],[-116.8,37.6],[-116.8,31.9786],[-116.8039,31.9787]]]},"properties":{"featurecla":"Land","min_zoom":0.0,"scalerank":0}},{"type":"Feature","geometry":{"type":"MultiPolygon","coordinates":[[[[-118.5899,33.03],[-118.5772,33.0325],[-118.5644,33.0238],[-118.5655,33.0184],[-118.5602,33.0063],[-118.5498,33.0016],[-118.545,32.9856],[-118.516,32.9582],[-118.5044,32.9413],[-118.4836,32.9216],[-118.4667,32.9148],[-118.4507,32.8976],[-118.4071,32.8643],[-118.382,32.8477],[-118.3588,32.8278],[-118.3509,32.8187],[-118.3636,32.8168],[-118.3842,32.8244],[-118.4015,32.82],[-118.4042,32.8124],[-118.4114,32.8098],[-118.425,32.8024],[-118.429,32.8029],[-118.4384,32.8169],[-118.4499,32.8188],[-118.4743,32.8381],[-118.4899,32.8449],[-118.4991,32.8506],[-118.5068,32.8652],[-118.5086,32.8765],[-118.5202,32.8855],[-118.5312,32.9034],[-118.5376,32.9058],[-118.5469,32.9188],[-118.5482,32.9372],[-118.5517,32.9454],[-118.5587,32.9531],[-118.5755,32.969],[-118.5799,32.9878],[-118.5868,33.0033],[-118.5938,33.0139],[-118.6082,33.0144],[-118.6072,33.0309],[-118.5957,33.0353],[-118.5899,33.03]]],[[[-119.4978,33.2661],[-119.4886,33.2672],[-119.4825,33.2636],[-119.4622,33.2565],[-119.4434,33.2422],[-119.4345,33.2313],[-119.4343,33.224],[-119.4392,33.2198],[-119.4468,33.2193],[-119.4566,33.216],[-119.4686,33.2163],[-119.4729,33.2153],[-119.4872,33.2179],[-119.491,33.2188],[-119.4954,33.2173],[-119.5025,33.2209],[-119.5151,33.2221],[-119.5234,33.2279],[-119.5442,33.2313],[-119.5669,33.2475],[-119.567,33.2525],[-119.5742,33.2588],[-119.5727,33.2648],[-119.5789,33.2761],[-119.5779,33.2793],[-119.5624,33.2717],[-119.5506,33.2801],[-119.5429,33.2802],[-119.5321,33.2863],[-119.5133,33.2765],[-119.4978,33.2661]]],[[[-118.5301,33.47],[-118.5244,33.4667],[-118.5177,33.4598],[-118.5081,33.4547],[-118.4997,33.4518],[-118.4997,33.4482],[-118.4988,33.4427],[-118.4931,33.4416],[-118.4904,33.4434],[-118.4856,33.4449],[-118.4843,33.4471],[-118.4769,33.4474],[-118.4725,33.442],[-118.4681,33.4424],[-118.4628,33.4398],[-118.4575,33.4351],[-118.4501,33.4319],[-118.4448,33.4286],[-118.4373,33.4294],[-118.4339,33.4272],[-118.4294,33.4283],[-118.4211,33.4279],[-118.3944,33.416],[-118.3891,33.4175],[-118.3826,33.4105],[-118.3794,33.4102],[-118.374,33.4102],[-118.3692,33.4084],[-118.3683,33.4051],[-118.3669,33.3989],[-118.3696,33.3948],[-118.3683,33.389],[-118.3634,33.3883],[-118.3551,33.3773],[-118.3436,33.3668],[-118.3318,33.3591],[-118.3265,33.3489],[-118.3263,33.3446],[-118.3228,33.3431],[-118.3173,33.3434],[-118.3087,33.3364],[-118.3043,33.3193],[-118.3079,33.3187],[-118.3106,33.3142],[-118.3043,33.309],[-118.3121,33.3055],[-118.3147,33.3016],[-118.326,33.2986],[-118.346,33.3052],[-118.3549,33.3129],[-118.364,33.315],[-118.3748,33.3195],[-118.3961,33.3201],[-118.4105,33.3204],[-118.4227,33.3166],[-118.4438,33.3188],[-118.4636,33.3235],[-118.4728,33.3329],[-118.4842,33.3461],[-118.4896,33.3585],[-118.4844,33.3684],[-118.4862,33.3724],[-118.4801,33.3801],[-118.4749,33.3824],[-118.4793,33.3868],[-118.4872,33.4028],[-118.4845,33.4054],[-118.4871,33.4083],[-118.4863,33.416],[-118.4907,33.4196],[-118.4978,33.4214],[-118.5039,33.4232],[-118.5105,33.4239],[-118.5157,33.423],[-118.5208,33.4275],[-118.5307,33.4286],[-118.5351,33.4293],[-118.543,33.4329],[-118.5509,33.4333],[-118.5592,33.4329],[-118.5667,33.4369],[-118.5729,33.4379],[-118.5737,33.4405],[-118.5741,33.4466],[-118.579,33.4485],[-118.5844,33.4529],[-118.5896,33.4601],[-118.5959,33.4667],[-118.6021,33.4715],[-118.6039,33.4766],[-118.5969,33.477],[-118.5868,33.4756],[-118.578,33.4764],[-118.5696,33.4745],[-118.5634,33.4734],[-118.5459,33.475],[-118.5407,33.4758],[-118.5359,33.4773],[-118.5301,33.47]]],[[[-120.0499,34.0156],[-120.047,34.0038],[-120.034,33.9896],[-120.0083,33.979],[-119.9804,33.9835],[-119.9788,33.9594],[-119.9707,33.9529],[-119.9688,33.9411],[-119.9996,33.9415],[-120.0189,33.9342],[-120.0497,33.9148],[-120.0713,33.9118],[-120.0806,33.9064],[-120.1013,33.9069],[-120.109,33.8997],[-120.1099,33.8931],[-120.1242,33.8951],[-120.1334,33.9028],[-120.1526,33.9117],[-120.1756,33.9222],[-120.1845,33.9374],[-120.1894,33.9448],[-120.1981,33.9521],[-120.2102,33.9725],[-120.2194,33.9767],[-120.2255,33.9885],[-120.2372,33.9917],[-120.2485,34.0011],[-120.2366,34.0088],[-120.2176,34.0105],[-120.2011,34.0047],[-120.1858,34.0089],[-120.171,34.0074],[-120.1585,34.016],[-120.1455,34.0245],[-120.1361,34.0247],[-120.0967,34.0179],[-120.0725,34.0249],[-120.0579,34.0378],[-120.0441,34.0373],[-120.0423,34.0281],[-120.0499,34.0156]]],[[[-120.356,34.0471],[-120.3446,34.0465],[-120.3358,34.0487],[-120.3303,34.0472],[-120.3183,34.0401],[-120.3113,34.0345],[-120.3066,34.0264],[-120.3083,34.0182],[-120.3296,34.0186],[-120.3512,34.019],[-120.3604,34.0148],[-120.3738,34.0178],[-120.3824,34.0241],[-120.3928,34.026],[-120.4062,34.0314],[-120.4152,34.0325],[-120.4238,34.0249],[-120.4382,34.0296],[-120.4461,34.0302],[-120.4492,34.0359],[-120.438,34.0385],[-120.4153,34.0545],[-120.4034,34.0515],[-120.394,34.0533],[-120.38,34.0609],[-120.369,34.0713],[-120.3691,34.0762],[-120.3622,34.0717],[-120.359,34.065],[-120.3563,34.0585],[-120.3607,34.0531],[-120.356,34.0471]]],[[[-119.8244,34.0551],[-119.807,34.0519],[-119.7877,34.0562],[-119.7779,34.0559],[-119.7593,34.0558],[-119.7528,34.0523],[-119.7443,34.0522],[-119.737,34.0464],[-119.7321,34.0486],[-119.7118,34.0423],[-119.7038,34.0346],[-119.6924,34.0282],[-119.6854,34.0199],[-119.677,34.0208],[-119.6666,34.0168],[-119.6544,34.0191],[-119.6332,34.0136],[-119.6156,34.0195],[-119.6079,34.0295],[-119.6101,34.0396],[-119.5886,34.0497],[-119.5754,34.0507],[-119.5649,34.0553],[-119.5325,34.0414],[-119.5215,34.0343],[-119.5294,34.0252],[-119.5427,34.0202],[-119.5445,34.0136],[-119.5478,34.0038],[-119.5595,33.9943],[-119.5803,33.9936],[-119.5895,33.989],[-119.6248,33.9873],[-119.6455,33.9862],[-119.6577,33.9861],[-119.667,33.9831],[-119.6733,33.9781],[-119.6821,33.9763],[-119.6849,33.9739],[-119.7002,33.9687],[-119.7065,33.9687],[-119.7127,33.9617],[-119.7195,33.9591],[-119.7422,33.9624],[-119.7535,33.9623],[-119.7592,33.9573],[-119.772,33.9596],[-119.7883,33.9598],[-119.8016,33.9632],[-119.8172,33.9593],[-119.8252,33.9665],[-119.8405,33.9696],[-119.8508,33.9674],[-119.8667,33.9789],[-119.8741,33.98],[-119.8813,33.9913],[-119.8844,34.0018],[-119.8871,34.0088],[-119.8771,34.0244],[-119.8772,34.0325],[-119.8863,34.0381],[-119.8992,34.0496],[-119.9136,34.0559],[-119.9191,34.0575],[-119.9215,34.0547],[-119.9285,34.0558],[-119.933,34.0602],[-119.9243,34.0669],[-119.921,34.0734],[-119.9172,34.0788],[-119.9046,34.0743],[-119.887,34.0743],[-119.8564,34.0706],[-119.8352,34.0636],[-119.8244,34.0551]]]]},"properties":{"featurecla":"Land","min_zoom":4.0,"scalerank":3}},{"type":"Feature","geometry":{"type":"MultiPolygon","coordinates":[[[[-117.2432,32.3887],[-117.2467,32.4],[-117.248,32.4073],[-117.2511,32.411],[-117.2537,32.4208],[-117.2476,32.4186],[-117.245,32.4146],[-117.242,32.4044],[-117.2394,32.3971],[-117.2393,32.3891],[-117.2432,32.3887]]],[[[-118.2239,33.7561],[-118.2439,33.7508],[-118.2363,33.728],[-118.2501,33.7236],[-118.2456,33.7149],[-118.2576,33.7166],[-118.2613,33.725],[-118.2591,33.7294],[-118.2443,33.7343],[-118.249,33.7494],[-118.2539,33.7462],[-118.2511,33.7363],[-118.2606,33.7335],[-118.2686,33.7289],[-118.2709,33.7396],[-118.2675,33.747],[-118.255,33.7581],[-118.2503,33.7576],[-118.2455,33.7597],[-118.2347,33.7632],[-118.2266,33.7654],[-118.2239,33.7561]]]]},"properties":{"featurecla":"Land","min_zoom":6.0,"scalerank":5}},{"type":"Feature","geometry":{"type":"Polygon","coordinates":[[[-119.0301,33.4891],[-119.029,33.4839],[-119.0289,33.4806],[-119.027,33.4757],[-119.0315,33.4734],[-119.0314,33.4663],[-119.0381,33.4648],[-119.0394,33.4678],[-119.0431,33.4715],[-119.0441,33.4778],[-119.0481,33.4808],[-119.0471,33.484],[-119.037,33.4835],[-119.0306,33.4896],[-119.0306,33.4889],[-119.0301,33.4891]]]},"properties":{"featurecla":"Minor island","min_zoom":7.0,"scalerank":8}},{"type":"Feature","geometry":{"type":"Polygon","coordinates":[[[-119.3569,34.0157],[-119.3777,34.0103],[-119.3901,34.0022],[-119.4139,34.0063],[-119.4237,34.0048],[-119.43,34.0081],[-119.4391,34.0101],[-119.445,34.014],[-119.4392,34.0147],[-119.4342,34.0156],[-119.4191,34.0149],[-119.4113,34.0094],[-119.3923,34.0063],[-119.3816,34.0112],[-119.3642,34.0175],[-119.3569,34.0157]]]},"properties":{"featurecla":"Minor island","min_zoom":6.5,"scalerank":7}}]}