{
  "type": "FeatureCollection",
  "generated_at": "2026-06-19T14:42:30Z",
  "source": "scisland.org",
  "source_updated": "Jun 3, 2026, 15:22",
  "published_window": {
    "start": "2026-06-03",
    "end": "2026-07-01"
  },
  "tz": "America/Los_Angeles",
  "dates": [
    "2026-06-19",
    "2026-06-20",
    "2026-06-21",
    "2026-06-22",
    "2026-06-23",
    "2026-06-24",
    "2026-06-25"
  ],
  "features": [
    {
      "type": "Feature",
      "geometry": {
        "type": "Polygon",
        "coordinates": [
          [
            [
              -119.04972,
              32.99444
            ],
            [
              -118.93389,
              32.88278
            ],
            [
              -119.08972,
              32.76306
            ],
            [
              -119.19944,
              32.87833
            ],
            [
              -119.04972,
              32.99444
            ]
          ]
        ]
      },
      "properties": {
        "id": "SOAR S1",
        "label": "SOAR S1",
        "kind": "operations_area",
        "centroid": [
          -119.066665,
          32.87875
        ],
        "statusByDate": {
          "2026-06-19": {
            "status": "unknown",
            "windows": []
          },
          "2026-06-20": {
            "status": "unknown",
            "windows": []
          },
          "2026-06-21": {
            "status": "unknown",
            "windows": []
          },
          "2026-06-22": {
            "status": "unknown",
            "windows": []
          },
          "2026-06-23": {
            "status": "restricted",
            "windows": [
              {
                "start_local": "2026-06-23 12:00 PT",
                "end_local": "2026-06-23 16:00 PT",
                "start_utc": "2026-06-23T19:00Z",
                "end_utc": "2026-06-23T23:00Z",
                "altitude": "FLR:7000"
              }
            ]
          },
          "2026-06-24": {
            "status": "restricted",
            "windows": [
              {
                "start_local": "2026-06-24 12:00 PT",
                "end_local": "2026-06-24 16:00 PT",
                "start_utc": "2026-06-24T19:00Z",
                "end_utc": "2026-06-24T23:00Z",
                "altitude": "FLR:7000"
              }
            ]
          },
          "2026-06-25": {
            "status": "restricted",
            "windows": [
              {
                "start_local": "2026-06-25 12:00 PT",
                "end_local": "2026-06-25 16:00 PT",
                "start_utc": "2026-06-25T19:00Z",
                "end_utc": "2026-06-25T23:00Z",
                "altitude": "FLR:7000"
              }
            ]
          }
        }
      }
    },
    {
      "type": "Feature",
      "geometry": {
        "type": "Polygon",
        "coordinates": [
          [
            [
              -118.76722,
              33.13444
            ],
            [
              -118.69667,
              33.06444
            ],
            [
              -118.93389,
              32.88278
            ],
            [
              -119.04972,
              32.99444
            ],
            [
              -118.86806,
              33.13444
            ],
            [
              -118.76722,
              33.13444
            ]
          ]
        ]
      },
      "properties": {
        "id": "SOAR S2",
        "label": "SOAR S2",
        "kind": "operations_area",
        "centroid": [
          -118.873195,
          33.00861
        ],
        "statusByDate": {
          "2026-06-19": {
            "status": "unknown",
            "windows": []
          },
          "2026-06-20": {
            "status": "unknown",
            "windows": []
          },
          "2026-06-21": {
            "status": "unknown",
            "windows": []
          },
          "2026-06-22": {
            "status": "unknown",
            "windows": []
          },
          "2026-06-23": {
            "status": "restricted",
            "windows": [
              {
                "start_local": "2026-06-23 12:00 PT",
                "end_local": "2026-06-23 16:00 PT",
                "start_utc": "2026-06-23T19:00Z",
                "end_utc": "2026-06-23T23:00Z",
                "altitude": "FLR:7000"
              }
            ]
          },
          "2026-06-24": {
            "status": "restricted",
            "windows": [
              {
                "start_local": "2026-06-24 12:00 PT",
                "end_local": "2026-06-24 16:00 PT",
                "start_utc": "2026-06-24T19:00Z",
                "end_utc": "2026-06-24T23:00Z",
                "altitude": "FLR:7000"
              }
            ]
          },
          "2026-06-25": {
            "status": "restricted",
            "windows": [
              {
                "start_local": "2026-06-25 12:00 PT",
                "end_local": "2026-06-25 16:00 PT",
                "start_utc": "2026-06-25T19:00Z",
                "end_utc": "2026-06-25T23:00Z",
                "altitude": "FLR:7000"
              }
            ]
          }
        }
      }
    },
    {
      "type": "Feature",
      "geometry": {
        "type": "Polygon",
        "coordinates": [
          [
            [
              -118.93389,
              32.88278
            ],
            [
              -118.89778,
              32.84833
            ],
            [
              -119.055,
              32.72667
            ],
            [
              -119.08972,
              32.76306
            ],
            [
              -118.93389,
              32.88278
            ]
          ]
        ]
      },
      "properties": {
        "id": "SOAR S3",
        "label": "SOAR S3",
        "kind": "operations_area",
        "centroid": [
          -118.99375,
          32.804725
        ],
        "statusByDate": {
          "2026-06-19": {
            "status": "unknown",
            "windows": []
          },
          "2026-06-20": {
            "status": "unknown",
            "windows": []
          },
          "2026-06-21": {
            "status": "unknown",
            "windows": []
          },
          "2026-06-22": {
            "status": "unknown",
            "windows": []
          },
          "2026-06-23": {
            "status": "restricted",
            "windows": [
              {
                "start_local": "2026-06-23 12:00 PT",
                "end_local": "2026-06-23 16:00 PT",
                "start_utc": "2026-06-23T19:00Z",
                "end_utc": "2026-06-23T23:00Z",
                "altitude": "FLR:7000"
              }
            ]
          },
          "2026-06-24": {
            "status": "restricted",
            "windows": [
              {
                "start_local": "2026-06-24 12:00 PT",
                "end_local": "2026-06-24 16:00 PT",
                "start_utc": "2026-06-24T19:00Z",
                "end_utc": "2026-06-24T23:00Z",
                "altitude": "FLR:7000"
              }
            ]
          },
          "2026-06-25": {
            "status": "restricted",
            "windows": [
              {
                "start_local": "2026-06-25 12:00 PT",
                "end_local": "2026-06-25 16:00 PT",
                "start_utc": "2026-06-25T19:00Z",
                "end_utc": "2026-06-25T23:00Z",
                "altitude": "FLR:7000"
              }
            ]
          }
        }
      }
    },
    {
      "type": "Feature",
      "geometry": {
        "type": "Polygon",
        "coordinates": [
          [
            [
              -118.72583,
              33.04222
            ],
            [
              -118.72528,
              32.98139
            ],
            [
              -118.89778,
              32.84833
            ],
            [
              -118.93389,
              32.88278
            ],
            [
              -118.72583,
              33.04222
            ]
          ]
        ]
      },
      "properties": {
        "id": "SOAR S4",
        "label": "SOAR S4",
        "kind": "operations_area",
        "centroid": [
          -118.82958500000001,
          32.945274999999995
        ],
        "statusByDate": {
          "2026-06-19": {
            "status": "unknown",
            "windows": []
          },
          "2026-06-20": {
            "status": "unknown",
            "windows": []
          },
          "2026-06-21": {
            "status": "unknown",
            "windows": []
          },
          "2026-06-22": {
            "status": "unknown",
            "windows": []
          },
          "2026-06-23": {
            "status": "restricted",
            "windows": [
              {
                "start_local": "2026-06-23 12:00 PT",
                "end_local": "2026-06-23 16:00 PT",
                "start_utc": "2026-06-23T19:00Z",
                "end_utc": "2026-06-23T23:00Z",
                "altitude": "FLR:7000"
              }
            ]
          },
          "2026-06-24": {
            "status": "restricted",
            "windows": [
              {
                "start_local": "2026-06-24 12:00 PT",
                "end_local": "2026-06-24 16:00 PT",
                "start_utc": "2026-06-24T19:00Z",
                "end_utc": "2026-06-24T23:00Z",
                "altitude": "FLR:7000"
              }
            ]
          },
          "2026-06-25": {
            "status": "restricted",
            "windows": [
              {
                "start_local": "2026-06-25 12:00 PT",
                "end_local": "2026-06-25 16:00 PT",
                "start_utc": "2026-06-25T19:00Z",
                "end_utc": "2026-06-25T23:00Z",
                "altitude": "FLR:7000"
              }
            ]
          }
        }
      }
    },
    {
      "type": "Feature",
      "geometry": {
        "type": "Polygon",
        "coordinates": [
          [
            [
              -118.59778,
              33.03417
            ],
            [
              -118.61694,
              33.08222
            ],
            [
              -118.59722,
              33.085
            ],
            [
              -118.57694,
              33.08389
            ],
            [
              -118.55,
              33.07972
            ],
            [
              -118.53306,
              33.07056
            ],
            [
              -118.52417,
              33.06306
            ],
            [
              -118.51556,
              33.05306
            ],
            [
              -118.51056,
              33.04667
            ],
            [
              -118.56611,
              33.02111
            ],
            [
              -118.56472,
              33.02389
            ],
            [
              -118.56639,
              33.02667
            ],
            [
              -118.57111,
              33.03
            ],
            [
              -118.57556,
              33.03389
            ],
            [
              -118.58806,
              33.02889
            ],
            [
              -118.59417,
              33.03583
            ],
            [
              -118.59639,
              33.035
            ],
            [
              -118.59778,
              33.03417
            ]
          ]
        ]
      },
      "properties": {
        "id": "SZALFA",
        "label": "A",
        "kind": "safety_zone",
        "centroid": [
          -118.56375,
          33.053055
        ],
        "statusByDate": {
          "2026-06-19": {
            "status": "open",
            "windows": []
          },
          "2026-06-20": {
            "status": "open",
            "windows": []
          },
          "2026-06-21": {
            "status": "open",
            "windows": []
          },
          "2026-06-22": {
            "status": "open",
            "windows": []
          },
          "2026-06-23": {
            "status": "open",
            "windows": []
          },
          "2026-06-24": {
            "status": "open",
            "windows": []
          },
          "2026-06-25": {
            "status": "open",
            "windows": []
          }
        }
      }
    },
    {
      "type": "Feature",
      "geometry": {
        "type": "Polygon",
        "coordinates": [
          [
            [
              -118.51583,
              32.95472
            ],
            [
              -118.47028,
              32.99333
            ],
            [
              -118.45,
              32.96389
            ],
            [
              -118.43083,
              32.95444
            ],
            [
              -118.40194,
              32.93083
            ],
            [
              -118.4425,
              32.89028
            ],
            [
              -118.45444,
              32.90111
            ],
            [
              -118.45889,
              32.90778
            ],
            [
              -118.46056,
              32.9075
            ],
            [
              -118.46722,
              32.91389
            ],
            [
              -118.49056,
              32.92667
            ],
            [
              -118.51528,
              32.95444
            ],
            [
              -118.51583,
              32.95472
            ]
          ]
        ]
      },
      "properties": {
        "id": "SZBRAVO",
        "label": "B",
        "kind": "safety_zone",
        "centroid": [
          -118.458885,
          32.941805
        ],
        "statusByDate": {
          "2026-06-19": {
            "status": "open",
            "windows": []
          },
          "2026-06-20": {
            "status": "open",
            "windows": []
          },
          "2026-06-21": {
            "status": "open",
            "windows": []
          },
          "2026-06-22": {
            "status": "open",
            "windows": []
          },
          "2026-06-23": {
            "status": "open",
            "windows": []
          },
          "2026-06-24": {
            "status": "open",
            "windows": []
          },
          "2026-06-25": {
            "status": "open",
            "windows": []
          }
        }
      }
    },
    {
      "type": "Feature",
      "geometry": {
        "type": "Polygon",
        "coordinates": [
          [
            [
              -118.44139,
              32.89194
            ],
            [
              -118.40194,
              32.93083
            ],
            [
              -118.31167,
              32.85972
            ],
            [
              -118.30611,
              32.85556
            ],
            [
              -118.29389,
              32.84194
            ],
            [
              -118.28722,
              32.82528
            ],
            [
              -118.28722,
              32.81722
            ],
            [
              -118.28889,
              32.80472
            ],
            [
              -118.29417,
              32.79472
            ],
            [
              -118.30194,
              32.78472
            ],
            [
              -118.34972,
              32.8175
            ],
            [
              -118.35444,
              32.82139
            ],
            [
              -118.35806,
              32.82528
            ],
            [
              -118.35889,
              32.82861
            ],
            [
              -118.36611,
              32.83528
            ],
            [
              -118.37972,
              32.84611
            ],
            [
              -118.39139,
              32.85417
            ],
            [
              -118.40917,
              32.86722
            ],
            [
              -118.41917,
              32.87639
            ],
            [
              -118.44222,
              32.89194
            ],
            [
              -118.40167,
              32.93056
            ],
            [
              -118.44139,
              32.89194
            ]
          ]
        ]
      },
      "properties": {
        "id": "SZCHARLIE",
        "label": "C",
        "kind": "safety_zone",
        "centroid": [
          -118.36472,
          32.857775000000004
        ],
        "statusByDate": {
          "2026-06-19": {
            "status": "open",
            "windows": []
          },
          "2026-06-20": {
            "status": "open",
            "windows": []
          },
          "2026-06-21": {
            "status": "open",
            "windows": []
          },
          "2026-06-22": {
            "status": "open",
            "windows": []
          },
          "2026-06-23": {
            "status": "open",
            "windows": []
          },
          "2026-06-24": {
            "status": "open",
            "windows": []
          },
          "2026-06-25": {
            "status": "open",
            "windows": []
          }
        }
      }
    },
    {
      "type": "Feature",
      "geometry": {
        "type": "Polygon",
        "coordinates": [
          [
            [
              -118.48944,
              32.845
            ],
            [
              -118.53,
              32.80722
            ],
            [
              -118.5225,
              32.80167
            ],
            [
              -118.51028,
              32.79722
            ],
            [
              -118.50528,
              32.79278
            ],
            [
              -118.49944,
              32.79
            ],
            [
              -118.49028,
              32.78083
            ],
            [
              -118.47861,
              32.775
            ],
            [
              -118.47167,
              32.76583
            ],
            [
              -118.45861,
              32.75694
            ],
            [
              -118.44556,
              32.75167
            ],
            [
              -118.43,
              32.74917
            ],
            [
              -118.41056,
              32.75056
            ],
            [
              -118.39194,
              32.7575
            ],
            [
              -118.38361,
              32.76278
            ],
            [
              -118.37417,
              32.76667
            ],
            [
              -118.36306,
              32.76389
            ],
            [
              -118.34556,
              32.76389
            ],
            [
              -118.32611,
              32.76861
            ],
            [
              -118.31444,
              32.77583
            ],
            [
              -118.3025,
              32.78639
            ],
            [
              -118.34972,
              32.81639
            ],
            [
              -118.35444,
              32.81472
            ],
            [
              -118.35833,
              32.81861
            ],
            [
              -118.37056,
              32.81889
            ],
            [
              -118.37167,
              32.82056
            ],
            [
              -118.37417,
              32.82028
            ],
            [
              -118.38444,
              32.82417
            ],
            [
              -118.39472,
              32.8225
            ],
            [
              -118.39472,
              32.82083
            ],
            [
              -118.40056,
              32.81972
            ],
            [
              -118.40333,
              32.81083
            ],
            [
              -118.40778,
              32.81
            ],
            [
              -118.41194,
              32.81
            ],
            [
              -118.41389,
              32.81056
            ],
            [
              -118.41694,
              32.81028
            ],
            [
              -118.41694,
              32.80611
            ],
            [
              -118.42333,
              32.80417
            ],
            [
              -118.42444,
              32.8
            ],
            [
              -118.42806,
              32.80306
            ],
            [
              -118.42944,
              32.80389
            ],
            [
              -118.42806,
              32.80528
            ],
            [
              -118.42694,
              32.80639
            ],
            [
              -118.43,
              32.80944
            ],
            [
              -118.43694,
              32.815
            ],
            [
              -118.43861,
              32.81333
            ],
            [
              -118.44583,
              32.82
            ],
            [
              -118.44972,
              32.81833
            ],
            [
              -118.45556,
              32.82667
            ],
            [
              -118.45972,
              32.82722
            ],
            [
              -118.46083,
              32.83083
            ],
            [
              -118.46889,
              32.83333
            ],
            [
              -118.47056,
              32.83583
            ],
            [
              -118.47194,
              32.83861
            ],
            [
              -118.47528,
              32.84111
            ],
            [
              -118.47917,
              32.84139
            ],
            [
              -118.48306,
              32.84278
            ],
            [
              -118.48611,
              32.84417
            ],
            [
              -118.48944,
              32.845
            ]
          ]
        ]
      },
      "properties": {
        "id": "SZDELTA",
        "label": "D",
        "kind": "safety_zone",
        "centroid": [
          -118.41624999999999,
          32.797084999999996
        ],
        "statusByDate": {
          "2026-06-19": {
            "status": "open",
            "windows": []
          },
          "2026-06-20": {
            "status": "open",
            "windows": []
          },
          "2026-06-21": {
            "status": "open",
            "windows": []
          },
          "2026-06-22": {
            "status": "open",
            "windows": []
          },
          "2026-06-23": {
            "status": "open",
            "windows": []
          },
          "2026-06-24": {
            "status": "open",
            "windows": []
          },
          "2026-06-25": {
            "status": "open",
            "windows": []
          }
        }
      }
    },
    {
      "type": "Feature",
      "geometry": {
        "type": "Polygon",
        "coordinates": [
          [
            [
              -118.60111,
              32.895
            ],
            [
              -118.55083,
              32.93556
            ],
            [
              -118.55,
              32.93139
            ],
            [
              -118.54583,
              32.92667
            ],
            [
              -118.54667,
              32.91611
            ],
            [
              -118.54194,
              32.91528
            ],
            [
              -118.54,
              32.90806
            ],
            [
              -118.53667,
              32.90444
            ],
            [
              -118.53278,
              32.90611
            ],
            [
              -118.52583,
              32.89528
            ],
            [
              -118.52444,
              32.89056
            ],
            [
              -118.51917,
              32.88778
            ],
            [
              -118.51806,
              32.88417
            ],
            [
              -118.50694,
              32.87694
            ],
            [
              -118.50861,
              32.86889
            ],
            [
              -118.50222,
              32.86167
            ],
            [
              -118.50083,
              32.85139
            ],
            [
              -118.495,
              32.85083
            ],
            [
              -118.49167,
              32.84833
            ],
            [
              -118.48944,
              32.845
            ],
            [
              -118.53,
              32.80694
            ],
            [
              -118.55361,
              32.82528
            ],
            [
              -118.56333,
              32.84889
            ],
            [
              -118.57417,
              32.86056
            ],
            [
              -118.57861,
              32.86944
            ],
            [
              -118.59278,
              32.88333
            ],
            [
              -118.60083,
              32.89444
            ],
            [
              -118.60111,
              32.895
            ]
          ]
        ]
      },
      "properties": {
        "id": "SZECHO",
        "label": "E",
        "kind": "safety_zone",
        "centroid": [
          -118.545275,
          32.87125
        ],
        "statusByDate": {
          "2026-06-19": {
            "status": "open",
            "windows": []
          },
          "2026-06-20": {
            "status": "open",
            "windows": []
          },
          "2026-06-21": {
            "status": "open",
            "windows": []
          },
          "2026-06-22": {
            "status": "open",
            "windows": []
          },
          "2026-06-23": {
            "status": "open",
            "windows": []
          },
          "2026-06-24": {
            "status": "open",
            "windows": []
          },
          "2026-06-25": {
            "status": "open",
            "windows": []
          }
        }
      }
    },
    {
      "type": "Feature",
      "geometry": {
        "type": "Polygon",
        "coordinates": [
          [
            [
              -118.66417,
              33
            ],
            [
              -118.60667,
              33.01833
            ],
            [
              -118.60611,
              33.01417
            ],
            [
              -118.59611,
              33.01444
            ],
            [
              -118.59306,
              33.01222
            ],
            [
              -118.58806,
              33.01056
            ],
            [
              -118.5775,
              32.98444
            ],
            [
              -118.57472,
              32.96944
            ],
            [
              -118.56944,
              32.96278
            ],
            [
              -118.55278,
              32.945
            ],
            [
              -118.55028,
              32.93583
            ],
            [
              -118.60111,
              32.895
            ],
            [
              -118.61,
              32.92639
            ],
            [
              -118.63056,
              32.95
            ],
            [
              -118.63778,
              32.97167
            ],
            [
              -118.65917,
              32.98972
            ],
            [
              -118.66417,
              33
            ]
          ]
        ]
      },
      "properties": {
        "id": "SZFOXTROT",
        "label": "F",
        "kind": "safety_zone",
        "centroid": [
          -118.607225,
          32.956665
        ],
        "statusByDate": {
          "2026-06-19": {
            "status": "open",
            "windows": []
          },
          "2026-06-20": {
            "status": "open",
            "windows": []
          },
          "2026-06-21": {
            "status": "open",
            "windows": []
          },
          "2026-06-22": {
            "status": "open",
            "windows": []
          },
          "2026-06-23": {
            "status": "open",
            "windows": []
          },
          "2026-06-24": {
            "status": "open",
            "windows": []
          },
          "2026-06-25": {
            "status": "open",
            "windows": []
          }
        }
      }
    },
    {
      "type": "Feature",
      "geometry": {
        "type": "Polygon",
        "coordinates": [
          [
            [
              -118.66417,
              33
            ],
            [
              -118.66111,
              33.055
            ],
            [
              -118.64806,
              33.06917
            ],
            [
              -118.635,
              33.07583
            ],
            [
              -118.61694,
              33.08222
            ],
            [
              -118.59806,
              33.03417
            ],
            [
              -118.60722,
              33.03194
            ],
            [
              -118.60667,
              33.01833
            ],
            [
              -118.66417,
              33
            ]
          ]
        ]
      },
      "properties": {
        "id": "SZGOLF",
        "label": "G",
        "kind": "safety_zone",
        "centroid": [
          -118.631115,
          33.04111
        ],
        "statusByDate": {
          "2026-06-19": {
            "status": "restricted",
            "windows": []
          },
          "2026-06-20": {
            "status": "restricted",
            "windows": []
          },
          "2026-06-21": {
            "status": "restricted",
            "windows": []
          },
          "2026-06-22": {
            "status": "restricted",
            "windows": []
          },
          "2026-06-23": {
            "status": "restricted",
            "windows": []
          },
          "2026-06-24": {
            "status": "restricted",
            "windows": []
          },
          "2026-06-25": {
            "status": "restricted",
            "windows": []
          }
        }
      }
    },
    {
      "type": "Feature",
      "geometry": {
        "type": "Polygon",
        "coordinates": [
          [
            [
              -118.565,
              33.02111
            ],
            [
              -118.51,
              33.04667
            ],
            [
              -118.47056,
              32.99278
            ],
            [
              -118.51583,
              32.95417
            ],
            [
              -118.52,
              32.96306
            ],
            [
              -118.52917,
              32.96889
            ],
            [
              -118.53111,
              32.97528
            ],
            [
              -118.54417,
              32.98528
            ],
            [
              -118.54778,
              33.00056
            ],
            [
              -118.55361,
              33.00528
            ],
            [
              -118.55639,
              33.00417
            ],
            [
              -118.55889,
              33.00556
            ],
            [
              -118.56139,
              33.015
            ],
            [
              -118.56361,
              33.01722
            ],
            [
              -118.565,
              33.02111
            ]
          ]
        ]
      },
      "properties": {
        "id": "SZWILCOVE",
        "label": "W/C",
        "kind": "safety_zone",
        "centroid": [
          -118.51778,
          33.00042
        ],
        "statusByDate": {
          "2026-06-19": {
            "status": "restricted",
            "windows": []
          },
          "2026-06-20": {
            "status": "restricted",
            "windows": []
          },
          "2026-06-21": {
            "status": "restricted",
            "windows": []
          },
          "2026-06-22": {
            "status": "restricted",
            "windows": []
          },
          "2026-06-23": {
            "status": "restricted",
            "windows": []
          },
          "2026-06-24": {
            "status": "restricted",
            "windows": []
          },
          "2026-06-25": {
            "status": "restricted",
            "windows": []
          }
        }
      }
    }
  ]
}
