{"type":"FeatureCollection","features":[{"type":"Feature","geometry":{"type":"Polygon","coordinates":[[[-121.94126,36.48829],[-121.94153,36.48894],[-121.94237,36.48975],[-121.94292,36.48992],[-121.94346,36.48987],[-121.94383,36.48924],[-121.94383,36.487972972972976],[-121.94412650727651,36.487972972972976],[-121.94403,36.48803],[-121.94457,36.48803],[-121.94473,36.48842],[-121.94419,36.48948],[-121.94436,36.48948],[-121.94475,36.48904],[-121.94508,36.48909],[-121.94516,36.48933],[-121.94506,36.48991],[-121.94461,36.49027],[-121.94437,36.49073],[-121.94476,36.49046],[-121.94546,36.49035],[-121.94594,36.49002],[-121.94631,36.49033],[-121.9461,36.49041],[-121.94626,36.49074],[-121.94584,36.49074],[-121.94567,36.49112],[-121.94461,36.49163],[-121.94463,36.49177],[-121.94508,36.49202],[-121.94496,36.49211],[-121.9452,36.49218],[-121.9449,36.49262],[-121.94465,36.49236],[-121.9448,36.49312],[-121.94461,36.49333],[-121.94442,36.49337],[-121.94416,36.49309],[-121.94346,36.49291],[-121.94329,36.49302],[-121.94306,36.49373],[-121.94306,36.49321],[-121.94292,36.4931],[-121.9427,36.49347],[-121.94235,36.49325],[-121.94181,36.49418],[-121.94115,36.49461],[-121.94112,36.49529],[-121.94053,36.49534],[-121.94004,36.49499],[-121.93982,36.49509],[-121.94015,36.4957],[-121.94023,36.49632],[-121.94001,36.49655],[-121.93916,36.49679],[-121.93909,36.4974],[-121.93782,36.4975],[-121.93681,36.49798],[-121.93659,36.49844],[-121.93662,36.49872],[-121.93723,36.499],[-121.93742,36.49932],[-121.93763,36.49944],[-121.93785,36.49889],[-121.93829,36.49889],[-121.939,36.49929],[-121.93909,36.49979],[-121.9393,36.49953],[-121.93957,36.49984],[-121.93989,36.49959],[-121.94046,36.50026],[-121.94049,36.50084],[-121.94023,36.50099],[-121.9402,36.50186],[-121.93952,36.50208],[-121.93957,36.50175],[-121.93938,36.5014],[-121.93895,36.50162],[-121.93862,36.50135],[-121.93864,36.50238],[-121.93884,36.50256],[-121.93898,36.5031],[-121.93882,36.5033],[-121.93903,36.50336],[-121.93937,36.50308],[-121.93928,36.50332],[-121.93947,36.50351],[-121.93935,36.50376],[-121.93924,36.50358],[-121.93917,36.50384],[-121.9389,36.50374],[-121.93893,36.5042],[-121.93825,36.50449],[-121.93817,36.50482],[-121.93782,36.50482],[-121.93847,36.50517],[-121.93866,36.50563],[-121.93909,36.50557],[-121.93912,36.5059],[-121.93872,36.50628],[-121.9391,36.50681],[-121.93961,36.50711],[-121.93997,36.5069],[-121.94067,36.50718],[-121.94055,36.50679],[-121.94099,36.5069],[-121.94115,36.50682],[-121.94107,36.50672],[-121.94121,36.50677],[-121.94134,36.50713],[-121.94193,36.50724],[-121.94205,36.50719],[-121.94193,36.50708],[-121.94137,36.50692],[-121.94138,36.50679],[-121.94176,36.50678],[-121.94183,36.50655],[-121.94235,36.50692],[-121.94225,36.50711],[-121.94258,36.50742],[-121.94256,36.50762],[-121.94196,36.50729],[-121.94214,36.50752],[-121.94214,36.50797],[-121.94178,36.50795],[-121.94113,36.50753],[-121.9411,36.50773],[-121.94156,36.50799],[-121.9408,36.50789],[-121.94065,36.50799],[-121.94073,36.50836],[-121.94107,36.50831],[-121.9411,36.50862],[-121.94149,36.5084],[-121.94199,36.50886],[-121.94227,36.5087],[-121.94263,36.50906],[-121.94252,36.50918],[-121.94192,36.50911],[-121.94229,36.50956],[-121.94218,36.50973],[-121.94239,36.50964],[-121.94276,36.50968],[-121.94218,36.50987],[-121.94263,36.51001],[-121.94198,36.50993],[-121.94178,36.51041],[-121.94158,36.51031],[-121.94158,36.51055],[-121.9418,36.51055],[-121.94206,36.51084],[-121.94166,36.51079],[-121.94171,36.51131],[-121.94253,36.51139],[-121.94192,36.51153],[-121.94241,36.51167],[-121.942,36.51167],[-121.94212,36.51194],[-121.94227,36.51201],[-121.94261,36.5118],[-121.94312,36.51184],[-121.9432,36.51202],[-121.94349,36.51185],[-121.94458,36.51254],[-121.94466,36.51245],[-121.94461,36.51259],[-121.94437,36.51268],[-121.94379,36.51233],[-121.94368,36.51245],[-121.94378,36.51306],[-121.94421,36.51325],[-121.94465,36.51318],[-121.94504,36.51277],[-121.94545,36.51287],[-121.94562,36.51323],[-121.94551,36.51362],[-121.94563,36.51366],[-121.94579,36.51361],[-121.94569,36.51328],[-121.94595,36.51326],[-121.94664,36.51327],[-121.94688,36.51365],[-121.94733,36.51354],[-121.94767,36.51436],[-121.94761,36.51374],[-121.94794,36.51403],[-121.94809,36.51494],[-121.94876,36.51556],[-121.94888,36.51587],[-121.94907,36.51581],[-121.94903,36.51559],[-121.94918,36.51549],[-121.94949,36.51567],[-121.94956,36.51616],[-121.94981,36.51625],[-121.94992,36.51653],[-121.94975,36.51684],[-121.94937,36.517],[-121.94944,36.5171],[-121.94967,36.51702],[-121.95014,36.51725],[-121.95036,36.51705],[-121.95047,36.51728],[-121.95098,36.51653],[-121.95092,36.51637],[-121.9517,36.51685],[-121.95183,36.51687],[-121.95173,36.5166],[-121.95188,36.51657],[-121.95242,36.51698],[-121.95196,36.51758],[-121.95226,36.51765],[-121.95228,36.51825],[-121.95313,36.51833],[-121.95305,36.51777],[-121.95325,36.51753],[-121.95353,36.51751],[-121.95408,36.51797],[-121.95454,36.51895],[-121.9545,36.51908],[-121.95403,36.51894],[-121.95387,36.51919],[-121.95347,36.51928],[-121.95365,36.51941],[-121.95343,36.51957],[-121.95304,36.51947],[-121.95292,36.51931],[-121.95305,36.51916],[-121.95251,36.51888],[-121.95182,36.51887],[-121.9511,36.51974],[-121.95151,36.51982],[-121.95171,36.52014],[-121.95171,36.5205],[-121.95134,36.52049],[-121.95181,36.52063],[-121.95214,36.52047],[-121.95275,36.52057],[-121.95396,36.52124],[-121.9538,36.52136],[-121.95291,36.52105],[-121.95414,36.52168],[-121.95449,36.52244],[-121.95434,36.52255],[-121.95441,36.52272],[-121.95331,36.52233],[-121.95346,36.5226],[-121.95272,36.52238],[-121.95401,36.52299],[-121.95413,36.52324],[-121.95473,36.52356],[-121.95476,36.5237],[-121.95445,36.52369],[-121.95488,36.52407],[-121.95472,36.52429],[-121.95434,36.52406],[-121.9541,36.52351],[-121.95387,36.52343],[-121.95363,36.52302],[-121.95349,36.52297],[-121.95379,36.52365],[-121.95324,36.52298],[-121.9531,36.52304],[-121.9532,36.52331],[-121.95239,36.52274],[-121.95248,36.52295],[-121.95326,36.52347],[-121.95317,36.5237],[-121.95329,36.52393],[-121.95287,36.52394],[-121.95256,36.52365],[-121.95251,36.52339],[-121.95148,36.52283],[-121.94966,36.52109],[-121.94939,36.52119],[-121.9495,36.5225],[-121.94904,36.52252],[-121.94947,36.52263],[-121.94944,36.52278],[-121.94904,36.52261],[-121.94943,36.52286],[-121.94904,36.52269],[-121.94872,36.52224],[-121.94821,36.5223],[-121.94816,36.52254],[-121.94861,36.52305],[-121.94845,36.52317],[-121.94854,36.52372],[-121.94831,36.52374],[-121.94824,36.52397],[-121.94693,36.52313],[-121.9469,36.52332],[-121.94649,36.5228],[-121.94655,36.52303],[-121.94639,36.52308],[-121.94624,36.52285],[-121.94586,36.52278],[-121.94562,36.52227],[-121.94544,36.52222],[-121.94531,36.52238],[-121.94449,36.52193],[-121.94429,36.52164],[-121.94456,36.52168],[-121.94451,36.52144],[-121.94482,36.52152],[-121.94476,36.52115],[-121.94501,36.52121],[-121.94459,36.52076],[-121.94419,36.52072],[-121.94409,36.52089],[-121.9434,36.52064],[-121.94314,36.52066],[-121.94316,36.52083],[-121.94298,36.52076],[-121.94296,36.52089],[-121.94237,36.52067],[-121.94215,36.52118],[-121.94231,36.52131],[-121.94206,36.52137],[-121.94239,36.52163],[-121.94224,36.52176],[-121.94163,36.52129],[-121.94155,36.52165],[-121.94079,36.5214],[-121.94126,36.52205],[-121.94113,36.5222],[-121.94099,36.52189],[-121.9406,36.52185],[-121.94063,36.52143],[-121.93997,36.52112],[-121.94013,36.52071],[-121.94074,36.5202],[-121.94091,36.51963],[-121.94005,36.51908],[-121.93867,36.51888],[-121.93791,36.51901],[-121.93733,36.51932],[-121.93711,36.51959],[-121.93739,36.51981],[-121.93726,36.51991],[-121.93703,36.51977],[-121.93672,36.52003],[-121.93712,36.52045],[-121.93736,36.52042],[-121.93753,36.52059],[-121.93777,36.52102],[-121.93777,36.52136],[-121.93718,36.52127],[-121.93712,36.52097],[-121.93693,36.52091],[-121.93651,36.52106],[-121.93632,36.52135],[-121.93663,36.52193],[-121.93681,36.52176],[-121.93734,36.52182],[-121.93759,36.522],[-121.93764,36.52211],[-121.93701,36.52195],[-121.93799,36.52265],[-121.93801,36.52285],[-121.93792,36.5227],[-121.93781,36.52265],[-121.93786,36.52299],[-121.93763,36.52266],[-121.9372,36.52269],[-121.93772,36.52329],[-121.93716,36.52301],[-121.93733,36.52339],[-121.93718,36.52346],[-121.93701,36.52331],[-121.93692,36.52347],[-121.93668,36.52332],[-121.9367,36.5236],[-121.93657,36.52331],[-121.93607,36.5234],[-121.93584,36.52287],[-121.93546,36.52277],[-121.93532,36.52244],[-121.93431,36.52221],[-121.93388,36.52246],[-121.93346,36.52298],[-121.93377,36.52334],[-121.93367,36.52345],[-121.93284,36.52329],[-121.93218,36.52339],[-121.93197,36.52361],[-121.93145,36.52334],[-121.93042,36.52368],[-121.92983,36.52335],[-121.92964,36.52308],[-121.92977,36.52309],[-121.9298,36.52291],[-121.92959,36.52275],[-121.92867,36.52256],[-121.92733,36.5232],[-121.92539,36.52541],[-121.92515,36.52671],[-121.9257,36.52705],[-121.92542,36.52714],[-121.92581,36.52787],[-121.92631,36.52817],[-121.92575,36.52836],[-121.92553,36.52884],[-121.92574,36.529],[-121.92564,36.53037],[-121.92579,36.53062],[-121.92604,36.53059],[-121.92655,36.53122],[-121.927,36.53148],[-121.92674,36.53213],[-121.92695,36.53267],[-121.9277,36.53322],[-121.9282,36.53392],[-121.92872,36.53725],[-121.92983,36.53874],[-121.93034,36.53928],[-121.93088,36.53958],[-121.93211,36.53929],[-121.93263,36.53933],[-121.93244,36.53975],[-121.93308,36.53996],[-121.93284,36.54019],[-121.93284,36.54047],[-121.93327,36.54093],[-121.93329,36.54138],[-121.93296,36.54153],[-121.93331,36.54228],[-121.93327,36.54296],[-121.93383,36.54343],[-121.93381,36.5437],[-121.93344,36.54414],[-121.93351,36.54443],[-121.93379,36.5445],[-121.93376,36.54466],[-121.93315,36.54438],[-121.93232,36.54454],[-121.93159,36.54503],[-121.93138,36.545],[-121.93038,36.54579],[-121.92976,36.54678],[-121.92956,36.54787],[-121.92958418154997,36.548027027027025],[-121.90837048957172,36.548027027027025],[-121.90837048957172,36.487972972972976],[-121.9412750965251,36.487972972972976],[-121.94126,36.48829]]]},"properties":{"name":"ca-mainland"}},{"type":"Feature","geometry":{"type":"Polygon","coordinates":[[[-121.94316,36.50621],[-121.94343,36.50637],[-121.94365,36.50624],[-121.94423,36.50719],[-121.944,36.50703],[-121.94395,36.50733],[-121.94352,36.5075],[-121.94289,36.5072],[-121.94284,36.50665],[-121.94298,36.50608],[-121.94318,36.50598],[-121.94316,36.50621]]]},"properties":{"name":"unnamed-land"}}]}