{"type":"FeatureCollection","features":[{"type":"Feature","properties":{"id":"pointlobos-kelp-former","name":"Point Lobos former kelp extent (pre-decline)","className":"Kelp Former"},"geometry":{"type":"MultiPolygon","coordinates":[[[[-121.95414,36.52168],[-121.95291,36.52105],[-121.9538,36.52136],[-121.95396,36.52124],[-121.95275,36.52057],[-121.95214,36.52047],[-121.95181,36.52063],[-121.9517335972732,36.520607241740954],[-121.95180003390651,36.51889412569629],[-121.95182,36.51887],[-121.95251,36.51888],[-121.95305,36.51916],[-121.95292,36.51931],[-121.95304,36.51947],[-121.95343,36.51957],[-121.95365,36.51941],[-121.95347,36.51928],[-121.95387,36.51919],[-121.95403,36.51894],[-121.9545,36.51908],[-121.95454,36.51895],[-121.95408,36.51797],[-121.95353,36.51751],[-121.95325,36.51753],[-121.95305,36.51777],[-121.95309783244682,36.51810482712766],[-121.95268619469026,36.518288230088494],[-121.95228,36.51825],[-121.95226,36.51765],[-121.95196,36.51758],[-121.95242,36.51698],[-121.95188,36.51657],[-121.95173,36.5166],[-121.95183,36.51687],[-121.9517,36.51685],[-121.95092,36.51637],[-121.95098,36.51653],[-121.95055625049702,36.5171531610338],[-121.95041263996731,36.517160065386186],[-121.95036,36.51705],[-121.9502292284264,36.51716888324873],[-121.94999704986677,36.51718004567948],[-121.94967,36.51702],[-121.94965591514794,36.517024899078976],[-121.94956799025164,36.51691663568352],[-121.94975,36.51684],[-121.94992,36.51653],[-121.94981,36.51625],[-121.94956,36.51616],[-121.94949,36.51567],[-121.94918,36.51549],[-121.94903,36.51559],[-121.94907,36.51581],[-121.94888,36.51587],[-121.94876,36.51556],[-121.94809,36.51494],[-121.94794,36.51403],[-121.94761,36.51374],[-121.94767,36.51436],[-121.94733,36.51354],[-121.94688,36.51365],[-121.94664,36.51327],[-121.94615156641036,36.51326292125233],[-121.94179551817689,36.51080693977211],[-121.94206,36.51084],[-121.9418,36.51055],[-121.94175869565218,36.51055],[-121.94177714285715,36.51040857142858],[-121.94178,36.51041],[-121.94198,36.50993],[-121.94263,36.51001],[-121.94218,36.50987],[-121.94276,36.50968],[-121.94239,36.50964],[-121.94218,36.50973],[-121.94229,36.50956],[-121.94194289046654,36.5091378397566],[-121.941946124197,36.509113047822986],[-121.94252,36.50918],[-121.94263,36.50906],[-121.94227,36.5087],[-121.94199,36.50886],[-121.94198029503106,36.508851071428566],[-121.94209,36.50801],[-121.94305043805481,36.50727639907371],[-121.94352,36.5075],[-121.94395,36.50733],[-121.944,36.50703],[-121.94423,36.50719],[-121.94389084196096,36.50663448252227],[-121.94408,36.50649],[-121.9438177370892,36.50651474178404],[-121.94365,36.50624],[-121.94343,36.50637],[-121.94316,36.50621],[-121.94318,36.50598],[-121.94298,36.50608],[-121.94285081667232,36.50660596069129],[-121.94201894191805,36.50668443944169],[-121.94183,36.50655],[-121.94178228885136,36.5067067652027],[-121.94118952238806,36.506762686567164],[-121.94107,36.50672],[-121.94111014035087,36.5067701754386],[-121.94064589041095,36.50681397260274],[-121.94055,36.50679],[-121.94055987306065,36.50682208744711],[-121.9393194796748,36.50693910569106],[-121.9391,36.50681],[-121.93873901794144,36.50630652502359],[-121.93873648824228,36.50626433616983],[-121.93912,36.5059],[-121.93909,36.50557],[-121.93869813355934,36.50562467903823],[-121.93862061933157,36.50433194175565],[-121.93893,36.5042],[-121.9389,36.50374],[-121.93917,36.50384],[-121.93924,36.50358],[-121.93935,36.50376],[-121.93947,36.50351],[-121.93928,36.50332],[-121.93937,36.50308],[-121.93903,36.50336],[-121.93882,36.5033],[-121.93898,36.5031],[-121.93884,36.50256],[-121.93864,36.50238],[-121.93862776309123,36.501749799198635],[-121.93893924242424,36.501611198347106],[-121.93895,36.50162],[-121.93915387312188,36.501515692821364],[-121.93938658995816,36.50141213939661],[-121.93957,36.50175],[-121.93952,36.50208],[-121.9402,36.50186],[-121.94022835958445,36.50103757205094],[-121.94056,36.50089],[-121.94048986783547,36.500837444819055],[-121.94046,36.50026],[-121.93989,36.49959],[-121.93957,36.49984],[-121.9393,36.49953],[-121.93909079445145,36.499789016393436],[-121.93908967147574,36.49978817486528],[-121.939,36.49929],[-121.93829,36.49889],[-121.93789110367894,36.49889],[-121.93677484517889,36.498053505535054],[-121.93681,36.49798],[-121.9371847480814,36.49780190190191],[-121.93939,36.49745],[-121.94106124028139,36.495294979637166],[-121.94112,36.49529],[-121.9411233114485,36.495214940500624],[-121.94243,36.49353],[-121.94306,36.49350675276753],[-121.94306,36.49373],[-121.94313319446637,36.49350405186471],[-121.94514,36.49343],[-121.94649,36.4906],[-121.94888,36.49065],[-121.94963,36.49401],[-121.94803,36.49406],[-121.94686,36.49786],[-121.94231,36.49964],[-121.94384,36.50162],[-121.94308,36.50356],[-121.94639,36.5039],[-121.94747,36.50931],[-121.95054,36.51187],[-121.95665,36.5147],[-121.96056,36.51478],[-121.96137,36.51767],[-121.95843,36.51881],[-121.95637,36.52378],[-121.95442410119293,36.522488325791855],[-121.95449,36.52244],[-121.95414,36.52168]],[[-121.94429,36.50659],[-121.94495,36.50743],[-121.94493,36.50629],[-121.94429,36.50659]]],[[[-121.94318,36.52557],[-121.93982,36.52439],[-121.93872,36.52678],[-121.93712,36.52687],[-121.92966,36.52625],[-121.92681942307352,36.52378163660182],[-121.92703577490666,36.52353517394655],[-121.92788630434782,36.52293430240104],[-121.92867,36.52256],[-121.92959,36.52275],[-121.9298,36.52291],[-121.92977,36.52309],[-121.92964,36.52308],[-121.92983,36.52335],[-121.93042,36.52368],[-121.93145,36.52334],[-121.93197,36.52361],[-121.93218,36.52339],[-121.93284,36.52329],[-121.93367,36.52345],[-121.93377,36.52334],[-121.93346,36.52298],[-121.93360639102457,36.52279875396958],[-121.935910112,36.52303156243478],[-121.93607,36.5234],[-121.93657,36.52331],[-121.9367,36.5236],[-121.93668,36.52332],[-121.93692,36.52347],[-121.93701,36.52331],[-121.93718,36.52346],[-121.93733,36.52339],[-121.93722928617697,36.523164874983806],[-121.93728,36.52317],[-121.93716297872339,36.5230114893617],[-121.93772,36.52329],[-121.9372,36.52269],[-121.93763,36.52266],[-121.93786,36.52299],[-121.93781,36.52265],[-121.93792,36.5227],[-121.93801,36.52285],[-121.93799,36.52265],[-121.93701,36.52195],[-121.93764,36.52211],[-121.93759,36.522],[-121.93734,36.52182],[-121.93681,36.52176],[-121.93663,36.52193],[-121.93632,36.52135],[-121.93651,36.52106],[-121.93693,36.52091],[-121.93712,36.52097],[-121.93718,36.52127],[-121.93777,36.52136],[-121.93777,36.52102],[-121.93753,36.52059],[-121.93736,36.52042],[-121.93712,36.52045],[-121.93672,36.52003],[-121.93703,36.51977],[-121.93726,36.51991],[-121.93739,36.51981],[-121.93711,36.51959],[-121.93733,36.51932],[-121.93791,36.51901],[-121.93867,36.51888],[-121.93985464298402,36.51905168738899],[-121.94064555397728,36.520278963068186],[-121.94013,36.52071],[-121.93997,36.52112],[-121.94063,36.52143],[-121.9406,36.52185],[-121.94099,36.52189],[-121.94113,36.5222],[-121.94126,36.52205],[-121.94079,36.5214],[-121.94155,36.52165],[-121.94163,36.52129],[-121.94224,36.52176],[-121.94239,36.52163],[-121.94206,36.52137],[-121.94231,36.52131],[-121.94215,36.52118],[-121.9421762161465,36.521119226205826],[-121.94375996890271,36.52077042351547],[-121.94409,36.52089],[-121.94419,36.52072],[-121.94459,36.52076],[-121.9447246123373,36.520904227504246],[-121.9447649659864,36.52115119183673],[-121.94476,36.52115],[-121.94482,36.52152],[-121.94451,36.52144],[-121.94456,36.52168],[-121.94429,36.52164],[-121.94449,36.52193],[-121.94531,36.52238],[-121.9453653979442,36.52231181791483],[-121.9457187607998,36.522479866699584],[-121.94586,36.52278],[-121.94624,36.52285],[-121.94639,36.52308],[-121.94655,36.52303],[-121.9465038916734,36.522853251414716],[-121.94654884145119,36.522874628182],[-121.9469,36.52332],[-121.94693,36.52313],[-121.94824,36.52397],[-121.94831,36.52374],[-121.94854,36.52372],[-121.94845,36.52317],[-121.94861,36.52305],[-121.94816,36.52254],[-121.94821,36.5223],[-121.94872,36.52224],[-121.94904,36.52269],[-121.94943,36.52286],[-121.94904,36.52261],[-121.94944,36.52278],[-121.94947,36.52263],[-121.94904,36.52252],[-121.9495,36.5225],[-121.94940912696974,36.521417784821594],[-121.94981191718203,36.52123523950371],[-121.95148,36.52283],[-121.95251,36.52339],[-121.95256,36.52365],[-121.95287,36.52394],[-121.95329,36.52393],[-121.95317,36.5237],[-121.95326,36.52347],[-121.95248,36.52295],[-121.95239875706214,36.522760433144995],[-121.9528399999997,36.52305666666646],[-121.9532,36.52331],[-121.95319426058782,36.523294503587124],[-121.95426,36.52401],[-121.95404,36.52564],[-121.95173,36.52483],[-121.94785,36.52642],[-121.94464,36.52463],[-121.94318,36.52557]]],[[[-121.92613072390573,36.52806243434343],[-121.92625,36.5253],[-121.92839,36.52654],[-121.92815,36.52981],[-121.93134,36.53547],[-121.92864,36.53662],[-121.92861268780851,36.536562789235234],[-121.9282,36.53392],[-121.9277,36.53322],[-121.92695,36.53267],[-121.92674,36.53213],[-121.927,36.53148],[-121.92655,36.53122],[-121.92604,36.53059],[-121.92602149305556,36.53059222083333],[-121.92612334501862,36.52823332936868],[-121.92631,36.52817],[-121.92613072390573,36.52806243434343]]],[[[-121.93376,36.54466],[-121.93379,36.5445],[-121.93351,36.54443],[-121.93344,36.54414],[-121.93354928361714,36.54401004110394],[-121.93385,36.54378],[-121.93381382730455,36.54364833138853],[-121.93383,36.54343],[-121.93373102524868,36.543346931905134],[-121.93320168738899,36.54142014209591],[-121.93329,36.54138],[-121.93327,36.54093],[-121.93298255519363,36.540622500904824],[-121.93285878941646,36.540171993475894],[-121.93308,36.53996],[-121.93245363636363,36.53975447443182],[-121.93244276109282,36.539743896531675],[-121.93263,36.53933],[-121.93211,36.53929],[-121.93200222832515,36.539315409581874],[-121.93029,36.53765],[-121.93224,36.53533],[-121.93682,36.53621],[-121.93767,36.54032],[-121.94041,36.54363],[-121.93996,36.54528],[-121.93168,36.54544],[-121.93303725014556,36.544401734911695],[-121.93315,36.54438],[-121.93376,36.54466]]]]}},{"type":"Feature","properties":{"id":"pointlobos-kelp-canopy","name":"Point Lobos recent kelp canopy","className":"Kelp Canopy"},"geometry":{"type":"MultiPolygon","coordinates":[[[[-121.95105,36.51285],[-121.95071,36.51285],[-121.95071,36.51258],[-121.95105,36.51285]]],[[[-121.95172,36.51285],[-121.95139,36.51313],[-121.95139,36.51285],[-121.95172,36.51285]]],[[[-121.94969,36.51447],[-121.95003,36.51392],[-121.9507,36.51447],[-121.95036,36.51474],[-121.94969,36.51447]]],[[[-121.95405,36.51423],[-121.95471,36.51423],[-121.95404,36.51477],[-121.9537,36.51504],[-121.95405,36.51423]]],[[[-121.95605,36.51478],[-121.95571,36.51533],[-121.95504,36.51505],[-121.95538,36.51451],[-121.95605,36.51478]]],[[[-121.95235,36.51529],[-121.95303,36.5153],[-121.95235,36.51557],[-121.95235,36.51529]]],[[[-121.95369,36.51558],[-121.95335,36.51585],[-121.95335,36.51558],[-121.95369,36.51558]]],[[[-121.95101,36.5161],[-121.95101,36.51582],[-121.95135,36.51582],[-121.95101,36.5161]]],[[[-121.96005,36.51645],[-121.96039,36.5159],[-121.96039,36.51645],[-121.96005,36.51645]]],[[[-121.952,36.51637],[-121.95167,36.51664],[-121.95167,36.51637],[-121.952,36.51637]]],[[[-121.95602,36.51667],[-121.95535,36.51749],[-121.95502,36.5164],[-121.95602,36.51667]]],[[[-121.95669,36.5175],[-121.95636,36.51668],[-121.95703,36.51641],[-121.95736,36.51696],[-121.95702,36.5175],[-121.95735,36.51777],[-121.95669,36.5175]]],[[[-121.96104,36.51699],[-121.96071,36.51727],[-121.96071,36.51699],[-121.96104,36.51699]]],[[[-121.95267,36.51719],[-121.95367,36.51747],[-121.953,36.51746],[-121.95232,36.51773],[-121.95267,36.51719]]],[[[-121.95969,36.51807],[-121.95936,36.51752],[-121.96004,36.51725],[-121.96037,36.5178],[-121.95969,36.51807]]],[[[-121.95632,36.51911],[-121.95599,36.51939],[-121.95599,36.51911],[-121.95632,36.51911]]],[[[-121.95699,36.51939],[-121.95666,36.51966],[-121.95666,36.51939],[-121.95699,36.51939]]],[[[-121.95171,36.52014],[-121.95152920415227,36.51985072664362],[-121.95139282167042,36.519386173814894],[-121.95175044685466,36.51895404338395],[-121.95206322955146,36.51887352506596],[-121.95239245547761,36.5188782964562],[-121.95293040000003,36.51932386666669],[-121.95304,36.51947],[-121.95313679347825,36.51949481884058],[-121.9533,36.51963],[-121.95263,36.51963],[-121.95296,36.52044],[-121.95171,36.52017880597015],[-121.95171,36.52014]]],[[[-121.95498,36.51964],[-121.95464,36.51992],[-121.95464,36.51964],[-121.95498,36.51964]]],[[[-121.95732,36.51993],[-121.95665,36.5202],[-121.95665,36.51993],[-121.95732,36.51993]]],[[[-121.95564,36.52019],[-121.95531,36.52046],[-121.95531,36.52019],[-121.95564,36.52019]]],[[[-121.95396,36.52099],[-121.95296,36.52044],[-121.95363,36.52044],[-121.95396,36.52099]]],[[[-121.95395,36.52153],[-121.95496,36.52099],[-121.95495,36.52181],[-121.95395,36.52153]]],[[[-121.95663,36.52128],[-121.9563,36.52155],[-121.9563,36.52128],[-121.95663,36.52128]]],[[[-121.95025,36.52231],[-121.95058,36.52258],[-121.95025,36.52258],[-121.95025,36.52231]]],[[[-121.95058,36.52312],[-121.95024,36.52339],[-121.95024,36.52312],[-121.95058,36.52312]]],[[[-121.9519,36.52367],[-121.95157,36.52394],[-121.95157,36.52367],[-121.9519,36.52367]]],[[[-121.95224,36.52395],[-121.95258,36.52422],[-121.95224,36.52422],[-121.95224,36.52395]]],[[[-121.94989,36.5242],[-121.95089,36.52475],[-121.95022,36.52475],[-121.94989,36.5242]]],[[[-121.94733,36.49091],[-121.94766,36.49118],[-121.94733,36.49118],[-121.94733,36.49091]]],[[[-121.94832,36.49227],[-121.94798,36.49173],[-121.94832,36.49173],[-121.94832,36.49227]]],[[[-121.94597,36.49198],[-121.94563,36.49225],[-121.94563,36.49198],[-121.94597,36.49198]]],[[[-121.94698,36.49226],[-121.94664,36.49253],[-121.94664,36.49226],[-121.94698,36.49226]]],[[[-121.94731,36.49227],[-121.94798,36.49226],[-121.94798,36.49254],[-121.94731,36.49227]]],[[[-121.94696,36.49307],[-121.94662,36.49334],[-121.94662,36.49307],[-121.94696,36.49307]]],[[[-121.94729,36.49362],[-121.94729,36.49334],[-121.94762,36.49334],[-121.94729,36.49362]]],[[[-121.94494,36.49386],[-121.94527,36.49441],[-121.9446,36.49467],[-121.94494,36.49386]]],[[[-121.94594,36.49496],[-121.9456,36.49441],[-121.94594,36.49441],[-121.94594,36.49496]]],[[[-121.94426,36.49467],[-121.94392,36.49494],[-121.94392,36.49467],[-121.94426,36.49467]]],[[[-121.94694,36.49496],[-121.9466,36.49524],[-121.9466,36.49496],[-121.94694,36.49496]]],[[[-121.94513,36.50468],[-121.94547,36.50496],[-121.94513,36.50496],[-121.94513,36.50468]]],[[[-121.94545,36.50549],[-121.94445,36.50576],[-121.94445,36.50549],[-121.94545,36.50549]]],[[[-121.94807,36.51066],[-121.94807,36.51039],[-121.9484,36.51039],[-121.94807,36.51066]]],[[[-121.94569,36.51253],[-121.94469,36.5128],[-121.94469,36.51252],[-121.94569,36.51253]]],[[[-121.94602,36.51308],[-121.94603,36.51254],[-121.94703,36.51281],[-121.94703,36.51308],[-121.94602,36.51308]]],[[[-121.94761,36.51374],[-121.94761334494774,36.51377456445993],[-121.94736,36.51336],[-121.94802,36.5139],[-121.94779206896551,36.5139],[-121.94761,36.51374]]],[[[-121.94869,36.51391],[-121.94836,36.51418],[-121.94836,36.51391],[-121.94869,36.51391]]],[[[-121.94935,36.515],[-121.94868,36.515],[-121.94868,36.51445],[-121.94935,36.51472],[-121.94935,36.515]]],[[[-121.95033,36.51662],[-121.94999,36.5169],[-121.94999,36.51662],[-121.95033,36.51662]]],[[[-121.94959,36.52149],[-121.94993,36.52177],[-121.94959,36.52177],[-121.94959,36.52149]]],[[[-121.94824362637362,36.52229604395605],[-121.94829500000002,36.52229],[-121.94858,36.52229],[-121.94924,36.52311],[-121.94857,36.52284],[-121.94824362637362,36.52229604395605]]],[[[-121.9499,36.52338],[-121.95023,36.52366],[-121.9499,36.52366],[-121.9499,36.52338]]],[[[-121.94521,36.52388],[-121.94487,36.52416],[-121.94487,36.52388],[-121.94521,36.52388]]],[[[-121.94554,36.52389],[-121.94588,36.52416],[-121.94554,36.52416],[-121.94554,36.52389]]],[[[-121.94922,36.52419],[-121.94888,36.52446],[-121.94888,36.52419],[-121.94922,36.52419]]],[[[-121.9472,36.52499],[-121.94619,36.52525],[-121.9462,36.52444],[-121.9472,36.52471],[-121.94755,36.52417],[-121.9472,36.52499]]],[[[-121.9482,36.52472],[-121.94787,36.52499],[-121.94787,36.52472],[-121.9482,36.52472]]],[[[-121.94888,36.52501],[-121.94888,36.52473],[-121.94921,36.52473],[-121.94888,36.52501]]],[[[-121.94326,36.49439],[-121.94292,36.49466],[-121.94292,36.49439],[-121.94326,36.49439]]],[[[-121.9409,36.49572],[-121.94055,36.49653],[-121.94022,36.49572],[-121.9409,36.49572]]],[[[-121.94189,36.49654],[-121.94222,36.49681],[-121.94189,36.49681],[-121.94189,36.49654]]],[[[-121.94088,36.4968],[-121.94054,36.49707],[-121.94054,36.4968],[-121.94088,36.4968]]],[[[-121.94083,36.50005],[-121.94117,36.50032],[-121.94083,36.50032],[-121.94083,36.50005]]],[[[-121.94283,36.50115],[-121.9425,36.50115],[-121.94217,36.5006],[-121.9425,36.5006],[-121.94283,36.50115]]],[[[-121.94216,36.50114],[-121.94216,36.50168],[-121.94183,36.50114],[-121.94216,36.50114]]],[[[-121.94082,36.50167],[-121.94048,36.50194],[-121.94048,36.50167],[-121.94082,36.50167]]],[[[-121.93952,36.50208],[-121.9396952833638,36.50202329067642],[-121.9398,36.5022],[-121.93913,36.5022],[-121.93948,36.50166],[-121.93956253393665,36.5017992760181],[-121.93952,36.50208]]],[[[-121.93946,36.50274],[-121.93913,36.50301],[-121.93913,36.50274],[-121.93946,36.50274]]],[[[-121.9398,36.50247],[-121.94048,36.5022],[-121.9408,36.50356],[-121.94012,36.50383],[-121.9398,36.50247]]],[[[-121.94146,36.5033],[-121.94112,36.50357],[-121.94112,36.5033],[-121.94146,36.5033]]],[[[-121.93911,36.50436],[-121.93911,36.50382],[-121.93945,36.50436],[-121.93911,36.50436]]],[[[-121.94178,36.50493],[-121.94178,36.50465],[-121.94212,36.50493],[-121.94178,36.50493]]],[[[-121.93943,36.50544],[-121.93876,36.50544],[-121.93877,36.50463],[-121.9391,36.50463],[-121.93943,36.50544]]],[[[-121.94311,36.50574],[-121.94277,36.50602],[-121.94277,36.50574],[-121.94311,36.50574]]],[[[-121.94411,36.50575],[-121.94377,36.50603],[-121.94377,36.50575],[-121.94411,36.50575]]],[[[-121.94055,36.50679],[-121.94057017932987,36.506855582822084],[-121.9401380080483,36.50696720321932],[-121.93997,36.5069],[-121.93970366960907,36.507055359394705],[-121.93911127962082,36.506816635071075],[-121.9391,36.50681],[-121.93907706186427,36.506778007337005],[-121.93942,36.50571],[-121.94009,36.50599],[-121.94077,36.50573],[-121.94077,36.50518],[-121.94144,36.50519],[-121.94109,36.506],[-121.94276,36.50629],[-121.94108054573405,36.50672376633359],[-121.94107,36.50672],[-121.94107430296377,36.50672537870472],[-121.94068928338761,36.50682482084691],[-121.94055,36.50679]]],[[[-121.94341,36.50764],[-121.94375,36.50792],[-121.94341,36.50792],[-121.94341,36.50764]]],[[[-121.94273,36.50818],[-121.94341,36.50818],[-121.94305,36.51007],[-121.94271,36.51007],[-121.94257570704225,36.509740371830986],[-121.94276,36.50968],[-121.942541486911,36.50965637696335],[-121.94238,36.50926],[-121.94306,36.50899],[-121.94273,36.50818]]],[[[-121.94271,36.51061],[-121.94204,36.51033],[-121.94271,36.51034],[-121.94271,36.51061]]],[[[-121.94303,36.51116],[-121.94336,36.5117],[-121.9427,36.51115],[-121.94337,36.51088],[-121.94303,36.51116]]],[[[-121.94457,36.52145],[-121.94456143703704,36.52145327407408],[-121.94451,36.52144],[-121.94451635641316,36.5214705107832],[-121.94389,36.52171],[-121.94357,36.5209],[-121.94457,36.5209],[-121.94457,36.52145]]],[[[-121.93785,36.52247],[-121.93752,36.52166],[-121.93652,36.52165],[-121.93687,36.5211],[-121.93787,36.52166],[-121.93787,36.52058],[-121.93721,36.52003],[-121.93755,36.52003],[-121.93728925925926,36.51937],[-121.93733,36.51932],[-121.93791,36.51901],[-121.93824863716817,36.518952075221236],[-121.93920666666664,36.51895777777778],[-121.939765754717,36.51903880503145],[-121.94024,36.51924],[-121.94057,36.52005],[-121.93989,36.5206],[-121.93988,36.5214],[-121.94058105471325,36.52140701054714],[-121.94063,36.52143],[-121.9406,36.52185],[-121.94060278322925,36.52185028545941],[-121.94054,36.52195],[-121.94121,36.5225],[-121.94053,36.52277],[-121.94086,36.52358],[-121.94051,36.52385],[-121.93984,36.52384],[-121.93985,36.52303],[-121.93887,36.52221],[-121.93887,36.5214],[-121.93853,36.52166],[-121.93886,36.52248],[-121.93785,36.52247]]],[[[-121.94079662792501,36.521409166279255],[-121.94081853135314,36.52140938531353],[-121.94086977392007,36.521426241421075],[-121.94084147430497,36.52147118786858],[-121.94079662792501,36.521409166279255]]],[[[-121.94188,36.52197],[-121.94122,36.52169],[-121.94188,36.52169],[-121.94188,36.52197]]],[[[-121.94289,36.5217],[-121.94255,36.52197],[-121.94255,36.5217],[-121.94289,36.5217]]],[[[-121.94119,36.52358],[-121.94119,36.52304],[-121.94153,36.52358],[-121.94119,36.52358]]],[[[-121.94286,36.52332],[-121.94286,36.52386],[-121.94253,36.52332],[-121.94286,36.52332]]],[[[-121.94052,36.49869],[-121.94085,36.49951],[-121.93888805718106,36.49922693362314],[-121.93881033940919,36.49918314896293],[-121.93818,36.4984],[-121.93717,36.49894],[-121.93684,36.49812],[-121.93819,36.49786],[-121.94052,36.49869]]],[[[-121.93483,36.52298],[-121.9345,36.52244],[-121.93484,36.52244],[-121.93483,36.52298]]],[[[-121.93382,36.5227],[-121.93416,36.52325],[-121.93382,36.52325],[-121.93382,36.5227]]],[[[-121.92846,36.52292],[-121.92812,36.5232],[-121.92812,36.52292],[-121.92846,36.52292]]],[[[-121.93482,36.52325],[-121.93449,36.52353],[-121.93449,36.52325],[-121.93482,36.52325]]],[[[-121.93314,36.52351],[-121.93281,36.52378],[-121.93281,36.52351],[-121.93314,36.52351]]],[[[-121.92711,36.524],[-121.92711,36.52372],[-121.92744,36.52372],[-121.92711,36.524]]],[[[-121.93382,36.52378],[-121.93348,36.52406],[-121.93348,36.52378],[-121.93382,36.52378]]],[[[-121.93884,36.52437],[-121.93782,36.5249],[-121.93749,36.52436],[-121.93582,36.52435],[-121.93616,36.52354],[-121.93549,36.52353],[-121.93603168504315,36.52331170901247],[-121.93607,36.5234],[-121.93630761245181,36.52335722975868],[-121.93783,36.52436],[-121.93818,36.52301],[-121.93885,36.52301],[-121.93851,36.52356],[-121.93884,36.52437]]],[[[-121.93011,36.52511],[-121.92846,36.5232],[-121.92913,36.52293],[-121.93047,36.52375],[-121.93079,36.5243],[-121.93078,36.52511],[-121.93011,36.52511]]],[[[-121.9328,36.52431],[-121.93246,36.52459],[-121.93246,36.52431],[-121.9328,36.52431]]],[[[-121.93381,36.52432],[-121.93347,36.5246],[-121.93347,36.52432],[-121.93381,36.52432]]],[[[-121.93814,36.52571],[-121.93848,36.52626],[-121.9378,36.52653],[-121.93713,36.52598],[-121.93814,36.52571]]],[[[-121.93679,36.52652],[-121.93679,36.52625],[-121.93713,36.52625],[-121.93679,36.52652]]],[[[-121.92807,36.52698],[-121.92772,36.52806],[-121.92805,36.52914],[-121.92637,36.5294],[-121.92641,36.52561],[-121.92807,36.52698]]],[[[-121.927,36.53211],[-121.92734,36.53157],[-121.92641923076924,36.531058461538464],[-121.92635034542315,36.53097336787564],[-121.92636,36.52967],[-121.92802,36.53022],[-121.92867,36.53212],[-121.92934,36.53212],[-121.93,36.53349],[-121.92965,36.53456],[-121.93065,36.53457],[-121.93098,36.53539],[-121.9303,36.53566],[-121.9303,36.53619],[-121.92928,36.53646],[-121.92896,36.53564],[-121.92931,36.53483],[-121.92863,36.53483],[-121.92865,36.53347],[-121.92768597122303,36.53320971223022],[-121.92764088838268,36.53317665148064],[-121.92733,36.53238],[-121.92767,36.53211],[-121.927,36.53211]]],[[[-121.93465,36.53623],[-121.93498,36.53651],[-121.93465,36.53651],[-121.93465,36.53623]]],[[[-121.93565,36.53679],[-121.93632,36.53651],[-121.93632,36.53679],[-121.93565,36.53679]]],[[[-121.93396,36.5373],[-121.93362,36.53758],[-121.93362,36.5373],[-121.93396,36.5373]]],[[[-121.9363,36.5376],[-121.93597,36.53787],[-121.93597,36.5376],[-121.9363,36.5376]]],[[[-121.93126,36.53918],[-121.9306,36.53782],[-121.93127,36.53782],[-121.93196,36.53675],[-121.93263,36.53675],[-121.93229,36.53756],[-121.93295,36.53757],[-121.93328,36.53811],[-121.93194,36.5381],[-121.93227,36.53892],[-121.93126,36.53918]]],[[[-121.93659,36.54112],[-121.93559,36.54057],[-121.93492,36.5411],[-121.93391,36.5411],[-121.93325,36.54055],[-121.93359,36.54001],[-121.93292,36.53974],[-121.93261,36.53838],[-121.93562,36.53813],[-121.93629,36.53868],[-121.93593,36.54057],[-121.9366,36.54057],[-121.93659,36.54112]],[[-121.93359,36.54028],[-121.93425,36.54082],[-121.93493,36.54056],[-121.93493,36.54029],[-121.93359,36.54028]],[[-121.93327,36.53946],[-121.9336,36.5392],[-121.93327,36.53865],[-121.93294,36.53865],[-121.93327,36.53946]],[[-121.93394,36.53893],[-121.93428,36.53866],[-121.93394,36.53866],[-121.93394,36.53893]]],[[[-121.93559,36.5411],[-121.93591,36.54219],[-121.93491,36.54192],[-121.93491,36.54137],[-121.93559,36.5411]]],[[[-121.93357,36.54136],[-121.93423,36.54191],[-121.9339,36.54191],[-121.93356,36.54245],[-121.93357,36.54136]]],[[[-121.93456,36.54245],[-121.93423,36.54272],[-121.93423,36.54245],[-121.93456,36.54245]]],[[[-121.93489,36.54299],[-121.9342,36.54408],[-121.93455,36.54326],[-121.93388,36.54326],[-121.93355,36.54271],[-121.93489,36.54299]]],[[[-121.9342,36.54461],[-121.93386,36.54488],[-121.93386,36.54461],[-121.9342,36.54461]]],[[[-121.93185,36.54486],[-121.93353,36.54515],[-121.93185,36.54514],[-121.93185,36.54486]]]]}}]}