{"type":"FeatureCollection","features":[{"type":"Feature","geometry":{"type":"Polygon","coordinates":[[[-121.971,36.528],[-121.971,36.481],[-122.008,36.481],[-122.008,36.482],[-122.008,36.482],[-122.008,36.482],[-122.008,36.483],[-122.009,36.483],[-122.009,36.483],[-122.009,36.484],[-122.009,36.484],[-122.009,36.485],[-122.009,36.485],[-122.009,36.485],[-122.009,36.486],[-122.009,36.486],[-122.009,36.487],[-122.01,36.487],[-122.01,36.487],[-122.01,36.488],[-122.01,36.488],[-122.011,36.488],[-122.011,36.488],[-122.011,36.489],[-122.011,36.489],[-122.011,36.489],[-122.012,36.489],[-122.012,36.49],[-122.013,36.491],[-122.013,36.491],[-122.013,36.492],[-122.013,36.492],[-122.014,36.492],[-122.014,36.492],[-122.014,36.493],[-122.014,36.493],[-122.014,36.493],[-122.015,36.494],[-122.015,36.494],[-122.015,36.494],[-122.015,36.494],[-122.015,36.495],[-122.016,36.495],[-122.016,36.495],[-122.016,36.496],[-122.016,36.496],[-122.016,36.496],[-122.016,36.497],[-122.017,36.497],[-122.017,36.497],[-122.017,36.498],[-122.017,36.498],[-122.017,36.498],[-122.018,36.499],[-122.018,36.499],[-122.018,36.5],[-122.018,36.5],[-122.018,36.501],[-122.019,36.501],[-122.019,36.502],[-122.019,36.502],[-122.019,36.502],[-122.019,36.504],[-122.02,36.504],[-122.02,36.504],[-122.02,36.505],[-122.02,36.505],[-122.02,36.506],[-122.02,36.506],[-122.02,36.506],[-122.02,36.507],[-122.02,36.507],[-122.021,36.507],[-122.021,36.508],[-122.021,36.508],[-122.021,36.508],[-122.021,36.509],[-122.021,36.509],[-122.021,36.509],[-122.021,36.51],[-122.021,36.51],[-122.021,36.511],[-122.022,36.511],[-122.022,36.511],[-122.022,36.512],[-122.022,36.512],[-122.022,36.512],[-122.022,36.513],[-122.022,36.513],[-122.022,36.514],[-122.022,36.514],[-122.022,36.514],[-122.022,36.515],[-122.022,36.515],[-122.022,36.516],[-122.022,36.516],[-122.022,36.517],[-122.022,36.517],[-122.022,36.517],[-122.022,36.518],[-122.022,36.518],[-122.022,36.519],[-122.022,36.519],[-122.022,36.52],[-122.022,36.52],[-122.022,36.52],[-122.022,36.521],[-122.022,36.521],[-122.022,36.522],[-122.022,36.522],[-122.022,36.522],[-122.022,36.523],[-122.022,36.523],[-122.022,36.524],[-122.022,36.524],[-122.022,36.525],[-122.022,36.525],[-122.022,36.525],[-122.022,36.526],[-122.022,36.526],[-122.022,36.526],[-122.021,36.527],[-122.021,36.527],[-122.021,36.527],[-122.021,36.528],[-122.021,36.528],[-122.021,36.528],[-121.971,36.528]]]},"properties":{"id":"point-lobos-state-marine-conservation-area","name":"Point Lobos State Marine Conservation Area","type":"SMCA","shortName":"Point Lobos","areaKm2":null,"ccrCitation":null}},{"type":"Feature","geometry":{"type":"Polygon","coordinates":[[[-121.95,36.567],[-121.95,36.567],[-121.95,36.567],[-121.949,36.567],[-121.949,36.567],[-121.949,36.567],[-121.948,36.567],[-121.948,36.567],[-121.948,36.567],[-121.948,36.567],[-121.948,36.567],[-121.948,36.567],[-121.948,36.567],[-121.947,36.567],[-121.947,36.567],[-121.947,36.567],[-121.947,36.567],[-121.947,36.567],[-121.947,36.567],[-121.947,36.567],[-121.947,36.567],[-121.947,36.567],[-121.947,36.567],[-121.947,36.567],[-121.947,36.567],[-121.947,36.567],[-121.946,36.567],[-121.946,36.566],[-121.946,36.566],[-121.946,36.566],[-121.946,36.566],[-121.946,36.566],[-121.946,36.566],[-121.946,36.566],[-121.945,36.566],[-121.945,36.566],[-121.945,36.566],[-121.945,36.566],[-121.945,36.566],[-121.945,36.566],[-121.945,36.566],[-121.945,36.566],[-121.945,36.565],[-121.945,36.565],[-121.945,36.565],[-121.945,36.565],[-121.945,36.565],[-121.945,36.566],[-121.945,36.566],[-121.945,36.565],[-121.945,36.566],[-121.945,36.566],[-121.945,36.566],[-121.945,36.566],[-121.945,36.566],[-121.945,36.566],[-121.944,36.566],[-121.944,36.566],[-121.944,36.566],[-121.944,36.566],[-121.944,36.566],[-121.944,36.566],[-121.944,36.566],[-121.944,36.566],[-121.944,36.566],[-121.944,36.566],[-121.944,36.566],[-121.944,36.566],[-121.944,36.566],[-121.944,36.566],[-121.944,36.566],[-121.944,36.566],[-121.944,36.566],[-121.944,36.566],[-121.943,36.566],[-121.943,36.567],[-121.943,36.567],[-121.943,36.567],[-121.943,36.567],[-121.943,36.567],[-121.943,36.566],[-121.942,36.566],[-121.942,36.566],[-121.942,36.566],[-121.942,36.566],[-121.942,36.566],[-121.942,36.566],[-121.942,36.566],[-121.942,36.566],[-121.941,36.566],[-121.941,36.566],[-121.941,36.566],[-121.941,36.566],[-121.94,36.566],[-121.94,36.565],[-121.94,36.565],[-121.94,36.565],[-121.94,36.565],[-121.94,36.565],[-121.94,36.565],[-121.94,36.565],[-121.94,36.565],[-121.94,36.565],[-121.94,36.565],[-121.939,36.565],[-121.939,36.564],[-121.939,36.564],[-121.939,36.564],[-121.939,36.564],[-121.939,36.564],[-121.939,36.564],[-121.939,36.564],[-121.939,36.564],[-121.939,36.564],[-121.939,36.564],[-121.939,36.564],[-121.939,36.564],[-121.939,36.564],[-121.939,36.564],[-121.939,36.564],[-121.939,36.564],[-121.939,36.564],[-121.939,36.564],[-121.939,36.564],[-121.939,36.564],[-121.939,36.564],[-121.939,36.564],[-121.939,36.564],[-121.939,36.564],[-121.939,36.564],[-121.939,36.564],[-121.939,36.564],[-121.939,36.563],[-121.939,36.563],[-121.939,36.563],[-121.939,36.563],[-121.939,36.563],[-121.939,36.563],[-121.939,36.563],[-121.939,36.563],[-121.939,36.563],[-121.94,36.563],[-121.94,36.563],[-121.94,36.563],[-121.94,36.563],[-121.94,36.563],[-121.94,36.563],[-121.94,36.563],[-121.94,36.563],[-121.94,36.563],[-121.94,36.563],[-121.94,36.563],[-121.94,36.563],[-121.94,36.563],[-121.94,36.563],[-121.94,36.563],[-121.94,36.563],[-121.94,36.563],[-121.94,36.563],[-121.94,36.563],[-121.94,36.563],[-121.94,36.563],[-121.94,36.563],[-121.94,36.563],[-121.94,36.563],[-121.94,36.563],[-121.94,36.563],[-121.94,36.563],[-121.94,36.563],[-121.94,36.563],[-121.94,36.563],[-121.94,36.563],[-121.94,36.563],[-121.94,36.563],[-121.94,36.563],[-121.94,36.563],[-121.94,36.563],[-121.94,36.563],[-121.94,36.563],[-121.94,36.563],[-121.94,36.563],[-121.94,36.563],[-121.94,36.563],[-121.94,36.563],[-121.94,36.563],[-121.94,36.563],[-121.94,36.563],[-121.94,36.563],[-121.94,36.563],[-121.94,36.563],[-121.94,36.563],[-121.94,36.563],[-121.94,36.563],[-121.94,36.563],[-121.94,36.563],[-121.94,36.563],[-121.94,36.563],[-121.94,36.563],[-121.94,36.563],[-121.94,36.562],[-121.94,36.562],[-121.94,36.562],[-121.94,36.562],[-121.94,36.562],[-121.94,36.562],[-121.94,36.562],[-121.94,36.562],[-121.941,36.562],[-121.941,36.562],[-121.941,36.562],[-121.941,36.562],[-121.941,36.562],[-121.941,36.562],[-121.941,36.562],[-121.941,36.562],[-121.941,36.562],[-121.941,36.562],[-121.941,36.562],[-121.941,36.562],[-121.941,36.562],[-121.941,36.562],[-121.941,36.562],[-121.941,36.562],[-121.941,36.562],[-121.941,36.562],[-121.941,36.562],[-121.941,36.562],[-121.941,36.562],[-121.941,36.562],[-121.941,36.562],[-121.941,36.562],[-121.941,36.562],[-121.941,36.562],[-121.941,36.562],[-121.941,36.562],[-121.941,36.562],[-121.941,36.562],[-121.941,36.562],[-121.941,36.562],[-121.941,36.561],[-121.941,36.561],[-121.941,36.561],[-121.941,36.561],[-121.941,36.561],[-121.94,36.561],[-121.94,36.561],[-121.94,36.561],[-121.94,36.561],[-121.94,36.561],[-121.94,36.561],[-121.94,36.561],[-121.94,36.561],[-121.94,36.561],[-121.94,36.561],[-121.94,36.561],[-121.94,36.561],[-121.94,36.561],[-121.94,36.561],[-121.94,36.561],[-121.94,36.561],[-121.94,36.561],[-121.94,36.561],[-121.94,36.561],[-121.94,36.561],[-121.94,36.561],[-121.94,36.561],[-121.94,36.561],[-121.94,36.561],[-121.94,36.561],[-121.94,36.561],[-121.94,36.561],[-121.94,36.561],[-121.94,36.561],[-121.94,36.561],[-121.939,36.561],[-121.939,36.561],[-121.939,36.561],[-121.939,36.561],[-121.939,36.561],[-121.939,36.561],[-121.939,36.561],[-121.939,36.561],[-121.939,36.562],[-121.939,36.562],[-121.939,36.562],[-121.939,36.562],[-121.939,36.562],[-121.939,36.562],[-121.939,36.562],[-121.939,36.562],[-121.939,36.562],[-121.939,36.562],[-121.939,36.562],[-121.939,36.562],[-121.939,36.561],[-121.939,36.561],[-121.939,36.561],[-121.939,36.561],[-121.939,36.561],[-121.939,36.561],[-121.939,36.562],[-121.939,36.562],[-121.939,36.562],[-121.939,36.562],[-121.939,36.562],[-121.939,36.562],[-121.939,36.562],[-121.939,36.562],[-121.939,36.562],[-121.939,36.562],[-121.939,36.562],[-121.939,36.562],[-121.939,36.562],[-121.939,36.562],[-121.939,36.562],[-121.939,36.562],[-121.939,36.562],[-121.939,36.562],[-121.939,36.562],[-121.939,36.562],[-121.939,36.562],[-121.939,36.562],[-121.939,36.562],[-121.938,36.562],[-121.938,36.562],[-121.938,36.562],[-121.938,36.562],[-121.938,36.562],[-121.938,36.562],[-121.938,36.562],[-121.938,36.562],[-121.938,36.562],[-121.938,36.562],[-121.938,36.562],[-121.938,36.562],[-121.938,36.562],[-121.938,36.562],[-121.938,36.562],[-121.938,36.562],[-121.938,36.562],[-121.938,36.562],[-121.938,36.562],[-121.938,36.562],[-121.938,36.562],[-121.938,36.562],[-121.938,36.562],[-121.938,36.562],[-121.938,36.563],[-121.938,36.563],[-121.938,36.563],[-121.938,36.563],[-121.938,36.563],[-121.938,36.563],[-121.938,36.563],[-121.938,36.563],[-121.938,36.563],[-121.938,36.563],[-121.938,36.563],[-121.938,36.563],[-121.938,36.563],[-121.938,36.563],[-121.938,36.563],[-121.938,36.563],[-121.938,36.563],[-121.938,36.563],[-121.938,36.563],[-121.938,36.563],[-121.938,36.563],[-121.938,36.563],[-121.938,36.563],[-121.938,36.563],[-121.938,36.563],[-121.938,36.563],[-121.938,36.563],[-121.938,36.563],[-121.938,36.563],[-121.938,36.563],[-121.938,36.563],[-121.938,36.563],[-121.938,36.563],[-121.938,36.563],[-121.938,36.563],[-121.938,36.563],[-121.938,36.563],[-121.938,36.563],[-121.938,36.563],[-121.938,36.563],[-121.938,36.563],[-121.938,36.563],[-121.938,36.563],[-121.937,36.563],[-121.937,36.563],[-121.937,36.563],[-121.937,36.563],[-121.937,36.563],[-121.937,36.563],[-121.937,36.563],[-121.937,36.563],[-121.937,36.563],[-121.937,36.563],[-121.937,36.563],[-121.937,36.563],[-121.937,36.563],[-121.937,36.563],[-121.937,36.563],[-121.937,36.563],[-121.937,36.563],[-121.937,36.563],[-121.936,36.563],[-121.936,36.563],[-121.936,36.562],[-121.936,36.562],[-121.936,36.562],[-121.936,36.562],[-121.936,36.562],[-121.936,36.562],[-121.936,36.562],[-121.936,36.562],[-121.936,36.562],[-121.936,36.562],[-121.936,36.562],[-121.936,36.562],[-121.936,36.562],[-121.936,36.562],[-121.935,36.562],[-121.935,36.562],[-121.935,36.562],[-121.935,36.562],[-121.935,36.562],[-121.935,36.562],[-121.935,36.562],[-121.935,36.562],[-121.935,36.562],[-121.935,36.562],[-121.935,36.562],[-121.935,36.562],[-121.935,36.562],[-121.935,36.562],[-121.935,36.562],[-121.935,36.562],[-121.935,36.562],[-121.935,36.561],[-121.935,36.561],[-121.935,36.561],[-121.935,36.561],[-121.935,36.561],[-121.935,36.561],[-121.935,36.561],[-121.935,36.561],[-121.935,36.561],[-121.934,36.561],[-121.934,36.561],[-121.934,36.561],[-121.934,36.561],[-121.934,36.561],[-121.934,36.561],[-121.934,36.561],[-121.934,36.561],[-121.934,36.561],[-121.934,36.561],[-121.934,36.561],[-121.934,36.561],[-121.934,36.561],[-121.934,36.561],[-121.934,36.561],[-121.934,36.561],[-121.933,36.56],[-121.934,36.56],[-121.933,36.56],[-121.933,36.56],[-121.933,36.56],[-121.933,36.56],[-121.933,36.56],[-121.933,36.56],[-121.933,36.56],[-121.932,36.56],[-121.932,36.559],[-121.932,36.559],[-121.932,36.559],[-121.932,36.559],[-121.932,36.559],[-121.932,36.559],[-121.932,36.559],[-121.932,36.558],[-121.932,36.559],[-121.932,36.559],[-121.932,36.558],[-121.932,36.558],[-121.932,36.558],[-121.932,36.558],[-121.932,36.557],[-121.931,36.557],[-121.931,36.556],[-121.931,36.556],[-121.93,36.555],[-121.93,36.555],[-121.93,36.554],[-121.93,36.553],[-121.93,36.553],[-121.93,36.552],[-121.93,36.551],[-121.929,36.551],[-121.929,36.55],[-121.929,36.55],[-121.929,36.549],[-121.929,36.548],[-121.929,36.548],[-121.929,36.547],[-121.929,36.546],[-121.929,36.546],[-121.93,36.546],[-121.93,36.546],[-121.93,36.545],[-121.931,36.545],[-121.931,36.545],[-121.931,36.545],[-121.931,36.545],[-121.931,36.545],[-121.932,36.545],[-121.932,36.545],[-121.932,36.545],[-121.932,36.545],[-121.932,36.545],[-121.932,36.545],[-121.932,36.545],[-121.932,36.545],[-121.932,36.545],[-121.932,36.545],[-121.932,36.545],[-121.932,36.545],[-121.932,36.545],[-121.932,36.544],[-121.932,36.544],[-121.932,36.544],[-121.932,36.544],[-121.932,36.544],[-121.932,36.544],[-121.932,36.544],[-121.932,36.544],[-121.932,36.544],[-121.932,36.544],[-121.932,36.544],[-121.932,36.544],[-121.932,36.544],[-121.932,36.544],[-121.932,36.544],[-121.932,36.544],[-121.933,36.544],[-121.933,36.544],[-121.933,36.544],[-121.933,36.544],[-121.933,36.544],[-121.933,36.544],[-121.933,36.544],[-121.933,36.544],[-121.933,36.544],[-121.933,36.544],[-121.933,36.545],[-121.934,36.545],[-121.934,36.545],[-121.934,36.544],[-121.933,36.544],[-121.933,36.544],[-121.933,36.544],[-121.933,36.544],[-121.933,36.544],[-121.933,36.544],[-121.933,36.544],[-121.933,36.544],[-121.933,36.544],[-121.933,36.544],[-121.933,36.544],[-121.933,36.544],[-121.933,36.544],[-121.933,36.544],[-121.933,36.544],[-121.933,36.544],[-121.933,36.544],[-121.933,36.544],[-121.933,36.544],[-121.933,36.544],[-121.933,36.544],[-121.933,36.544],[-121.934,36.544],[-121.934,36.544],[-121.934,36.544],[-121.934,36.544],[-121.934,36.544],[-121.934,36.544],[-121.934,36.544],[-121.934,36.544],[-121.934,36.543],[-121.934,36.543],[-121.934,36.543],[-121.933,36.543],[-121.933,36.543],[-121.933,36.543],[-121.933,36.543],[-121.933,36.543],[-121.933,36.543],[-121.933,36.543],[-121.933,36.543],[-121.933,36.543],[-121.933,36.542],[-121.933,36.542],[-121.933,36.542],[-121.933,36.542],[-121.933,36.542],[-121.933,36.542],[-121.933,36.542],[-121.933,36.542],[-121.933,36.542],[-121.933,36.542],[-121.933,36.542],[-121.933,36.542],[-121.933,36.542],[-121.933,36.542],[-121.933,36.542],[-121.933,36.542],[-121.933,36.542],[-121.933,36.542],[-121.933,36.542],[-121.933,36.542],[-121.933,36.542],[-121.933,36.542],[-121.933,36.542],[-121.933,36.542],[-121.933,36.542],[-121.933,36.542],[-121.933,36.542],[-121.933,36.542],[-121.933,36.542],[-121.933,36.542],[-121.933,36.542],[-121.933,36.542],[-121.933,36.542],[-121.933,36.542],[-121.933,36.542],[-121.933,36.542],[-121.933,36.542],[-121.933,36.542],[-121.933,36.542],[-121.933,36.542],[-121.933,36.542],[-121.933,36.542],[-121.933,36.542],[-121.933,36.542],[-121.933,36.542],[-121.933,36.542],[-121.933,36.542],[-121.933,36.542],[-121.933,36.542],[-121.933,36.542],[-121.933,36.542],[-121.933,36.542],[-121.933,36.542],[-121.933,36.542],[-121.933,36.542],[-121.933,36.542],[-121.933,36.541],[-121.933,36.541],[-121.933,36.541],[-121.933,36.541],[-121.933,36.541],[-121.933,36.541],[-121.933,36.541],[-121.933,36.541],[-121.933,36.541],[-121.933,36.541],[-121.933,36.541],[-121.933,36.541],[-121.933,36.541],[-121.933,36.541],[-121.933,36.541],[-121.933,36.541],[-121.933,36.541],[-121.933,36.541],[-121.933,36.541],[-121.933,36.541],[-121.933,36.541],[-121.933,36.541],[-121.933,36.541],[-121.933,36.541],[-121.933,36.541],[-121.933,36.541],[-121.933,36.541],[-121.933,36.541],[-121.933,36.541],[-121.933,36.541],[-121.933,36.541],[-121.933,36.541],[-121.933,36.541],[-121.933,36.541],[-121.933,36.541],[-121.933,36.541],[-121.933,36.541],[-121.933,36.541],[-121.933,36.541],[-121.933,36.541],[-121.933,36.541],[-121.933,36.541],[-121.933,36.541],[-121.933,36.541],[-121.933,36.541],[-121.933,36.54],[-121.933,36.54],[-121.933,36.54],[-121.933,36.54],[-121.933,36.54],[-121.933,36.54],[-121.933,36.54],[-121.933,36.54],[-121.933,36.54],[-121.933,36.54],[-121.933,36.54],[-121.933,36.54],[-121.933,36.54],[-121.933,36.54],[-121.933,36.54],[-121.933,36.54],[-121.933,36.54],[-121.933,36.54],[-121.933,36.54],[-121.933,36.54],[-121.933,36.54],[-121.933,36.54],[-121.933,36.54],[-121.933,36.54],[-121.933,36.54],[-121.933,36.54],[-121.933,36.54],[-121.933,36.54],[-121.933,36.54],[-121.933,36.54],[-121.933,36.54],[-121.933,36.54],[-121.933,36.54],[-121.933,36.54],[-121.933,36.54],[-121.933,36.54],[-121.933,36.54],[-121.933,36.54],[-121.933,36.54],[-121.933,36.54],[-121.933,36.54],[-121.933,36.54],[-121.933,36.54],[-121.933,36.54],[-121.933,36.54],[-121.933,36.54],[-121.933,36.54],[-121.933,36.54],[-121.933,36.54],[-121.933,36.54],[-121.933,36.54],[-121.933,36.54],[-121.933,36.54],[-121.933,36.54],[-121.932,36.54],[-121.932,36.54],[-121.932,36.54],[-121.932,36.54],[-121.932,36.54],[-121.932,36.54],[-121.932,36.54],[-121.932,36.54],[-121.932,36.54],[-121.932,36.539],[-121.932,36.539],[-121.932,36.54],[-121.932,36.54],[-121.932,36.54],[-121.933,36.54],[-121.933,36.54],[-121.933,36.539],[-121.933,36.539],[-121.933,36.539],[-121.933,36.539],[-121.932,36.539],[-121.932,36.539],[-121.932,36.539],[-121.932,36.539],[-121.932,36.539],[-121.932,36.539],[-121.932,36.539],[-121.932,36.539],[-121.932,36.539],[-121.932,36.539],[-121.932,36.539],[-121.932,36.539],[-121.932,36.539],[-121.932,36.539],[-121.932,36.539],[-121.932,36.539],[-121.932,36.539],[-121.932,36.539],[-121.932,36.539],[-121.932,36.539],[-121.932,36.539],[-121.932,36.539],[-121.932,36.539],[-121.932,36.539],[-121.932,36.539],[-121.932,36.54],[-121.932,36.54],[-121.931,36.54],[-121.931,36.54],[-121.93,36.54],[-121.93,36.54],[-121.929,36.539],[-121.929,36.538],[-121.928,36.537],[-121.928,36.537],[-121.928,36.536],[-121.928,36.536],[-121.928,36.535],[-121.928,36.535],[-121.928,36.534],[-121.928,36.534],[-121.928,36.534],[-121.928,36.533],[-121.927,36.533],[-121.927,36.533],[-121.927,36.533],[-121.927,36.533],[-121.927,36.532],[-121.927,36.532],[-121.927,36.532],[-121.927,36.532],[-121.926,36.531],[-121.926,36.531],[-121.926,36.531],[-121.926,36.531],[-121.925,36.531],[-121.925,36.53],[-121.925,36.529],[-121.925,36.529],[-121.926,36.529],[-121.926,36.528],[-121.926,36.528],[-121.926,36.528],[-121.938,36.528],[-121.952,36.561],[-121.952,36.561],[-121.952,36.561],[-121.952,36.561],[-121.952,36.561],[-121.952,36.561],[-121.952,36.561],[-121.952,36.561],[-121.952,36.562],[-121.952,36.562],[-121.952,36.562],[-121.952,36.562],[-121.952,36.562],[-121.952,36.562],[-121.952,36.562],[-121.952,36.562],[-121.952,36.562],[-121.952,36.562],[-121.952,36.562],[-121.952,36.562],[-121.952,36.562],[-121.952,36.562],[-121.952,36.562],[-121.952,36.562],[-121.952,36.562],[-121.952,36.563],[-121.952,36.563],[-121.952,36.563],[-121.951,36.563],[-121.951,36.563],[-121.951,36.563],[-121.952,36.563],[-121.952,36.563],[-121.952,36.563],[-121.952,36.563],[-121.952,36.563],[-121.952,36.563],[-121.952,36.563],[-121.952,36.564],[-121.952,36.564],[-121.952,36.564],[-121.952,36.564],[-121.952,36.564],[-121.952,36.564],[-121.952,36.564],[-121.952,36.564],[-121.952,36.564],[-121.952,36.564],[-121.952,36.564],[-121.951,36.564],[-121.951,36.564],[-121.951,36.564],[-121.951,36.564],[-121.951,36.564],[-121.951,36.564],[-121.951,36.564],[-121.951,36.564],[-121.951,36.564],[-121.951,36.564],[-121.951,36.564],[-121.951,36.564],[-121.951,36.564],[-121.951,36.564],[-121.951,36.564],[-121.951,36.564],[-121.951,36.565],[-121.951,36.565],[-121.951,36.565],[-121.951,36.565],[-121.951,36.565],[-121.951,36.565],[-121.951,36.565],[-121.951,36.565],[-121.951,36.565],[-121.951,36.565],[-121.951,36.565],[-121.952,36.565],[-121.952,36.565],[-121.952,36.565],[-121.952,36.565],[-121.952,36.565],[-121.952,36.565],[-121.951,36.565],[-121.951,36.565],[-121.951,36.565],[-121.951,36.566],[-121.951,36.566],[-121.951,36.566],[-121.951,36.566],[-121.951,36.566],[-121.951,36.566],[-121.951,36.566],[-121.951,36.566],[-121.951,36.566],[-121.951,36.566],[-121.951,36.566],[-121.951,36.566],[-121.951,36.566],[-121.951,36.566],[-121.951,36.566],[-121.951,36.566],[-121.951,36.566],[-121.951,36.566],[-121.951,36.566],[-121.951,36.566],[-121.951,36.566],[-121.951,36.566],[-121.951,36.566],[-121.951,36.566],[-121.951,36.566],[-121.951,36.566],[-121.951,36.566],[-121.951,36.566],[-121.951,36.566],[-121.951,36.566],[-121.951,36.566],[-121.951,36.566],[-121.951,36.566],[-121.951,36.567],[-121.951,36.567],[-121.951,36.567],[-121.951,36.567],[-121.951,36.567],[-121.951,36.567],[-121.951,36.567],[-121.951,36.567],[-121.951,36.567],[-121.951,36.567],[-121.95,36.567],[-121.95,36.567],[-121.95,36.567],[-121.95,36.567],[-121.95,36.567],[-121.95,36.567],[-121.95,36.567]]]},"properties":{"id":"carmel-bay-state-marine-conservation-area","name":"Carmel Bay State Marine Conservation Area","type":"SMCA","shortName":"Carmel Bay","areaKm2":null,"ccrCitation":null}},{"type":"Feature","geometry":{"type":"Polygon","coordinates":[[[-121.926,36.528],[-121.926,36.528],[-121.926,36.528],[-121.926,36.528],[-121.926,36.528],[-121.926,36.528],[-121.926,36.528],[-121.926,36.528],[-121.926,36.528],[-121.926,36.528],[-121.926,36.528],[-121.926,36.528],[-121.926,36.528],[-121.926,36.528],[-121.926,36.528],[-121.926,36.528],[-121.925,36.527],[-121.925,36.527],[-121.925,36.527],[-121.925,36.527],[-121.925,36.527],[-121.925,36.527],[-121.925,36.527],[-121.925,36.527],[-121.925,36.527],[-121.925,36.527],[-121.925,36.527],[-121.925,36.527],[-121.925,36.527],[-121.925,36.527],[-121.925,36.527],[-121.925,36.527],[-121.925,36.527],[-121.925,36.527],[-121.925,36.527],[-121.925,36.527],[-121.925,36.527],[-121.925,36.527],[-121.925,36.527],[-121.925,36.527],[-121.925,36.527],[-121.925,36.527],[-121.925,36.527],[-121.925,36.527],[-121.925,36.527],[-121.925,36.527],[-121.925,36.527],[-121.925,36.527],[-121.925,36.527],[-121.925,36.526],[-121.925,36.526],[-121.925,36.526],[-121.925,36.526],[-121.925,36.526],[-121.925,36.526],[-121.925,36.525],[-121.925,36.525],[-121.926,36.524],[-121.926,36.524],[-121.926,36.524],[-121.927,36.523],[-121.927,36.523],[-121.928,36.523],[-121.928,36.522],[-121.928,36.522],[-121.929,36.522],[-121.929,36.522],[-121.93,36.522],[-121.93,36.523],[-121.93,36.523],[-121.93,36.523],[-121.93,36.523],[-121.93,36.523],[-121.93,36.523],[-121.93,36.523],[-121.93,36.523],[-121.93,36.523],[-121.93,36.523],[-121.93,36.523],[-121.93,36.523],[-121.93,36.523],[-121.93,36.523],[-121.93,36.523],[-121.93,36.523],[-121.93,36.523],[-121.93,36.523],[-121.93,36.523],[-121.931,36.523],[-121.931,36.523],[-121.931,36.523],[-121.931,36.523],[-121.931,36.523],[-121.931,36.523],[-121.931,36.523],[-121.931,36.523],[-121.931,36.523],[-121.931,36.523],[-121.931,36.523],[-121.931,36.523],[-121.931,36.523],[-121.931,36.523],[-121.931,36.523],[-121.931,36.523],[-121.931,36.523],[-121.931,36.523],[-121.931,36.523],[-121.931,36.523],[-121.931,36.523],[-121.931,36.523],[-121.931,36.523],[-121.931,36.523],[-121.931,36.523],[-121.931,36.523],[-121.931,36.523],[-121.931,36.523],[-121.931,36.523],[-121.931,36.523],[-121.931,36.523],[-121.931,36.523],[-121.931,36.523],[-121.931,36.523],[-121.931,36.523],[-121.931,36.523],[-121.931,36.523],[-121.931,36.523],[-121.931,36.523],[-121.931,36.523],[-121.931,36.523],[-121.931,36.523],[-121.931,36.523],[-121.931,36.523],[-121.931,36.523],[-121.931,36.523],[-121.931,36.523],[-121.931,36.523],[-121.932,36.523],[-121.932,36.523],[-121.932,36.523],[-121.932,36.523],[-121.932,36.523],[-121.932,36.523],[-121.932,36.523],[-121.932,36.523],[-121.932,36.523],[-121.932,36.523],[-121.932,36.523],[-121.932,36.523],[-121.932,36.523],[-121.932,36.523],[-121.932,36.523],[-121.932,36.523],[-121.932,36.523],[-121.932,36.523],[-121.932,36.523],[-121.932,36.523],[-121.932,36.523],[-121.932,36.523],[-121.932,36.523],[-121.932,36.523],[-121.932,36.523],[-121.932,36.523],[-121.932,36.523],[-121.932,36.523],[-121.932,36.523],[-121.932,36.523],[-121.932,36.523],[-121.932,36.523],[-121.933,36.523],[-121.933,36.523],[-121.933,36.523],[-121.933,36.523],[-121.933,36.523],[-121.933,36.523],[-121.933,36.523],[-121.933,36.523],[-121.933,36.523],[-121.933,36.523],[-121.933,36.523],[-121.933,36.523],[-121.933,36.523],[-121.934,36.523],[-121.934,36.523],[-121.934,36.523],[-121.933,36.523],[-121.933,36.523],[-121.933,36.523],[-121.933,36.523],[-121.933,36.523],[-121.933,36.523],[-121.933,36.523],[-121.933,36.523],[-121.933,36.523],[-121.933,36.523],[-121.933,36.523],[-121.933,36.523],[-121.933,36.523],[-121.933,36.523],[-121.933,36.523],[-121.933,36.523],[-121.934,36.523],[-121.934,36.522],[-121.934,36.522],[-121.934,36.522],[-121.934,36.522],[-121.934,36.522],[-121.934,36.522],[-121.934,36.522],[-121.934,36.522],[-121.934,36.522],[-121.934,36.522],[-121.934,36.522],[-121.934,36.522],[-121.934,36.522],[-121.934,36.522],[-121.934,36.522],[-121.935,36.522],[-121.935,36.522],[-121.935,36.522],[-121.935,36.522],[-121.935,36.522],[-121.935,36.522],[-121.935,36.522],[-121.935,36.522],[-121.935,36.522],[-121.935,36.522],[-121.935,36.522],[-121.935,36.522],[-121.935,36.522],[-121.935,36.522],[-121.935,36.522],[-121.935,36.522],[-121.935,36.522],[-121.935,36.522],[-121.935,36.522],[-121.935,36.522],[-121.935,36.522],[-121.935,36.523],[-121.935,36.523],[-121.935,36.523],[-121.935,36.523],[-121.935,36.523],[-121.936,36.523],[-121.936,36.523],[-121.936,36.523],[-121.936,36.523],[-121.936,36.523],[-121.936,36.523],[-121.936,36.523],[-121.936,36.523],[-121.936,36.523],[-121.936,36.523],[-121.936,36.523],[-121.936,36.523],[-121.936,36.523],[-121.936,36.523],[-121.936,36.523],[-121.936,36.523],[-121.936,36.523],[-121.936,36.523],[-121.936,36.523],[-121.936,36.523],[-121.936,36.523],[-121.936,36.523],[-121.936,36.523],[-121.937,36.523],[-121.937,36.523],[-121.937,36.523],[-121.937,36.523],[-121.937,36.523],[-121.937,36.523],[-121.937,36.523],[-121.937,36.523],[-121.937,36.523],[-121.937,36.523],[-121.937,36.523],[-121.937,36.523],[-121.937,36.523],[-121.937,36.523],[-121.937,36.523],[-121.937,36.523],[-121.937,36.523],[-121.937,36.523],[-121.937,36.523],[-121.937,36.523],[-121.937,36.523],[-121.937,36.523],[-121.937,36.523],[-121.937,36.523],[-121.937,36.523],[-121.937,36.523],[-121.937,36.523],[-121.937,36.523],[-121.937,36.523],[-121.937,36.523],[-121.937,36.523],[-121.937,36.523],[-121.937,36.523],[-121.937,36.523],[-121.937,36.523],[-121.937,36.523],[-121.937,36.523],[-121.937,36.523],[-121.937,36.523],[-121.937,36.523],[-121.937,36.523],[-121.937,36.523],[-121.937,36.523],[-121.937,36.523],[-121.937,36.523],[-121.937,36.523],[-121.937,36.523],[-121.937,36.523],[-121.937,36.523],[-121.937,36.523],[-121.937,36.523],[-121.937,36.523],[-121.937,36.523],[-121.937,36.523],[-121.937,36.523],[-121.937,36.523],[-121.937,36.523],[-121.937,36.523],[-121.937,36.523],[-121.937,36.523],[-121.937,36.523],[-121.937,36.523],[-121.937,36.523],[-121.937,36.523],[-121.937,36.523],[-121.937,36.523],[-121.937,36.523],[-121.937,36.523],[-121.937,36.523],[-121.937,36.523],[-121.937,36.523],[-121.937,36.523],[-121.937,36.523],[-121.937,36.523],[-121.937,36.523],[-121.937,36.523],[-121.937,36.523],[-121.937,36.523],[-121.937,36.523],[-121.938,36.523],[-121.938,36.522],[-121.937,36.522],[-121.937,36.522],[-121.937,36.522],[-121.937,36.522],[-121.937,36.522],[-121.937,36.522],[-121.937,36.522],[-121.937,36.522],[-121.937,36.522],[-121.937,36.522],[-121.937,36.522],[-121.937,36.522],[-121.937,36.522],[-121.937,36.522],[-121.937,36.522],[-121.937,36.522],[-121.937,36.522],[-121.937,36.522],[-121.937,36.522],[-121.937,36.522],[-121.937,36.522],[-121.936,36.522],[-121.936,36.522],[-121.936,36.521],[-121.936,36.521],[-121.937,36.521],[-121.937,36.521],[-121.937,36.521],[-121.937,36.521],[-121.937,36.521],[-121.937,36.521],[-121.937,36.521],[-121.937,36.521],[-121.937,36.521],[-121.937,36.521],[-121.938,36.521],[-121.938,36.521],[-121.938,36.521],[-121.938,36.521],[-121.938,36.521],[-121.937,36.521],[-121.937,36.521],[-121.937,36.52],[-121.937,36.52],[-121.937,36.52],[-121.937,36.52],[-121.937,36.52],[-121.937,36.52],[-121.937,36.52],[-121.937,36.52],[-121.937,36.52],[-121.937,36.52],[-121.937,36.52],[-121.937,36.52],[-121.937,36.52],[-121.937,36.52],[-121.937,36.52],[-121.937,36.52],[-121.937,36.52],[-121.937,36.52],[-121.937,36.52],[-121.937,36.52],[-121.937,36.52],[-121.937,36.52],[-121.937,36.52],[-121.937,36.52],[-121.937,36.52],[-121.937,36.52],[-121.937,36.52],[-121.937,36.52],[-121.937,36.52],[-121.937,36.52],[-121.937,36.52],[-121.937,36.52],[-121.937,36.52],[-121.937,36.52],[-121.937,36.52],[-121.937,36.52],[-121.937,36.52],[-121.937,36.52],[-121.937,36.52],[-121.937,36.52],[-121.937,36.52],[-121.937,36.52],[-121.937,36.52],[-121.937,36.52],[-121.937,36.52],[-121.937,36.52],[-121.937,36.52],[-121.937,36.52],[-121.937,36.52],[-121.937,36.52],[-121.937,36.52],[-121.937,36.52],[-121.937,36.52],[-121.937,36.52],[-121.937,36.52],[-121.937,36.52],[-121.937,36.52],[-121.937,36.52],[-121.937,36.52],[-121.937,36.52],[-121.937,36.52],[-121.937,36.519],[-121.937,36.519],[-121.937,36.519],[-121.937,36.519],[-121.937,36.519],[-121.937,36.519],[-121.937,36.519],[-121.937,36.519],[-121.937,36.519],[-121.937,36.519],[-121.937,36.519],[-121.937,36.519],[-121.937,36.519],[-121.937,36.519],[-121.938,36.519],[-121.938,36.519],[-121.938,36.519],[-121.938,36.519],[-121.939,36.519],[-121.939,36.519],[-121.939,36.519],[-121.939,36.519],[-121.939,36.519],[-121.939,36.519],[-121.939,36.519],[-121.939,36.519],[-121.939,36.519],[-121.939,36.519],[-121.939,36.519],[-121.939,36.519],[-121.939,36.519],[-121.939,36.519],[-121.939,36.519],[-121.94,36.519],[-121.94,36.519],[-121.94,36.519],[-121.94,36.519],[-121.94,36.519],[-121.94,36.519],[-121.94,36.519],[-121.94,36.519],[-121.94,36.519],[-121.94,36.519],[-121.94,36.519],[-121.94,36.519],[-121.94,36.519],[-121.94,36.519],[-121.94,36.519],[-121.94,36.519],[-121.94,36.519],[-121.94,36.519],[-121.94,36.519],[-121.94,36.519],[-121.94,36.519],[-121.94,36.519],[-121.94,36.519],[-121.94,36.519],[-121.94,36.519],[-121.94,36.519],[-121.94,36.519],[-121.94,36.519],[-121.94,36.519],[-121.94,36.519],[-121.94,36.519],[-121.94,36.519],[-121.94,36.519],[-121.94,36.519],[-121.94,36.519],[-121.94,36.519],[-121.94,36.519],[-121.94,36.519],[-121.94,36.519],[-121.94,36.519],[-121.94,36.519],[-121.94,36.519],[-121.94,36.519],[-121.94,36.519],[-121.94,36.519],[-121.94,36.519],[-121.94,36.519],[-121.94,36.519],[-121.94,36.519],[-121.94,36.519],[-121.94,36.519],[-121.94,36.519],[-121.94,36.519],[-121.94,36.519],[-121.941,36.519],[-121.941,36.519],[-121.941,36.519],[-121.941,36.52],[-121.941,36.52],[-121.941,36.52],[-121.941,36.52],[-121.941,36.52],[-121.941,36.52],[-121.941,36.52],[-121.941,36.52],[-121.941,36.52],[-121.941,36.52],[-121.941,36.52],[-121.941,36.52],[-121.941,36.52],[-121.94,36.52],[-121.94,36.521],[-121.94,36.521],[-121.94,36.521],[-121.94,36.521],[-121.94,36.521],[-121.94,36.521],[-121.94,36.521],[-121.941,36.521],[-121.941,36.521],[-121.941,36.521],[-121.941,36.521],[-121.941,36.521],[-121.941,36.521],[-121.941,36.521],[-121.941,36.521],[-121.941,36.521],[-121.941,36.521],[-121.941,36.521],[-121.941,36.521],[-121.941,36.521],[-121.941,36.521],[-121.941,36.521],[-121.941,36.521],[-121.941,36.521],[-121.942,36.521],[-121.942,36.521],[-121.942,36.521],[-121.942,36.521],[-121.942,36.521],[-121.942,36.521],[-121.942,36.521],[-121.942,36.522],[-121.942,36.521],[-121.942,36.522],[-121.942,36.522],[-121.942,36.522],[-121.942,36.521],[-121.942,36.521],[-121.942,36.521],[-121.942,36.521],[-121.942,36.521],[-121.942,36.521],[-121.942,36.521],[-121.942,36.521],[-121.942,36.521],[-121.942,36.521],[-121.942,36.521],[-121.942,36.521],[-121.942,36.521],[-121.942,36.521],[-121.942,36.521],[-121.942,36.521],[-121.942,36.521],[-121.942,36.521],[-121.942,36.521],[-121.942,36.521],[-121.942,36.521],[-121.942,36.521],[-121.942,36.521],[-121.942,36.521],[-121.942,36.521],[-121.942,36.521],[-121.942,36.521],[-121.942,36.521],[-121.942,36.521],[-121.942,36.521],[-121.942,36.521],[-121.942,36.521],[-121.942,36.521],[-121.942,36.521],[-121.942,36.521],[-121.943,36.521],[-121.943,36.521],[-121.943,36.521],[-121.943,36.521],[-121.943,36.521],[-121.943,36.521],[-121.943,36.521],[-121.943,36.52],[-121.943,36.52],[-121.943,36.521],[-121.943,36.521],[-121.943,36.521],[-121.943,36.521],[-121.943,36.521],[-121.943,36.521],[-121.943,36.521],[-121.943,36.521],[-121.943,36.521],[-121.943,36.521],[-121.943,36.521],[-121.943,36.521],[-121.943,36.521],[-121.943,36.521],[-121.943,36.521],[-121.943,36.521],[-121.943,36.521],[-121.943,36.521],[-121.943,36.521],[-121.943,36.521],[-121.943,36.521],[-121.943,36.521],[-121.943,36.52],[-121.943,36.52],[-121.943,36.52],[-121.943,36.52],[-121.943,36.52],[-121.943,36.52],[-121.943,36.52],[-121.943,36.52],[-121.943,36.52],[-121.943,36.52],[-121.943,36.52],[-121.943,36.52],[-121.943,36.52],[-121.943,36.52],[-121.943,36.52],[-121.943,36.52],[-121.943,36.52],[-121.943,36.52],[-121.943,36.52],[-121.943,36.52],[-121.943,36.52],[-121.943,36.52],[-121.943,36.52],[-121.943,36.52],[-121.943,36.52],[-121.943,36.52],[-121.943,36.52],[-121.943,36.52],[-121.943,36.52],[-121.943,36.52],[-121.943,36.52],[-121.943,36.52],[-121.943,36.52],[-121.943,36.52],[-121.943,36.52],[-121.943,36.52],[-121.943,36.52],[-121.943,36.52],[-121.943,36.52],[-121.943,36.52],[-121.944,36.521],[-121.944,36.521],[-121.944,36.521],[-121.944,36.521],[-121.944,36.521],[-121.944,36.521],[-121.944,36.521],[-121.944,36.521],[-121.944,36.521],[-121.944,36.521],[-121.944,36.521],[-121.944,36.521],[-121.944,36.521],[-121.944,36.521],[-121.944,36.521],[-121.944,36.521],[-121.944,36.521],[-121.944,36.521],[-121.944,36.521],[-121.944,36.521],[-121.944,36.521],[-121.944,36.521],[-121.944,36.521],[-121.944,36.521],[-121.944,36.521],[-121.944,36.521],[-121.944,36.521],[-121.944,36.521],[-121.944,36.521],[-121.944,36.521],[-121.944,36.521],[-121.944,36.521],[-121.944,36.521],[-121.944,36.521],[-121.944,36.521],[-121.944,36.521],[-121.944,36.521],[-121.944,36.521],[-121.944,36.521],[-121.944,36.521],[-121.944,36.521],[-121.944,36.521],[-121.944,36.521],[-121.944,36.521],[-121.944,36.521],[-121.944,36.521],[-121.944,36.521],[-121.944,36.521],[-121.944,36.521],[-121.944,36.521],[-121.944,36.521],[-121.944,36.521],[-121.944,36.521],[-121.944,36.521],[-121.944,36.521],[-121.944,36.521],[-121.944,36.521],[-121.944,36.521],[-121.945,36.521],[-121.945,36.521],[-121.945,36.521],[-121.945,36.521],[-121.945,36.521],[-121.945,36.521],[-121.945,36.521],[-121.945,36.521],[-121.945,36.521],[-121.945,36.521],[-121.945,36.521],[-121.945,36.521],[-121.945,36.521],[-121.945,36.521],[-121.945,36.521],[-121.945,36.521],[-121.945,36.521],[-121.945,36.521],[-121.945,36.521],[-121.945,36.521],[-121.945,36.521],[-121.945,36.521],[-121.945,36.521],[-121.945,36.521],[-121.945,36.521],[-121.945,36.521],[-121.945,36.521],[-121.945,36.521],[-121.945,36.521],[-121.945,36.521],[-121.945,36.521],[-121.945,36.521],[-121.945,36.521],[-121.945,36.521],[-121.945,36.521],[-121.945,36.521],[-121.945,36.521],[-121.945,36.521],[-121.945,36.521],[-121.945,36.521],[-121.945,36.521],[-121.945,36.521],[-121.945,36.521],[-121.945,36.521],[-121.945,36.522],[-121.945,36.522],[-121.945,36.522],[-121.945,36.522],[-121.945,36.522],[-121.945,36.522],[-121.945,36.522],[-121.945,36.522],[-121.945,36.522],[-121.945,36.522],[-121.945,36.522],[-121.945,36.522],[-121.945,36.522],[-121.945,36.522],[-121.945,36.522],[-121.945,36.522],[-121.945,36.522],[-121.945,36.522],[-121.945,36.522],[-121.945,36.522],[-121.945,36.522],[-121.945,36.522],[-121.945,36.522],[-121.945,36.522],[-121.945,36.522],[-121.945,36.522],[-121.945,36.522],[-121.945,36.522],[-121.945,36.522],[-121.945,36.522],[-121.945,36.522],[-121.945,36.522],[-121.946,36.522],[-121.946,36.522],[-121.946,36.522],[-121.946,36.522],[-121.946,36.522],[-121.946,36.522],[-121.946,36.523],[-121.946,36.523],[-121.946,36.523],[-121.947,36.523],[-121.947,36.523],[-121.947,36.523],[-121.947,36.523],[-121.947,36.523],[-121.947,36.523],[-121.947,36.523],[-121.947,36.523],[-121.947,36.523],[-121.947,36.523],[-121.947,36.523],[-121.947,36.523],[-121.947,36.523],[-121.947,36.523],[-121.947,36.524],[-121.947,36.524],[-121.947,36.524],[-121.947,36.523],[-121.947,36.523],[-121.948,36.524],[-121.948,36.524],[-121.948,36.524],[-121.948,36.524],[-121.948,36.524],[-121.948,36.524],[-121.948,36.524],[-121.948,36.524],[-121.948,36.524],[-121.948,36.524],[-121.948,36.524],[-121.948,36.523],[-121.948,36.523],[-121.948,36.523],[-121.948,36.523],[-121.948,36.523],[-121.948,36.523],[-121.948,36.523],[-121.948,36.523],[-121.948,36.523],[-121.948,36.523],[-121.948,36.523],[-121.948,36.522],[-121.948,36.522],[-121.948,36.522],[-121.948,36.522],[-121.948,36.522],[-121.948,36.522],[-121.948,36.522],[-121.948,36.522],[-121.948,36.522],[-121.948,36.522],[-121.948,36.522],[-121.948,36.522],[-121.948,36.522],[-121.949,36.522],[-121.949,36.522],[-121.949,36.522],[-121.949,36.522],[-121.949,36.522],[-121.949,36.522],[-121.949,36.522],[-121.949,36.522],[-121.949,36.522],[-121.949,36.522],[-121.949,36.522],[-121.949,36.522],[-121.949,36.522],[-121.949,36.522],[-121.949,36.522],[-121.949,36.522],[-121.949,36.522],[-121.949,36.521],[-121.949,36.521],[-121.949,36.521],[-121.949,36.521],[-121.95,36.521],[-121.95,36.521],[-121.95,36.521],[-121.95,36.521],[-121.95,36.521],[-121.95,36.521],[-121.95,36.522],[-121.95,36.521],[-121.95,36.521],[-121.95,36.522],[-121.95,36.522],[-121.95,36.522],[-121.95,36.522],[-121.95,36.522],[-121.95,36.522],[-121.95,36.522],[-121.95,36.522],[-121.95,36.522],[-121.95,36.522],[-121.95,36.522],[-121.95,36.522],[-121.951,36.522],[-121.951,36.522],[-121.951,36.522],[-121.951,36.522],[-121.951,36.522],[-121.951,36.522],[-121.951,36.522],[-121.951,36.522],[-121.951,36.522],[-121.951,36.522],[-121.951,36.522],[-121.951,36.522],[-121.951,36.522],[-121.951,36.522],[-121.951,36.523],[-121.951,36.523],[-121.951,36.523],[-121.951,36.523],[-121.951,36.523],[-121.952,36.523],[-121.952,36.523],[-121.952,36.523],[-121.952,36.523],[-121.952,36.523],[-121.952,36.523],[-121.952,36.523],[-121.952,36.523],[-121.952,36.523],[-121.952,36.523],[-121.952,36.523],[-121.952,36.523],[-121.952,36.523],[-121.952,36.523],[-121.952,36.523],[-121.952,36.523],[-121.952,36.523],[-121.952,36.523],[-121.953,36.523],[-121.953,36.523],[-121.952,36.523],[-121.952,36.523],[-121.952,36.523],[-121.952,36.523],[-121.952,36.523],[-121.952,36.523],[-121.952,36.523],[-121.953,36.523],[-121.953,36.524],[-121.953,36.524],[-121.953,36.524],[-121.953,36.524],[-121.953,36.524],[-121.953,36.524],[-121.953,36.524],[-121.953,36.524],[-121.953,36.524],[-121.953,36.524],[-121.953,36.524],[-121.953,36.524],[-121.953,36.524],[-121.953,36.524],[-121.953,36.524],[-121.953,36.524],[-121.953,36.524],[-121.953,36.524],[-121.953,36.524],[-121.953,36.524],[-121.953,36.524],[-121.953,36.524],[-121.953,36.524],[-121.953,36.524],[-121.953,36.524],[-121.953,36.524],[-121.953,36.524],[-121.953,36.524],[-121.953,36.523],[-121.953,36.523],[-121.953,36.523],[-121.953,36.523],[-121.953,36.523],[-121.953,36.523],[-121.953,36.523],[-121.953,36.524],[-121.953,36.523],[-121.953,36.523],[-121.953,36.523],[-121.953,36.523],[-121.953,36.523],[-121.953,36.523],[-121.953,36.523],[-121.953,36.523],[-121.953,36.523],[-121.953,36.523],[-121.953,36.523],[-121.953,36.523],[-121.953,36.523],[-121.953,36.523],[-121.953,36.523],[-121.952,36.523],[-121.953,36.523],[-121.952,36.523],[-121.952,36.523],[-121.952,36.523],[-121.952,36.523],[-121.952,36.523],[-121.952,36.523],[-121.953,36.523],[-121.953,36.523],[-121.953,36.523],[-121.953,36.523],[-121.953,36.523],[-121.953,36.523],[-121.953,36.523],[-121.953,36.523],[-121.953,36.523],[-121.953,36.523],[-121.953,36.523],[-121.953,36.523],[-121.953,36.523],[-121.953,36.523],[-121.953,36.523],[-121.953,36.523],[-121.953,36.523],[-121.954,36.523],[-121.954,36.523],[-121.954,36.523],[-121.954,36.523],[-121.954,36.523],[-121.954,36.524],[-121.954,36.524],[-121.954,36.523],[-121.954,36.523],[-121.954,36.523],[-121.954,36.523],[-121.954,36.523],[-121.954,36.523],[-121.954,36.523],[-121.954,36.523],[-121.953,36.523],[-121.953,36.523],[-121.953,36.523],[-121.953,36.523],[-121.953,36.523],[-121.953,36.523],[-121.953,36.523],[-121.954,36.523],[-121.954,36.523],[-121.953,36.523],[-121.953,36.523],[-121.953,36.523],[-121.953,36.523],[-121.953,36.523],[-121.953,36.522],[-121.953,36.522],[-121.953,36.522],[-121.953,36.522],[-121.953,36.522],[-121.953,36.522],[-121.953,36.522],[-121.953,36.522],[-121.953,36.522],[-121.953,36.522],[-121.953,36.522],[-121.953,36.522],[-121.953,36.522],[-121.953,36.522],[-121.953,36.522],[-121.953,36.522],[-121.953,36.522],[-121.953,36.522],[-121.953,36.522],[-121.953,36.522],[-121.953,36.522],[-121.953,36.522],[-121.953,36.522],[-121.954,36.522],[-121.954,36.522],[-121.954,36.522],[-121.954,36.522],[-121.954,36.522],[-121.954,36.522],[-121.954,36.522],[-121.954,36.523],[-121.954,36.523],[-121.954,36.523],[-121.954,36.523],[-121.954,36.522],[-121.954,36.522],[-121.954,36.522],[-121.954,36.522],[-121.954,36.522],[-121.954,36.522],[-121.954,36.522],[-121.954,36.522],[-121.954,36.522],[-121.954,36.522],[-121.954,36.522],[-121.954,36.523],[-121.954,36.523],[-121.954,36.522],[-121.954,36.522],[-121.954,36.522],[-121.954,36.522],[-121.954,36.522],[-121.954,36.522],[-121.954,36.522],[-121.954,36.522],[-121.954,36.522],[-121.954,36.522],[-121.954,36.522],[-121.954,36.522],[-121.954,36.522],[-121.954,36.522],[-121.954,36.522],[-121.954,36.522],[-121.954,36.522],[-121.954,36.522],[-121.954,36.522],[-121.954,36.521],[-121.954,36.521],[-121.954,36.521],[-121.954,36.521],[-121.954,36.521],[-121.953,36.521],[-121.953,36.521],[-121.953,36.521],[-121.953,36.521],[-121.953,36.521],[-121.953,36.521],[-121.953,36.521],[-121.953,36.521],[-121.953,36.521],[-121.953,36.521],[-121.953,36.521],[-121.953,36.521],[-121.953,36.521],[-121.953,36.521],[-121.953,36.521],[-121.953,36.521],[-121.953,36.521],[-121.953,36.521],[-121.953,36.521],[-121.953,36.521],[-121.953,36.521],[-121.954,36.521],[-121.954,36.521],[-121.954,36.521],[-121.954,36.521],[-121.954,36.521],[-121.954,36.521],[-121.954,36.521],[-121.954,36.521],[-121.954,36.521],[-121.954,36.521],[-121.953,36.521],[-121.953,36.521],[-121.953,36.521],[-121.953,36.521],[-121.953,36.521],[-121.953,36.521],[-121.953,36.521],[-121.953,36.521],[-121.953,36.521],[-121.953,36.521],[-121.953,36.521],[-121.953,36.521],[-121.953,36.521],[-121.953,36.521],[-121.953,36.521],[-121.953,36.521],[-121.953,36.521],[-121.953,36.521],[-121.953,36.521],[-121.953,36.521],[-121.953,36.521],[-121.953,36.521],[-121.953,36.521],[-121.953,36.521],[-121.953,36.521],[-121.953,36.521],[-121.953,36.521],[-121.953,36.521],[-121.953,36.521],[-121.953,36.521],[-121.953,36.521],[-121.953,36.521],[-121.953,36.521],[-121.952,36.521],[-121.952,36.521],[-121.952,36.521],[-121.952,36.521],[-121.952,36.521],[-121.952,36.521],[-121.952,36.521],[-121.952,36.521],[-121.952,36.521],[-121.951,36.521],[-121.951,36.521],[-121.951,36.52],[-121.951,36.52],[-121.952,36.52],[-121.952,36.52],[-121.951,36.52],[-121.951,36.52],[-121.951,36.52],[-121.951,36.519],[-121.951,36.519],[-121.951,36.519],[-121.951,36.519],[-121.951,36.519],[-121.951,36.519],[-121.951,36.519],[-121.952,36.519],[-121.952,36.519],[-121.952,36.519],[-121.952,36.519],[-121.952,36.519],[-121.952,36.519],[-121.952,36.519],[-121.952,36.519],[-121.952,36.519],[-121.952,36.519],[-121.952,36.519],[-121.952,36.519],[-121.952,36.519],[-121.953,36.519],[-121.953,36.519],[-121.953,36.519],[-121.953,36.519],[-121.953,36.519],[-121.953,36.519],[-121.953,36.519],[-121.953,36.519],[-121.953,36.519],[-121.953,36.519],[-121.953,36.519],[-121.953,36.519],[-121.953,36.519],[-121.953,36.519],[-121.953,36.519],[-121.953,36.519],[-121.953,36.519],[-121.953,36.519],[-121.953,36.519],[-121.953,36.519],[-121.953,36.519],[-121.953,36.519],[-121.953,36.519],[-121.953,36.519],[-121.953,36.519],[-121.953,36.519],[-121.953,36.519],[-121.953,36.519],[-121.953,36.519],[-121.953,36.519],[-121.953,36.52],[-121.953,36.52],[-121.953,36.52],[-121.953,36.52],[-121.953,36.519],[-121.953,36.519],[-121.953,36.519],[-121.953,36.519],[-121.953,36.519],[-121.953,36.519],[-121.953,36.519],[-121.953,36.519],[-121.953,36.519],[-121.953,36.519],[-121.953,36.519],[-121.953,36.519],[-121.953,36.519],[-121.954,36.519],[-121.954,36.519],[-121.954,36.519],[-121.954,36.519],[-121.954,36.519],[-121.954,36.519],[-121.954,36.519],[-121.954,36.519],[-121.954,36.519],[-121.954,36.519],[-121.954,36.519],[-121.954,36.518],[-121.954,36.518],[-121.954,36.518],[-121.954,36.518],[-121.954,36.518],[-121.954,36.518],[-121.954,36.518],[-121.953,36.518],[-121.953,36.518],[-121.953,36.518],[-121.953,36.518],[-121.953,36.518],[-121.953,36.518],[-121.953,36.518],[-121.953,36.518],[-121.953,36.518],[-121.953,36.518],[-121.953,36.518],[-121.953,36.518],[-121.953,36.518],[-121.952,36.518],[-121.952,36.518],[-121.952,36.518],[-121.952,36.518],[-121.952,36.518],[-121.952,36.518],[-121.952,36.518],[-121.952,36.518],[-121.952,36.518],[-121.952,36.518],[-121.952,36.518],[-121.952,36.518],[-121.952,36.517],[-121.952,36.517],[-121.952,36.517],[-121.952,36.517],[-121.952,36.517],[-121.952,36.517],[-121.952,36.517],[-121.952,36.517],[-121.952,36.517],[-121.952,36.517],[-121.952,36.517],[-121.952,36.517],[-121.952,36.517],[-121.952,36.517],[-121.952,36.517],[-121.952,36.517],[-121.952,36.517],[-121.952,36.517],[-121.952,36.517],[-121.952,36.517],[-121.952,36.517],[-121.952,36.517],[-121.952,36.517],[-121.952,36.517],[-121.952,36.517],[-121.952,36.517],[-121.952,36.517],[-121.952,36.517],[-121.952,36.517],[-121.952,36.517],[-121.952,36.517],[-121.952,36.517],[-121.952,36.517],[-121.952,36.517],[-121.952,36.517],[-121.952,36.517],[-121.952,36.517],[-121.952,36.517],[-121.952,36.517],[-121.952,36.517],[-121.952,36.517],[-121.952,36.517],[-121.952,36.517],[-121.952,36.517],[-121.952,36.517],[-121.952,36.517],[-121.951,36.517],[-121.951,36.517],[-121.951,36.517],[-121.951,36.517],[-121.951,36.517],[-121.951,36.517],[-121.951,36.517],[-121.951,36.517],[-121.951,36.517],[-121.951,36.517],[-121.951,36.517],[-121.951,36.517],[-121.951,36.517],[-121.951,36.517],[-121.951,36.517],[-121.951,36.517],[-121.95,36.517],[-121.95,36.517],[-121.95,36.517],[-121.95,36.517],[-121.95,36.517],[-121.95,36.517],[-121.95,36.517],[-121.95,36.517],[-121.95,36.517],[-121.95,36.517],[-121.95,36.517],[-121.95,36.517],[-121.95,36.517],[-121.95,36.517],[-121.95,36.517],[-121.95,36.517],[-121.949,36.517],[-121.949,36.517],[-121.949,36.517],[-121.949,36.517],[-121.95,36.517],[-121.95,36.517],[-121.95,36.517],[-121.95,36.517],[-121.95,36.517],[-121.95,36.517],[-121.95,36.517],[-121.95,36.517],[-121.95,36.516],[-121.95,36.516],[-121.95,36.516],[-121.95,36.516],[-121.95,36.516],[-121.949,36.516],[-121.949,36.516],[-121.949,36.516],[-121.949,36.516],[-121.949,36.516],[-121.949,36.516],[-121.949,36.516],[-121.949,36.516],[-121.949,36.516],[-121.949,36.516],[-121.949,36.516],[-121.949,36.516],[-121.949,36.516],[-121.949,36.516],[-121.949,36.516],[-121.949,36.516],[-121.949,36.516],[-121.949,36.516],[-121.949,36.516],[-121.949,36.516],[-121.949,36.516],[-121.949,36.516],[-121.949,36.516],[-121.949,36.516],[-121.949,36.516],[-121.949,36.516],[-121.949,36.516],[-121.949,36.516],[-121.949,36.516],[-121.949,36.516],[-121.949,36.516],[-121.949,36.516],[-121.949,36.516],[-121.949,36.516],[-121.949,36.516],[-121.949,36.516],[-121.949,36.516],[-121.949,36.516],[-121.949,36.516],[-121.948,36.516],[-121.948,36.516],[-121.948,36.515],[-121.948,36.515],[-121.948,36.515],[-121.948,36.515],[-121.948,36.515],[-121.948,36.515],[-121.948,36.515],[-121.948,36.515],[-121.948,36.515],[-121.948,36.515],[-121.948,36.515],[-121.948,36.515],[-121.948,36.515],[-121.948,36.515],[-121.948,36.515],[-121.948,36.515],[-121.948,36.515],[-121.948,36.515],[-121.948,36.515],[-121.948,36.515],[-121.948,36.515],[-121.948,36.515],[-121.948,36.515],[-121.948,36.515],[-121.948,36.515],[-121.948,36.515],[-121.948,36.515],[-121.948,36.514],[-121.948,36.514],[-121.947,36.514],[-121.947,36.514],[-121.947,36.514],[-121.947,36.514],[-121.947,36.514],[-121.947,36.514],[-121.947,36.514],[-121.947,36.514],[-121.946,36.514],[-121.946,36.514],[-121.946,36.514],[-121.945,36.514],[-121.945,36.514],[-121.945,36.513],[-121.945,36.513],[-121.945,36.513],[-121.945,36.513],[-121.945,36.513],[-121.945,36.513],[-121.945,36.513],[-121.945,36.513],[-121.945,36.513],[-121.945,36.513],[-121.945,36.513],[-121.945,36.513],[-121.945,36.513],[-121.944,36.513],[-121.944,36.513],[-121.944,36.513],[-121.944,36.513],[-121.944,36.513],[-121.944,36.513],[-121.944,36.513],[-121.944,36.513],[-121.944,36.513],[-121.944,36.513],[-121.944,36.513],[-121.944,36.513],[-121.943,36.513],[-121.943,36.513],[-121.943,36.513],[-121.943,36.513],[-121.943,36.513],[-121.943,36.513],[-121.943,36.513],[-121.943,36.512],[-121.943,36.512],[-121.943,36.512],[-121.943,36.512],[-121.943,36.512],[-121.943,36.512],[-121.943,36.512],[-121.943,36.512],[-121.943,36.512],[-121.943,36.512],[-121.943,36.512],[-121.943,36.512],[-121.943,36.512],[-121.943,36.512],[-121.943,36.512],[-121.943,36.512],[-121.942,36.512],[-121.942,36.512],[-121.942,36.512],[-121.943,36.512],[-121.943,36.512],[-121.942,36.512],[-121.942,36.512],[-121.942,36.512],[-121.942,36.512],[-121.942,36.512],[-121.942,36.512],[-121.942,36.512],[-121.942,36.512],[-121.942,36.512],[-121.942,36.512],[-121.942,36.512],[-121.942,36.512],[-121.942,36.512],[-121.942,36.512],[-121.942,36.512],[-121.942,36.512],[-121.942,36.512],[-121.942,36.512],[-121.942,36.512],[-121.942,36.512],[-121.942,36.512],[-121.942,36.512],[-121.942,36.512],[-121.942,36.511],[-121.942,36.511],[-121.942,36.511],[-121.942,36.511],[-121.942,36.511],[-121.942,36.511],[-121.942,36.511],[-121.942,36.511],[-121.942,36.511],[-121.942,36.511],[-121.942,36.511],[-121.942,36.511],[-121.942,36.511],[-121.942,36.511],[-121.942,36.511],[-121.942,36.511],[-121.942,36.511],[-121.942,36.511],[-121.942,36.511],[-121.941,36.511],[-121.941,36.511],[-121.942,36.511],[-121.942,36.511],[-121.942,36.511],[-121.942,36.511],[-121.942,36.511],[-121.942,36.511],[-121.942,36.511],[-121.942,36.511],[-121.942,36.511],[-121.941,36.511],[-121.941,36.511],[-121.942,36.511],[-121.942,36.511],[-121.942,36.511],[-121.941,36.511],[-121.942,36.511],[-121.942,36.511],[-121.942,36.511],[-121.942,36.511],[-121.942,36.511],[-121.942,36.511],[-121.942,36.511],[-121.942,36.511],[-121.942,36.511],[-121.941,36.511],[-121.941,36.51],[-121.941,36.51],[-121.941,36.51],[-121.941,36.51],[-121.941,36.51],[-121.942,36.51],[-121.942,36.51],[-121.942,36.51],[-121.942,36.51],[-121.942,36.51],[-121.942,36.51],[-121.942,36.51],[-121.942,36.51],[-121.942,36.51],[-121.942,36.51],[-121.942,36.51],[-121.942,36.51],[-121.942,36.51],[-121.942,36.51],[-121.942,36.51],[-121.942,36.51],[-121.942,36.51],[-121.942,36.51],[-121.942,36.51],[-121.942,36.51],[-121.942,36.51],[-121.942,36.51],[-121.942,36.51],[-121.942,36.51],[-121.942,36.51],[-121.942,36.51],[-121.942,36.51],[-121.942,36.51],[-121.942,36.51],[-121.942,36.51],[-121.942,36.51],[-121.942,36.51],[-121.942,36.51],[-121.942,36.51],[-121.942,36.51],[-121.942,36.51],[-121.942,36.509],[-121.942,36.509],[-121.942,36.509],[-121.942,36.509],[-121.942,36.509],[-121.942,36.509],[-121.942,36.509],[-121.942,36.509],[-121.942,36.509],[-121.942,36.509],[-121.942,36.509],[-121.942,36.509],[-121.942,36.509],[-121.942,36.509],[-121.942,36.509],[-121.942,36.509],[-121.942,36.509],[-121.942,36.509],[-121.942,36.509],[-121.942,36.509],[-121.942,36.509],[-121.942,36.509],[-121.942,36.509],[-121.942,36.509],[-121.942,36.509],[-121.942,36.509],[-121.942,36.509],[-121.942,36.509],[-121.942,36.509],[-121.942,36.509],[-121.942,36.509],[-121.942,36.509],[-121.942,36.509],[-121.942,36.509],[-121.942,36.509],[-121.942,36.508],[-121.942,36.508],[-121.941,36.508],[-121.941,36.508],[-121.941,36.509],[-121.941,36.509],[-121.941,36.509],[-121.941,36.509],[-121.941,36.509],[-121.941,36.508],[-121.941,36.508],[-121.941,36.508],[-121.941,36.508],[-121.941,36.508],[-121.941,36.508],[-121.941,36.508],[-121.941,36.508],[-121.941,36.508],[-121.941,36.508],[-121.941,36.508],[-121.941,36.508],[-121.941,36.508],[-121.941,36.508],[-121.941,36.508],[-121.941,36.508],[-121.941,36.508],[-121.941,36.508],[-121.94,36.508],[-121.94,36.508],[-121.94,36.508],[-121.94,36.508],[-121.94,36.508],[-121.94,36.508],[-121.941,36.508],[-121.941,36.508],[-121.941,36.508],[-121.942,36.508],[-121.941,36.508],[-121.941,36.508],[-121.941,36.508],[-121.941,36.508],[-121.941,36.508],[-121.941,36.508],[-121.941,36.508],[-121.941,36.508],[-121.941,36.508],[-121.941,36.507],[-121.941,36.507],[-121.941,36.507],[-121.941,36.507],[-121.941,36.507],[-121.941,36.508],[-121.941,36.508],[-121.941,36.508],[-121.941,36.508],[-121.942,36.508],[-121.942,36.508],[-121.942,36.508],[-121.942,36.508],[-121.942,36.508],[-121.942,36.508],[-121.942,36.508],[-121.942,36.508],[-121.942,36.508],[-121.942,36.508],[-121.942,36.508],[-121.942,36.508],[-121.942,36.508],[-121.942,36.508],[-121.942,36.508],[-121.942,36.508],[-121.942,36.508],[-121.942,36.508],[-121.942,36.508],[-121.942,36.508],[-121.942,36.508],[-121.942,36.508],[-121.942,36.508],[-121.942,36.508],[-121.942,36.508],[-121.942,36.508],[-121.942,36.508],[-121.942,36.508],[-121.942,36.508],[-121.942,36.507],[-121.942,36.507],[-121.942,36.507],[-121.942,36.507],[-121.942,36.507],[-121.942,36.507],[-121.942,36.507],[-121.942,36.507],[-121.942,36.507],[-121.942,36.507],[-121.942,36.507],[-121.942,36.507],[-121.941,36.507],[-121.941,36.507],[-121.941,36.507],[-121.941,36.507],[-121.941,36.507],[-121.941,36.507],[-121.941,36.507],[-121.941,36.507],[-121.941,36.507],[-121.941,36.507],[-121.941,36.507],[-121.941,36.507],[-121.941,36.507],[-121.941,36.507],[-121.941,36.507],[-121.941,36.507],[-121.941,36.507],[-121.941,36.507],[-121.941,36.507],[-121.941,36.507],[-121.941,36.507],[-121.941,36.507],[-121.941,36.507],[-121.941,36.507],[-121.941,36.507],[-121.941,36.507],[-121.941,36.507],[-121.941,36.507],[-121.941,36.507],[-121.941,36.507],[-121.941,36.507],[-121.941,36.507],[-121.941,36.507],[-121.941,36.507],[-121.941,36.507],[-121.941,36.507],[-121.94,36.507],[-121.94,36.507],[-121.94,36.507],[-121.94,36.507],[-121.94,36.507],[-121.94,36.507],[-121.94,36.507],[-121.94,36.507],[-121.94,36.507],[-121.94,36.507],[-121.94,36.507],[-121.94,36.507],[-121.94,36.507],[-121.94,36.507],[-121.94,36.507],[-121.94,36.507],[-121.94,36.507],[-121.94,36.507],[-121.939,36.507],[-121.939,36.507],[-121.939,36.507],[-121.938,36.506],[-121.939,36.506],[-121.939,36.506],[-121.939,36.506],[-121.939,36.506],[-121.939,36.506],[-121.939,36.506],[-121.939,36.506],[-121.939,36.506],[-121.939,36.506],[-121.939,36.506],[-121.939,36.506],[-121.939,36.506],[-121.939,36.506],[-121.939,36.506],[-121.939,36.506],[-121.939,36.506],[-121.938,36.506],[-121.938,36.506],[-121.939,36.506],[-121.939,36.506],[-121.939,36.506],[-121.939,36.506],[-121.938,36.506],[-121.938,36.505],[-121.939,36.505],[-121.938,36.505],[-121.938,36.505],[-121.938,36.505],[-121.938,36.505],[-121.938,36.505],[-121.938,36.505],[-121.938,36.505],[-121.938,36.505],[-121.938,36.505],[-121.938,36.505],[-121.938,36.505],[-121.938,36.505],[-121.938,36.505],[-121.938,36.505],[-121.938,36.505],[-121.938,36.505],[-121.938,36.505],[-121.938,36.505],[-121.938,36.505],[-121.938,36.505],[-121.938,36.505],[-121.938,36.505],[-121.938,36.505],[-121.938,36.504],[-121.938,36.504],[-121.938,36.504],[-121.939,36.504],[-121.939,36.504],[-121.939,36.504],[-121.939,36.504],[-121.939,36.504],[-121.939,36.504],[-121.939,36.504],[-121.939,36.504],[-121.939,36.504],[-121.939,36.504],[-121.939,36.504],[-121.939,36.504],[-121.939,36.504],[-121.939,36.504],[-121.939,36.504],[-121.939,36.504],[-121.939,36.504],[-121.939,36.504],[-121.939,36.504],[-121.939,36.504],[-121.939,36.504],[-121.939,36.504],[-121.939,36.504],[-121.939,36.504],[-121.939,36.504],[-121.939,36.504],[-121.939,36.504],[-121.939,36.504],[-121.939,36.503],[-121.939,36.503],[-121.939,36.503],[-121.939,36.503],[-121.939,36.503],[-121.939,36.503],[-121.939,36.503],[-121.939,36.503],[-121.939,36.503],[-121.939,36.503],[-121.939,36.503],[-121.939,36.503],[-121.939,36.503],[-121.939,36.503],[-121.939,36.503],[-121.939,36.503],[-121.939,36.503],[-121.939,36.503],[-121.939,36.503],[-121.939,36.503],[-121.939,36.503],[-121.939,36.503],[-121.939,36.503],[-121.939,36.503],[-121.939,36.503],[-121.939,36.503],[-121.939,36.503],[-121.938,36.503],[-121.938,36.503],[-121.938,36.503],[-121.938,36.502],[-121.938,36.502],[-121.938,36.502],[-121.938,36.502],[-121.938,36.502],[-121.938,36.502],[-121.938,36.502],[-121.938,36.502],[-121.939,36.502],[-121.939,36.502],[-121.939,36.502],[-121.939,36.502],[-121.939,36.502],[-121.938,36.502],[-121.938,36.501],[-121.938,36.501],[-121.938,36.501],[-121.939,36.501],[-121.938,36.501],[-121.938,36.501],[-121.938,36.501],[-121.938,36.501],[-121.938,36.501],[-121.938,36.501],[-121.939,36.501],[-121.939,36.501],[-121.939,36.501],[-121.939,36.501],[-121.939,36.501],[-121.939,36.501],[-121.939,36.501],[-121.939,36.501],[-121.939,36.501],[-121.939,36.501],[-121.939,36.501],[-121.939,36.501],[-121.939,36.501],[-121.939,36.501],[-121.939,36.501],[-121.939,36.501],[-121.939,36.501],[-121.939,36.501],[-121.939,36.501],[-121.939,36.501],[-121.939,36.501],[-121.939,36.501],[-121.939,36.501],[-121.939,36.501],[-121.939,36.501],[-121.939,36.501],[-121.939,36.501],[-121.939,36.501],[-121.939,36.501],[-121.939,36.501],[-121.939,36.501],[-121.939,36.501],[-121.939,36.501],[-121.939,36.501],[-121.94,36.501],[-121.94,36.501],[-121.94,36.501],[-121.94,36.501],[-121.94,36.501],[-121.94,36.501],[-121.94,36.501],[-121.94,36.501],[-121.94,36.501],[-121.94,36.502],[-121.94,36.502],[-121.94,36.502],[-121.94,36.502],[-121.94,36.502],[-121.94,36.502],[-121.94,36.502],[-121.94,36.502],[-121.94,36.502],[-121.94,36.502],[-121.94,36.502],[-121.94,36.502],[-121.94,36.502],[-121.94,36.501],[-121.94,36.501],[-121.94,36.501],[-121.94,36.501],[-121.94,36.501],[-121.94,36.501],[-121.94,36.501],[-121.94,36.501],[-121.94,36.501],[-121.94,36.501],[-121.94,36.501],[-121.94,36.501],[-121.94,36.501],[-121.94,36.501],[-121.94,36.501],[-121.94,36.501],[-121.94,36.501],[-121.94,36.501],[-121.94,36.501],[-121.94,36.501],[-121.94,36.5],[-121.94,36.5],[-121.94,36.5],[-121.94,36.5],[-121.94,36.5],[-121.94,36.5],[-121.94,36.5],[-121.94,36.5],[-121.94,36.5],[-121.94,36.5],[-121.94,36.5],[-121.94,36.5],[-121.94,36.5],[-121.94,36.5],[-121.94,36.5],[-121.94,36.5],[-121.939,36.5],[-121.939,36.5],[-121.939,36.5],[-121.939,36.5],[-121.939,36.5],[-121.939,36.5],[-121.939,36.5],[-121.939,36.5],[-121.939,36.5],[-121.939,36.5],[-121.939,36.5],[-121.939,36.5],[-121.939,36.5],[-121.939,36.5],[-121.939,36.5],[-121.939,36.5],[-121.939,36.5],[-121.939,36.5],[-121.939,36.5],[-121.939,36.5],[-121.939,36.5],[-121.939,36.5],[-121.939,36.5],[-121.939,36.5],[-121.939,36.5],[-121.939,36.499],[-121.939,36.499],[-121.939,36.499],[-121.939,36.499],[-121.939,36.499],[-121.939,36.499],[-121.939,36.499],[-121.939,36.499],[-121.939,36.499],[-121.939,36.499],[-121.939,36.499],[-121.939,36.499],[-121.939,36.499],[-121.939,36.499],[-121.939,36.499],[-121.939,36.499],[-121.939,36.499],[-121.939,36.499],[-121.938,36.499],[-121.938,36.499],[-121.938,36.499],[-121.938,36.499],[-121.938,36.499],[-121.938,36.499],[-121.938,36.499],[-121.938,36.499],[-121.938,36.499],[-121.938,36.499],[-121.938,36.499],[-121.938,36.499],[-121.938,36.499],[-121.938,36.499],[-121.938,36.499],[-121.938,36.499],[-121.938,36.499],[-121.938,36.499],[-121.938,36.499],[-121.938,36.499],[-121.938,36.5],[-121.938,36.5],[-121.938,36.5],[-121.938,36.5],[-121.937,36.499],[-121.937,36.499],[-121.937,36.499],[-121.937,36.499],[-121.937,36.499],[-121.937,36.499],[-121.937,36.499],[-121.937,36.499],[-121.937,36.499],[-121.937,36.499],[-121.937,36.499],[-121.937,36.499],[-121.937,36.499],[-121.937,36.499],[-121.937,36.499],[-121.937,36.499],[-121.937,36.499],[-121.937,36.499],[-121.937,36.499],[-121.937,36.499],[-121.937,36.499],[-121.937,36.499],[-121.937,36.499],[-121.937,36.499],[-121.937,36.499],[-121.937,36.499],[-121.937,36.499],[-121.937,36.499],[-121.937,36.499],[-121.937,36.499],[-121.936,36.499],[-121.936,36.499],[-121.936,36.499],[-121.936,36.499],[-121.937,36.499],[-121.936,36.499],[-121.936,36.499],[-121.936,36.499],[-121.936,36.499],[-121.936,36.498],[-121.936,36.498],[-121.937,36.498],[-121.936,36.498],[-121.936,36.498],[-121.937,36.498],[-121.937,36.498],[-121.937,36.498],[-121.937,36.498],[-121.937,36.498],[-121.937,36.498],[-121.937,36.497],[-121.938,36.497],[-121.938,36.497],[-121.938,36.497],[-121.938,36.497],[-121.938,36.497],[-121.938,36.497],[-121.938,36.497],[-121.938,36.497],[-121.938,36.497],[-121.938,36.497],[-121.939,36.497],[-121.939,36.497],[-121.939,36.497],[-121.939,36.497],[-121.939,36.497],[-121.939,36.497],[-121.939,36.497],[-121.939,36.497],[-121.939,36.497],[-121.939,36.496],[-121.939,36.496],[-121.94,36.496],[-121.94,36.496],[-121.94,36.496],[-121.94,36.496],[-121.94,36.496],[-121.94,36.496],[-121.94,36.496],[-121.94,36.496],[-121.94,36.496],[-121.94,36.496],[-121.94,36.496],[-121.94,36.496],[-121.94,36.496],[-121.94,36.496],[-121.94,36.496],[-121.94,36.496],[-121.94,36.496],[-121.939,36.496],[-121.94,36.496],[-121.94,36.496],[-121.94,36.495],[-121.94,36.495],[-121.94,36.495],[-121.94,36.495],[-121.94,36.495],[-121.94,36.495],[-121.94,36.495],[-121.94,36.495],[-121.94,36.495],[-121.94,36.495],[-121.94,36.495],[-121.94,36.495],[-121.94,36.495],[-121.941,36.495],[-121.941,36.495],[-121.941,36.495],[-121.941,36.495],[-121.941,36.495],[-121.941,36.495],[-121.941,36.495],[-121.941,36.495],[-121.941,36.495],[-121.941,36.495],[-121.941,36.495],[-121.941,36.495],[-121.941,36.495],[-121.941,36.495],[-121.941,36.494],[-121.941,36.494],[-121.941,36.494],[-121.941,36.494],[-121.941,36.494],[-121.941,36.494],[-121.941,36.494],[-121.941,36.494],[-121.942,36.494],[-121.942,36.494],[-121.942,36.494],[-121.942,36.494],[-121.942,36.494],[-121.942,36.494],[-121.942,36.494],[-121.942,36.494],[-121.941,36.494],[-121.942,36.494],[-121.942,36.493],[-121.942,36.493],[-121.942,36.493],[-121.942,36.493],[-121.942,36.493],[-121.942,36.493],[-121.942,36.493],[-121.942,36.493],[-121.942,36.493],[-121.942,36.493],[-121.942,36.493],[-121.942,36.493],[-121.942,36.493],[-121.942,36.493],[-121.942,36.493],[-121.942,36.493],[-121.942,36.493],[-121.942,36.493],[-121.942,36.493],[-121.943,36.493],[-121.943,36.493],[-121.943,36.493],[-121.943,36.493],[-121.943,36.493],[-121.943,36.493],[-121.943,36.493],[-121.943,36.493],[-121.943,36.493],[-121.943,36.493],[-121.943,36.493],[-121.943,36.493],[-121.943,36.493],[-121.943,36.492],[-121.943,36.492],[-121.943,36.493],[-121.943,36.493],[-121.943,36.493],[-121.943,36.493],[-121.943,36.493],[-121.943,36.493],[-121.943,36.493],[-121.943,36.493],[-121.943,36.493],[-121.943,36.492],[-121.943,36.493],[-121.943,36.493],[-121.943,36.493],[-121.943,36.493],[-121.943,36.493],[-121.943,36.493],[-121.943,36.493],[-121.944,36.493],[-121.944,36.493],[-121.944,36.493],[-121.944,36.493],[-121.944,36.493],[-121.944,36.493],[-121.944,36.493],[-121.944,36.493],[-121.944,36.493],[-121.944,36.493],[-121.944,36.493],[-121.944,36.493],[-121.944,36.493],[-121.944,36.493],[-121.944,36.493],[-121.944,36.493],[-121.944,36.493],[-121.944,36.493],[-121.944,36.493],[-121.944,36.493],[-121.944,36.493],[-121.944,36.493],[-121.944,36.493],[-121.944,36.493],[-121.944,36.493],[-121.944,36.493],[-121.945,36.493],[-121.945,36.493],[-121.945,36.493],[-121.945,36.493],[-121.945,36.493],[-121.945,36.492],[-121.945,36.492],[-121.945,36.492],[-121.945,36.492],[-121.945,36.492],[-121.945,36.493],[-121.945,36.493],[-121.945,36.493],[-121.945,36.492],[-121.945,36.492],[-121.945,36.492],[-121.945,36.492],[-121.945,36.492],[-121.945,36.492],[-121.945,36.492],[-121.945,36.492],[-121.945,36.492],[-121.945,36.492],[-121.945,36.492],[-121.945,36.492],[-121.945,36.492],[-121.945,36.492],[-121.945,36.492],[-121.945,36.492],[-121.945,36.492],[-121.945,36.492],[-121.945,36.492],[-121.945,36.492],[-121.945,36.492],[-121.945,36.492],[-121.945,36.492],[-121.945,36.492],[-121.945,36.492],[-121.945,36.492],[-121.945,36.492],[-121.945,36.492],[-121.945,36.492],[-121.945,36.492],[-121.945,36.492],[-121.945,36.492],[-121.945,36.492],[-121.945,36.492],[-121.945,36.492],[-121.945,36.492],[-121.945,36.492],[-121.945,36.492],[-121.945,36.492],[-121.945,36.492],[-121.945,36.492],[-121.945,36.492],[-121.945,36.491],[-121.945,36.491],[-121.945,36.491],[-121.945,36.491],[-121.945,36.491],[-121.945,36.491],[-121.945,36.491],[-121.945,36.491],[-121.945,36.491],[-121.945,36.491],[-121.945,36.491],[-121.945,36.491],[-121.945,36.491],[-121.945,36.491],[-121.945,36.491],[-121.945,36.491],[-121.945,36.491],[-121.945,36.491],[-121.945,36.491],[-121.945,36.491],[-121.945,36.491],[-121.945,36.491],[-121.946,36.491],[-121.946,36.491],[-121.946,36.491],[-121.945,36.491],[-121.946,36.491],[-121.946,36.491],[-121.946,36.491],[-121.946,36.491],[-121.946,36.49],[-121.946,36.491],[-121.946,36.491],[-121.945,36.491],[-121.945,36.491],[-121.945,36.491],[-121.945,36.491],[-121.945,36.491],[-121.945,36.491],[-121.945,36.491],[-121.945,36.491],[-121.945,36.491],[-121.945,36.491],[-121.945,36.491],[-121.945,36.491],[-121.945,36.49],[-121.945,36.49],[-121.945,36.491],[-121.945,36.491],[-121.945,36.491],[-121.945,36.491],[-121.945,36.491],[-121.945,36.491],[-121.945,36.491],[-121.944,36.491],[-121.944,36.491],[-121.944,36.491],[-121.944,36.491],[-121.944,36.491],[-121.944,36.491],[-121.944,36.491],[-121.944,36.491],[-121.944,36.491],[-121.944,36.491],[-121.944,36.491],[-121.944,36.491],[-121.944,36.491],[-121.944,36.491],[-121.944,36.491],[-121.944,36.491],[-121.944,36.491],[-121.944,36.491],[-121.944,36.491],[-121.944,36.491],[-121.944,36.491],[-121.944,36.491],[-121.944,36.491],[-121.944,36.491],[-121.944,36.491],[-121.944,36.49],[-121.944,36.49],[-121.944,36.49],[-121.945,36.49],[-121.945,36.49],[-121.945,36.49],[-121.945,36.49],[-121.945,36.49],[-121.945,36.49],[-121.945,36.49],[-121.945,36.49],[-121.945,36.49],[-121.945,36.49],[-121.945,36.49],[-121.944,36.49],[-121.944,36.49],[-121.945,36.49],[-121.945,36.49],[-121.945,36.489],[-121.945,36.489],[-121.945,36.489],[-121.945,36.489],[-121.945,36.489],[-121.945,36.489],[-121.945,36.489],[-121.945,36.489],[-121.945,36.489],[-121.945,36.489],[-121.945,36.489],[-121.945,36.489],[-121.945,36.489],[-121.945,36.489],[-121.945,36.489],[-121.944,36.489],[-121.944,36.489],[-121.944,36.489],[-121.944,36.489],[-121.944,36.49],[-121.944,36.49],[-121.944,36.49],[-121.944,36.49],[-121.944,36.49],[-121.944,36.49],[-121.944,36.489],[-121.944,36.489],[-121.944,36.489],[-121.944,36.489],[-121.944,36.489],[-121.944,36.489],[-121.944,36.489],[-121.944,36.489],[-121.944,36.489],[-121.944,36.489],[-121.944,36.489],[-121.944,36.489],[-121.944,36.489],[-121.944,36.489],[-121.944,36.489],[-121.944,36.489],[-121.944,36.489],[-121.944,36.489],[-121.945,36.489],[-121.945,36.489],[-121.945,36.489],[-121.944,36.489],[-121.944,36.489],[-121.944,36.489],[-121.944,36.488],[-121.944,36.488],[-121.944,36.488],[-121.944,36.488],[-121.944,36.488],[-121.944,36.488],[-121.944,36.488],[-121.944,36.488],[-121.944,36.488],[-121.944,36.488],[-121.944,36.488],[-121.944,36.488],[-121.944,36.488],[-121.944,36.488],[-121.944,36.488],[-121.944,36.488],[-121.944,36.488],[-121.944,36.488],[-121.944,36.488],[-121.944,36.488],[-121.944,36.488],[-121.944,36.489],[-121.944,36.489],[-121.944,36.489],[-121.944,36.489],[-121.944,36.489],[-121.944,36.489],[-121.944,36.489],[-121.944,36.489],[-121.944,36.489],[-121.944,36.489],[-121.944,36.489],[-121.944,36.489],[-121.944,36.489],[-121.944,36.489],[-121.944,36.489],[-121.944,36.49],[-121.944,36.49],[-121.944,36.49],[-121.944,36.49],[-121.944,36.49],[-121.944,36.49],[-121.944,36.49],[-121.943,36.49],[-121.943,36.49],[-121.943,36.49],[-121.943,36.49],[-121.943,36.49],[-121.943,36.49],[-121.943,36.49],[-121.943,36.49],[-121.943,36.49],[-121.943,36.49],[-121.942,36.49],[-121.942,36.49],[-121.942,36.49],[-121.942,36.49],[-121.942,36.49],[-121.942,36.49],[-121.942,36.49],[-121.942,36.49],[-121.942,36.49],[-121.942,36.49],[-121.942,36.49],[-121.942,36.49],[-121.942,36.489],[-121.942,36.489],[-121.942,36.489],[-121.942,36.489],[-121.942,36.489],[-121.942,36.489],[-121.942,36.489],[-121.942,36.489],[-121.942,36.489],[-121.942,36.489],[-121.942,36.489],[-121.942,36.489],[-121.941,36.489],[-121.941,36.489],[-121.941,36.489],[-121.942,36.489],[-121.941,36.489],[-121.941,36.489],[-121.941,36.489],[-121.941,36.489],[-121.941,36.489],[-121.941,36.489],[-121.941,36.489],[-121.941,36.489],[-121.941,36.489],[-121.941,36.489],[-121.941,36.489],[-121.941,36.489],[-121.941,36.489],[-121.941,36.489],[-121.941,36.489],[-121.941,36.489],[-121.941,36.489],[-121.941,36.489],[-121.941,36.489],[-121.941,36.489],[-121.941,36.489],[-121.941,36.489],[-121.941,36.489],[-121.941,36.488],[-121.941,36.488],[-121.941,36.488],[-121.941,36.488],[-121.941,36.488],[-121.941,36.488],[-121.941,36.488],[-121.941,36.488],[-121.941,36.488],[-121.941,36.488],[-121.941,36.488],[-121.941,36.488],[-121.941,36.488],[-121.941,36.487],[-121.941,36.488],[-121.941,36.487],[-121.941,36.487],[-121.941,36.487],[-121.941,36.487],[-121.941,36.487],[-121.941,36.487],[-121.941,36.487],[-121.941,36.487],[-121.941,36.487],[-121.941,36.487],[-121.941,36.487],[-121.941,36.487],[-121.941,36.487],[-121.941,36.487],[-121.941,36.487],[-121.941,36.487],[-121.941,36.486],[-121.941,36.486],[-121.941,36.486],[-121.941,36.486],[-121.941,36.486],[-121.941,36.486],[-121.941,36.486],[-121.941,36.486],[-121.941,36.486],[-121.941,36.486],[-121.941,36.486],[-121.941,36.486],[-121.941,36.486],[-121.941,36.486],[-121.941,36.486],[-121.941,36.486],[-121.941,36.486],[-121.941,36.486],[-121.941,36.486],[-121.941,36.486],[-121.941,36.485],[-121.941,36.485],[-121.941,36.485],[-121.941,36.485],[-121.941,36.485],[-121.941,36.485],[-121.941,36.485],[-121.941,36.485],[-121.941,36.485],[-121.941,36.485],[-121.941,36.485],[-121.941,36.485],[-121.941,36.485],[-121.941,36.485],[-121.941,36.485],[-121.941,36.485],[-121.941,36.485],[-121.941,36.485],[-121.941,36.485],[-121.941,36.485],[-121.941,36.485],[-121.941,36.485],[-121.941,36.485],[-121.941,36.485],[-121.941,36.485],[-121.941,36.485],[-121.941,36.485],[-121.941,36.485],[-121.941,36.485],[-121.941,36.485],[-121.941,36.485],[-121.941,36.485],[-121.941,36.485],[-121.941,36.485],[-121.941,36.485],[-121.941,36.485],[-121.941,36.485],[-121.941,36.485],[-121.941,36.485],[-121.941,36.485],[-121.941,36.485],[-121.941,36.485],[-121.941,36.485],[-121.941,36.485],[-121.941,36.485],[-121.941,36.485],[-121.941,36.485],[-121.941,36.485],[-121.941,36.484],[-121.941,36.484],[-121.941,36.484],[-121.941,36.484],[-121.941,36.484],[-121.941,36.484],[-121.941,36.484],[-121.941,36.484],[-121.941,36.484],[-121.941,36.484],[-121.941,36.484],[-121.941,36.484],[-121.941,36.484],[-121.941,36.484],[-121.941,36.484],[-121.94,36.484],[-121.94,36.484],[-121.94,36.484],[-121.94,36.484],[-121.94,36.484],[-121.94,36.484],[-121.94,36.483],[-121.94,36.483],[-121.94,36.483],[-121.94,36.483],[-121.94,36.483],[-121.94,36.483],[-121.94,36.483],[-121.94,36.483],[-121.94,36.483],[-121.94,36.483],[-121.94,36.483],[-121.94,36.483],[-121.94,36.483],[-121.94,36.483],[-121.94,36.483],[-121.94,36.483],[-121.94,36.482],[-121.94,36.482],[-121.94,36.482],[-121.94,36.482],[-121.94,36.482],[-121.94,36.482],[-121.94,36.482],[-121.94,36.482],[-121.94,36.482],[-121.94,36.482],[-121.94,36.482],[-121.94,36.482],[-121.94,36.482],[-121.939,36.482],[-121.939,36.482],[-121.939,36.482],[-121.939,36.482],[-121.939,36.482],[-121.939,36.482],[-121.939,36.482],[-121.939,36.482],[-121.939,36.482],[-121.939,36.482],[-121.939,36.482],[-121.939,36.482],[-121.939,36.482],[-121.939,36.482],[-121.939,36.482],[-121.939,36.482],[-121.939,36.482],[-121.939,36.482],[-121.939,36.482],[-121.939,36.482],[-121.939,36.482],[-121.939,36.482],[-121.939,36.482],[-121.939,36.482],[-121.939,36.482],[-121.939,36.482],[-121.939,36.482],[-121.939,36.482],[-121.939,36.482],[-121.939,36.482],[-121.939,36.482],[-121.939,36.482],[-121.939,36.482],[-121.939,36.482],[-121.939,36.482],[-121.939,36.482],[-121.939,36.482],[-121.939,36.482],[-121.938,36.482],[-121.938,36.482],[-121.938,36.482],[-121.938,36.481],[-121.938,36.481],[-121.938,36.481],[-121.971,36.481],[-121.971,36.528],[-121.938,36.528],[-121.926,36.528],[-121.926,36.528],[-121.926,36.528],[-121.926,36.528],[-121.926,36.528],[-121.926,36.528],[-121.926,36.528]]]},"properties":{"id":"point-lobos-state-marine-reserve","name":"Point Lobos State Marine Reserve","type":"SMR","shortName":"Point Lobos","areaKm2":null,"ccrCitation":null}}]}