{"type":"FeatureCollection","features":[{"type":"Feature","geometry":{"type":"Point","coordinates":[-121.95524,36.54503]},"properties":{"depth_ft":261,"depth_m":79.7}},{"type":"Feature","geometry":{"type":"Point","coordinates":[-121.95231,36.54503]},"properties":{"depth_ft":186,"depth_m":56.7}},{"type":"Feature","geometry":{"type":"Point","coordinates":[-121.94939,36.54503]},"properties":{"depth_ft":152,"depth_m":46.3}},{"type":"Feature","geometry":{"type":"Point","coordinates":[-121.94646,36.54503]},"properties":{"depth_ft":134,"depth_m":40.9}},{"type":"Feature","geometry":{"type":"Point","coordinates":[-121.94354,36.54503]},"properties":{"depth_ft":108,"depth_m":33.0}},{"type":"Feature","geometry":{"type":"Point","coordinates":[-121.94061,36.54503]},"properties":{"depth_ft":82,"depth_m":25.1}},{"type":"Feature","geometry":{"type":"Point","coordinates":[-121.93769,36.54503]},"properties":{"depth_ft":42,"depth_m":12.7}},{"type":"Feature","geometry":{"type":"Point","coordinates":[-121.93476,36.54503]},"properties":{"depth_ft":10,"depth_m":3.0}},{"type":"Feature","geometry":{"type":"Point","coordinates":[-121.95816,36.54268]},"properties":{"depth_ft":273,"depth_m":83.3}},{"type":"Feature","geometry":{"type":"Point","coordinates":[-121.95524,36.54268]},"properties":{"depth_ft":261,"depth_m":79.4}},{"type":"Feature","geometry":{"type":"Point","coordinates":[-121.95231,36.54268]},"properties":{"depth_ft":223,"depth_m":67.8}},{"type":"Feature","geometry":{"type":"Point","coordinates":[-121.94939,36.54268]},"properties":{"depth_ft":205,"depth_m":62.6}},{"type":"Feature","geometry":{"type":"Point","coordinates":[-121.94646,36.54268]},"properties":{"depth_ft":150,"depth_m":45.6}},{"type":"Feature","geometry":{"type":"Point","coordinates":[-121.94354,36.54268]},"properties":{"depth_ft":122,"depth_m":37.0}},{"type":"Feature","geometry":{"type":"Point","coordinates":[-121.94061,36.54268]},"properties":{"depth_ft":93,"depth_m":28.4}},{"type":"Feature","geometry":{"type":"Point","coordinates":[-121.93769,36.54268]},"properties":{"depth_ft":46,"depth_m":13.9}},{"type":"Feature","geometry":{"type":"Point","coordinates":[-121.93476,36.54268]},"properties":{"depth_ft":14,"depth_m":4.4}},{"type":"Feature","geometry":{"type":"Point","coordinates":[-121.95524,36.54033]},"properties":{"depth_ft":283,"depth_m":86.2}},{"type":"Feature","geometry":{"type":"Point","coordinates":[-121.95231,36.54033]},"properties":{"depth_ft":262,"depth_m":79.8}},{"type":"Feature","geometry":{"type":"Point","coordinates":[-121.94646,36.54033]},"properties":{"depth_ft":217,"depth_m":66.1}},{"type":"Feature","geometry":{"type":"Point","coordinates":[-121.94354,36.54033]},"properties":{"depth_ft":176,"depth_m":53.5}},{"type":"Feature","geometry":{"type":"Point","coordinates":[-121.94061,36.54033]},"properties":{"depth_ft":124,"depth_m":37.7}},{"type":"Feature","geometry":{"type":"Point","coordinates":[-121.93769,36.54033]},"properties":{"depth_ft":100,"depth_m":30.6}},{"type":"Feature","geometry":{"type":"Point","coordinates":[-121.93476,36.54033]},"properties":{"depth_ft":28,"depth_m":8.6}},{"type":"Feature","geometry":{"type":"Point","coordinates":[-121.94354,36.53798]},"properties":{"depth_ft":234,"depth_m":71.3}},{"type":"Feature","geometry":{"type":"Point","coordinates":[-121.94061,36.53798]},"properties":{"depth_ft":172,"depth_m":52.6}},{"type":"Feature","geometry":{"type":"Point","coordinates":[-121.93769,36.53798]},"properties":{"depth_ft":99,"depth_m":30.3}},{"type":"Feature","geometry":{"type":"Point","coordinates":[-121.93476,36.53798]},"properties":{"depth_ft":47,"depth_m":14.3}},{"type":"Feature","geometry":{"type":"Point","coordinates":[-121.93184,36.53798]},"properties":{"depth_ft":26,"depth_m":8.0}},{"type":"Feature","geometry":{"type":"Point","coordinates":[-121.94061,36.53563]},"properties":{"depth_ft":168,"depth_m":51.2}},{"type":"Feature","geometry":{"type":"Point","coordinates":[-121.93769,36.53563]},"properties":{"depth_ft":126,"depth_m":38.5}},{"type":"Feature","geometry":{"type":"Point","coordinates":[-121.93476,36.53563]},"properties":{"depth_ft":92,"depth_m":28.1}},{"type":"Feature","geometry":{"type":"Point","coordinates":[-121.93184,36.53563]},"properties":{"depth_ft":64,"depth_m":19.6}},{"type":"Feature","geometry":{"type":"Point","coordinates":[-121.92892,36.53563]},"properties":{"depth_ft":11,"depth_m":3.3}},{"type":"Feature","geometry":{"type":"Point","coordinates":[-121.93769,36.53328]},"properties":{"depth_ft":177,"depth_m":54.1}},{"type":"Feature","geometry":{"type":"Point","coordinates":[-121.93476,36.53328]},"properties":{"depth_ft":199,"depth_m":60.6}},{"type":"Feature","geometry":{"type":"Point","coordinates":[-121.93184,36.53328]},"properties":{"depth_ft":125,"depth_m":38.1}},{"type":"Feature","geometry":{"type":"Point","coordinates":[-121.92892,36.53328]},"properties":{"depth_ft":25,"depth_m":7.7}},{"type":"Feature","geometry":{"type":"Point","coordinates":[-121.94939,36.53093]},"properties":{"depth_ft":284,"depth_m":86.6}},{"type":"Feature","geometry":{"type":"Point","coordinates":[-121.93184,36.53093]},"properties":{"depth_ft":118,"depth_m":36.1}},{"type":"Feature","geometry":{"type":"Point","coordinates":[-121.92892,36.53093]},"properties":{"depth_ft":54,"depth_m":16.5}},{"type":"Feature","geometry":{"type":"Point","coordinates":[-121.96986,36.52858]},"properties":{"depth_ft":326,"depth_m":99.4}},{"type":"Feature","geometry":{"type":"Point","coordinates":[-121.96108,36.52858]},"properties":{"depth_ft":317,"depth_m":96.6}},{"type":"Feature","geometry":{"type":"Point","coordinates":[-121.95231,36.52858]},"properties":{"depth_ft":245,"depth_m":74.8}},{"type":"Feature","geometry":{"type":"Point","coordinates":[-121.94939,36.52858]},"properties":{"depth_ft":209,"depth_m":63.8}},{"type":"Feature","geometry":{"type":"Point","coordinates":[-121.94646,36.52858]},"properties":{"depth_ft":235,"depth_m":71.6}},{"type":"Feature","geometry":{"type":"Point","coordinates":[-121.94061,36.52858]},"properties":{"depth_ft":198,"depth_m":60.5}},{"type":"Feature","geometry":{"type":"Point","coordinates":[-121.93769,36.52858]},"properties":{"depth_ft":217,"depth_m":66.1}},{"type":"Feature","geometry":{"type":"Point","coordinates":[-121.93184,36.52858]},"properties":{"depth_ft":283,"depth_m":86.3}},{"type":"Feature","geometry":{"type":"Point","coordinates":[-121.92892,36.52858]},"properties":{"depth_ft":228,"depth_m":69.6}},{"type":"Feature","geometry":{"type":"Point","coordinates":[-121.92599,36.52858]},"properties":{"depth_ft":5,"depth_m":1.4}},{"type":"Feature","geometry":{"type":"Point","coordinates":[-121.97278,36.52623]},"properties":{"depth_ft":293,"depth_m":89.2}},{"type":"Feature","geometry":{"type":"Point","coordinates":[-121.96986,36.52623]},"properties":{"depth_ft":249,"depth_m":75.8}},{"type":"Feature","geometry":{"type":"Point","coordinates":[-121.96693,36.52623]},"properties":{"depth_ft":247,"depth_m":75.4}},{"type":"Feature","geometry":{"type":"Point","coordinates":[-121.96401,36.52623]},"properties":{"depth_ft":227,"depth_m":69.2}},{"type":"Feature","geometry":{"type":"Point","coordinates":[-121.96108,36.52623]},"properties":{"depth_ft":199,"depth_m":60.6}},{"type":"Feature","geometry":{"type":"Point","coordinates":[-121.95816,36.52623]},"properties":{"depth_ft":201,"depth_m":61.2}},{"type":"Feature","geometry":{"type":"Point","coordinates":[-121.95524,36.52623]},"properties":{"depth_ft":189,"depth_m":57.6}},{"type":"Feature","geometry":{"type":"Point","coordinates":[-121.95231,36.52623]},"properties":{"depth_ft":151,"depth_m":46.0}},{"type":"Feature","geometry":{"type":"Point","coordinates":[-121.94939,36.52623]},"properties":{"depth_ft":122,"depth_m":37.1}},{"type":"Feature","geometry":{"type":"Point","coordinates":[-121.94646,36.52623]},"properties":{"depth_ft":153,"depth_m":46.6}},{"type":"Feature","geometry":{"type":"Point","coordinates":[-121.94354,36.52623]},"properties":{"depth_ft":182,"depth_m":55.4}},{"type":"Feature","geometry":{"type":"Point","coordinates":[-121.94061,36.52623]},"properties":{"depth_ft":144,"depth_m":43.8}},{"type":"Feature","geometry":{"type":"Point","coordinates":[-121.93769,36.52623]},"properties":{"depth_ft":62,"depth_m":19.0}},{"type":"Feature","geometry":{"type":"Point","coordinates":[-121.93476,36.52623]},"properties":{"depth_ft":105,"depth_m":32.1}},{"type":"Feature","geometry":{"type":"Point","coordinates":[-121.93184,36.52623]},"properties":{"depth_ft":99,"depth_m":30.1}},{"type":"Feature","geometry":{"type":"Point","coordinates":[-121.92892,36.52623]},"properties":{"depth_ft":186,"depth_m":56.7}},{"type":"Feature","geometry":{"type":"Point","coordinates":[-121.92599,36.52623]},"properties":{"depth_ft":20,"depth_m":6.1}},{"type":"Feature","geometry":{"type":"Point","coordinates":[-121.97571,36.52388]},"properties":{"depth_ft":301,"depth_m":91.7}},{"type":"Feature","geometry":{"type":"Point","coordinates":[-121.97278,36.52388]},"properties":{"depth_ft":266,"depth_m":81.1}},{"type":"Feature","geometry":{"type":"Point","coordinates":[-121.96986,36.52388]},"properties":{"depth_ft":259,"depth_m":79.1}},{"type":"Feature","geometry":{"type":"Point","coordinates":[-121.96693,36.52388]},"properties":{"depth_ft":239,"depth_m":72.9}},{"type":"Feature","geometry":{"type":"Point","coordinates":[-121.96401,36.52388]},"properties":{"depth_ft":204,"depth_m":62.2}},{"type":"Feature","geometry":{"type":"Point","coordinates":[-121.96108,36.52388]},"properties":{"depth_ft":159,"depth_m":48.6}},{"type":"Feature","geometry":{"type":"Point","coordinates":[-121.95816,36.52388]},"properties":{"depth_ft":133,"depth_m":40.7}},{"type":"Feature","geometry":{"type":"Point","coordinates":[-121.95524,36.52388]},"properties":{"depth_ft":81,"depth_m":24.6}},{"type":"Feature","geometry":{"type":"Point","coordinates":[-121.95231,36.52388]},"properties":{"depth_ft":51,"depth_m":15.6}},{"type":"Feature","geometry":{"type":"Point","coordinates":[-121.94939,36.52388]},"properties":{"depth_ft":58,"depth_m":17.6}},{"type":"Feature","geometry":{"type":"Point","coordinates":[-121.94646,36.52388]},"properties":{"depth_ft":26,"depth_m":8.0}},{"type":"Feature","geometry":{"type":"Point","coordinates":[-121.94354,36.52388]},"properties":{"depth_ft":36,"depth_m":11.0}},{"type":"Feature","geometry":{"type":"Point","coordinates":[-121.94061,36.52388]},"properties":{"depth_ft":101,"depth_m":30.7}},{"type":"Feature","geometry":{"type":"Point","coordinates":[-121.93769,36.52388]},"properties":{"depth_ft":45,"depth_m":13.8}},{"type":"Feature","geometry":{"type":"Point","coordinates":[-121.93476,36.52388]},"properties":{"depth_ft":11,"depth_m":3.4}},{"type":"Feature","geometry":{"type":"Point","coordinates":[-121.93184,36.52388]},"properties":{"depth_ft":16,"depth_m":5.0}},{"type":"Feature","geometry":{"type":"Point","coordinates":[-121.92892,36.52388]},"properties":{"depth_ft":23,"depth_m":7.0}},{"type":"Feature","geometry":{"type":"Point","coordinates":[-121.97278,36.52153]},"properties":{"depth_ft":315,"depth_m":96.0}},{"type":"Feature","geometry":{"type":"Point","coordinates":[-121.96986,36.52153]},"properties":{"depth_ft":289,"depth_m":88.1}},{"type":"Feature","geometry":{"type":"Point","coordinates":[-121.96693,36.52153]},"properties":{"depth_ft":250,"depth_m":76.2}},{"type":"Feature","geometry":{"type":"Point","coordinates":[-121.96401,36.52153]},"properties":{"depth_ft":178,"depth_m":54.2}},{"type":"Feature","geometry":{"type":"Point","coordinates":[-121.96108,36.52153]},"properties":{"depth_ft":112,"depth_m":34.2}},{"type":"Feature","geometry":{"type":"Point","coordinates":[-121.95816,36.52153]},"properties":{"depth_ft":104,"depth_m":31.8}},{"type":"Feature","geometry":{"type":"Point","coordinates":[-121.95524,36.52153]},"properties":{"depth_ft":72,"depth_m":22.1}},{"type":"Feature","geometry":{"type":"Point","coordinates":[-121.94354,36.52153]},"properties":{"depth_ft":37,"depth_m":11.3}},{"type":"Feature","geometry":{"type":"Point","coordinates":[-121.94061,36.52153]},"properties":{"depth_ft":2,"depth_m":0.7}},{"type":"Feature","geometry":{"type":"Point","coordinates":[-121.93769,36.52153]},"properties":{"depth_ft":29,"depth_m":8.7}},{"type":"Feature","geometry":{"type":"Point","coordinates":[-121.96986,36.51918]},"properties":{"depth_ft":293,"depth_m":89.2}},{"type":"Feature","geometry":{"type":"Point","coordinates":[-121.96693,36.51918]},"properties":{"depth_ft":238,"depth_m":72.7}},{"type":"Feature","geometry":{"type":"Point","coordinates":[-121.96401,36.51918]},"properties":{"depth_ft":170,"depth_m":51.9}},{"type":"Feature","geometry":{"type":"Point","coordinates":[-121.96108,36.51918]},"properties":{"depth_ft":24,"depth_m":7.4}},{"type":"Feature","geometry":{"type":"Point","coordinates":[-121.95816,36.51918]},"properties":{"depth_ft":70,"depth_m":21.4}},{"type":"Feature","geometry":{"type":"Point","coordinates":[-121.95524,36.51918]},"properties":{"depth_ft":28,"depth_m":8.4}},{"type":"Feature","geometry":{"type":"Point","coordinates":[-121.95231,36.51918]},"properties":{"depth_ft":16,"depth_m":4.8}},{"type":"Feature","geometry":{"type":"Point","coordinates":[-121.93769,36.51918]},"properties":{"depth_ft":2,"depth_m":0.5}},{"type":"Feature","geometry":{"type":"Point","coordinates":[-121.96986,36.51682]},"properties":{"depth_ft":301,"depth_m":91.7}},{"type":"Feature","geometry":{"type":"Point","coordinates":[-121.96693,36.51682]},"properties":{"depth_ft":233,"depth_m":71.0}},{"type":"Feature","geometry":{"type":"Point","coordinates":[-121.96401,36.51682]},"properties":{"depth_ft":170,"depth_m":51.7}},{"type":"Feature","geometry":{"type":"Point","coordinates":[-121.96108,36.51682]},"properties":{"depth_ft":89,"depth_m":27.0}},{"type":"Feature","geometry":{"type":"Point","coordinates":[-121.95816,36.51682]},"properties":{"depth_ft":19,"depth_m":5.7}},{"type":"Feature","geometry":{"type":"Point","coordinates":[-121.95524,36.51682]},"properties":{"depth_ft":10,"depth_m":3.0}},{"type":"Feature","geometry":{"type":"Point","coordinates":[-121.95231,36.51682]},"properties":{"depth_ft":23,"depth_m":7.1}},{"type":"Feature","geometry":{"type":"Point","coordinates":[-121.96986,36.51447]},"properties":{"depth_ft":269,"depth_m":81.9}},{"type":"Feature","geometry":{"type":"Point","coordinates":[-121.96693,36.51447]},"properties":{"depth_ft":244,"depth_m":74.4}},{"type":"Feature","geometry":{"type":"Point","coordinates":[-121.96401,36.51447]},"properties":{"depth_ft":207,"depth_m":63.1}},{"type":"Feature","geometry":{"type":"Point","coordinates":[-121.96108,36.51447]},"properties":{"depth_ft":92,"depth_m":28.2}},{"type":"Feature","geometry":{"type":"Point","coordinates":[-121.95816,36.51447]},"properties":{"depth_ft":98,"depth_m":29.8}},{"type":"Feature","geometry":{"type":"Point","coordinates":[-121.95524,36.51447]},"properties":{"depth_ft":94,"depth_m":28.5}},{"type":"Feature","geometry":{"type":"Point","coordinates":[-121.95231,36.51447]},"properties":{"depth_ft":76,"depth_m":23.1}},{"type":"Feature","geometry":{"type":"Point","coordinates":[-121.94939,36.51447]},"properties":{"depth_ft":32,"depth_m":9.8}},{"type":"Feature","geometry":{"type":"Point","coordinates":[-121.96986,36.51212]},"properties":{"depth_ft":243,"depth_m":74.0}},{"type":"Feature","geometry":{"type":"Point","coordinates":[-121.96693,36.51212]},"properties":{"depth_ft":236,"depth_m":71.8}},{"type":"Feature","geometry":{"type":"Point","coordinates":[-121.96401,36.51212]},"properties":{"depth_ft":203,"depth_m":61.8}},{"type":"Feature","geometry":{"type":"Point","coordinates":[-121.96108,36.51212]},"properties":{"depth_ft":188,"depth_m":57.4}},{"type":"Feature","geometry":{"type":"Point","coordinates":[-121.95816,36.51212]},"properties":{"depth_ft":131,"depth_m":39.9}},{"type":"Feature","geometry":{"type":"Point","coordinates":[-121.95524,36.51212]},"properties":{"depth_ft":135,"depth_m":41.1}},{"type":"Feature","geometry":{"type":"Point","coordinates":[-121.95231,36.51212]},"properties":{"depth_ft":109,"depth_m":33.3}},{"type":"Feature","geometry":{"type":"Point","coordinates":[-121.94939,36.51212]},"properties":{"depth_ft":80,"depth_m":24.5}},{"type":"Feature","geometry":{"type":"Point","coordinates":[-121.94646,36.51212]},"properties":{"depth_ft":32,"depth_m":9.7}},{"type":"Feature","geometry":{"type":"Point","coordinates":[-121.96986,36.50977]},"properties":{"depth_ft":314,"depth_m":95.8}},{"type":"Feature","geometry":{"type":"Point","coordinates":[-121.96693,36.50977]},"properties":{"depth_ft":269,"depth_m":82.1}},{"type":"Feature","geometry":{"type":"Point","coordinates":[-121.96401,36.50977]},"properties":{"depth_ft":222,"depth_m":67.7}},{"type":"Feature","geometry":{"type":"Point","coordinates":[-121.96108,36.50977]},"properties":{"depth_ft":199,"depth_m":60.7}},{"type":"Feature","geometry":{"type":"Point","coordinates":[-121.95816,36.50977]},"properties":{"depth_ft":165,"depth_m":50.2}},{"type":"Feature","geometry":{"type":"Point","coordinates":[-121.95524,36.50977]},"properties":{"depth_ft":162,"depth_m":49.3}},{"type":"Feature","geometry":{"type":"Point","coordinates":[-121.95231,36.50977]},"properties":{"depth_ft":149,"depth_m":45.3}},{"type":"Feature","geometry":{"type":"Point","coordinates":[-121.94939,36.50977]},"properties":{"depth_ft":125,"depth_m":38.1}},{"type":"Feature","geometry":{"type":"Point","coordinates":[-121.94646,36.50977]},"properties":{"depth_ft":90,"depth_m":27.5}},{"type":"Feature","geometry":{"type":"Point","coordinates":[-121.94354,36.50977]},"properties":{"depth_ft":36,"depth_m":11.1}},{"type":"Feature","geometry":{"type":"Point","coordinates":[-121.96693,36.50742]},"properties":{"depth_ft":268,"depth_m":81.7}},{"type":"Feature","geometry":{"type":"Point","coordinates":[-121.96401,36.50742]},"properties":{"depth_ft":236,"depth_m":71.8}},{"type":"Feature","geometry":{"type":"Point","coordinates":[-121.96108,36.50742]},"properties":{"depth_ft":198,"depth_m":60.4}},{"type":"Feature","geometry":{"type":"Point","coordinates":[-121.95816,36.50742]},"properties":{"depth_ft":178,"depth_m":54.1}},{"type":"Feature","geometry":{"type":"Point","coordinates":[-121.95524,36.50742]},"properties":{"depth_ft":166,"depth_m":50.7}},{"type":"Feature","geometry":{"type":"Point","coordinates":[-121.95231,36.50742]},"properties":{"depth_ft":157,"depth_m":47.7}},{"type":"Feature","geometry":{"type":"Point","coordinates":[-121.94939,36.50742]},"properties":{"depth_ft":134,"depth_m":40.7}},{"type":"Feature","geometry":{"type":"Point","coordinates":[-121.94646,36.50742]},"properties":{"depth_ft":68,"depth_m":20.8}},{"type":"Feature","geometry":{"type":"Point","coordinates":[-121.96693,36.50507]},"properties":{"depth_ft":303,"depth_m":92.5}},{"type":"Feature","geometry":{"type":"Point","coordinates":[-121.96401,36.50507]},"properties":{"depth_ft":242,"depth_m":73.7}},{"type":"Feature","geometry":{"type":"Point","coordinates":[-121.96108,36.50507]},"properties":{"depth_ft":203,"depth_m":62.0}},{"type":"Feature","geometry":{"type":"Point","coordinates":[-121.95816,36.50507]},"properties":{"depth_ft":181,"depth_m":55.1}},{"type":"Feature","geometry":{"type":"Point","coordinates":[-121.95524,36.50507]},"properties":{"depth_ft":165,"depth_m":50.2}},{"type":"Feature","geometry":{"type":"Point","coordinates":[-121.95231,36.50507]},"properties":{"depth_ft":153,"depth_m":46.7}},{"type":"Feature","geometry":{"type":"Point","coordinates":[-121.94939,36.50507]},"properties":{"depth_ft":141,"depth_m":43.0}},{"type":"Feature","geometry":{"type":"Point","coordinates":[-121.94646,36.50507]},"properties":{"depth_ft":120,"depth_m":36.5}},{"type":"Feature","geometry":{"type":"Point","coordinates":[-121.94354,36.50507]},"properties":{"depth_ft":62,"depth_m":18.8}},{"type":"Feature","geometry":{"type":"Point","coordinates":[-121.94061,36.50507]},"properties":{"depth_ft":35,"depth_m":10.8}},{"type":"Feature","geometry":{"type":"Point","coordinates":[-121.96401,36.50272]},"properties":{"depth_ft":259,"depth_m":78.9}},{"type":"Feature","geometry":{"type":"Point","coordinates":[-121.96108,36.50272]},"properties":{"depth_ft":212,"depth_m":64.5}},{"type":"Feature","geometry":{"type":"Point","coordinates":[-121.95816,36.50272]},"properties":{"depth_ft":183,"depth_m":55.8}},{"type":"Feature","geometry":{"type":"Point","coordinates":[-121.95524,36.50272]},"properties":{"depth_ft":163,"depth_m":49.8}},{"type":"Feature","geometry":{"type":"Point","coordinates":[-121.95231,36.50272]},"properties":{"depth_ft":147,"depth_m":44.7}},{"type":"Feature","geometry":{"type":"Point","coordinates":[-121.94939,36.50272]},"properties":{"depth_ft":132,"depth_m":40.2}},{"type":"Feature","geometry":{"type":"Point","coordinates":[-121.94646,36.50272]},"properties":{"depth_ft":113,"depth_m":34.6}},{"type":"Feature","geometry":{"type":"Point","coordinates":[-121.94354,36.50272]},"properties":{"depth_ft":86,"depth_m":26.1}},{"type":"Feature","geometry":{"type":"Point","coordinates":[-121.94061,36.50272]},"properties":{"depth_ft":49,"depth_m":15.0}},{"type":"Feature","geometry":{"type":"Point","coordinates":[-121.96401,36.50037]},"properties":{"depth_ft":271,"depth_m":82.6}},{"type":"Feature","geometry":{"type":"Point","coordinates":[-121.96108,36.50037]},"properties":{"depth_ft":221,"depth_m":67.2}},{"type":"Feature","geometry":{"type":"Point","coordinates":[-121.95816,36.50037]},"properties":{"depth_ft":187,"depth_m":56.9}},{"type":"Feature","geometry":{"type":"Point","coordinates":[-121.95524,36.50037]},"properties":{"depth_ft":163,"depth_m":49.7}},{"type":"Feature","geometry":{"type":"Point","coordinates":[-121.95231,36.50037]},"properties":{"depth_ft":143,"depth_m":43.6}},{"type":"Feature","geometry":{"type":"Point","coordinates":[-121.94939,36.50037]},"properties":{"depth_ft":124,"depth_m":37.9}},{"type":"Feature","geometry":{"type":"Point","coordinates":[-121.94646,36.50037]},"properties":{"depth_ft":109,"depth_m":33.2}},{"type":"Feature","geometry":{"type":"Point","coordinates":[-121.94354,36.50037]},"properties":{"depth_ft":89,"depth_m":27.1}},{"type":"Feature","geometry":{"type":"Point","coordinates":[-121.94061,36.50037]},"properties":{"depth_ft":7,"depth_m":2.2}},{"type":"Feature","geometry":{"type":"Point","coordinates":[-121.97863,36.49802]},"properties":{"depth_ft":330,"depth_m":100.4}},{"type":"Feature","geometry":{"type":"Point","coordinates":[-121.96693,36.49802]},"properties":{"depth_ft":330,"depth_m":100.6}},{"type":"Feature","geometry":{"type":"Point","coordinates":[-121.96401,36.49802]},"properties":{"depth_ft":280,"depth_m":85.5}},{"type":"Feature","geometry":{"type":"Point","coordinates":[-121.96108,36.49802]},"properties":{"depth_ft":226,"depth_m":68.8}},{"type":"Feature","geometry":{"type":"Point","coordinates":[-121.95816,36.49802]},"properties":{"depth_ft":189,"depth_m":57.5}},{"type":"Feature","geometry":{"type":"Point","coordinates":[-121.95524,36.49802]},"properties":{"depth_ft":167,"depth_m":50.9}},{"type":"Feature","geometry":{"type":"Point","coordinates":[-121.95231,36.49802]},"properties":{"depth_ft":151,"depth_m":45.9}},{"type":"Feature","geometry":{"type":"Point","coordinates":[-121.94939,36.49802]},"properties":{"depth_ft":130,"depth_m":39.7}},{"type":"Feature","geometry":{"type":"Point","coordinates":[-121.94646,36.49802]},"properties":{"depth_ft":99,"depth_m":30.1}},{"type":"Feature","geometry":{"type":"Point","coordinates":[-121.94354,36.49802]},"properties":{"depth_ft":79,"depth_m":24.0}},{"type":"Feature","geometry":{"type":"Point","coordinates":[-121.94061,36.49802]},"properties":{"depth_ft":37,"depth_m":11.2}},{"type":"Feature","geometry":{"type":"Point","coordinates":[-121.93769,36.49802]},"properties":{"depth_ft":5,"depth_m":1.6}},{"type":"Feature","geometry":{"type":"Point","coordinates":[-121.97863,36.49567]},"properties":{"depth_ft":330,"depth_m":100.7}},{"type":"Feature","geometry":{"type":"Point","coordinates":[-121.96693,36.49567]},"properties":{"depth_ft":325,"depth_m":99.1}},{"type":"Feature","geometry":{"type":"Point","coordinates":[-121.96401,36.49567]},"properties":{"depth_ft":286,"depth_m":87.2}},{"type":"Feature","geometry":{"type":"Point","coordinates":[-121.96108,36.49567]},"properties":{"depth_ft":222,"depth_m":67.6}},{"type":"Feature","geometry":{"type":"Point","coordinates":[-121.95816,36.49567]},"properties":{"depth_ft":185,"depth_m":56.5}},{"type":"Feature","geometry":{"type":"Point","coordinates":[-121.95524,36.49567]},"properties":{"depth_ft":163,"depth_m":49.8}},{"type":"Feature","geometry":{"type":"Point","coordinates":[-121.95231,36.49567]},"properties":{"depth_ft":148,"depth_m":45.0}},{"type":"Feature","geometry":{"type":"Point","coordinates":[-121.94939,36.49567]},"properties":{"depth_ft":135,"depth_m":41.1}},{"type":"Feature","geometry":{"type":"Point","coordinates":[-121.94646,36.49567]},"properties":{"depth_ft":94,"depth_m":28.7}},{"type":"Feature","geometry":{"type":"Point","coordinates":[-121.94354,36.49567]},"properties":{"depth_ft":36,"depth_m":11.0}},{"type":"Feature","geometry":{"type":"Point","coordinates":[-121.94061,36.49567]},"properties":{"depth_ft":6,"depth_m":2.0}},{"type":"Feature","geometry":{"type":"Point","coordinates":[-121.96986,36.49332]},"properties":{"depth_ft":328,"depth_m":100.0}},{"type":"Feature","geometry":{"type":"Point","coordinates":[-121.96693,36.49332]},"properties":{"depth_ft":321,"depth_m":98.0}},{"type":"Feature","geometry":{"type":"Point","coordinates":[-121.96401,36.49332]},"properties":{"depth_ft":303,"depth_m":92.5}},{"type":"Feature","geometry":{"type":"Point","coordinates":[-121.96108,36.49332]},"properties":{"depth_ft":158,"depth_m":48.3}},{"type":"Feature","geometry":{"type":"Point","coordinates":[-121.95816,36.49332]},"properties":{"depth_ft":178,"depth_m":54.3}},{"type":"Feature","geometry":{"type":"Point","coordinates":[-121.95524,36.49332]},"properties":{"depth_ft":165,"depth_m":50.2}},{"type":"Feature","geometry":{"type":"Point","coordinates":[-121.95231,36.49332]},"properties":{"depth_ft":152,"depth_m":46.3}},{"type":"Feature","geometry":{"type":"Point","coordinates":[-121.94939,36.49332]},"properties":{"depth_ft":129,"depth_m":39.3}},{"type":"Feature","geometry":{"type":"Point","coordinates":[-121.94646,36.49332]},"properties":{"depth_ft":64,"depth_m":19.4}},{"type":"Feature","geometry":{"type":"Point","coordinates":[-121.94354,36.49332]},"properties":{"depth_ft":5,"depth_m":1.6}},{"type":"Feature","geometry":{"type":"Point","coordinates":[-121.96693,36.49097]},"properties":{"depth_ft":323,"depth_m":98.5}},{"type":"Feature","geometry":{"type":"Point","coordinates":[-121.96401,36.49097]},"properties":{"depth_ft":313,"depth_m":95.4}},{"type":"Feature","geometry":{"type":"Point","coordinates":[-121.96108,36.49097]},"properties":{"depth_ft":190,"depth_m":57.9}},{"type":"Feature","geometry":{"type":"Point","coordinates":[-121.95816,36.49097]},"properties":{"depth_ft":135,"depth_m":41.0}},{"type":"Feature","geometry":{"type":"Point","coordinates":[-121.95524,36.49097]},"properties":{"depth_ft":160,"depth_m":48.7}},{"type":"Feature","geometry":{"type":"Point","coordinates":[-121.95231,36.49097]},"properties":{"depth_ft":108,"depth_m":32.8}},{"type":"Feature","geometry":{"type":"Point","coordinates":[-121.94939,36.49097]},"properties":{"depth_ft":110,"depth_m":33.6}},{"type":"Feature","geometry":{"type":"Point","coordinates":[-121.94646,36.49097]},"properties":{"depth_ft":42,"depth_m":12.9}}]}