{"type":"FeatureCollection","features":[{"type":"Feature","geometry":{"type":"Polygon","coordinates":[[[-109.81374,24.14137],[-109.81627,24.14206],[-109.8169,24.14257],[-109.81737,24.1427],[-109.81802,24.14271],[-109.8194,24.14224],[-109.82075,24.1423],[-109.82225,24.14271],[-109.82296,24.14275],[-109.82605,24.14157],[-109.82703,24.14205],[-109.82785,24.14215],[-109.82849,24.14252],[-109.82955,24.14262],[-109.83013,24.14304],[-109.83065,24.14373],[-109.83175,24.14443],[-109.83259,24.14441],[-109.83395,24.1448],[-109.83634,24.14501],[-109.83827,24.14587],[-109.84156,24.14625],[-109.8427,24.146],[-109.84578,24.14704],[-109.84743,24.14705],[-109.84937,24.14785],[-109.85118,24.14756],[-109.85448,24.1467],[-109.85556,24.14754],[-109.85618,24.14775],[-109.85759,24.14768],[-109.85844,24.14741],[-109.8607,24.14759],[-109.8631,24.14724],[-109.8635,24.1474],[-109.86452,24.14849],[-109.86593,24.14953],[-109.86602,24.15014],[-109.86586,24.15055],[-109.86729,24.15174],[-109.87125,24.1526],[-109.87358,24.15265],[-109.8738,24.15289],[-109.87372,24.15358],[-109.87284,24.15495],[-109.87167,24.15737],[-109.87152,24.158],[-109.8716,24.15889],[-109.87299,24.16116],[-109.87493,24.16253],[-109.87565,24.16356],[-109.87597,24.16458],[-109.87662,24.16585],[-109.87748,24.16647],[-109.87764,24.16679],[-109.87772,24.1678],[-109.87761,24.16976],[-109.87773,24.17024],[-109.87856,24.17079],[-109.87915,24.17155],[-109.88001,24.17206],[-109.88081,24.17279],[-109.8811,24.17382],[-109.88146,24.17435],[-109.8837,24.17625],[-109.88498,24.17641],[-109.88558,24.17668],[-109.88676,24.17794],[-109.88704,24.17869],[-109.88677,24.18028],[-109.88698,24.18096],[-109.8873,24.18134],[-109.88885,24.18235],[-109.889,24.18348],[-109.88934,24.18414],[-109.89095,24.18461],[-109.89187,24.18522],[-109.89226,24.18563],[-109.89283,24.18673],[-109.89359,24.18751],[-109.89362,24.18824],[-109.89386,24.18904],[-109.89445,24.18998],[-109.89469,24.19101],[-109.89583,24.19346],[-109.89574,24.19418],[-109.89586,24.19477],[-109.8966,24.19652],[-109.89698,24.1972],[-109.89806,24.19773],[-109.89863,24.19824],[-109.89965,24.20067],[-109.89971,24.20137],[-109.89873,24.20329],[-109.8988,24.20429],[-109.89906,24.20482],[-109.90015,24.2057],[-109.90056,24.20622],[-109.9011,24.20744],[-109.90126,24.20874],[-109.90279,24.20943],[-109.9044,24.21265],[-109.90445,24.21382],[-109.90508,24.21589],[-109.90524,24.21734],[-109.90668,24.21957],[-109.90733,24.22186],[-109.90849,24.22376],[-109.90868,24.22491],[-109.9101,24.2278],[-109.91113,24.23068],[-109.91138,24.23205],[-109.91226,24.23371],[-109.91244,24.23547],[-109.91324,24.23722],[-109.91335,24.23839],[-109.91441,24.2395],[-109.91437,24.24001],[-109.91364,24.24167],[-109.91367,24.24243],[-109.91454,24.24341],[-109.91493,24.24442],[-109.91521,24.2447],[-109.91689,24.24537],[-109.91732,24.24599],[-109.91796,24.24844],[-109.9179,24.24968],[-109.91913,24.25142],[-109.91923,24.25245],[-109.9199,24.25341],[-109.9203,24.2546],[-109.92081,24.25517],[-109.92094,24.25621],[-109.92085,24.2574],[-109.92176,24.2597],[-109.92169,24.26057],[-109.92208,24.26181],[-109.92251,24.26224],[-109.92212,24.263],[-109.92221,24.26381],[-109.92284,24.26563],[-109.923,24.26658],[-109.92297,24.26711],[-109.92274,24.26763],[-109.92278,24.2696],[-109.92232,24.27095],[-109.92238,24.27161],[-109.92129,24.27359],[-109.92123,24.27436],[-109.92086,24.27474],[-109.92088,24.2759],[-109.92036,24.27648],[-109.92025,24.27704],[-109.91865,24.27903],[-109.91842,24.28031],[-109.91797,24.28164],[-109.91808,24.28261],[-109.91768,24.28351],[-109.91771,24.28514],[-109.91725,24.28693],[-109.91745,24.28797],[-109.91821,24.29017],[-109.91847,24.29037],[-109.91853,24.29075],[-109.91925,24.29138],[-109.91922,24.29222],[-109.91966,24.29293],[-109.92011,24.29432],[-109.92191,24.29706],[-109.9226,24.29879],[-109.92295,24.2991],[-109.92364,24.29928],[-109.92462,24.29987],[-109.9249,24.30295],[-109.92504,24.30314],[-109.92734,24.30411],[-109.92746,24.30448],[-109.92729,24.30623],[-109.92771,24.30772],[-109.92861,24.30859],[-109.92902,24.30952],[-109.92984,24.31027],[-109.93056,24.31058],[-109.9307,24.31114],[-109.93111,24.3114],[-109.93119,24.31286],[-109.93144,24.31305],[-109.93162,24.31411],[-109.9322,24.31478],[-109.93294,24.31524],[-109.9339,24.31661],[-109.93537,24.31965],[-109.93644,24.32054],[-109.93635,24.32121],[-109.93679,24.32209],[-109.93751,24.32265],[-109.93782,24.32313],[-109.9377,24.32409],[-109.93683,24.32511],[-109.93638,24.32594],[-109.93691,24.32738],[-109.93692,24.32914],[-109.93743,24.33013],[-109.93713,24.33074],[-109.93727,24.33113],[-109.93668,24.33211],[-109.93661,24.33432],[-109.93629,24.33517],[-109.93638,24.33567],[-109.93673,24.33626],[-109.93648,24.33743],[-109.93656,24.33976],[-109.93556,24.34171],[-109.93573,24.342],[-109.93573,24.34281],[-109.93609,24.34406],[-109.93573,24.34518],[-109.93556,24.34773],[-109.93519,24.34855],[-109.93489,24.3505],[-109.93417,24.35167],[-109.93408,24.35286],[-109.93362,24.3534],[-109.93307,24.35486],[-109.93321,24.35552],[-109.93303,24.35606],[-109.93316,24.35713],[-109.93302,24.35844],[-109.93264,24.35966],[-109.93185,24.36122],[-109.93186,24.36163],[-109.93257,24.36316],[-109.93272,24.36573],[-109.93223,24.36941],[-109.93164,24.37039],[-109.93143,24.37156],[-109.93166,24.37214],[-109.93232,24.37282],[-109.93219,24.37311],[-109.93129,24.37323],[-109.93067,24.37302],[-109.92924,24.37304],[-109.92856,24.37284],[-109.92816,24.37246],[-109.92707,24.37073],[-109.92519,24.36885],[-109.92475,24.36708],[-109.92408,24.36597],[-109.92306,24.36481],[-109.92142,24.36397],[-109.92105,24.36317],[-109.92021,24.36207],[-109.91946,24.35902],[-109.91749,24.35441],[-109.91714,24.35115],[-109.91717,24.35007],[-109.91635,24.34788],[-109.91581,24.34708],[-109.91424,24.34588],[-109.91431,24.34543],[-109.91409,24.34499],[-109.91208,24.34319],[-109.91173,24.34187],[-109.91072,24.34044],[-109.90893,24.33902],[-109.90748,24.3382],[-109.90725,24.33765],[-109.90591,24.33647],[-109.90548,24.3353],[-109.90442,24.33451],[-109.90402,24.33354],[-109.90385,24.33225],[-109.90337,24.33103],[-109.90301,24.32855],[-109.90276,24.3278],[-109.90097,24.3255],[-109.9006,24.32454],[-109.89975,24.32333],[-109.89663,24.31981],[-109.89505,24.31905],[-109.89435,24.31746],[-109.89356,24.31644],[-109.89232,24.31593],[-109.89147,24.3152],[-109.89117,24.31467],[-109.89045,24.31226],[-109.88967,24.31138],[-109.88818,24.31063],[-109.88786,24.31028],[-109.88768,24.30919],[-109.88687,24.30732],[-109.88563,24.30575],[-109.88534,24.30373],[-109.88415,24.3023],[-109.88386,24.30157],[-109.88378,24.30057],[-109.8827,24.29868],[-109.88208,24.29651],[-109.88218,24.29544],[-109.882,24.29248],[-109.88182,24.29191],[-109.88121,24.2912],[-109.87994,24.2903],[-109.87944,24.28972],[-109.87918,24.28902],[-109.87909,24.28796],[-109.87839,24.28706],[-109.87785,24.28522],[-109.87679,24.28352],[-109.87607,24.28296],[-109.87435,24.28213],[-109.87356,24.28097],[-109.87129,24.27628],[-109.87117,24.27588],[-109.87125,24.27371],[-109.87104,24.27282],[-109.86948,24.27042],[-109.86855,24.26953],[-109.86715,24.26866],[-109.86662,24.26783],[-109.86464,24.26588],[-109.86372,24.26351],[-109.86299,24.26241],[-109.86212,24.26163],[-109.85774,24.25872],[-109.8571,24.25804],[-109.85685,24.25722],[-109.85592,24.25609],[-109.85593,24.25243],[-109.85548,24.25124],[-109.85545,24.25],[-109.85501,24.24852],[-109.85441,24.24767],[-109.85362,24.24703],[-109.85221,24.24487],[-109.85174,24.24325],[-109.85113,24.2423],[-109.85031,24.24156],[-109.84797,24.24035],[-109.84704,24.23933],[-109.84691,24.23904],[-109.84686,24.23676],[-109.84613,24.23441],[-109.84569,24.23369],[-109.84452,24.23276],[-109.84419,24.23229],[-109.84394,24.2314],[-109.84412,24.23045],[-109.843,24.22903],[-109.8424,24.22744],[-109.84157,24.22659],[-109.83897,24.22458],[-109.83757,24.22302],[-109.83593,24.22192],[-109.83392,24.22107],[-109.832,24.21947],[-109.83267,24.22015],[-109.83169,24.21944],[-109.83118,24.21856],[-109.82966,24.21682],[-109.82863,24.21478],[-109.82734,24.21289],[-109.82446,24.21028],[-109.82286,24.20942],[-109.82251,24.2087],[-109.81992,24.20553],[-109.81889,24.2039],[-109.8187,24.20285],[-109.81791,24.20158],[-109.81739,24.19919],[-109.81727,24.19775],[-109.81685,24.19704],[-109.81607,24.19632],[-109.81519,24.19424],[-109.81426,24.19109],[-109.8127,24.18857],[-109.81077,24.18393],[-109.80879,24.18165],[-109.80877,24.18103],[-109.80905,24.1803],[-109.80907,24.17892],[-109.80899,24.17805],[-109.80822,24.17655],[-109.80844,24.17212],[-109.80819,24.17092],[-109.80667,24.16852],[-109.8051,24.16673],[-109.80392,24.16574],[-109.80411,24.16482],[-109.80403,24.16413],[-109.80324,24.16298],[-109.80274,24.16119],[-109.80246,24.16071],[-109.80045,24.1587],[-109.79991,24.1578],[-109.7989,24.15681],[-109.7993,24.15639],[-109.79902,24.15572],[-109.799,24.15482],[-109.80014,24.15411],[-109.80058,24.15334],[-109.80057,24.15212],[-109.80016,24.15138],[-109.80033,24.1505],[-109.80005,24.15013],[-109.80017,24.14984],[-109.80063,24.14961],[-109.80087,24.14929],[-109.80071,24.14844],[-109.80082,24.14551],[-109.80179,24.14353],[-109.80237,24.14314],[-109.80267,24.1426],[-109.80251,24.14098],[-109.80248164241164,24.140873873873872],[-109.81264852252252,24.140873873873872],[-109.81374,24.14137]]]},"properties":{"name":"unnamed-land"}}]}