{"type":"FeatureCollection","features":[{"type":"Feature","geometry":{"type":"MultiLineString","coordinates":[[[-109.94417,24.41447],[-109.94459,24.41419],[-109.94509,24.41329],[-109.94612,24.41058],[-109.94595,24.41036],[-109.94367,24.40984],[-109.94302,24.41013],[-109.94266,24.41058],[-109.94325,24.41216],[-109.94362,24.41419],[-109.94392,24.41449],[-109.94417,24.41447]],[[-109.94441,24.40337],[-109.94788,24.40293],[-109.94862,24.40223],[-109.94862,24.40201],[-109.94788,24.40117],[-109.94417,24.40104],[-109.93892,24.40201],[-109.93889,24.40223],[-109.93913,24.40246],[-109.94069,24.40303],[-109.94342,24.40344],[-109.94441,24.40337]],[[-109.94342,24.4011],[-109.94342,24.4011]]]},"properties":{"depth_m":75}},{"type":"Feature","geometry":{"type":"MultiLineString","coordinates":[[[-109.94912,24.41578],[-109.9521,24.41557],[-109.95302,24.41464],[-109.95374,24.41081],[-109.95366,24.41036],[-109.9521,24.40926],[-109.94788,24.40866],[-109.94218,24.40678],[-109.94164,24.40652],[-109.9416,24.40629],[-109.9417,24.40607],[-109.94243,24.40583],[-109.94788,24.40447],[-109.94937,24.40319],[-109.95014,24.40223],[-109.95013,24.40201],[-109.94788,24.39952],[-109.94367,24.39949],[-109.9397,24.40046],[-109.93549,24.40115],[-109.93239,24.40201],[-109.93231,24.40223],[-109.93351,24.40318],[-109.93425,24.40404],[-109.93524,24.40613],[-109.93574,24.40647],[-109.93741,24.40697],[-109.93813,24.40765],[-109.93858,24.40878],[-109.93882,24.41036],[-109.94172,24.41464],[-109.94392,24.41578],[-109.94912,24.41578]],[[-109.95334,24.41306],[-109.95334,24.41306]],[[-109.93772,24.4072],[-109.93772,24.4072]],[[-109.93425,24.40404],[-109.93425,24.40404]]]},"properties":{"depth_m":100}},{"type":"Feature","geometry":{"type":"MultiLineString","coordinates":[[[-109.9521,24.41741],[-109.95359,24.41619],[-109.9548,24.41464],[-109.95553,24.41081],[-109.95549,24.41036],[-109.9521,24.40803],[-109.94937,24.40727],[-109.94751,24.40629],[-109.94912,24.40528],[-109.95006,24.40449],[-109.951,24.40336],[-109.95162,24.40223],[-109.95156,24.40201],[-109.94962,24.4002],[-109.94792,24.39794],[-109.94366,24.39794],[-109.9397,24.39903],[-109.93549,24.39986],[-109.93127,24.40093],[-109.92962,24.40201],[-109.92966,24.40223],[-109.93227,24.40474],[-109.9333,24.40607],[-109.9345,24.40717],[-109.93549,24.40866],[-109.93803,24.41148],[-109.93887,24.41284],[-109.93947,24.41442],[-109.93995,24.41482],[-109.94392,24.41693],[-109.94788,24.41748],[-109.9521,24.41741]]]},"properties":{"depth_m":125}},{"type":"Feature","geometry":{"type":"MultiLineString","coordinates":[[[-109.9521,24.4192],[-109.95334,24.41862],[-109.9547,24.41758],[-109.95564,24.41645],[-109.95668,24.41464],[-109.95703,24.41036],[-109.95607,24.40931],[-109.95483,24.40841],[-109.95104,24.40629],[-109.9509,24.40607],[-109.95177,24.40516],[-109.95216,24.40449],[-109.95252,24.40313],[-109.95262,24.40201],[-109.95036,24.39975],[-109.94887,24.39794],[-109.94764,24.39762],[-109.94367,24.39764],[-109.93832,24.39794],[-109.93127,24.39963],[-109.92929,24.40063],[-109.92768,24.40178],[-109.92767,24.40223],[-109.92968,24.40381],[-109.93127,24.40593],[-109.93301,24.40709],[-109.93386,24.40787],[-109.93465,24.409],[-109.93526,24.41036],[-109.93723,24.41216],[-109.93797,24.4132],[-109.9387,24.41464],[-109.9397,24.41562],[-109.94392,24.41809],[-109.94788,24.41908],[-109.9521,24.4192]]]},"properties":{"depth_m":150}},{"type":"Feature","geometry":{"type":"MultiLineString","coordinates":[[[-109.9583,24.45798],[-109.96028,24.45777],[-109.96053,24.45754],[-109.96111,24.45617],[-109.96028,24.4551],[-109.95631,24.45488],[-109.95384,24.45617],[-109.9538,24.4564],[-109.95405,24.45662],[-109.95631,24.45816],[-109.9583,24.45798]],[[-109.95507,24.45549],[-109.95507,24.45549]],[[-109.95235,24.42079],[-109.95507,24.41974],[-109.95676,24.41871],[-109.95809,24.41668],[-109.95892,24.41487],[-109.95898,24.41442],[-109.95835,24.41036],[-109.95759,24.40923],[-109.95672,24.40832],[-109.95348,24.40607],[-109.9534,24.40201],[-109.9521,24.40034],[-109.94983,24.39794],[-109.94764,24.39736],[-109.94367,24.39736],[-109.93281,24.39794],[-109.93106,24.39839],[-109.92929,24.39908],[-109.92755,24.40003],[-109.92687,24.40065],[-109.92622,24.40178],[-109.92625,24.40223],[-109.92879,24.40437],[-109.9307,24.40652],[-109.93227,24.40752],[-109.93318,24.40832],[-109.9339,24.40923],[-109.93524,24.41146],[-109.93673,24.41298],[-109.93784,24.41464],[-109.9397,24.41653],[-109.94169,24.41769],[-109.94392,24.41927],[-109.94788,24.4205],[-109.95235,24.42079]],[[-109.94516,24.41961],[-109.94516,24.41961]],[[-109.94367,24.41916],[-109.94367,24.41916]]]},"properties":{"depth_m":175}},{"type":"Feature","geometry":{"type":"MultiLineString","coordinates":[[[-109.96053,24.46102],[-109.96127,24.46055],[-109.96177,24.46],[-109.96272,24.45798],[-109.96326,24.45617],[-109.96161,24.45346],[-109.96078,24.45238],[-109.96028,24.45198],[-109.95631,24.45219],[-109.95359,24.45391],[-109.95012,24.45561],[-109.94942,24.45617],[-109.94951,24.4564],[-109.95494,24.46046],[-109.95631,24.46099],[-109.96053,24.46102]],[[-109.95309,24.42232],[-109.95631,24.42139],[-109.96004,24.41871],[-109.96053,24.41725],[-109.96101,24.41442],[-109.95966,24.41036],[-109.9589,24.40878],[-109.95775,24.40742],[-109.95603,24.40629],[-109.95533,24.40562],[-109.95468,24.40426],[-109.95418,24.40201],[-109.9521,24.39932],[-109.95078,24.39794],[-109.94788,24.39709],[-109.94367,24.39708],[-109.93549,24.39741],[-109.9281,24.39794],[-109.92706,24.39841],[-109.92639,24.39907],[-109.92535,24.40088],[-109.92504,24.40178],[-109.92512,24.40223],[-109.92959,24.40652],[-109.93262,24.40878],[-109.93524,24.41255],[-109.93699,24.41464],[-109.9397,24.41743],[-109.94169,24.41871],[-109.94367,24.42034],[-109.94788,24.42193],[-109.95185,24.42248],[-109.95309,24.42232]],[[-109.92805,24.40494],[-109.92805,24.40494]],[[-109.9278,24.40471],[-109.9278,24.40471]]]},"properties":{"depth_m":200}},{"type":"Feature","geometry":{"type":"MultiLineString","coordinates":[[[-109.96078,24.4628],[-109.96276,24.46179],[-109.96452,24.46046],[-109.96535,24.45617],[-109.96449,24.45418],[-109.96328,24.45211],[-109.96078,24.4492],[-109.96028,24.44883],[-109.95631,24.44914],[-109.95483,24.45025],[-109.95251,24.45234],[-109.94838,24.45373],[-109.9464,24.45481],[-109.94488,24.45595],[-109.94502,24.4564],[-109.94714,24.45718],[-109.94863,24.45798],[-109.95012,24.45908],[-109.95162,24.46046],[-109.9521,24.46069],[-109.95631,24.46245],[-109.96003,24.46289],[-109.96078,24.4628]],[[-109.94987,24.45888],[-109.94987,24.45888]],[[-109.94863,24.45798],[-109.94863,24.45798]],[[-109.94714,24.45437],[-109.94714,24.45437]],[[-109.95284,24.42436],[-109.95631,24.42375],[-109.96053,24.42089],[-109.96193,24.41871],[-109.96262,24.41464],[-109.96282,24.41194],[-109.96319,24.41036],[-109.96226,24.40945],[-109.96053,24.40821],[-109.95976,24.40697],[-109.95914,24.40629],[-109.95706,24.40528],[-109.95607,24.40451],[-109.95554,24.40358],[-109.95496,24.40201],[-109.95197,24.39817],[-109.95086,24.39761],[-109.94788,24.39683],[-109.94392,24.3968],[-109.92954,24.39738],[-109.92613,24.39772],[-109.92504,24.39794],[-109.92479,24.39817],[-109.92408,24.40029],[-109.92386,24.40178],[-109.92401,24.40223],[-109.92847,24.40652],[-109.93127,24.40846],[-109.93214,24.40923],[-109.93301,24.41028],[-109.93524,24.41363],[-109.93589,24.41442],[-109.9381,24.41645],[-109.93946,24.4181],[-109.94392,24.42165],[-109.94664,24.42276],[-109.94788,24.42346],[-109.95185,24.42441],[-109.95284,24.42436]]]},"properties":{"depth_m":225}},{"type":"Feature","geometry":{"type":"MultiLineString","coordinates":[[[-109.96127,24.46456],[-109.96301,24.46399],[-109.96449,24.46328],[-109.96687,24.46069],[-109.96708,24.46023],[-109.96736,24.45617],[-109.96566,24.45211],[-109.96474,24.45059],[-109.96241,24.44782],[-109.96053,24.44609],[-109.95631,24.44591],[-109.95458,24.44698],[-109.95185,24.44918],[-109.94937,24.45038],[-109.94788,24.45087],[-109.94516,24.45079],[-109.94417,24.45058],[-109.94375,24.45076],[-109.94354,24.45211],[-109.94268,24.45344],[-109.94201,24.45504],[-109.94174,24.45595],[-109.94193,24.4564],[-109.94367,24.45739],[-109.94699,24.45888],[-109.94925,24.46046],[-109.95414,24.46272],[-109.95631,24.4639],[-109.96028,24.46472],[-109.96127,24.46456]],[[-109.94838,24.45978],[-109.94838,24.45978]],[[-109.94193,24.4564],[-109.94193,24.4564]],[[-109.95383,24.4264],[-109.95631,24.42618],[-109.96028,24.42379],[-109.96196,24.42164],[-109.96342,24.41916],[-109.96363,24.41871],[-109.9642,24.41464],[-109.96474,24.41293],[-109.96502,24.41081],[-109.9647,24.40652],[-109.96449,24.40572],[-109.96425,24.40551],[-109.96053,24.40559],[-109.95854,24.40473],[-109.95631,24.4031],[-109.95574,24.40201],[-109.95247,24.39794],[-109.95111,24.39737],[-109.94813,24.3966],[-109.94367,24.39653],[-109.92855,24.39703],[-109.9231,24.39772],[-109.92263,24.39817],[-109.92275,24.40201],[-109.9229,24.40223],[-109.92736,24.40652],[-109.93174,24.40968],[-109.93233,24.41036],[-109.93367,24.41261],[-109.93499,24.41442],[-109.93772,24.41681],[-109.93995,24.41965],[-109.94367,24.42271],[-109.94788,24.42522],[-109.9521,24.4265],[-109.95383,24.4264]],[[-109.95408,24.42638],[-109.95408,24.42638]],[[-109.93499,24.41442],[-109.93499,24.41442]]]},"properties":{"depth_m":250}},{"type":"Feature","geometry":{"type":"MultiLineString","coordinates":[[[-109.96078,24.46613],[-109.96449,24.4655],[-109.96644,24.46452],[-109.96771,24.46317],[-109.96945,24.46091],[-109.96976,24.46046],[-109.96976,24.46001],[-109.96952,24.45617],[-109.9677,24.45211],[-109.96449,24.44691],[-109.96053,24.44328],[-109.96028,24.44308],[-109.95656,24.44214],[-109.95607,24.44214],[-109.9521,24.4445],[-109.94813,24.44802],[-109.94764,24.44792],[-109.94689,24.4473],[-109.9459,24.44677],[-109.94392,24.4462],[-109.93976,24.4476],[-109.93946,24.44785],[-109.9394,24.45617],[-109.9397,24.45649],[-109.94677,24.46046],[-109.95061,24.46218],[-109.95389,24.46385],[-109.95631,24.46528],[-109.96028,24.46615],[-109.96078,24.46613]],[[-109.96871,24.46181],[-109.96871,24.46181]],[[-109.96945,24.46091],[-109.96945,24.46091]],[[-109.95334,24.44376],[-109.95334,24.44376]],[[-109.95607,24.42955],[-109.95681,24.42917],[-109.95949,24.42706],[-109.96028,24.4266],[-109.96102,24.42584],[-109.96357,24.42232],[-109.96449,24.42063],[-109.9653,24.41871],[-109.96574,24.41464],[-109.96563,24.41058],[-109.96506,24.40629],[-109.96449,24.40341],[-109.96425,24.40335],[-109.96202,24.40421],[-109.96028,24.40445],[-109.95854,24.40343],[-109.95631,24.4017],[-109.95343,24.39817],[-109.95288,24.39772],[-109.95111,24.39704],[-109.94788,24.3963],[-109.93549,24.39639],[-109.92706,24.39667],[-109.92309,24.39714],[-109.92163,24.39794],[-109.9219,24.40201],[-109.92203,24.40223],[-109.92731,24.4074],[-109.93152,24.41027],[-109.93408,24.41442],[-109.93598,24.41587],[-109.93752,24.41735],[-109.93864,24.41871],[-109.9397,24.42065],[-109.94226,24.42277],[-109.94392,24.42445],[-109.9521,24.42949],[-109.95607,24.42955]],[[-109.93375,24.41397],[-109.93375,24.41397]],[[-109.92855,24.40832],[-109.92855,24.40832]]]},"properties":{"depth_m":275}},{"type":"Feature","geometry":{"type":"MultiLineString","coordinates":[[[-109.96202,24.46748],[-109.96474,24.46716],[-109.96871,24.46526],[-109.97101,24.46452],[-109.97218,24.46294],[-109.97303,24.46046],[-109.97206,24.45617],[-109.96998,24.45211],[-109.96499,24.4443],[-109.96099,24.4397],[-109.96028,24.43832],[-109.958,24.43563],[-109.95799,24.43518],[-109.95986,24.43135],[-109.96053,24.4307],[-109.96258,24.42706],[-109.96474,24.42394],[-109.96693,24.41871],[-109.96726,24.41464],[-109.96652,24.41261],[-109.9647,24.40223],[-109.96425,24.4019],[-109.96368,24.40201],[-109.96152,24.40305],[-109.96028,24.40335],[-109.95631,24.40081],[-109.95414,24.39817],[-109.95362,24.39772],[-109.95185,24.39692],[-109.94788,24.39603],[-109.94342,24.39597],[-109.92706,24.39622],[-109.92309,24.39656],[-109.9216,24.39717],[-109.92058,24.39794],[-109.92105,24.40201],[-109.92118,24.40223],[-109.92284,24.40404],[-109.92731,24.40833],[-109.93049,24.41036],[-109.93098,24.41081],[-109.93337,24.41464],[-109.93574,24.41631],[-109.93803,24.41871],[-109.93946,24.42161],[-109.94102,24.42299],[-109.94342,24.42564],[-109.94565,24.42728],[-109.94788,24.42985],[-109.94997,24.43135],[-109.95185,24.43445],[-109.95308,24.43541],[-109.95308,24.43563],[-109.9521,24.43684],[-109.95115,24.4397],[-109.94788,24.44328],[-109.9464,24.44395],[-109.94367,24.44437],[-109.9397,24.44596],[-109.93921,24.44627],[-109.93839,24.44714],[-109.93796,24.44805],[-109.93831,24.4564],[-109.9397,24.45787],[-109.94367,24.46023],[-109.94937,24.46262],[-109.95291,24.46452],[-109.95631,24.4666],[-109.96028,24.46757],[-109.96202,24.46748]],[[-109.96226,24.46746],[-109.96226,24.46746]],[[-109.97218,24.46294],[-109.97218,24.46294]],[[-109.94912,24.46249],[-109.94912,24.46249]],[[-109.94069,24.45843],[-109.94069,24.45843]],[[-109.93995,24.42209],[-109.93995,24.42209]],[[-109.9397,24.42187],[-109.9397,24.42187]],[[-109.92284,24.40404],[-109.92284,24.40404]]]},"properties":{"depth_m":300}},{"type":"Feature","geometry":{"type":"MultiLineString","coordinates":[[[-109.99772,24.47334],[-109.99796,24.47315],[-109.99807,24.47265],[-109.99796,24.47141],[-109.99772,24.47122],[-109.99733,24.47152],[-109.99695,24.47265],[-109.99721,24.4731],[-109.99772,24.47334]],[[-109.96202,24.46927],[-109.96449,24.46913],[-109.96871,24.4673],[-109.97268,24.46689],[-109.97441,24.46646],[-109.9764,24.46557],[-109.97765,24.46475],[-109.97792,24.4643],[-109.97791,24.46046],[-109.97714,24.45925],[-109.97582,24.45617],[-109.97449,24.45437],[-109.97292,24.45286],[-109.97252,24.45211],[-109.96956,24.44805],[-109.96464,24.43947],[-109.96288,24.43541],[-109.96323,24.43135],[-109.96449,24.42875],[-109.96509,24.42706],[-109.96661,24.4239],[-109.96786,24.42074],[-109.96856,24.41871],[-109.96871,24.41629],[-109.96876,24.41464],[-109.96772,24.41331],[-109.96714,24.41194],[-109.96622,24.40855],[-109.96474,24.40172],[-109.96449,24.40149],[-109.964,24.4015],[-109.96028,24.40225],[-109.95656,24.40011],[-109.95485,24.39817],[-109.95359,24.39728],[-109.95185,24.39658],[-109.94788,24.39577],[-109.92706,24.39577],[-109.92284,24.39602],[-109.92086,24.39679],[-109.92012,24.3973],[-109.91955,24.39794],[-109.92033,24.40223],[-109.92235,24.40447],[-109.92681,24.40881],[-109.92903,24.41036],[-109.92975,24.41103],[-109.93127,24.4127],[-109.93266,24.41487],[-109.93375,24.41577],[-109.93549,24.41673],[-109.93741,24.41871],[-109.93816,24.42074],[-109.93904,24.42232],[-109.94069,24.42438],[-109.94319,24.42706],[-109.94392,24.42826],[-109.94649,24.43135],[-109.94772,24.43518],[-109.94776,24.43563],[-109.94713,24.43789],[-109.94652,24.43947],[-109.94615,24.43992],[-109.94098,24.44376],[-109.93797,24.44484],[-109.93707,24.44579],[-109.93673,24.4468],[-109.93655,24.44805],[-109.93711,24.4564],[-109.93797,24.45764],[-109.93897,24.45865],[-109.94182,24.46046],[-109.94885,24.46339],[-109.95091,24.46452],[-109.95313,24.4661],[-109.95631,24.46792],[-109.95953,24.46881],[-109.96053,24.46934],[-109.96202,24.46927]],[[-109.96623,24.46836],[-109.96623,24.46836]],[[-109.95012,24.46407],[-109.95012,24.46407]],[[-109.94689,24.43857],[-109.94689,24.43857]],[[-109.94615,24.43089],[-109.94615,24.43089]],[[-109.93772,24.41961],[-109.93772,24.41961]],[[-109.93722,24.41848],[-109.93722,24.41848]],[[-109.93375,24.41577],[-109.93375,24.41577]]]},"properties":{"depth_m":325}},{"type":"Feature","geometry":{"type":"MultiLineString","coordinates":[[[-109.89461,24.49905],[-109.894,24.49793],[-109.89428,24.49409],[-109.89409,24.49344],[-109.89359,24.49291],[-109.88962,24.49236]],[[-109.99796,24.47727],[-109.99829,24.47694],[-109.99876,24.47581],[-109.99927,24.4731],[-109.9987,24.46475],[-109.99821,24.46392],[-109.99772,24.46342],[-109.99548,24.46225],[-109.99375,24.46043],[-109.99094,24.45956],[-109.98953,24.45847],[-109.98805,24.45777],[-109.98706,24.45699],[-109.98645,24.45617],[-109.98622,24.45211],[-109.98532,24.45099],[-109.98111,24.45095],[-109.97714,24.45125],[-109.97292,24.44942],[-109.9717,24.44782],[-109.97056,24.44534],[-109.96739,24.43947],[-109.96594,24.43541],[-109.96597,24.43135],[-109.96713,24.42706],[-109.96871,24.42323],[-109.96945,24.42043],[-109.96976,24.41871],[-109.96959,24.41464],[-109.96821,24.41256],[-109.96762,24.41126],[-109.96662,24.40832],[-109.96512,24.40201],[-109.96474,24.40129],[-109.96425,24.40104],[-109.96028,24.4014],[-109.95656,24.39922],[-109.9551,24.39772],[-109.95383,24.39698],[-109.95185,24.39623],[-109.94788,24.3955],[-109.93127,24.39533],[-109.92309,24.39541],[-109.92061,24.39602],[-109.91913,24.397],[-109.91862,24.39772],[-109.91858,24.39817],[-109.91948,24.40223],[-109.92209,24.40516],[-109.9292,24.41194],[-109.93227,24.41549],[-109.93355,24.41645],[-109.93549,24.41737],[-109.9368,24.41871],[-109.93766,24.42141],[-109.93895,24.4239],[-109.9397,24.42503],[-109.94153,24.42706],[-109.94263,24.42931],[-109.94388,24.43135],[-109.94492,24.43518],[-109.94489,24.43563],[-109.94398,24.43744],[-109.9428,24.43924],[-109.9397,24.44175],[-109.93822,24.44156],[-109.93549,24.44073],[-109.93503,24.44128],[-109.93402,24.44353],[-109.93512,24.44782],[-109.93583,24.45617],[-109.9366,24.45775],[-109.93768,24.45911],[-109.9388,24.46001],[-109.94082,24.46114],[-109.9464,24.4633],[-109.94901,24.46452],[-109.9521,24.46691],[-109.95537,24.46881],[-109.95631,24.4697],[-109.96053,24.47241],[-109.96474,24.47224],[-109.96675,24.47152],[-109.96896,24.47029],[-109.97292,24.47035],[-109.97516,24.47077],[-109.97714,24.47136],[-109.98111,24.47165],[-109.98334,24.47143],[-109.98532,24.47099],[-109.98744,24.47287],[-109.98953,24.4735],[-109.99127,24.4745],[-109.99375,24.47535],[-109.99681,24.47694],[-109.99796,24.47727]],[[-109.97317,24.47039],[-109.97317,24.47039]],[[-109.95458,24.46836],[-109.95458,24.46836]],[[-109.93995,24.46069],[-109.93995,24.46069]],[[-109.94466,24.43428],[-109.94466,24.43428]],[[-109.9397,24.42503],[-109.9397,24.42503]],[[-109.93797,24.42209],[-109.93797,24.42209]]]},"properties":{"depth_m":350}},{"type":"Feature","geometry":{"type":"MultiLineString","coordinates":[[[-109.9023,24.49905],[-109.9017,24.49815],[-109.89954,24.49635],[-109.89811,24.49477],[-109.89667,24.49228],[-109.89476,24.48957],[-109.89384,24.48906],[-109.89359,24.48906],[-109.88962,24.48959]],[[-109.99821,24.48013],[-109.99986,24.47874],[-110.00107,24.47716],[-110.00069,24.47513],[-110.0,24.46881],[-110.00005,24.46452],[-109.99796,24.46159],[-109.99499,24.45946],[-109.99375,24.45831],[-109.99225,24.4573],[-109.99136,24.4564],[-109.99061,24.45459],[-109.98953,24.45105],[-109.98742,24.44805],[-109.98693,24.4476],[-109.98557,24.44646],[-109.98507,24.44651],[-109.98135,24.4483],[-109.97714,24.4479],[-109.9764,24.44751],[-109.97457,24.44624],[-109.97292,24.44478],[-109.96896,24.43646],[-109.96854,24.43541],[-109.96848,24.43112],[-109.96916,24.42706],[-109.97039,24.42277],[-109.97093,24.41871],[-109.97039,24.41464],[-109.96851,24.41171],[-109.96747,24.40943],[-109.96596,24.40471],[-109.96535,24.40201],[-109.96474,24.40085],[-109.96449,24.40063],[-109.96028,24.4006],[-109.95699,24.39862],[-109.95519,24.39727],[-109.95383,24.39655],[-109.95185,24.39589],[-109.94788,24.39524],[-109.92284,24.39483],[-109.92005,24.39523],[-109.91913,24.39556],[-109.91863,24.39594],[-109.91805,24.39704],[-109.91779,24.39794],[-109.91866,24.40223],[-109.92086,24.40488],[-109.92557,24.40935],[-109.92652,24.41036],[-109.92706,24.4112],[-109.93164,24.416],[-109.93325,24.41713],[-109.93549,24.41801],[-109.93619,24.41871],[-109.93682,24.42141],[-109.93778,24.4239],[-109.93871,24.42561],[-109.93988,24.42706],[-109.94168,24.43135],[-109.94235,24.43541],[-109.941,24.43744],[-109.9397,24.43877],[-109.93574,24.43791],[-109.93524,24.43792],[-109.934,24.43857],[-109.93284,24.4397],[-109.93167,24.44353],[-109.93167,24.44376],[-109.93301,24.44602],[-109.93374,24.44805],[-109.9343,24.45211],[-109.93394,24.4564],[-109.93653,24.46001],[-109.93772,24.46089],[-109.9397,24.4619],[-109.94144,24.46257],[-109.94392,24.46327],[-109.94693,24.46452],[-109.94788,24.46508],[-109.95278,24.46881],[-109.95631,24.47222],[-109.95879,24.47383],[-109.96053,24.4754],[-109.96251,24.47608],[-109.96449,24.47718],[-109.96797,24.47768],[-109.97292,24.47929],[-109.97689,24.48016],[-109.98111,24.47987],[-109.98557,24.47926],[-109.99375,24.47949],[-109.99772,24.48029],[-109.99821,24.48013]],[[-110.00044,24.47806],[-110.00044,24.47806]],[[-109.95954,24.47445],[-109.95954,24.47445]],[[-109.93301,24.44602],[-109.93301,24.44602]],[[-109.94119,24.43721],[-109.94119,24.43721]],[[-109.9278,24.41194],[-109.9278,24.41194]],[[-109.92681,24.41081],[-109.92681,24.41081]],[[-109.92359,24.40742],[-109.92359,24.40742]],[[-109.92334,24.4072],[-109.92334,24.4072]],[[-109.92309,24.40697],[-109.92309,24.40697]]]},"properties":{"depth_m":375}},{"type":"Feature","geometry":{"type":"MultiLineString","coordinates":[[[-109.90648,24.49905],[-109.90601,24.49793],[-109.90425,24.49607],[-109.90263,24.49386],[-109.89998,24.49183],[-109.8978,24.48923],[-109.89384,24.48725],[-109.88962,24.48765]],[[-109.98656,24.48574],[-109.98953,24.48541],[-109.99796,24.48343],[-109.99944,24.48235],[-110.00193,24.48106],[-110.00218,24.48012],[-110.0024,24.47694],[-110.00112,24.46881],[-110.00146,24.46452],[-109.99994,24.46272],[-109.99825,24.46023],[-109.99568,24.45843],[-109.99389,24.4564],[-109.99238,24.45346],[-109.99032,24.44782],[-109.98953,24.44623],[-109.98532,24.44277],[-109.98429,24.44308],[-109.98135,24.44474],[-109.97912,24.44398],[-109.97847,24.44353],[-109.97564,24.44015],[-109.97441,24.43912],[-109.97317,24.43851],[-109.97268,24.43797],[-109.97141,24.43541],[-109.97089,24.43135],[-109.97116,24.42706],[-109.97191,24.42299],[-109.97211,24.41871],[-109.9712,24.41464],[-109.9691,24.41148],[-109.96788,24.40923],[-109.96623,24.40462],[-109.96558,24.40201],[-109.96474,24.40042],[-109.96449,24.4002],[-109.96053,24.39989],[-109.95433,24.39632],[-109.9521,24.39559],[-109.94937,24.39515],[-109.94764,24.39496],[-109.91863,24.39419],[-109.91764,24.39551],[-109.91697,24.39772],[-109.91792,24.40201],[-109.91826,24.40268],[-109.91888,24.40368],[-109.92061,24.40564],[-109.9234,24.4081],[-109.92567,24.41036],[-109.92706,24.41257],[-109.93008,24.416],[-109.93227,24.41757],[-109.93351,24.41808],[-109.93524,24.41852],[-109.93563,24.41893],[-109.93603,24.42164],[-109.93662,24.4239],[-109.93732,24.4257],[-109.93812,24.42706],[-109.93867,24.42954],[-109.93945,24.43135],[-109.93994,24.43518],[-109.93994,24.43541],[-109.93946,24.43587],[-109.93549,24.43568],[-109.93152,24.43572],[-109.93103,24.4365],[-109.93037,24.43947],[-109.92989,24.44376],[-109.93226,24.44782],[-109.93313,24.45188],[-109.9326,24.45414],[-109.93149,24.4564],[-109.93464,24.46046],[-109.93606,24.46159],[-109.93946,24.46317],[-109.94409,24.4643],[-109.94462,24.46452],[-109.94615,24.46585],[-109.94813,24.46667],[-109.95077,24.46881],[-109.95168,24.46994],[-109.95517,24.47332],[-109.9578,24.47519],[-109.95974,24.47716],[-109.96053,24.47775],[-109.9635,24.47891],[-109.96598,24.48022],[-109.96735,24.48122],[-109.96871,24.48178],[-109.97144,24.48252],[-109.97292,24.48334],[-109.97516,24.4841],[-109.97714,24.48506],[-109.98135,24.48581],[-109.98656,24.48574]],[[-109.96846,24.48168],[-109.96846,24.48168]],[[-109.96152,24.47806],[-109.96152,24.47806]],[[-109.95383,24.47197],[-109.95383,24.47197]],[[-109.934,24.45956],[-109.934,24.45956]],[[-109.93351,24.45888],[-109.93351,24.45888]],[[-109.93227,24.4573],[-109.93227,24.4573]],[[-109.9816,24.43813],[-109.98293,24.43654],[-109.98336,24.43563],[-109.98317,24.43541],[-109.98111,24.43465],[-109.97887,24.43516],[-109.97832,24.43563],[-109.97871,24.43676],[-109.97945,24.43766],[-109.98086,24.4383],[-109.98135,24.43832],[-109.9816,24.43813]],[[-109.97838,24.43586],[-109.97838,24.43586]],[[-109.93797,24.42683],[-109.93797,24.42683]],[[-109.93574,24.41983],[-109.93574,24.41983]]]},"properties":{"depth_m":400}},{"type":"Feature","geometry":{"type":"MultiLineString","coordinates":[[[-109.90878,24.49905],[-109.90831,24.49793],[-109.90587,24.49386],[-109.90351,24.49197],[-109.90075,24.48935],[-109.89805,24.4872],[-109.89632,24.48637],[-109.89384,24.48544],[-109.88962,24.48572]],[[-109.99003,24.49032],[-109.99375,24.48905],[-109.99568,24.48777],[-109.99772,24.48676],[-109.9997,24.48475],[-110.00218,24.48294],[-110.00275,24.48122],[-110.00291,24.47739],[-110.00238,24.47287],[-110.00214,24.46881],[-110.00239,24.46452],[-110.00193,24.46356],[-109.99935,24.46023],[-109.99796,24.4588],[-109.99607,24.4573],[-109.99508,24.45617],[-109.99375,24.45207],[-109.99001,24.44376],[-109.98953,24.4431],[-109.9873,24.44123],[-109.98601,24.4397],[-109.98577,24.43563],[-109.98558,24.43541],[-109.98532,24.43517],[-109.98135,24.43365],[-109.97714,24.43355],[-109.97615,24.4333],[-109.97466,24.43256],[-109.97367,24.43141],[-109.97334,24.42728],[-109.97353,24.42299],[-109.97325,24.41871],[-109.972,24.41464],[-109.96826,24.409],[-109.96648,24.40449],[-109.96573,24.40183],[-109.96474,24.4],[-109.96449,24.39978],[-109.96226,24.3995],[-109.96053,24.39911],[-109.95805,24.39765],[-109.95458,24.39596],[-109.95235,24.39529],[-109.95012,24.39495],[-109.94788,24.3947],[-109.9283,24.39403],[-109.91913,24.39335],[-109.91718,24.39365],[-109.91689,24.39386],[-109.91662,24.39411],[-109.91641,24.39501],[-109.91615,24.39794],[-109.91728,24.40201],[-109.91813,24.40362],[-109.91888,24.40479],[-109.92003,24.40607],[-109.92284,24.40842],[-109.92482,24.41036],[-109.92607,24.41261],[-109.92768,24.41464],[-109.9283,24.41587],[-109.92904,24.41681],[-109.93028,24.41776],[-109.93262,24.41871],[-109.93311,24.41916],[-109.9341,24.42074],[-109.93495,24.42254],[-109.93633,24.42706],[-109.93605,24.42977],[-109.93563,24.43135],[-109.93511,24.4318],[-109.934,24.43235],[-109.93127,24.43314],[-109.92878,24.43541],[-109.92825,24.44376],[-109.92926,24.44602],[-109.93127,24.44917],[-109.93196,24.45188],[-109.93152,24.45327],[-109.93103,24.45375],[-109.92879,24.45341],[-109.92805,24.45302],[-109.927,24.45188],[-109.92309,24.45053],[-109.9226,24.45065],[-109.92101,24.45166],[-109.92076,24.45188],[-109.92087,24.45234],[-109.92284,24.45357],[-109.92483,24.45382],[-109.92569,24.45414],[-109.92623,24.45482],[-109.92658,24.45617],[-109.92706,24.4565],[-109.92919,24.4573],[-109.93053,24.45816],[-109.93127,24.45889],[-109.93321,24.46136],[-109.93425,24.46232],[-109.93601,24.46339],[-109.93917,24.46452],[-109.9393,24.46475],[-109.9392,24.46497],[-109.93772,24.46634],[-109.93594,24.46768],[-109.93406,24.46881],[-109.93404,24.46904],[-109.9345,24.46978],[-109.93599,24.47084],[-109.93772,24.47148],[-109.9397,24.47174],[-109.94193,24.47005],[-109.94392,24.46828],[-109.94516,24.46805],[-109.94788,24.46793],[-109.94898,24.46881],[-109.94962,24.47011],[-109.95036,24.4711],[-109.95235,24.47266],[-109.95399,24.47445],[-109.95631,24.47587],[-109.95966,24.47874],[-109.96226,24.48014],[-109.96386,24.48122],[-109.96995,24.48378],[-109.97268,24.48566],[-109.97565,24.48641],[-109.97863,24.4874],[-109.98011,24.48815],[-109.98135,24.48912],[-109.98261,24.48957],[-109.98557,24.49036],[-109.98953,24.49046],[-109.99003,24.49032]],[[-109.99251,24.48957],[-109.99251,24.48957]],[[-109.99747,24.48687],[-109.99747,24.48687]],[[-109.93202,24.47832],[-109.93326,24.47767],[-109.9338,24.47716],[-109.9338,24.47694],[-109.93326,24.47571],[-109.93251,24.47456],[-109.93152,24.47352],[-109.93103,24.4734],[-109.93028,24.47397],[-109.92985,24.47468],[-109.92938,24.47694],[-109.93103,24.47835],[-109.93152,24.47848],[-109.93202,24.47832]],[[-109.95904,24.47829],[-109.95904,24.47829]],[[-109.95731,24.47671],[-109.95731,24.47671]],[[-109.95706,24.47648],[-109.95706,24.47648]],[[-109.95458,24.4749],[-109.95458,24.4749]],[[-109.95309,24.47355],[-109.95309,24.47355]],[[-109.92879,24.44511],[-109.92879,24.44511]],[[-109.92607,24.41261],[-109.92607,24.41261]],[[-109.91838,24.40404],[-109.91838,24.40404]],[[-109.91689,24.40043],[-109.91689,24.40043]],[[-109.91665,24.39952],[-109.91665,24.39952]]]},"properties":{"depth_m":425}},{"type":"Feature","geometry":{"type":"MultiLineString","coordinates":[[[-109.91102,24.49905],[-109.91048,24.49793],[-109.908,24.49386],[-109.90711,24.49273],[-109.90243,24.48845],[-109.89842,24.48529],[-109.8978,24.48491],[-109.89384,24.48359],[-109.88962,24.48376]],[[-109.99003,24.49343],[-109.99375,24.49207],[-109.99548,24.49091],[-109.99776,24.4898],[-110.0002,24.4869],[-110.00218,24.48499],[-110.0026,24.48416],[-110.00345,24.48122],[-110.00342,24.47716],[-110.00283,24.47287],[-110.00263,24.46904],[-110.00294,24.46452],[-110.00218,24.46253],[-110.00065,24.46046],[-109.99639,24.45617],[-109.99357,24.44782],[-109.99153,24.44376],[-109.98953,24.44062],[-109.98857,24.4397],[-109.98812,24.43902],[-109.98755,24.43766],[-109.98706,24.43563],[-109.98662,24.43518],[-109.98532,24.4344],[-109.98325,24.4336],[-109.98135,24.43265],[-109.97863,24.4319],[-109.97799,24.43157],[-109.97752,24.43112],[-109.97684,24.42728],[-109.9758,24.42503],[-109.97478,24.42119],[-109.97433,24.41871],[-109.97281,24.41464],[-109.96862,24.40878],[-109.96676,24.40449],[-109.96577,24.40133],[-109.96499,24.39989],[-109.96449,24.39936],[-109.96226,24.39894],[-109.96078,24.39844],[-109.9583,24.39705],[-109.95507,24.39566],[-109.95309,24.39509],[-109.95111,24.39476],[-109.94788,24.39444],[-109.93304,24.39388],[-109.91913,24.3928],[-109.91482,24.39365],[-109.91461,24.39411],[-109.91506,24.39569],[-109.91536,24.39794],[-109.91663,24.40201],[-109.91782,24.40426],[-109.91903,24.40607],[-109.92397,24.41036],[-109.92508,24.41265],[-109.9264,24.41464],[-109.92688,24.41645],[-109.92731,24.41741],[-109.92779,24.41803],[-109.93152,24.42152],[-109.93323,24.42435],[-109.93434,24.42706],[-109.93392,24.42819],[-109.93294,24.42954],[-109.92863,24.4327],[-109.92728,24.43405],[-109.92643,24.43541],[-109.92656,24.4397],[-109.92617,24.44376],[-109.92644,24.44466],[-109.92706,24.44559],[-109.92797,24.44782],[-109.92782,24.44827],[-109.92706,24.44896],[-109.92309,24.44837],[-109.9221,24.44861],[-109.91937,24.44994],[-109.91722,24.45166],[-109.91697,24.45188],[-109.91697,24.45211],[-109.91888,24.45316],[-109.92398,24.4564],[-109.9278,24.4582],[-109.92904,24.45899],[-109.93033,24.46023],[-109.93103,24.46179],[-109.93167,24.46272],[-109.93261,24.46362],[-109.93364,24.4643],[-109.93396,24.46475],[-109.93127,24.46646],[-109.92706,24.46768],[-109.92476,24.46881],[-109.92284,24.47024],[-109.9221,24.47098],[-109.92073,24.47265],[-109.92081,24.4731],[-109.92405,24.47603],[-109.92706,24.47977],[-109.92879,24.48122],[-109.93127,24.48217],[-109.93549,24.48259],[-109.93772,24.4818],[-109.93881,24.48122],[-109.93946,24.48017],[-109.94174,24.47806],[-109.94367,24.47508],[-109.94591,24.47287],[-109.94764,24.47208],[-109.94788,24.47213],[-109.94849,24.47287],[-109.94912,24.47419],[-109.94987,24.47487],[-109.9521,24.4756],[-109.95359,24.47662],[-109.95607,24.47761],[-109.95854,24.47969],[-109.96226,24.48181],[-109.96673,24.48368],[-109.97003,24.48551],[-109.97292,24.48684],[-109.9759,24.4879],[-109.97888,24.48957],[-109.98334,24.49133],[-109.98557,24.4928],[-109.98929,24.49354],[-109.99003,24.49343]],[[-110.00044,24.48664],[-110.00044,24.48664]],[[-109.96524,24.48303],[-109.96524,24.48303]],[[-109.93623,24.48235],[-109.93623,24.48235]],[[-109.92681,24.47942],[-109.92681,24.47942]],[[-109.92557,24.47784],[-109.92557,24.47784]],[[-109.92111,24.47332],[-109.92111,24.47332]],[[-109.93326,24.46407],[-109.93326,24.46407]],[[-109.92582,24.4573],[-109.92582,24.4573]],[[-109.92656,24.43518],[-109.92656,24.43518]],[[-109.93177,24.42187],[-109.93177,24.42187]],[[-109.92681,24.41622],[-109.92681,24.41622]]]},"properties":{"depth_m":450}},{"type":"Feature","geometry":{"type":"MultiLineString","coordinates":[[[-109.91312,24.49905],[-109.91184,24.49657],[-109.90843,24.49161],[-109.904,24.48736],[-109.9005,24.48461],[-109.89805,24.48309],[-109.89384,24.48172],[-109.88962,24.4818]],[[-109.99003,24.49503],[-109.99375,24.49432],[-109.9951,24.49364],[-109.99796,24.49171],[-109.99997,24.4898],[-110.00218,24.4873],[-110.00329,24.48529],[-110.00382,24.48348],[-110.00414,24.48122],[-110.00392,24.47716],[-110.00327,24.47287],[-110.0031,24.46904],[-110.00349,24.46452],[-110.00193,24.46069],[-109.9977,24.45617],[-109.99375,24.44518],[-109.99304,24.44376],[-109.99015,24.43924],[-109.98891,24.43699],[-109.98835,24.43563],[-109.98786,24.43518],[-109.98557,24.43377],[-109.98309,24.43264],[-109.98063,24.43135],[-109.98045,24.43112],[-109.98111,24.42929],[-109.98146,24.42751],[-109.98146,24.42683],[-109.98111,24.42583],[-109.97739,24.42329],[-109.97689,24.42271],[-109.97601,24.42074],[-109.97402,24.41464],[-109.97268,24.41342],[-109.97054,24.41036],[-109.96871,24.40806],[-109.96697,24.40429],[-109.96584,24.40088],[-109.96506,24.39952],[-109.96449,24.39894],[-109.96172,24.39817],[-109.95935,24.39681],[-109.95755,24.39602],[-109.95483,24.39507],[-109.9521,24.39454],[-109.94788,24.39417],[-109.93655,24.39365],[-109.92979,24.39294],[-109.91913,24.39226],[-109.91615,24.39272],[-109.91442,24.39321],[-109.91394,24.39365],[-109.9139,24.39411],[-109.91458,24.39794],[-109.91599,24.40201],[-109.91687,24.40381],[-109.91863,24.40659],[-109.92312,24.41036],[-109.92408,24.41272],[-109.92515,24.41464],[-109.92571,24.41848],[-109.92706,24.42276],[-109.92732,24.42299],[-109.92954,24.42394],[-109.93103,24.4249],[-109.93221,24.42683],[-109.93219,24.42728],[-109.93127,24.4283],[-109.92706,24.43115],[-109.92452,24.43541],[-109.92457,24.4397],[-109.92376,24.44218],[-109.92284,24.44388],[-109.92111,24.4454],[-109.91863,24.44695],[-109.91466,24.45019],[-109.91318,24.451],[-109.912,24.45188],[-109.91236,24.45234],[-109.91466,24.45323],[-109.91863,24.4551],[-109.92136,24.45668],[-109.92706,24.45919],[-109.92869,24.46046],[-109.92855,24.46294],[-109.92828,24.4643],[-109.92769,24.46475],[-109.92309,24.46665],[-109.91966,24.46881],[-109.91887,24.46971],[-109.91839,24.47062],[-109.91792,24.47265],[-109.91804,24.4731],[-109.92106,24.47581],[-109.92284,24.47806],[-109.92656,24.48215],[-109.92731,24.4827],[-109.92954,24.48345],[-109.93127,24.48394],[-109.93549,24.4844],[-109.9397,24.48338],[-109.94392,24.48343],[-109.94615,24.48281],[-109.94788,24.48214],[-109.95185,24.4798],[-109.95607,24.48001],[-109.95954,24.48209],[-109.96219,24.48326],[-109.96474,24.48403],[-109.96772,24.48554],[-109.97466,24.48864],[-109.9763,24.48957],[-109.98001,24.49115],[-109.98268,24.49251],[-109.98532,24.49436],[-109.98929,24.49505],[-109.99003,24.49503]],[[-109.98631,24.49454],[-109.98631,24.49454]],[[-109.99598,24.49296],[-109.99598,24.49296]],[[-110.00094,24.48867],[-110.00094,24.48867]],[[-109.92037,24.47513],[-109.92037,24.47513]],[[-109.92012,24.4749],[-109.92012,24.4749]],[[-109.92334,24.44308],[-109.92334,24.44308]],[[-109.91565,24.40088],[-109.91565,24.40088]]]},"properties":{"depth_m":475}},{"type":"Feature","geometry":{"type":"MultiLineString","coordinates":[[[-109.91505,24.49905],[-109.91448,24.49725],[-109.91343,24.49522],[-109.90998,24.49025],[-109.90574,24.48616],[-109.90301,24.48394],[-109.90064,24.48235],[-109.89818,24.48122],[-109.89384,24.48026],[-109.88962,24.48024]],[[-109.99053,24.49635],[-109.99375,24.49573],[-109.99807,24.49364],[-110.0002,24.49178],[-110.00218,24.48969],[-110.00338,24.48799],[-110.00428,24.48619],[-110.0046,24.48529],[-110.00486,24.48122],[-110.00442,24.47716],[-110.00372,24.47287],[-110.00357,24.46859],[-110.00404,24.46452],[-110.00312,24.46181],[-110.00218,24.45974],[-109.99892,24.45617],[-109.99375,24.44268],[-109.99086,24.43834],[-109.98961,24.43563],[-109.98557,24.43301],[-109.98277,24.43157],[-109.98227,24.43112],[-109.98245,24.42706],[-109.98143,24.42277],[-109.98111,24.42242],[-109.97862,24.42141],[-109.97714,24.42027],[-109.97658,24.41893],[-109.9753,24.41464],[-109.97441,24.41372],[-109.97268,24.4124],[-109.97125,24.41036],[-109.96871,24.40718],[-109.96734,24.40449],[-109.96611,24.40088],[-109.96526,24.3993],[-109.96449,24.39852],[-109.96259,24.39794],[-109.96028,24.39647],[-109.95904,24.39589],[-109.95569,24.39478],[-109.95309,24.3943],[-109.94348,24.39365],[-109.934,24.39252],[-109.92384,24.39191],[-109.91863,24.39172],[-109.91491,24.39238],[-109.91442,24.39259],[-109.91327,24.39365],[-109.91324,24.39411],[-109.91392,24.39794],[-109.91544,24.40223],[-109.91764,24.40635],[-109.91863,24.40743],[-109.92229,24.41058],[-109.9239,24.41464],[-109.92364,24.41871],[-109.92507,24.42277],[-109.92706,24.42524],[-109.92902,24.42661],[-109.92929,24.42706],[-109.92926,24.42728],[-109.92731,24.4286],[-109.92681,24.42912],[-109.92264,24.43541],[-109.92258,24.43947],[-109.92136,24.44143],[-109.92035,24.4424],[-109.91824,24.44376],[-109.91466,24.44675],[-109.91318,24.44721],[-109.90997,24.44782],[-109.90951,24.44827],[-109.90916,24.44895],[-109.90822,24.45153],[-109.90813,24.45211],[-109.91045,24.45399],[-109.91466,24.45542],[-109.92032,24.45798],[-109.9262,24.46023],[-109.92645,24.46046],[-109.9265,24.46069],[-109.92632,24.46091],[-109.92494,24.46227],[-109.92012,24.46564],[-109.91863,24.46656],[-109.91401,24.46859],[-109.91393,24.46881],[-109.91408,24.46904],[-109.91491,24.46979],[-109.91547,24.47062],[-109.91631,24.4731],[-109.92012,24.47716],[-109.92348,24.48145],[-109.92582,24.48368],[-109.92731,24.4848],[-109.93103,24.48563],[-109.93524,24.48616],[-109.9397,24.48587],[-109.94367,24.48657],[-109.94788,24.4867],[-109.94985,24.48506],[-109.9521,24.48362],[-109.95631,24.48302],[-109.95854,24.4839],[-109.96474,24.48524],[-109.96655,24.48619],[-109.96896,24.48714],[-109.97912,24.4918],[-109.98532,24.49547],[-109.98953,24.49649],[-109.99053,24.49635]],[[-109.97962,24.49206],[-109.97962,24.49206]],[[-109.97367,24.48935],[-109.97367,24.48935]],[[-109.92012,24.47716],[-109.92012,24.47716]],[[-109.91615,24.47287],[-109.91615,24.47287]],[[-109.91813,24.46678],[-109.91813,24.46678]],[[-109.92632,24.46091],[-109.92632,24.46091]],[[-109.9221,24.45865],[-109.9221,24.45865]],[[-109.91888,24.4573],[-109.91888,24.4573]],[[-109.91144,24.45437],[-109.91144,24.45437]],[[-109.90896,24.4494],[-109.90896,24.4494]],[[-109.92309,24.43473],[-109.92309,24.43473]],[[-109.92557,24.42345],[-109.92557,24.42345]]]},"properties":{"depth_m":500}},{"type":"Feature","geometry":{"type":"MultiLineString","coordinates":[[[-109.91505,24.49905],[-109.91448,24.49725],[-109.91343,24.49522],[-109.90998,24.49025],[-109.90574,24.48616],[-109.90301,24.48394],[-109.90064,24.48235],[-109.89818,24.48122],[-109.89384,24.48026],[-109.88962,24.48024]],[[-109.99053,24.49635],[-109.99375,24.49573],[-109.99807,24.49364],[-110.0002,24.49178],[-110.00218,24.48969],[-110.00338,24.48799],[-110.00428,24.48619],[-110.0046,24.48529],[-110.00486,24.48122],[-110.00442,24.47716],[-110.00372,24.47287],[-110.00357,24.46859],[-110.00404,24.46452],[-110.00312,24.46181],[-110.00218,24.45974],[-109.99892,24.45617],[-109.99375,24.44268],[-109.99086,24.43834],[-109.98961,24.43563],[-109.98557,24.43301],[-109.98277,24.43157],[-109.98227,24.43112],[-109.98245,24.42706],[-109.98143,24.42277],[-109.98111,24.42242],[-109.97862,24.42141],[-109.97714,24.42027],[-109.97658,24.41893],[-109.9753,24.41464],[-109.97441,24.41372],[-109.97268,24.4124],[-109.97125,24.41036],[-109.96871,24.40718],[-109.96734,24.40449],[-109.96611,24.40088],[-109.96526,24.3993],[-109.96449,24.39852],[-109.96259,24.39794],[-109.96028,24.39647],[-109.95904,24.39589],[-109.95569,24.39478],[-109.95309,24.3943],[-109.94348,24.39365],[-109.934,24.39252],[-109.92384,24.39191],[-109.91863,24.39172],[-109.91491,24.39238],[-109.91442,24.39259],[-109.91327,24.39365],[-109.91324,24.39411],[-109.91392,24.39794],[-109.91544,24.40223],[-109.91764,24.40635],[-109.91863,24.40743],[-109.92229,24.41058],[-109.9239,24.41464],[-109.92364,24.41871],[-109.92507,24.42277],[-109.92706,24.42524],[-109.92902,24.42661],[-109.92929,24.42706],[-109.92926,24.42728],[-109.92731,24.4286],[-109.92681,24.42912],[-109.92264,24.43541],[-109.92258,24.43947],[-109.92136,24.44143],[-109.92035,24.4424],[-109.91824,24.44376],[-109.91466,24.44675],[-109.91318,24.44721],[-109.90997,24.44782],[-109.90951,24.44827],[-109.90916,24.44895],[-109.90822,24.45153],[-109.90813,24.45211],[-109.91045,24.45399],[-109.91466,24.45542],[-109.92032,24.45798],[-109.9262,24.46023],[-109.92645,24.46046],[-109.9265,24.46069],[-109.92632,24.46091],[-109.92494,24.46227],[-109.92012,24.46564],[-109.91863,24.46656],[-109.91401,24.46859],[-109.91393,24.46881],[-109.91408,24.46904],[-109.91491,24.46979],[-109.91547,24.47062],[-109.91631,24.4731],[-109.92012,24.47716],[-109.92348,24.48145],[-109.92582,24.48368],[-109.92731,24.4848],[-109.93103,24.48563],[-109.93524,24.48616],[-109.9397,24.48587],[-109.94367,24.48657],[-109.94788,24.4867],[-109.94985,24.48506],[-109.9521,24.48362],[-109.95631,24.48302],[-109.95854,24.4839],[-109.96474,24.48524],[-109.96655,24.48619],[-109.96896,24.48714],[-109.97912,24.4918],[-109.98532,24.49547],[-109.98953,24.49649],[-109.99053,24.49635]],[[-109.97962,24.49206],[-109.97962,24.49206]],[[-109.97367,24.48935],[-109.97367,24.48935]],[[-109.92012,24.47716],[-109.92012,24.47716]],[[-109.91615,24.47287],[-109.91615,24.47287]],[[-109.91813,24.46678],[-109.91813,24.46678]],[[-109.92632,24.46091],[-109.92632,24.46091]],[[-109.9221,24.45865],[-109.9221,24.45865]],[[-109.91888,24.4573],[-109.91888,24.4573]],[[-109.91144,24.45437],[-109.91144,24.45437]],[[-109.90896,24.4494],[-109.90896,24.4494]],[[-109.92309,24.43473],[-109.92309,24.43473]],[[-109.92557,24.42345],[-109.92557,24.42345]]]},"properties":{"depth_m":500}},{"type":"Feature","geometry":{"type":"MultiLineString","coordinates":[[[-110.00738,24.49905],[-110.00769,24.49793],[-110.00802,24.49386],[-110.00838,24.49234]],[[-109.98399,24.49905],[-109.98135,24.49709],[-109.97863,24.49609],[-109.9754,24.49455],[-109.97388,24.49364],[-109.96871,24.49223],[-109.96449,24.49246],[-109.96168,24.49386],[-109.96028,24.49481],[-109.95699,24.49905]],[[-109.94219,24.49905],[-109.93946,24.49708],[-109.93549,24.49731],[-109.93127,24.49576],[-109.92706,24.49362],[-109.92334,24.49319],[-109.92309,24.49319],[-109.9226,24.49358],[-109.92186,24.49499],[-109.92131,24.4968],[-109.92092,24.49905]],[[-110.00838,24.48467],[-110.00806,24.48393],[-110.00551,24.47287],[-110.00545,24.46881],[-110.00623,24.46452],[-110.00543,24.46114],[-110.00512,24.46023],[-110.00303,24.45617],[-110.00218,24.45388],[-110.00032,24.4503],[-109.9992,24.4476],[-109.99726,24.44376],[-109.99559,24.43947],[-109.99312,24.43541],[-109.99127,24.43387],[-109.98723,24.43112],[-109.98496,24.42299],[-109.98257,24.41871],[-109.9817,24.41464],[-109.98135,24.41406],[-109.97962,24.41219],[-109.97839,24.41058],[-109.97763,24.40992],[-109.97689,24.40951],[-109.97292,24.40883],[-109.97069,24.40617],[-109.96871,24.40478],[-109.96747,24.40227],[-109.96697,24.39998],[-109.96643,24.39862],[-109.96499,24.39676],[-109.96275,24.39523],[-109.96121,24.39388],[-109.96073,24.39095]],[[-109.88962,24.47517],[-109.89384,24.47487],[-109.90202,24.47496],[-109.90397,24.4731],[-109.90252,24.4722],[-109.90202,24.47169],[-109.90137,24.47039],[-109.90091,24.46881],[-109.90093,24.46452],[-109.90202,24.46236],[-109.90333,24.46046],[-109.90333,24.46023],[-109.90241,24.45617],[-109.89955,24.45211],[-109.89907,24.44805],[-109.89939,24.44692],[-109.90072,24.44421],[-109.90227,24.44232],[-109.90524,24.44128],[-109.91045,24.44022],[-109.91293,24.43891],[-109.91417,24.43804],[-109.91515,24.43699],[-109.91603,24.43563],[-109.91785,24.43135],[-109.9214,24.42728],[-109.92137,24.42683],[-109.91891,24.42299],[-109.91955,24.41464],[-109.91862,24.41171],[-109.91817,24.41058],[-109.91609,24.40855],[-109.91453,24.40629],[-109.91131,24.39794],[-109.9106,24.39365],[-109.91332,24.39095]],[[-109.90623,24.44105],[-109.90623,24.44105]]]},"properties":{"depth_m":600}},{"type":"Feature","geometry":{"type":"MultiLineString","coordinates":[[[-110.00838,24.46986],[-110.00838,24.46839]],[[-109.88962,24.46618],[-109.89148,24.46452],[-109.89171,24.46069],[-109.89171,24.46046],[-109.89116,24.46001],[-109.88962,24.45924]],[[-110.00838,24.46117],[-110.00751,24.45888],[-110.0058,24.45617],[-110.00386,24.45053],[-110.0031,24.44918],[-110.00208,24.44782],[-110.00024,24.44376],[-109.99962,24.44128],[-109.99896,24.43951],[-109.99772,24.43794],[-109.99532,24.43383],[-109.99442,24.43293],[-109.99186,24.43112],[-109.99094,24.42931],[-109.98953,24.42738],[-109.98822,24.42141],[-109.98705,24.41871],[-109.98665,24.41464],[-109.98532,24.41251],[-109.98383,24.4097],[-109.98241,24.4081],[-109.97951,24.40629],[-109.97838,24.40504],[-109.97714,24.4041],[-109.97292,24.40429],[-109.97168,24.4035],[-109.96896,24.40304],[-109.96871,24.40282],[-109.9683,24.40201],[-109.96808,24.39704],[-109.96773,24.39523],[-109.96747,24.39481],[-109.96697,24.39444],[-109.96474,24.39403],[-109.96424,24.39365],[-109.96427,24.39095]],[[-109.88962,24.44865],[-109.89118,24.44692],[-109.89222,24.44534],[-109.89465,24.43947],[-109.89805,24.43543],[-109.90227,24.435],[-109.90648,24.43576],[-109.9102,24.43469],[-109.91144,24.43338],[-109.91392,24.42937],[-109.91561,24.42728],[-109.91563,24.42683],[-109.91442,24.42459],[-109.91392,24.42322],[-109.91392,24.42277],[-109.91541,24.42051],[-109.91615,24.4188],[-109.91642,24.41442],[-109.91556,24.41284],[-109.91378,24.41036],[-109.91172,24.40629],[-109.9103,24.40201],[-109.90703,24.39388],[-109.90718,24.39343],[-109.90797,24.39244],[-109.90979,24.39095]],[[-109.90549,24.43563],[-109.90549,24.43563]],[[-109.91392,24.42277],[-109.91392,24.42277]],[[-109.91541,24.42051],[-109.91541,24.42051]]]},"properties":{"depth_m":700}},{"type":"Feature","geometry":{"type":"MultiLineString","coordinates":[[[-109.88962,24.43994],[-109.89097,24.43812],[-109.89281,24.43518],[-109.89384,24.43408],[-109.89529,24.43315],[-109.89805,24.4317],[-109.90623,24.43199],[-109.90763,24.43112],[-109.9102,24.42818],[-109.91091,24.42706],[-109.9104,24.42277],[-109.91285,24.41871],[-109.9133,24.41464],[-109.91156,24.41194],[-109.90999,24.40878],[-109.90764,24.40201],[-109.90623,24.39886],[-109.9045,24.39611],[-109.90242,24.39388],[-109.90249,24.3932],[-109.90369,24.39095]]]},"properties":{"depth_m":800}},{"type":"Feature","geometry":{"type":"MultiLineString","coordinates":[[[-109.88962,24.43397],[-109.89258,24.43067],[-109.89409,24.42945],[-109.8978,24.42822],[-109.90227,24.42823],[-109.90375,24.42764],[-109.90472,24.42706],[-109.90623,24.42511],[-109.90755,24.42119],[-109.90867,24.41871],[-109.90925,24.41464],[-109.90738,24.41036],[-109.90623,24.40563],[-109.90463,24.40201],[-109.90224,24.39794],[-109.90041,24.39523],[-109.89894,24.39253],[-109.89743,24.39095]],[[-109.89557,24.42886],[-109.89557,24.42886]],[[-109.90772,24.42074],[-109.90772,24.42074]]]},"properties":{"depth_m":900}},{"type":"Feature","geometry":{"type":"MultiLineString","coordinates":[[[-109.88962,24.427],[-109.89136,24.42593],[-109.89359,24.42504],[-109.89805,24.42453],[-109.90028,24.42392],[-109.90191,24.42322],[-109.9023,24.42277],[-109.90297,24.41983],[-109.9044,24.41487],[-109.90442,24.41442],[-109.90347,24.41036],[-109.90294,24.40629],[-109.90131,24.40223],[-109.89919,24.39794],[-109.89679,24.39388],[-109.89437,24.39095]],[[-109.89136,24.42593],[-109.89136,24.42593]]]},"properties":{"depth_m":1000}},{"type":"Feature","geometry":{"type":"MultiLineString","coordinates":[[[-109.88962,24.42088],[-109.89384,24.41989],[-109.89555,24.41871],[-109.8978,24.41456],[-109.89857,24.41058],[-109.8984,24.40629],[-109.89756,24.40201],[-109.89356,24.39388],[-109.89117,24.39095]]]},"properties":{"depth_m":1100}},{"type":"Feature","geometry":{"type":"MultiLineString","coordinates":[[[-109.88962,24.40969],[-109.89024,24.40878],[-109.89138,24.40629],[-109.89169,24.40246],[-109.89071,24.39794],[-109.88962,24.39517]],[[-109.89012,24.409],[-109.89012,24.409]]]},"properties":{"depth_m":1200}}]}