{"type":"FeatureCollection","features":[{"type":"Feature","geometry":{"type":"Polygon","coordinates":[[[-109.918,24.357],[-109.917,24.35],[-109.912,24.345],[-109.912,24.342],[-109.907,24.339],[-109.905,24.336],[-109.904,24.33],[-109.901,24.327],[-109.898,24.322],[-109.896,24.321],[-109.894,24.318],[-109.892,24.317],[-109.89,24.313],[-109.888,24.312],[-109.888,24.309],[-109.885,24.304],[-109.884,24.301],[-109.883,24.299],[-109.883,24.294],[-109.879,24.29],[-109.878,24.286],[-109.875,24.284],[-109.873,24.281],[-109.871,24.277],[-109.871,24.274],[-109.87,24.272],[-109.868,24.271],[-109.865,24.268],[-109.863,24.264],[-109.859,24.261],[-109.857,24.26],[-109.855,24.249],[-109.854,24.249],[-109.852,24.244],[-109.847,24.241],[-109.846,24.235],[-109.844,24.234],[-109.844,24.232],[-109.843,24.229],[-109.837,24.224],[-109.833,24.222],[-109.83,24.219],[-109.828,24.214],[-109.822,24.209],[-109.819,24.205],[-109.817,24.199],[-109.816,24.197],[-109.815,24.193],[-109.813,24.19],[-109.811,24.185],[-109.809,24.183],[-109.808,24.172],[-109.804,24.167],[-109.804,24.166],[-109.803,24.162],[-109.8,24.159],[-109.799,24.158],[-109.799,24.157],[-109.799,24.157],[-109.799,24.157],[-109.799,24.156],[-109.801,24.155],[-109.8,24.151],[-109.801,24.15],[-109.801,24.149],[-109.801,24.148],[-109.801,24.147],[-109.803,24.144],[-109.803,24.141],[-109.802,24.139],[-109.803,24.138],[-109.806,24.138],[-109.811,24.141],[-109.81,24.142],[-109.813,24.142],[-109.818,24.144],[-109.821,24.143],[-109.821,24.144],[-109.825,24.144],[-109.827,24.142],[-109.827,24.143],[-109.83,24.144],[-109.832,24.145],[-109.833,24.145],[-109.836,24.146],[-109.835,24.146],[-109.837,24.146],[-109.837,24.147],[-109.842,24.147],[-109.842,24.148],[-109.843,24.147],[-109.846,24.148],[-109.848,24.148],[-109.85,24.149],[-109.855,24.148],[-109.857,24.149],[-109.863,24.148],[-109.866,24.15],[-109.868,24.152],[-109.874,24.153],[-109.874,24.155],[-109.872,24.158],[-109.872,24.16],[-109.876,24.165],[-109.878,24.168],[-109.878,24.171],[-109.881,24.174],[-109.883,24.176],[-109.887,24.179],[-109.887,24.182],[-109.889,24.183],[-109.89,24.185],[-109.892,24.186],[-109.893,24.187],[-109.896,24.193],[-109.896,24.196],[-109.899,24.2],[-109.9,24.201],[-109.9,24.203],[-109.9,24.206],[-109.901,24.207],[-109.902,24.21],[-109.905,24.213],[-109.906,24.218],[-109.907,24.22],[-109.908,24.223],[-109.911,24.228],[-109.913,24.235],[-109.913,24.238],[-109.915,24.241],[-109.914,24.244],[-109.917,24.248],[-109.918,24.249],[-109.919,24.251],[-109.921,24.255],[-109.923,24.264],[-109.923,24.265],[-109.924,24.268],[-109.923,24.273],[-109.922,24.274],[-109.921,24.279],[-109.919,24.28],[-109.919,24.283],[-109.918,24.289],[-109.919,24.292],[-109.923,24.3],[-109.925,24.3],[-109.925,24.301],[-109.925,24.304],[-109.928,24.305],[-109.928,24.309],[-109.931,24.312],[-109.932,24.316],[-109.934,24.317],[-109.935,24.319],[-109.934,24.319],[-109.937,24.322],[-109.937,24.323],[-109.938,24.324],[-109.938,24.326],[-109.937,24.327],[-109.938,24.332],[-109.936,24.338],[-109.936,24.344],[-109.936,24.347],[-109.935,24.352],[-109.934,24.353],[-109.934,24.357],[-109.932,24.361],[-109.932,24.369],[-109.932,24.372],[-109.932,24.374],[-109.931,24.374],[-109.927,24.372],[-109.925,24.368],[-109.922,24.366],[-109.92,24.363],[-109.92,24.36],[-109.918,24.357]]]},"properties":{"id":"islas-del-golfo-de-california-25","name":"Islas del Golfo de California","type":"\u00c1rea de Protecci\u00f3n de Flora y Fauna","shortName":"Islas del Golfo de California","areaKm2":3745.5,"ccrCitation":null}}]}