{"type":"FeatureCollection","features":[{"type":"Feature","geometry":{"type":"Point","coordinates":[-109.9382,24.35226]},"properties":{"depth_ft":73,"depth_m":22.2}},{"type":"Feature","geometry":{"type":"Point","coordinates":[-109.90211,24.34129]},"properties":{"depth_ft":301,"depth_m":91.6}},{"type":"Feature","geometry":{"type":"Point","coordinates":[-109.87805,24.31935]},"properties":{"depth_ft":298,"depth_m":90.7}},{"type":"Feature","geometry":{"type":"Point","coordinates":[-109.87805,24.30839]},"properties":{"depth_ft":19,"depth_m":5.6}},{"type":"Feature","geometry":{"type":"Point","coordinates":[-109.92617,24.29742]},"properties":{"depth_ft":188,"depth_m":57.2}},{"type":"Feature","geometry":{"type":"Point","coordinates":[-109.87805,24.29742]},"properties":{"depth_ft":26,"depth_m":8.0}},{"type":"Feature","geometry":{"type":"Point","coordinates":[-109.92617,24.28645]},"properties":{"depth_ft":260,"depth_m":79.1}},{"type":"Feature","geometry":{"type":"Point","coordinates":[-109.92617,24.27548]},"properties":{"depth_ft":268,"depth_m":81.8}},{"type":"Feature","geometry":{"type":"Point","coordinates":[-109.86602,24.27548]},"properties":{"depth_ft":90,"depth_m":27.4}},{"type":"Feature","geometry":{"type":"Point","coordinates":[-109.92617,24.26452]},"properties":{"depth_ft":216,"depth_m":65.9}},{"type":"Feature","geometry":{"type":"Point","coordinates":[-109.92617,24.25355]},"properties":{"depth_ft":299,"depth_m":91.3}},{"type":"Feature","geometry":{"type":"Point","coordinates":[-109.91414,24.23161]},"properties":{"depth_ft":223,"depth_m":67.8}},{"type":"Feature","geometry":{"type":"Point","coordinates":[-109.82992,24.22065]},"properties":{"depth_ft":133,"depth_m":40.5}},{"type":"Feature","geometry":{"type":"Point","coordinates":[-109.81789,24.20968]},"properties":{"depth_ft":60,"depth_m":18.3}},{"type":"Feature","geometry":{"type":"Point","coordinates":[-109.99835,24.17678]},"properties":{"depth_ft":201,"depth_m":61.2}},{"type":"Feature","geometry":{"type":"Point","coordinates":[-109.99835,24.16581]},"properties":{"depth_ft":139,"depth_m":42.2}},{"type":"Feature","geometry":{"type":"Point","coordinates":[-109.87805,24.16581]},"properties":{"depth_ft":258,"depth_m":78.5}},{"type":"Feature","geometry":{"type":"Point","coordinates":[-109.99835,24.15484]},"properties":{"depth_ft":124,"depth_m":37.7}},{"type":"Feature","geometry":{"type":"Point","coordinates":[-109.98632,24.15484]},"properties":{"depth_ft":287,"depth_m":87.4}},{"type":"Feature","geometry":{"type":"Point","coordinates":[-109.79383,24.15484]},"properties":{"depth_ft":7,"depth_m":2.2}},{"type":"Feature","geometry":{"type":"Point","coordinates":[-109.7818,24.15484]},"properties":{"depth_ft":296,"depth_m":90.2}},{"type":"Feature","geometry":{"type":"Point","coordinates":[-109.99835,24.14387]},"properties":{"depth_ft":92,"depth_m":28.0}},{"type":"Feature","geometry":{"type":"Point","coordinates":[-109.98632,24.14387]},"properties":{"depth_ft":238,"depth_m":72.7}},{"type":"Feature","geometry":{"type":"Point","coordinates":[-109.86602,24.14387]},"properties":{"depth_ft":284,"depth_m":86.4}},{"type":"Feature","geometry":{"type":"Point","coordinates":[-109.85398,24.14387]},"properties":{"depth_ft":77,"depth_m":23.4}},{"type":"Feature","geometry":{"type":"Point","coordinates":[-109.84195,24.14387]},"properties":{"depth_ft":75,"depth_m":22.9}},{"type":"Feature","geometry":{"type":"Point","coordinates":[-109.79383,24.14387]},"properties":{"depth_ft":22,"depth_m":6.6}},{"type":"Feature","geometry":{"type":"Point","coordinates":[-109.7818,24.14387]},"properties":{"depth_ft":70,"depth_m":21.4}}]}