{"type":"FeatureCollection","features":[{"type":"Feature","geometry":{"type":"Polygon","coordinates":[[[-113.54347,26.74285],[-113.54621,26.74114],[-113.54742,26.74001],[-113.5489,26.73805],[-113.54954,26.73692],[-113.54979,26.73631],[-113.54981,26.73572],[-113.54918,26.73438],[-113.54887,26.73105],[-113.54866,26.73061],[-113.54783,26.72975],[-113.54579,26.72852],[-113.54532,26.72763],[-113.5459,26.72403],[-113.54665,26.72256],[-113.54728,26.72005],[-113.54748,26.71979],[-113.54925,26.71972],[-113.5518,26.7192],[-113.55609,26.71888],[-113.56217,26.71776],[-113.56727,26.71622],[-113.56984,26.71518],[-113.57118,26.71437],[-113.57283,26.71281],[-113.57372,26.71101],[-113.57369,26.71062],[-113.57342,26.71039],[-113.57338,26.71004],[-113.57384,26.70874],[-113.57497,26.70704],[-113.5755,26.7067],[-113.57628,26.70541],[-113.57653,26.70525],[-113.57857,26.7062],[-113.5952,26.7103],[-113.605,26.71314],[-113.6085,26.71435],[-113.61107,26.71547],[-113.61929,26.71981],[-113.62579,26.72294],[-113.63115,26.72614],[-113.63541,26.7283],[-113.63899,26.73053],[-113.63938,26.73111],[-113.6402,26.73169],[-113.64136,26.733],[-113.64463,26.73713],[-113.64493,26.73801],[-113.64742,26.74184],[-113.64762,26.74247],[-113.65208,26.74959],[-113.65648,26.75403],[-113.66281,26.76122],[-113.66351100462217,26.761518688925968],[-113.66351100462217,26.76490971340477],[-113.66317,26.76442],[-113.66143,26.76267],[-113.65934,26.76012],[-113.64952,26.75632],[-113.6495,26.75581],[-113.64343,26.75335],[-113.64494,26.75049],[-113.64567,26.74482],[-113.64572,26.74233],[-113.64499,26.74021],[-113.64337,26.73818],[-113.64149,26.73744],[-113.64133,26.73693],[-113.63816,26.73609],[-113.63719,26.73542],[-113.63639,26.73368],[-113.63667,26.73342],[-113.6361,26.73343],[-113.63613,26.73406],[-113.63653,26.73449],[-113.63632,26.73493],[-113.63561,26.73503],[-113.63294,26.73476],[-113.63009,26.7338],[-113.62691,26.73244],[-113.62571,26.73028],[-113.62685,26.73],[-113.62685,26.72974],[-113.6257,26.72976],[-113.62524,26.72823],[-113.62391,26.72671],[-113.62221,26.72595],[-113.62188,26.72546],[-113.62131,26.72535],[-113.62,26.72404],[-113.61984,26.72366],[-113.61348,26.72167],[-113.61307,26.72168],[-113.61214,26.72208],[-113.61051,26.72147],[-113.60685,26.72051],[-113.5992,26.71766],[-113.59347,26.71518],[-113.5899,26.71387],[-113.5896,26.7132],[-113.58901,26.71287],[-113.58491,26.7112],[-113.57904,26.70937],[-113.57884,26.70948],[-113.57811,26.71111],[-113.5778,26.71195],[-113.57774,26.71269],[-113.5778,26.71338],[-113.57847,26.71462],[-113.57968,26.7153],[-113.58074,26.71629],[-113.58168,26.71665],[-113.58246,26.71744],[-113.58278,26.71759],[-113.58398,26.71764],[-113.58491,26.71745],[-113.58585,26.71769],[-113.58706,26.71844],[-113.58863,26.72057],[-113.58897,26.7208],[-113.59211,26.72192],[-113.59489,26.72359],[-113.5965,26.72419],[-113.59656,26.72406],[-113.5958,26.72318],[-113.59588,26.7229],[-113.59637,26.72245],[-113.59652,26.72193],[-113.59838,26.72155],[-113.59861,26.72182],[-113.59892,26.72307],[-113.59958,26.72412],[-113.59939,26.72469],[-113.5986,26.72517],[-113.59859,26.72554],[-113.60042,26.72731],[-113.60307,26.72951],[-113.60377,26.73102],[-113.60431,26.73141],[-113.60537,26.73175],[-113.60671,26.73246],[-113.60922,26.73254],[-113.61092,26.73291],[-113.61448,26.73468],[-113.61655,26.73634],[-113.61692,26.73635],[-113.61888,26.73576],[-113.61995,26.7358],[-113.62061,26.7365],[-113.62063,26.73686],[-113.61996,26.7378],[-113.62021,26.73821],[-113.62238,26.73866],[-113.62299,26.73954],[-113.62418,26.74002],[-113.62638,26.74003],[-113.62705,26.74035],[-113.62799,26.74125],[-113.62976,26.74076],[-113.63005,26.74107],[-113.63016,26.74162],[-113.63095,26.74153],[-113.6315,26.74191],[-113.632,26.74193],[-113.63347,26.74058],[-113.63331,26.7403],[-113.63262,26.73993],[-113.63239,26.73961],[-113.63244,26.73938],[-113.63274,26.73931],[-113.63329,26.73953],[-113.63355,26.74015],[-113.63374,26.74024],[-113.63444,26.73977],[-113.63448,26.73949],[-113.63354,26.73888],[-113.63354,26.73869],[-113.63448,26.73873],[-113.63535,26.73912],[-113.63538,26.73932],[-113.63499,26.73981],[-113.63554,26.73996],[-113.6361,26.74082],[-113.63613,26.74126],[-113.63654,26.74173],[-113.63728,26.74196],[-113.63717,26.74221],[-113.63664,26.74186],[-113.63621,26.74215],[-113.63614,26.74243],[-113.63634,26.74281],[-113.63751,26.743],[-113.63739,26.74357],[-113.63836,26.74578],[-113.63857,26.74662],[-113.63852,26.74931],[-113.63875,26.75054],[-113.63968,26.75214],[-113.64043,26.75306],[-113.64107,26.75515],[-113.64115,26.75719],[-113.64139,26.75802],[-113.64301,26.76005],[-113.64439,26.76088],[-113.64609,26.76157],[-113.64728,26.76183],[-113.65023,26.76202],[-113.65112,26.76237],[-113.65213,26.76335],[-113.65465,26.76672],[-113.65477527027028,26.767054054054054],[-113.53648899537782,26.767054054054054],[-113.53648899537782,26.74647544441074],[-113.54347,26.74285]]]},"properties":{"name":"baja-north-pacific"}}]}