{"type":"FeatureCollection","features":[{"type":"Feature","geometry":{"type":"Point","coordinates":[-113.65525,26.75935]},"properties":{"depth_ft":10,"depth_m":2.9}},{"type":"Feature","geometry":{"type":"Point","coordinates":[-113.64999,26.75935]},"properties":{"depth_ft":1,"depth_m":0.4}},{"type":"Feature","geometry":{"type":"Point","coordinates":[-113.66051,26.75465]},"properties":{"depth_ft":5,"depth_m":1.7}},{"type":"Feature","geometry":{"type":"Point","coordinates":[-113.66051,26.74995]},"properties":{"depth_ft":21,"depth_m":6.5}},{"type":"Feature","geometry":{"type":"Point","coordinates":[-113.66051,26.74525]},"properties":{"depth_ft":22,"depth_m":6.6}},{"type":"Feature","geometry":{"type":"Point","coordinates":[-113.65525,26.74525]},"properties":{"depth_ft":12,"depth_m":3.8}},{"type":"Feature","geometry":{"type":"Point","coordinates":[-113.64473,26.74525]},"properties":{"depth_ft":2,"depth_m":0.6}},{"type":"Feature","geometry":{"type":"Point","coordinates":[-113.66051,26.74055]},"properties":{"depth_ft":23,"depth_m":7.0}},{"type":"Feature","geometry":{"type":"Point","coordinates":[-113.65525,26.74055]},"properties":{"depth_ft":19,"depth_m":5.7}},{"type":"Feature","geometry":{"type":"Point","coordinates":[-113.64999,26.74055]},"properties":{"depth_ft":3,"depth_m":0.8}},{"type":"Feature","geometry":{"type":"Point","coordinates":[-113.64473,26.74055]},"properties":{"depth_ft":13,"depth_m":4.1}},{"type":"Feature","geometry":{"type":"Point","coordinates":[-113.66051,26.73585]},"properties":{"depth_ft":26,"depth_m":7.9}},{"type":"Feature","geometry":{"type":"Point","coordinates":[-113.65525,26.73585]},"properties":{"depth_ft":23,"depth_m":7.1}},{"type":"Feature","geometry":{"type":"Point","coordinates":[-113.64999,26.73585]},"properties":{"depth_ft":27,"depth_m":8.2}},{"type":"Feature","geometry":{"type":"Point","coordinates":[-113.64473,26.73585]},"properties":{"depth_ft":1,"depth_m":0.2}},{"type":"Feature","geometry":{"type":"Point","coordinates":[-113.6342,26.73585]},"properties":{"depth_ft":29,"depth_m":8.9}},{"type":"Feature","geometry":{"type":"Point","coordinates":[-113.62894,26.73585]},"properties":{"depth_ft":31,"depth_m":9.3}},{"type":"Feature","geometry":{"type":"Point","coordinates":[-113.62368,26.73585]},"properties":{"depth_ft":37,"depth_m":11.3}},{"type":"Feature","geometry":{"type":"Point","coordinates":[-113.53949,26.73585]},"properties":{"depth_ft":15,"depth_m":4.6}},{"type":"Feature","geometry":{"type":"Point","coordinates":[-113.66051,26.73115]},"properties":{"depth_ft":26,"depth_m":8.0}},{"type":"Feature","geometry":{"type":"Point","coordinates":[-113.65525,26.73115]},"properties":{"depth_ft":27,"depth_m":8.3}},{"type":"Feature","geometry":{"type":"Point","coordinates":[-113.64999,26.73115]},"properties":{"depth_ft":35,"depth_m":10.6}},{"type":"Feature","geometry":{"type":"Point","coordinates":[-113.64473,26.73115]},"properties":{"depth_ft":44,"depth_m":13.4}},{"type":"Feature","geometry":{"type":"Point","coordinates":[-113.62368,26.73115]},"properties":{"depth_ft":36,"depth_m":11.0}},{"type":"Feature","geometry":{"type":"Point","coordinates":[-113.54475,26.73115]},"properties":{"depth_ft":16,"depth_m":4.7}},{"type":"Feature","geometry":{"type":"Point","coordinates":[-113.53949,26.73115]},"properties":{"depth_ft":30,"depth_m":9.1}},{"type":"Feature","geometry":{"type":"Point","coordinates":[-113.66051,26.72645]},"properties":{"depth_ft":30,"depth_m":9.2}},{"type":"Feature","geometry":{"type":"Point","coordinates":[-113.65525,26.72645]},"properties":{"depth_ft":29,"depth_m":8.8}},{"type":"Feature","geometry":{"type":"Point","coordinates":[-113.64999,26.72645]},"properties":{"depth_ft":34,"depth_m":10.4}},{"type":"Feature","geometry":{"type":"Point","coordinates":[-113.64473,26.72645]},"properties":{"depth_ft":38,"depth_m":11.4}},{"type":"Feature","geometry":{"type":"Point","coordinates":[-113.63946,26.72645]},"properties":{"depth_ft":34,"depth_m":10.3}},{"type":"Feature","geometry":{"type":"Point","coordinates":[-113.61842,26.72645]},"properties":{"depth_ft":19,"depth_m":5.7}},{"type":"Feature","geometry":{"type":"Point","coordinates":[-113.61315,26.72645]},"properties":{"depth_ft":25,"depth_m":7.7}},{"type":"Feature","geometry":{"type":"Point","coordinates":[-113.60789,26.72645]},"properties":{"depth_ft":29,"depth_m":8.8}},{"type":"Feature","geometry":{"type":"Point","coordinates":[-113.60263,26.72645]},"properties":{"depth_ft":5,"depth_m":1.5}},{"type":"Feature","geometry":{"type":"Point","coordinates":[-113.54475,26.72645]},"properties":{"depth_ft":17,"depth_m":5.1}},{"type":"Feature","geometry":{"type":"Point","coordinates":[-113.53949,26.72645]},"properties":{"depth_ft":42,"depth_m":12.7}},{"type":"Feature","geometry":{"type":"Point","coordinates":[-113.66051,26.72175]},"properties":{"depth_ft":34,"depth_m":10.3}},{"type":"Feature","geometry":{"type":"Point","coordinates":[-113.65525,26.72175]},"properties":{"depth_ft":33,"depth_m":10.2}},{"type":"Feature","geometry":{"type":"Point","coordinates":[-113.64999,26.72175]},"properties":{"depth_ft":32,"depth_m":9.9}},{"type":"Feature","geometry":{"type":"Point","coordinates":[-113.64473,26.72175]},"properties":{"depth_ft":31,"depth_m":9.6}},{"type":"Feature","geometry":{"type":"Point","coordinates":[-113.63946,26.72175]},"properties":{"depth_ft":24,"depth_m":7.5}},{"type":"Feature","geometry":{"type":"Point","coordinates":[-113.6342,26.72175]},"properties":{"depth_ft":12,"depth_m":3.6}},{"type":"Feature","geometry":{"type":"Point","coordinates":[-113.61315,26.72175]},"properties":{"depth_ft":11,"depth_m":3.2}},{"type":"Feature","geometry":{"type":"Point","coordinates":[-113.60789,26.72175]},"properties":{"depth_ft":17,"depth_m":5.3}},{"type":"Feature","geometry":{"type":"Point","coordinates":[-113.60263,26.72175]},"properties":{"depth_ft":14,"depth_m":4.4}},{"type":"Feature","geometry":{"type":"Point","coordinates":[-113.54475,26.72175]},"properties":{"depth_ft":35,"depth_m":10.6}},{"type":"Feature","geometry":{"type":"Point","coordinates":[-113.53949,26.72175]},"properties":{"depth_ft":57,"depth_m":17.3}},{"type":"Feature","geometry":{"type":"Point","coordinates":[-113.66051,26.71705]},"properties":{"depth_ft":36,"depth_m":11.0}},{"type":"Feature","geometry":{"type":"Point","coordinates":[-113.65525,26.71705]},"properties":{"depth_ft":35,"depth_m":10.7}},{"type":"Feature","geometry":{"type":"Point","coordinates":[-113.64999,26.71705]},"properties":{"depth_ft":31,"depth_m":9.5}},{"type":"Feature","geometry":{"type":"Point","coordinates":[-113.64473,26.71705]},"properties":{"depth_ft":27,"depth_m":8.3}},{"type":"Feature","geometry":{"type":"Point","coordinates":[-113.63946,26.71705]},"properties":{"depth_ft":20,"depth_m":6.0}},{"type":"Feature","geometry":{"type":"Point","coordinates":[-113.6342,26.71705]},"properties":{"depth_ft":8,"depth_m":2.4}},{"type":"Feature","geometry":{"type":"Point","coordinates":[-113.59737,26.71705]},"properties":{"depth_ft":1,"depth_m":0.4}},{"type":"Feature","geometry":{"type":"Point","coordinates":[-113.55527,26.71705]},"properties":{"depth_ft":11,"depth_m":3.4}},{"type":"Feature","geometry":{"type":"Point","coordinates":[-113.55001,26.71705]},"properties":{"depth_ft":39,"depth_m":11.8}},{"type":"Feature","geometry":{"type":"Point","coordinates":[-113.54475,26.71705]},"properties":{"depth_ft":59,"depth_m":18.0}},{"type":"Feature","geometry":{"type":"Point","coordinates":[-113.53949,26.71705]},"properties":{"depth_ft":71,"depth_m":21.8}},{"type":"Feature","geometry":{"type":"Point","coordinates":[-113.66051,26.71235]},"properties":{"depth_ft":34,"depth_m":10.5}},{"type":"Feature","geometry":{"type":"Point","coordinates":[-113.65525,26.71235]},"properties":{"depth_ft":34,"depth_m":10.4}},{"type":"Feature","geometry":{"type":"Point","coordinates":[-113.64999,26.71235]},"properties":{"depth_ft":31,"depth_m":9.5}},{"type":"Feature","geometry":{"type":"Point","coordinates":[-113.64473,26.71235]},"properties":{"depth_ft":28,"depth_m":8.7}},{"type":"Feature","geometry":{"type":"Point","coordinates":[-113.63946,26.71235]},"properties":{"depth_ft":21,"depth_m":6.5}},{"type":"Feature","geometry":{"type":"Point","coordinates":[-113.6342,26.71235]},"properties":{"depth_ft":14,"depth_m":4.4}},{"type":"Feature","geometry":{"type":"Point","coordinates":[-113.62894,26.71235]},"properties":{"depth_ft":3,"depth_m":1.0}},{"type":"Feature","geometry":{"type":"Point","coordinates":[-113.61842,26.71235]},"properties":{"depth_ft":19,"depth_m":5.8}},{"type":"Feature","geometry":{"type":"Point","coordinates":[-113.61315,26.71235]},"properties":{"depth_ft":15,"depth_m":4.4}},{"type":"Feature","geometry":{"type":"Point","coordinates":[-113.60789,26.71235]},"properties":{"depth_ft":7,"depth_m":2.0}},{"type":"Feature","geometry":{"type":"Point","coordinates":[-113.60263,26.71235]},"properties":{"depth_ft":7,"depth_m":2.1}},{"type":"Feature","geometry":{"type":"Point","coordinates":[-113.57106,26.71235]},"properties":{"depth_ft":13,"depth_m":3.9}},{"type":"Feature","geometry":{"type":"Point","coordinates":[-113.5658,26.71235]},"properties":{"depth_ft":23,"depth_m":6.9}},{"type":"Feature","geometry":{"type":"Point","coordinates":[-113.56054,26.71235]},"properties":{"depth_ft":27,"depth_m":8.3}},{"type":"Feature","geometry":{"type":"Point","coordinates":[-113.55527,26.71235]},"properties":{"depth_ft":44,"depth_m":13.3}},{"type":"Feature","geometry":{"type":"Point","coordinates":[-113.55001,26.71235]},"properties":{"depth_ft":58,"depth_m":17.6}},{"type":"Feature","geometry":{"type":"Point","coordinates":[-113.54475,26.71235]},"properties":{"depth_ft":71,"depth_m":21.7}},{"type":"Feature","geometry":{"type":"Point","coordinates":[-113.53949,26.71235]},"properties":{"depth_ft":79,"depth_m":24.0}},{"type":"Feature","geometry":{"type":"Point","coordinates":[-113.66051,26.70765]},"properties":{"depth_ft":31,"depth_m":9.3}},{"type":"Feature","geometry":{"type":"Point","coordinates":[-113.65525,26.70765]},"properties":{"depth_ft":31,"depth_m":9.3}},{"type":"Feature","geometry":{"type":"Point","coordinates":[-113.64999,26.70765]},"properties":{"depth_ft":31,"depth_m":9.5}},{"type":"Feature","geometry":{"type":"Point","coordinates":[-113.64473,26.70765]},"properties":{"depth_ft":32,"depth_m":9.7}},{"type":"Feature","geometry":{"type":"Point","coordinates":[-113.63946,26.70765]},"properties":{"depth_ft":27,"depth_m":8.3}},{"type":"Feature","geometry":{"type":"Point","coordinates":[-113.6342,26.70765]},"properties":{"depth_ft":26,"depth_m":7.8}},{"type":"Feature","geometry":{"type":"Point","coordinates":[-113.62894,26.70765]},"properties":{"depth_ft":23,"depth_m":7.0}},{"type":"Feature","geometry":{"type":"Point","coordinates":[-113.62368,26.70765]},"properties":{"depth_ft":26,"depth_m":7.8}},{"type":"Feature","geometry":{"type":"Point","coordinates":[-113.61842,26.70765]},"properties":{"depth_ft":39,"depth_m":11.8}},{"type":"Feature","geometry":{"type":"Point","coordinates":[-113.61315,26.70765]},"properties":{"depth_ft":30,"depth_m":9.1}},{"type":"Feature","geometry":{"type":"Point","coordinates":[-113.60789,26.70765]},"properties":{"depth_ft":23,"depth_m":7.0}},{"type":"Feature","geometry":{"type":"Point","coordinates":[-113.60263,26.70765]},"properties":{"depth_ft":19,"depth_m":5.9}},{"type":"Feature","geometry":{"type":"Point","coordinates":[-113.59737,26.70765]},"properties":{"depth_ft":6,"depth_m":1.8}},{"type":"Feature","geometry":{"type":"Point","coordinates":[-113.59211,26.70765]},"properties":{"depth_ft":3,"depth_m":1.0}},{"type":"Feature","geometry":{"type":"Point","coordinates":[-113.58685,26.70765]},"properties":{"depth_ft":8,"depth_m":2.4}},{"type":"Feature","geometry":{"type":"Point","coordinates":[-113.57106,26.70765]},"properties":{"depth_ft":48,"depth_m":14.7}},{"type":"Feature","geometry":{"type":"Point","coordinates":[-113.5658,26.70765]},"properties":{"depth_ft":57,"depth_m":17.5}},{"type":"Feature","geometry":{"type":"Point","coordinates":[-113.56054,26.70765]},"properties":{"depth_ft":67,"depth_m":20.3}},{"type":"Feature","geometry":{"type":"Point","coordinates":[-113.55527,26.70765]},"properties":{"depth_ft":71,"depth_m":21.6}},{"type":"Feature","geometry":{"type":"Point","coordinates":[-113.55001,26.70765]},"properties":{"depth_ft":75,"depth_m":23.0}},{"type":"Feature","geometry":{"type":"Point","coordinates":[-113.54475,26.70765]},"properties":{"depth_ft":80,"depth_m":24.4}},{"type":"Feature","geometry":{"type":"Point","coordinates":[-113.53949,26.70765]},"properties":{"depth_ft":82,"depth_m":25.0}},{"type":"Feature","geometry":{"type":"Point","coordinates":[-113.66051,26.70295]},"properties":{"depth_ft":24,"depth_m":7.4}},{"type":"Feature","geometry":{"type":"Point","coordinates":[-113.65525,26.70295]},"properties":{"depth_ft":25,"depth_m":7.6}},{"type":"Feature","geometry":{"type":"Point","coordinates":[-113.64999,26.70295]},"properties":{"depth_ft":29,"depth_m":8.7}},{"type":"Feature","geometry":{"type":"Point","coordinates":[-113.64473,26.70295]},"properties":{"depth_ft":34,"depth_m":10.4}},{"type":"Feature","geometry":{"type":"Point","coordinates":[-113.63946,26.70295]},"properties":{"depth_ft":35,"depth_m":10.6}},{"type":"Feature","geometry":{"type":"Point","coordinates":[-113.6342,26.70295]},"properties":{"depth_ft":38,"depth_m":11.6}},{"type":"Feature","geometry":{"type":"Point","coordinates":[-113.62894,26.70295]},"properties":{"depth_ft":43,"depth_m":13.1}},{"type":"Feature","geometry":{"type":"Point","coordinates":[-113.62368,26.70295]},"properties":{"depth_ft":53,"depth_m":16.2}},{"type":"Feature","geometry":{"type":"Point","coordinates":[-113.61842,26.70295]},"properties":{"depth_ft":50,"depth_m":15.2}},{"type":"Feature","geometry":{"type":"Point","coordinates":[-113.61315,26.70295]},"properties":{"depth_ft":41,"depth_m":12.5}},{"type":"Feature","geometry":{"type":"Point","coordinates":[-113.60789,26.70295]},"properties":{"depth_ft":31,"depth_m":9.4}},{"type":"Feature","geometry":{"type":"Point","coordinates":[-113.60263,26.70295]},"properties":{"depth_ft":23,"depth_m":7.1}},{"type":"Feature","geometry":{"type":"Point","coordinates":[-113.59737,26.70295]},"properties":{"depth_ft":15,"depth_m":4.6}},{"type":"Feature","geometry":{"type":"Point","coordinates":[-113.59211,26.70295]},"properties":{"depth_ft":13,"depth_m":4.0}},{"type":"Feature","geometry":{"type":"Point","coordinates":[-113.58685,26.70295]},"properties":{"depth_ft":21,"depth_m":6.5}},{"type":"Feature","geometry":{"type":"Point","coordinates":[-113.58158,26.70295]},"properties":{"depth_ft":30,"depth_m":9.1}},{"type":"Feature","geometry":{"type":"Point","coordinates":[-113.57632,26.70295]},"properties":{"depth_ft":48,"depth_m":14.7}},{"type":"Feature","geometry":{"type":"Point","coordinates":[-113.57106,26.70295]},"properties":{"depth_ft":74,"depth_m":22.6}},{"type":"Feature","geometry":{"type":"Point","coordinates":[-113.5658,26.70295]},"properties":{"depth_ft":85,"depth_m":25.8}},{"type":"Feature","geometry":{"type":"Point","coordinates":[-113.56054,26.70295]},"properties":{"depth_ft":100,"depth_m":30.4}},{"type":"Feature","geometry":{"type":"Point","coordinates":[-113.55527,26.70295]},"properties":{"depth_ft":93,"depth_m":28.4}},{"type":"Feature","geometry":{"type":"Point","coordinates":[-113.55001,26.70295]},"properties":{"depth_ft":88,"depth_m":26.9}},{"type":"Feature","geometry":{"type":"Point","coordinates":[-113.54475,26.70295]},"properties":{"depth_ft":85,"depth_m":26.0}},{"type":"Feature","geometry":{"type":"Point","coordinates":[-113.53949,26.70295]},"properties":{"depth_ft":85,"depth_m":25.8}},{"type":"Feature","geometry":{"type":"Point","coordinates":[-113.66051,26.69825]},"properties":{"depth_ft":17,"depth_m":5.1}},{"type":"Feature","geometry":{"type":"Point","coordinates":[-113.65525,26.69825]},"properties":{"depth_ft":18,"depth_m":5.6}},{"type":"Feature","geometry":{"type":"Point","coordinates":[-113.64999,26.69825]},"properties":{"depth_ft":26,"depth_m":8.1}},{"type":"Feature","geometry":{"type":"Point","coordinates":[-113.64473,26.69825]},"properties":{"depth_ft":34,"depth_m":10.5}},{"type":"Feature","geometry":{"type":"Point","coordinates":[-113.63946,26.69825]},"properties":{"depth_ft":39,"depth_m":12.0}},{"type":"Feature","geometry":{"type":"Point","coordinates":[-113.6342,26.69825]},"properties":{"depth_ft":47,"depth_m":14.4}},{"type":"Feature","geometry":{"type":"Point","coordinates":[-113.62894,26.69825]},"properties":{"depth_ft":56,"depth_m":16.9}},{"type":"Feature","geometry":{"type":"Point","coordinates":[-113.62368,26.69825]},"properties":{"depth_ft":64,"depth_m":19.5}},{"type":"Feature","geometry":{"type":"Point","coordinates":[-113.61842,26.69825]},"properties":{"depth_ft":61,"depth_m":18.5}},{"type":"Feature","geometry":{"type":"Point","coordinates":[-113.61315,26.69825]},"properties":{"depth_ft":50,"depth_m":15.2}},{"type":"Feature","geometry":{"type":"Point","coordinates":[-113.60789,26.69825]},"properties":{"depth_ft":40,"depth_m":12.1}},{"type":"Feature","geometry":{"type":"Point","coordinates":[-113.60263,26.69825]},"properties":{"depth_ft":30,"depth_m":9.2}},{"type":"Feature","geometry":{"type":"Point","coordinates":[-113.59737,26.69825]},"properties":{"depth_ft":22,"depth_m":6.8}},{"type":"Feature","geometry":{"type":"Point","coordinates":[-113.59211,26.69825]},"properties":{"depth_ft":21,"depth_m":6.3}},{"type":"Feature","geometry":{"type":"Point","coordinates":[-113.58685,26.69825]},"properties":{"depth_ft":29,"depth_m":8.9}},{"type":"Feature","geometry":{"type":"Point","coordinates":[-113.58158,26.69825]},"properties":{"depth_ft":44,"depth_m":13.5}},{"type":"Feature","geometry":{"type":"Point","coordinates":[-113.57632,26.69825]},"properties":{"depth_ft":62,"depth_m":18.8}},{"type":"Feature","geometry":{"type":"Point","coordinates":[-113.57106,26.69825]},"properties":{"depth_ft":80,"depth_m":24.3}},{"type":"Feature","geometry":{"type":"Point","coordinates":[-113.5658,26.69825]},"properties":{"depth_ft":90,"depth_m":27.4}},{"type":"Feature","geometry":{"type":"Point","coordinates":[-113.56054,26.69825]},"properties":{"depth_ft":102,"depth_m":31.0}},{"type":"Feature","geometry":{"type":"Point","coordinates":[-113.55527,26.69825]},"properties":{"depth_ft":98,"depth_m":29.7}},{"type":"Feature","geometry":{"type":"Point","coordinates":[-113.55001,26.69825]},"properties":{"depth_ft":92,"depth_m":28.0}},{"type":"Feature","geometry":{"type":"Point","coordinates":[-113.54475,26.69825]},"properties":{"depth_ft":88,"depth_m":27.0}},{"type":"Feature","geometry":{"type":"Point","coordinates":[-113.53949,26.69825]},"properties":{"depth_ft":85,"depth_m":26.0}},{"type":"Feature","geometry":{"type":"Point","coordinates":[-113.66051,26.69355]},"properties":{"depth_ft":13,"depth_m":4.0}},{"type":"Feature","geometry":{"type":"Point","coordinates":[-113.65525,26.69355]},"properties":{"depth_ft":14,"depth_m":4.2}},{"type":"Feature","geometry":{"type":"Point","coordinates":[-113.64999,26.69355]},"properties":{"depth_ft":22,"depth_m":6.6}},{"type":"Feature","geometry":{"type":"Point","coordinates":[-113.64473,26.69355]},"properties":{"depth_ft":33,"depth_m":10.2}},{"type":"Feature","geometry":{"type":"Point","coordinates":[-113.63946,26.69355]},"properties":{"depth_ft":43,"depth_m":13.0}},{"type":"Feature","geometry":{"type":"Point","coordinates":[-113.6342,26.69355]},"properties":{"depth_ft":52,"depth_m":15.9}},{"type":"Feature","geometry":{"type":"Point","coordinates":[-113.62894,26.69355]},"properties":{"depth_ft":63,"depth_m":19.1}},{"type":"Feature","geometry":{"type":"Point","coordinates":[-113.62368,26.69355]},"properties":{"depth_ft":69,"depth_m":20.9}},{"type":"Feature","geometry":{"type":"Point","coordinates":[-113.61842,26.69355]},"properties":{"depth_ft":65,"depth_m":19.8}},{"type":"Feature","geometry":{"type":"Point","coordinates":[-113.61315,26.69355]},"properties":{"depth_ft":57,"depth_m":17.4}},{"type":"Feature","geometry":{"type":"Point","coordinates":[-113.60789,26.69355]},"properties":{"depth_ft":49,"depth_m":14.9}},{"type":"Feature","geometry":{"type":"Point","coordinates":[-113.60263,26.69355]},"properties":{"depth_ft":38,"depth_m":11.5}},{"type":"Feature","geometry":{"type":"Point","coordinates":[-113.59737,26.69355]},"properties":{"depth_ft":29,"depth_m":8.9}},{"type":"Feature","geometry":{"type":"Point","coordinates":[-113.59211,26.69355]},"properties":{"depth_ft":28,"depth_m":8.5}},{"type":"Feature","geometry":{"type":"Point","coordinates":[-113.58685,26.69355]},"properties":{"depth_ft":36,"depth_m":11.1}},{"type":"Feature","geometry":{"type":"Point","coordinates":[-113.58158,26.69355]},"properties":{"depth_ft":48,"depth_m":14.7}},{"type":"Feature","geometry":{"type":"Point","coordinates":[-113.57632,26.69355]},"properties":{"depth_ft":61,"depth_m":18.5}},{"type":"Feature","geometry":{"type":"Point","coordinates":[-113.57106,26.69355]},"properties":{"depth_ft":73,"depth_m":22.3}},{"type":"Feature","geometry":{"type":"Point","coordinates":[-113.5658,26.69355]},"properties":{"depth_ft":83,"depth_m":25.4}},{"type":"Feature","geometry":{"type":"Point","coordinates":[-113.56054,26.69355]},"properties":{"depth_ft":92,"depth_m":27.9}},{"type":"Feature","geometry":{"type":"Point","coordinates":[-113.55527,26.69355]},"properties":{"depth_ft":94,"depth_m":28.7}},{"type":"Feature","geometry":{"type":"Point","coordinates":[-113.55001,26.69355]},"properties":{"depth_ft":90,"depth_m":27.5}},{"type":"Feature","geometry":{"type":"Point","coordinates":[-113.54475,26.69355]},"properties":{"depth_ft":89,"depth_m":27.0}},{"type":"Feature","geometry":{"type":"Point","coordinates":[-113.53949,26.69355]},"properties":{"depth_ft":85,"depth_m":26.0}},{"type":"Feature","geometry":{"type":"Point","coordinates":[-113.66051,26.68885]},"properties":{"depth_ft":12,"depth_m":3.5}},{"type":"Feature","geometry":{"type":"Point","coordinates":[-113.65525,26.68885]},"properties":{"depth_ft":11,"depth_m":3.2}},{"type":"Feature","geometry":{"type":"Point","coordinates":[-113.64999,26.68885]},"properties":{"depth_ft":22,"depth_m":6.8}},{"type":"Feature","geometry":{"type":"Point","coordinates":[-113.64473,26.68885]},"properties":{"depth_ft":34,"depth_m":10.4}},{"type":"Feature","geometry":{"type":"Point","coordinates":[-113.63946,26.68885]},"properties":{"depth_ft":47,"depth_m":14.2}},{"type":"Feature","geometry":{"type":"Point","coordinates":[-113.6342,26.68885]},"properties":{"depth_ft":56,"depth_m":17.0}},{"type":"Feature","geometry":{"type":"Point","coordinates":[-113.62894,26.68885]},"properties":{"depth_ft":66,"depth_m":20.2}},{"type":"Feature","geometry":{"type":"Point","coordinates":[-113.62368,26.68885]},"properties":{"depth_ft":74,"depth_m":22.5}},{"type":"Feature","geometry":{"type":"Point","coordinates":[-113.61842,26.68885]},"properties":{"depth_ft":68,"depth_m":20.8}},{"type":"Feature","geometry":{"type":"Point","coordinates":[-113.61315,26.68885]},"properties":{"depth_ft":62,"depth_m":18.8}},{"type":"Feature","geometry":{"type":"Point","coordinates":[-113.60789,26.68885]},"properties":{"depth_ft":56,"depth_m":16.9}},{"type":"Feature","geometry":{"type":"Point","coordinates":[-113.60263,26.68885]},"properties":{"depth_ft":45,"depth_m":13.7}},{"type":"Feature","geometry":{"type":"Point","coordinates":[-113.59737,26.68885]},"properties":{"depth_ft":37,"depth_m":11.2}},{"type":"Feature","geometry":{"type":"Point","coordinates":[-113.59211,26.68885]},"properties":{"depth_ft":35,"depth_m":10.7}},{"type":"Feature","geometry":{"type":"Point","coordinates":[-113.58685,26.68885]},"properties":{"depth_ft":42,"depth_m":12.7}},{"type":"Feature","geometry":{"type":"Point","coordinates":[-113.58158,26.68885]},"properties":{"depth_ft":50,"depth_m":15.1}},{"type":"Feature","geometry":{"type":"Point","coordinates":[-113.57632,26.68885]},"properties":{"depth_ft":57,"depth_m":17.5}},{"type":"Feature","geometry":{"type":"Point","coordinates":[-113.57106,26.68885]},"properties":{"depth_ft":66,"depth_m":20.3}},{"type":"Feature","geometry":{"type":"Point","coordinates":[-113.5658,26.68885]},"properties":{"depth_ft":76,"depth_m":23.3}},{"type":"Feature","geometry":{"type":"Point","coordinates":[-113.56054,26.68885]},"properties":{"depth_ft":85,"depth_m":25.8}},{"type":"Feature","geometry":{"type":"Point","coordinates":[-113.55527,26.68885]},"properties":{"depth_ft":88,"depth_m":26.9}},{"type":"Feature","geometry":{"type":"Point","coordinates":[-113.55001,26.68885]},"properties":{"depth_ft":89,"depth_m":27.0}},{"type":"Feature","geometry":{"type":"Point","coordinates":[-113.54475,26.68885]},"properties":{"depth_ft":89,"depth_m":27.0}},{"type":"Feature","geometry":{"type":"Point","coordinates":[-113.53949,26.68885]},"properties":{"depth_ft":86,"depth_m":26.2}},{"type":"Feature","geometry":{"type":"Point","coordinates":[-113.66051,26.68415]},"properties":{"depth_ft":24,"depth_m":7.2}},{"type":"Feature","geometry":{"type":"Point","coordinates":[-113.65525,26.68415]},"properties":{"depth_ft":21,"depth_m":6.3}},{"type":"Feature","geometry":{"type":"Point","coordinates":[-113.64999,26.68415]},"properties":{"depth_ft":29,"depth_m":8.8}},{"type":"Feature","geometry":{"type":"Point","coordinates":[-113.64473,26.68415]},"properties":{"depth_ft":39,"depth_m":11.9}},{"type":"Feature","geometry":{"type":"Point","coordinates":[-113.63946,26.68415]},"properties":{"depth_ft":50,"depth_m":15.3}},{"type":"Feature","geometry":{"type":"Point","coordinates":[-113.6342,26.68415]},"properties":{"depth_ft":59,"depth_m":18.1}},{"type":"Feature","geometry":{"type":"Point","coordinates":[-113.62894,26.68415]},"properties":{"depth_ft":67,"depth_m":20.6}},{"type":"Feature","geometry":{"type":"Point","coordinates":[-113.62368,26.68415]},"properties":{"depth_ft":72,"depth_m":21.8}},{"type":"Feature","geometry":{"type":"Point","coordinates":[-113.61842,26.68415]},"properties":{"depth_ft":68,"depth_m":20.9}},{"type":"Feature","geometry":{"type":"Point","coordinates":[-113.61315,26.68415]},"properties":{"depth_ft":63,"depth_m":19.2}},{"type":"Feature","geometry":{"type":"Point","coordinates":[-113.60789,26.68415]},"properties":{"depth_ft":58,"depth_m":17.6}},{"type":"Feature","geometry":{"type":"Point","coordinates":[-113.60263,26.68415]},"properties":{"depth_ft":52,"depth_m":15.8}},{"type":"Feature","geometry":{"type":"Point","coordinates":[-113.59737,26.68415]},"properties":{"depth_ft":45,"depth_m":13.8}},{"type":"Feature","geometry":{"type":"Point","coordinates":[-113.59211,26.68415]},"properties":{"depth_ft":44,"depth_m":13.3}},{"type":"Feature","geometry":{"type":"Point","coordinates":[-113.58685,26.68415]},"properties":{"depth_ft":50,"depth_m":15.3}},{"type":"Feature","geometry":{"type":"Point","coordinates":[-113.58158,26.68415]},"properties":{"depth_ft":57,"depth_m":17.4}},{"type":"Feature","geometry":{"type":"Point","coordinates":[-113.57632,26.68415]},"properties":{"depth_ft":61,"depth_m":18.7}},{"type":"Feature","geometry":{"type":"Point","coordinates":[-113.57106,26.68415]},"properties":{"depth_ft":67,"depth_m":20.3}},{"type":"Feature","geometry":{"type":"Point","coordinates":[-113.5658,26.68415]},"properties":{"depth_ft":75,"depth_m":22.8}},{"type":"Feature","geometry":{"type":"Point","coordinates":[-113.56054,26.68415]},"properties":{"depth_ft":82,"depth_m":25.0}},{"type":"Feature","geometry":{"type":"Point","coordinates":[-113.55527,26.68415]},"properties":{"depth_ft":87,"depth_m":26.6}},{"type":"Feature","geometry":{"type":"Point","coordinates":[-113.55001,26.68415]},"properties":{"depth_ft":90,"depth_m":27.3}},{"type":"Feature","geometry":{"type":"Point","coordinates":[-113.54475,26.68415]},"properties":{"depth_ft":90,"depth_m":27.3}},{"type":"Feature","geometry":{"type":"Point","coordinates":[-113.53949,26.68415]},"properties":{"depth_ft":90,"depth_m":27.3}},{"type":"Feature","geometry":{"type":"Point","coordinates":[-113.66051,26.67945]},"properties":{"depth_ft":40,"depth_m":12.2}},{"type":"Feature","geometry":{"type":"Point","coordinates":[-113.65525,26.67945]},"properties":{"depth_ft":35,"depth_m":10.8}},{"type":"Feature","geometry":{"type":"Point","coordinates":[-113.64999,26.67945]},"properties":{"depth_ft":40,"depth_m":12.3}},{"type":"Feature","geometry":{"type":"Point","coordinates":[-113.64473,26.67945]},"properties":{"depth_ft":47,"depth_m":14.5}},{"type":"Feature","geometry":{"type":"Point","coordinates":[-113.63946,26.67945]},"properties":{"depth_ft":55,"depth_m":16.9}},{"type":"Feature","geometry":{"type":"Point","coordinates":[-113.6342,26.67945]},"properties":{"depth_ft":62,"depth_m":18.9}},{"type":"Feature","geometry":{"type":"Point","coordinates":[-113.62894,26.67945]},"properties":{"depth_ft":67,"depth_m":20.3}},{"type":"Feature","geometry":{"type":"Point","coordinates":[-113.62368,26.67945]},"properties":{"depth_ft":69,"depth_m":21.0}},{"type":"Feature","geometry":{"type":"Point","coordinates":[-113.61842,26.67945]},"properties":{"depth_ft":67,"depth_m":20.4}},{"type":"Feature","geometry":{"type":"Point","coordinates":[-113.61315,26.67945]},"properties":{"depth_ft":62,"depth_m":18.8}},{"type":"Feature","geometry":{"type":"Point","coordinates":[-113.60789,26.67945]},"properties":{"depth_ft":60,"depth_m":18.2}},{"type":"Feature","geometry":{"type":"Point","coordinates":[-113.60263,26.67945]},"properties":{"depth_ft":57,"depth_m":17.5}},{"type":"Feature","geometry":{"type":"Point","coordinates":[-113.59737,26.67945]},"properties":{"depth_ft":55,"depth_m":16.8}},{"type":"Feature","geometry":{"type":"Point","coordinates":[-113.59211,26.67945]},"properties":{"depth_ft":55,"depth_m":16.7}},{"type":"Feature","geometry":{"type":"Point","coordinates":[-113.58685,26.67945]},"properties":{"depth_ft":61,"depth_m":18.7}},{"type":"Feature","geometry":{"type":"Point","coordinates":[-113.58158,26.67945]},"properties":{"depth_ft":68,"depth_m":20.6}},{"type":"Feature","geometry":{"type":"Point","coordinates":[-113.57632,26.67945]},"properties":{"depth_ft":72,"depth_m":21.8}},{"type":"Feature","geometry":{"type":"Point","coordinates":[-113.57106,26.67945]},"properties":{"depth_ft":76,"depth_m":23.1}},{"type":"Feature","geometry":{"type":"Point","coordinates":[-113.5658,26.67945]},"properties":{"depth_ft":82,"depth_m":25.0}},{"type":"Feature","geometry":{"type":"Point","coordinates":[-113.56054,26.67945]},"properties":{"depth_ft":85,"depth_m":25.9}},{"type":"Feature","geometry":{"type":"Point","coordinates":[-113.55527,26.67945]},"properties":{"depth_ft":91,"depth_m":27.7}},{"type":"Feature","geometry":{"type":"Point","coordinates":[-113.55001,26.67945]},"properties":{"depth_ft":93,"depth_m":28.4}},{"type":"Feature","geometry":{"type":"Point","coordinates":[-113.54475,26.67945]},"properties":{"depth_ft":94,"depth_m":28.8}},{"type":"Feature","geometry":{"type":"Point","coordinates":[-113.53949,26.67945]},"properties":{"depth_ft":95,"depth_m":28.9}},{"type":"Feature","geometry":{"type":"Point","coordinates":[-113.66051,26.67475]},"properties":{"depth_ft":61,"depth_m":18.5}},{"type":"Feature","geometry":{"type":"Point","coordinates":[-113.65525,26.67475]},"properties":{"depth_ft":55,"depth_m":16.9}},{"type":"Feature","geometry":{"type":"Point","coordinates":[-113.64999,26.67475]},"properties":{"depth_ft":56,"depth_m":17.1}},{"type":"Feature","geometry":{"type":"Point","coordinates":[-113.64473,26.67475]},"properties":{"depth_ft":58,"depth_m":17.6}},{"type":"Feature","geometry":{"type":"Point","coordinates":[-113.63946,26.67475]},"properties":{"depth_ft":63,"depth_m":19.2}},{"type":"Feature","geometry":{"type":"Point","coordinates":[-113.6342,26.67475]},"properties":{"depth_ft":65,"depth_m":19.7}},{"type":"Feature","geometry":{"type":"Point","coordinates":[-113.62894,26.67475]},"properties":{"depth_ft":66,"depth_m":20.0}},{"type":"Feature","geometry":{"type":"Point","coordinates":[-113.62368,26.67475]},"properties":{"depth_ft":64,"depth_m":19.5}},{"type":"Feature","geometry":{"type":"Point","coordinates":[-113.61842,26.67475]},"properties":{"depth_ft":65,"depth_m":20.0}},{"type":"Feature","geometry":{"type":"Point","coordinates":[-113.61315,26.67475]},"properties":{"depth_ft":64,"depth_m":19.4}},{"type":"Feature","geometry":{"type":"Point","coordinates":[-113.60789,26.67475]},"properties":{"depth_ft":62,"depth_m":18.8}},{"type":"Feature","geometry":{"type":"Point","coordinates":[-113.60263,26.67475]},"properties":{"depth_ft":63,"depth_m":19.1}},{"type":"Feature","geometry":{"type":"Point","coordinates":[-113.59737,26.67475]},"properties":{"depth_ft":65,"depth_m":19.7}},{"type":"Feature","geometry":{"type":"Point","coordinates":[-113.59211,26.67475]},"properties":{"depth_ft":67,"depth_m":20.4}},{"type":"Feature","geometry":{"type":"Point","coordinates":[-113.58685,26.67475]},"properties":{"depth_ft":74,"depth_m":22.7}},{"type":"Feature","geometry":{"type":"Point","coordinates":[-113.58158,26.67475]},"properties":{"depth_ft":82,"depth_m":25.1}},{"type":"Feature","geometry":{"type":"Point","coordinates":[-113.57632,26.67475]},"properties":{"depth_ft":89,"depth_m":27.2}},{"type":"Feature","geometry":{"type":"Point","coordinates":[-113.57106,26.67475]},"properties":{"depth_ft":94,"depth_m":28.7}},{"type":"Feature","geometry":{"type":"Point","coordinates":[-113.5658,26.67475]},"properties":{"depth_ft":94,"depth_m":28.8}},{"type":"Feature","geometry":{"type":"Point","coordinates":[-113.56054,26.67475]},"properties":{"depth_ft":94,"depth_m":28.7}},{"type":"Feature","geometry":{"type":"Point","coordinates":[-113.55527,26.67475]},"properties":{"depth_ft":97,"depth_m":29.4}},{"type":"Feature","geometry":{"type":"Point","coordinates":[-113.55001,26.67475]},"properties":{"depth_ft":99,"depth_m":30.2}},{"type":"Feature","geometry":{"type":"Point","coordinates":[-113.54475,26.67475]},"properties":{"depth_ft":101,"depth_m":30.9}},{"type":"Feature","geometry":{"type":"Point","coordinates":[-113.53949,26.67475]},"properties":{"depth_ft":102,"depth_m":31.2}},{"type":"Feature","geometry":{"type":"Point","coordinates":[-113.66051,26.67005]},"properties":{"depth_ft":83,"depth_m":25.3}},{"type":"Feature","geometry":{"type":"Point","coordinates":[-113.65525,26.67005]},"properties":{"depth_ft":78,"depth_m":23.8}},{"type":"Feature","geometry":{"type":"Point","coordinates":[-113.64999,26.67005]},"properties":{"depth_ft":75,"depth_m":22.9}},{"type":"Feature","geometry":{"type":"Point","coordinates":[-113.64473,26.67005]},"properties":{"depth_ft":72,"depth_m":22.0}},{"type":"Feature","geometry":{"type":"Point","coordinates":[-113.63946,26.67005]},"properties":{"depth_ft":70,"depth_m":21.4}},{"type":"Feature","geometry":{"type":"Point","coordinates":[-113.6342,26.67005]},"properties":{"depth_ft":70,"depth_m":21.2}},{"type":"Feature","geometry":{"type":"Point","coordinates":[-113.62894,26.67005]},"properties":{"depth_ft":67,"depth_m":20.3}},{"type":"Feature","geometry":{"type":"Point","coordinates":[-113.62368,26.67005]},"properties":{"depth_ft":65,"depth_m":19.8}},{"type":"Feature","geometry":{"type":"Point","coordinates":[-113.61842,26.67005]},"properties":{"depth_ft":66,"depth_m":20.0}},{"type":"Feature","geometry":{"type":"Point","coordinates":[-113.61315,26.67005]},"properties":{"depth_ft":66,"depth_m":20.1}},{"type":"Feature","geometry":{"type":"Point","coordinates":[-113.60789,26.67005]},"properties":{"depth_ft":67,"depth_m":20.4}},{"type":"Feature","geometry":{"type":"Point","coordinates":[-113.60263,26.67005]},"properties":{"depth_ft":70,"depth_m":21.3}},{"type":"Feature","geometry":{"type":"Point","coordinates":[-113.59737,26.67005]},"properties":{"depth_ft":76,"depth_m":23.2}},{"type":"Feature","geometry":{"type":"Point","coordinates":[-113.59211,26.67005]},"properties":{"depth_ft":81,"depth_m":24.7}},{"type":"Feature","geometry":{"type":"Point","coordinates":[-113.58685,26.67005]},"properties":{"depth_ft":88,"depth_m":26.7}},{"type":"Feature","geometry":{"type":"Point","coordinates":[-113.58158,26.67005]},"properties":{"depth_ft":95,"depth_m":28.9}},{"type":"Feature","geometry":{"type":"Point","coordinates":[-113.57632,26.67005]},"properties":{"depth_ft":103,"depth_m":31.5}},{"type":"Feature","geometry":{"type":"Point","coordinates":[-113.57106,26.67005]},"properties":{"depth_ft":109,"depth_m":33.1}},{"type":"Feature","geometry":{"type":"Point","coordinates":[-113.5658,26.67005]},"properties":{"depth_ft":106,"depth_m":32.4}},{"type":"Feature","geometry":{"type":"Point","coordinates":[-113.56054,26.67005]},"properties":{"depth_ft":105,"depth_m":32.1}},{"type":"Feature","geometry":{"type":"Point","coordinates":[-113.55527,26.67005]},"properties":{"depth_ft":106,"depth_m":32.2}},{"type":"Feature","geometry":{"type":"Point","coordinates":[-113.55001,26.67005]},"properties":{"depth_ft":108,"depth_m":32.8}},{"type":"Feature","geometry":{"type":"Point","coordinates":[-113.54475,26.67005]},"properties":{"depth_ft":109,"depth_m":33.4}},{"type":"Feature","geometry":{"type":"Point","coordinates":[-113.53949,26.67005]},"properties":{"depth_ft":112,"depth_m":34.2}},{"type":"Feature","geometry":{"type":"Point","coordinates":[-113.66051,26.66535]},"properties":{"depth_ft":104,"depth_m":31.8}},{"type":"Feature","geometry":{"type":"Point","coordinates":[-113.65525,26.66535]},"properties":{"depth_ft":100,"depth_m":30.3}},{"type":"Feature","geometry":{"type":"Point","coordinates":[-113.64999,26.66535]},"properties":{"depth_ft":92,"depth_m":28.0}},{"type":"Feature","geometry":{"type":"Point","coordinates":[-113.64473,26.66535]},"properties":{"depth_ft":87,"depth_m":26.5}},{"type":"Feature","geometry":{"type":"Point","coordinates":[-113.63946,26.66535]},"properties":{"depth_ft":80,"depth_m":24.4}},{"type":"Feature","geometry":{"type":"Point","coordinates":[-113.6342,26.66535]},"properties":{"depth_ft":76,"depth_m":23.3}},{"type":"Feature","geometry":{"type":"Point","coordinates":[-113.62894,26.66535]},"properties":{"depth_ft":71,"depth_m":21.6}},{"type":"Feature","geometry":{"type":"Point","coordinates":[-113.62368,26.66535]},"properties":{"depth_ft":66,"depth_m":20.1}},{"type":"Feature","geometry":{"type":"Point","coordinates":[-113.61842,26.66535]},"properties":{"depth_ft":68,"depth_m":20.8}},{"type":"Feature","geometry":{"type":"Point","coordinates":[-113.61315,26.66535]},"properties":{"depth_ft":69,"depth_m":21.1}},{"type":"Feature","geometry":{"type":"Point","coordinates":[-113.60789,26.66535]},"properties":{"depth_ft":73,"depth_m":22.3}},{"type":"Feature","geometry":{"type":"Point","coordinates":[-113.60263,26.66535]},"properties":{"depth_ft":79,"depth_m":24.1}},{"type":"Feature","geometry":{"type":"Point","coordinates":[-113.59737,26.66535]},"properties":{"depth_ft":87,"depth_m":26.6}},{"type":"Feature","geometry":{"type":"Point","coordinates":[-113.59211,26.66535]},"properties":{"depth_ft":94,"depth_m":28.7}},{"type":"Feature","geometry":{"type":"Point","coordinates":[-113.58685,26.66535]},"properties":{"depth_ft":99,"depth_m":30.1}},{"type":"Feature","geometry":{"type":"Point","coordinates":[-113.58158,26.66535]},"properties":{"depth_ft":103,"depth_m":31.5}},{"type":"Feature","geometry":{"type":"Point","coordinates":[-113.57632,26.66535]},"properties":{"depth_ft":111,"depth_m":33.8}},{"type":"Feature","geometry":{"type":"Point","coordinates":[-113.57106,26.66535]},"properties":{"depth_ft":114,"depth_m":34.8}},{"type":"Feature","geometry":{"type":"Point","coordinates":[-113.5658,26.66535]},"properties":{"depth_ft":114,"depth_m":34.7}},{"type":"Feature","geometry":{"type":"Point","coordinates":[-113.56054,26.66535]},"properties":{"depth_ft":114,"depth_m":34.6}},{"type":"Feature","geometry":{"type":"Point","coordinates":[-113.55527,26.66535]},"properties":{"depth_ft":114,"depth_m":34.6}},{"type":"Feature","geometry":{"type":"Point","coordinates":[-113.55001,26.66535]},"properties":{"depth_ft":115,"depth_m":35.1}},{"type":"Feature","geometry":{"type":"Point","coordinates":[-113.54475,26.66535]},"properties":{"depth_ft":117,"depth_m":35.6}},{"type":"Feature","geometry":{"type":"Point","coordinates":[-113.53949,26.66535]},"properties":{"depth_ft":120,"depth_m":36.6}},{"type":"Feature","geometry":{"type":"Point","coordinates":[-113.66051,26.66065]},"properties":{"depth_ft":121,"depth_m":36.7}},{"type":"Feature","geometry":{"type":"Point","coordinates":[-113.65525,26.66065]},"properties":{"depth_ft":116,"depth_m":35.2}},{"type":"Feature","geometry":{"type":"Point","coordinates":[-113.64999,26.66065]},"properties":{"depth_ft":109,"depth_m":33.2}},{"type":"Feature","geometry":{"type":"Point","coordinates":[-113.64473,26.66065]},"properties":{"depth_ft":103,"depth_m":31.3}},{"type":"Feature","geometry":{"type":"Point","coordinates":[-113.63946,26.66065]},"properties":{"depth_ft":94,"depth_m":28.7}},{"type":"Feature","geometry":{"type":"Point","coordinates":[-113.6342,26.66065]},"properties":{"depth_ft":83,"depth_m":25.3}},{"type":"Feature","geometry":{"type":"Point","coordinates":[-113.62894,26.66065]},"properties":{"depth_ft":77,"depth_m":23.3}},{"type":"Feature","geometry":{"type":"Point","coordinates":[-113.62368,26.66065]},"properties":{"depth_ft":72,"depth_m":22.0}},{"type":"Feature","geometry":{"type":"Point","coordinates":[-113.61842,26.66065]},"properties":{"depth_ft":72,"depth_m":22.0}},{"type":"Feature","geometry":{"type":"Point","coordinates":[-113.61315,26.66065]},"properties":{"depth_ft":76,"depth_m":23.2}},{"type":"Feature","geometry":{"type":"Point","coordinates":[-113.60789,26.66065]},"properties":{"depth_ft":80,"depth_m":24.5}},{"type":"Feature","geometry":{"type":"Point","coordinates":[-113.60263,26.66065]},"properties":{"depth_ft":87,"depth_m":26.6}},{"type":"Feature","geometry":{"type":"Point","coordinates":[-113.59737,26.66065]},"properties":{"depth_ft":96,"depth_m":29.1}},{"type":"Feature","geometry":{"type":"Point","coordinates":[-113.59211,26.66065]},"properties":{"depth_ft":103,"depth_m":31.3}},{"type":"Feature","geometry":{"type":"Point","coordinates":[-113.58685,26.66065]},"properties":{"depth_ft":107,"depth_m":32.6}},{"type":"Feature","geometry":{"type":"Point","coordinates":[-113.58158,26.66065]},"properties":{"depth_ft":111,"depth_m":33.8}},{"type":"Feature","geometry":{"type":"Point","coordinates":[-113.57632,26.66065]},"properties":{"depth_ft":118,"depth_m":36.0}},{"type":"Feature","geometry":{"type":"Point","coordinates":[-113.57106,26.66065]},"properties":{"depth_ft":121,"depth_m":36.9}},{"type":"Feature","geometry":{"type":"Point","coordinates":[-113.5658,26.66065]},"properties":{"depth_ft":121,"depth_m":36.9}},{"type":"Feature","geometry":{"type":"Point","coordinates":[-113.56054,26.66065]},"properties":{"depth_ft":121,"depth_m":36.9}},{"type":"Feature","geometry":{"type":"Point","coordinates":[-113.55527,26.66065]},"properties":{"depth_ft":121,"depth_m":36.9}},{"type":"Feature","geometry":{"type":"Point","coordinates":[-113.55001,26.66065]},"properties":{"depth_ft":123,"depth_m":37.3}},{"type":"Feature","geometry":{"type":"Point","coordinates":[-113.54475,26.66065]},"properties":{"depth_ft":124,"depth_m":37.9}},{"type":"Feature","geometry":{"type":"Point","coordinates":[-113.53949,26.66065]},"properties":{"depth_ft":128,"depth_m":38.9}},{"type":"Feature","geometry":{"type":"Point","coordinates":[-113.66051,26.65595]},"properties":{"depth_ft":135,"depth_m":41.3}},{"type":"Feature","geometry":{"type":"Point","coordinates":[-113.65525,26.65595]},"properties":{"depth_ft":130,"depth_m":39.8}},{"type":"Feature","geometry":{"type":"Point","coordinates":[-113.64999,26.65595]},"properties":{"depth_ft":122,"depth_m":37.2}},{"type":"Feature","geometry":{"type":"Point","coordinates":[-113.64473,26.65595]},"properties":{"depth_ft":114,"depth_m":34.7}},{"type":"Feature","geometry":{"type":"Point","coordinates":[-113.63946,26.65595]},"properties":{"depth_ft":102,"depth_m":31.1}},{"type":"Feature","geometry":{"type":"Point","coordinates":[-113.6342,26.65595]},"properties":{"depth_ft":90,"depth_m":27.6}},{"type":"Feature","geometry":{"type":"Point","coordinates":[-113.62894,26.65595]},"properties":{"depth_ft":82,"depth_m":25.0}},{"type":"Feature","geometry":{"type":"Point","coordinates":[-113.62368,26.65595]},"properties":{"depth_ft":76,"depth_m":23.2}},{"type":"Feature","geometry":{"type":"Point","coordinates":[-113.61842,26.65595]},"properties":{"depth_ft":76,"depth_m":23.2}},{"type":"Feature","geometry":{"type":"Point","coordinates":[-113.61315,26.65595]},"properties":{"depth_ft":80,"depth_m":24.4}},{"type":"Feature","geometry":{"type":"Point","coordinates":[-113.60789,26.65595]},"properties":{"depth_ft":86,"depth_m":26.3}},{"type":"Feature","geometry":{"type":"Point","coordinates":[-113.60263,26.65595]},"properties":{"depth_ft":95,"depth_m":28.9}},{"type":"Feature","geometry":{"type":"Point","coordinates":[-113.59737,26.65595]},"properties":{"depth_ft":103,"depth_m":31.4}},{"type":"Feature","geometry":{"type":"Point","coordinates":[-113.59211,26.65595]},"properties":{"depth_ft":110,"depth_m":33.6}},{"type":"Feature","geometry":{"type":"Point","coordinates":[-113.58685,26.65595]},"properties":{"depth_ft":114,"depth_m":34.8}},{"type":"Feature","geometry":{"type":"Point","coordinates":[-113.58158,26.65595]},"properties":{"depth_ft":118,"depth_m":36.0}},{"type":"Feature","geometry":{"type":"Point","coordinates":[-113.57632,26.65595]},"properties":{"depth_ft":122,"depth_m":37.3}},{"type":"Feature","geometry":{"type":"Point","coordinates":[-113.57106,26.65595]},"properties":{"depth_ft":125,"depth_m":38.1}},{"type":"Feature","geometry":{"type":"Point","coordinates":[-113.5658,26.65595]},"properties":{"depth_ft":125,"depth_m":38.1}},{"type":"Feature","geometry":{"type":"Point","coordinates":[-113.56054,26.65595]},"properties":{"depth_ft":125,"depth_m":38.1}},{"type":"Feature","geometry":{"type":"Point","coordinates":[-113.55527,26.65595]},"properties":{"depth_ft":126,"depth_m":38.4}},{"type":"Feature","geometry":{"type":"Point","coordinates":[-113.55001,26.65595]},"properties":{"depth_ft":128,"depth_m":39.1}},{"type":"Feature","geometry":{"type":"Point","coordinates":[-113.54475,26.65595]},"properties":{"depth_ft":131,"depth_m":39.9}},{"type":"Feature","geometry":{"type":"Point","coordinates":[-113.53949,26.65595]},"properties":{"depth_ft":135,"depth_m":41.2}}]}