{"type":"FeatureCollection","features":[{"type":"Feature","geometry":{"type":"Polygon","coordinates":[[[-118.74085,34.03285],[-118.74506,34.03214],[-118.75073,34.03033],[-118.75235,34.02955],[-118.7534,34.02868],[-118.75458,34.0281],[-118.75486,34.02733],[-118.75538,34.02675],[-118.75551,34.02608],[-118.75619,34.0258],[-118.76028,34.02547],[-118.7628,34.02555],[-118.76709,34.02512],[-118.7735,34.02401],[-118.77814,34.02287],[-118.78197,34.02222],[-118.78582,34.02079],[-118.78729,34.01978],[-118.7878,34.01918],[-118.78805,34.01851],[-118.79063,34.01605],[-118.79082,34.01568],[-118.79088,34.01497],[-118.79211,34.01361],[-118.79263,34.01204],[-118.79348,34.01144],[-118.79402,34.01081],[-118.79419,34.01027],[-118.79412,34.00947],[-118.79381,34.00881],[-118.79422,34.00759],[-118.79551,34.00693],[-118.79925,34.0066],[-118.80036,34.00635],[-118.80235,34.00552],[-118.80429,34.00382],[-118.80506,34.00214],[-118.80492,34.00201],[-118.80484,34.00122],[-118.80513,34.0008],[-118.8051,34.00057],[-118.80529,34.00034],[-118.80686,34.00021],[-118.80745,34.00045],[-118.80752,34.00071],[-118.80792,34.00104],[-118.80867,34.0013],[-118.80873,34.00166],[-118.81771,34.01077],[-118.82425,34.01611],[-118.83346526680447,34.02275270237876],[-118.83346526680447,34.03503603603604],[-118.74053473319555,34.03503603603604],[-118.74053473319555,34.032875003918974],[-118.74085,34.03285]]]},"properties":{"name":"ca-mainland"}}]}