{"type":"FeatureCollection","features":[{"type":"Feature","geometry":{"type":"MultiPolygon","coordinates":[[[[-118.80709401935414,33.998167739037655],[-118.80741909089986,33.998167739037655],[-118.80741909089986,33.998437232390145],[-118.80709401935414,33.998437232390145],[-118.80709401935414,33.998167739037655]]],[[[-118.80485017032485,33.999558047817054],[-118.80485017032485,33.999827541169545],[-118.80452509877914,33.999827541169545],[-118.80452509877914,33.999558047817054],[-118.80485017032485,33.999558047817054]]],[[[-118.79876646222586,34.003704931090255],[-118.79876646222586,34.003974424442745],[-118.79844139068014,34.003974424442745],[-118.79844139068014,34.003704931090255],[-118.79876646222586,34.003704931090255]]],[[[-118.79422011802414,34.003766598614654],[-118.79454518956986,34.003766598614654],[-118.79454518956986,34.004036091967144],[-118.79422011802414,34.004036091967144],[-118.79422011802414,34.003766598614654]]],[[[-118.79942159218785,34.00396586454225],[-118.79942159218785,34.00423535789474],[-118.79909652064214,34.00423535789474],[-118.79909652064214,34.00396586454225],[-118.79942159218785,34.00396586454225]]],[[[-118.79455087868786,34.004301787734846],[-118.79292694732314,34.004325471991145],[-118.79292694732314,34.004055978638654],[-118.79422580714214,34.00404177065455],[-118.79487523659614,34.004032294382355],[-118.79487523659614,34.00402755496145],[-118.79520030814186,34.00402755496145],[-118.79520030814186,34.004297048313944],[-118.79487559345286,34.004297048313944],[-118.79487559345286,34.004301787734846],[-118.79455087868786,34.004301787734846]]],[[[-118.79455656788086,34.004572222006246],[-118.79423185201186,34.00457696061854],[-118.79423185201186,34.004581698374345],[-118.79390713606686,34.004581698374345],[-118.79390713606686,34.004586435273445],[-118.79358242004587,34.004586435273445],[-118.79358242004587,34.00459117131614],[-118.79325770394986,34.00459117131614],[-118.79325770394986,34.004595906502146],[-118.79293298777786,34.004595906502146],[-118.79293298777786,34.00460064083165],[-118.79260827152886,34.00460064083165],[-118.79260827152886,34.004605374304546],[-118.79228319998315,34.004605374304546],[-118.79228319998315,34.004335880952056],[-118.79553071503285,34.004293248859256],[-118.79553071503285,34.004562742211746],[-118.79520599939086,34.004562742211746],[-118.79520599939086,34.00456748253725],[-118.79488128367386,34.00456748253725],[-118.79488128367386,34.004572222006246],[-118.79455656788086,34.004572222006246]]],[[[-118.79456225714986,34.00484265626474],[-118.79423754025287,34.004847394925044],[-118.79423754025287,34.00485213272874],[-118.79391282327985,34.00485213272874],[-118.79391282327985,34.00485686967595],[-118.79358810623086,34.00485686967595],[-118.79358810623086,34.00486160576644],[-118.79326338910586,34.00486160576644],[-118.79326338910586,34.004866341000444],[-118.79293867190586,34.004866341000444],[-118.79293867190586,34.00487107537784],[-118.79261395462986,34.00487107537784],[-118.79261395462986,34.004875808898646],[-118.79228888308414,34.004875808898646],[-118.79228888308414,34.004606315546155],[-118.79261360036014,34.004606315546155],[-118.79391246870715,34.00458737632346],[-118.79521133584115,34.004568423395455],[-118.79521133584115,34.004563683021956],[-118.79553640738686,34.004563683021956],[-118.79553640738686,34.00483317637445],[-118.79521169071685,34.00483317637445],[-118.79521169071685,34.004837916747945],[-118.79488697397186,34.004837916747945],[-118.79488697397186,34.00484265626474],[-118.79456225714986,34.00484265626474]]],[[[-118.79489266434486,34.00510835094575],[-118.79456794649586,34.00511309051055],[-118.79456794649586,34.00511782921885],[-118.79424322856985,34.00511782921885],[-118.79424322856985,34.00512256707054],[-118.79391851056886,34.00512256707054],[-118.79391851056886,34.005127304065645],[-118.79359379249186,34.005127304065645],[-118.79359379249186,34.005132040204145],[-118.79326907433885,34.005132040204145],[-118.79326907433885,34.005136775486044],[-118.79294435610986,34.005136775486044],[-118.79294435610986,34.00514150991135],[-118.79261963780486,34.00514150991135],[-118.79261963780486,34.00514624348005],[-118.79229491942486,34.00514624348005],[-118.79229491942486,34.00515097619215],[-118.79196984787914,34.00515097619215],[-118.79196984787914,34.00488148283966],[-118.79229456625914,34.00488148283966],[-118.79391815702414,34.004857810713155],[-118.79554174589214,34.004834117171754],[-118.79554174589214,34.004829375893756],[-118.79586681743785,34.004829375893756],[-118.79586681743785,34.00509886924625],[-118.79554209981586,34.00509886924625],[-118.79554209981586,34.005103610524245],[-118.79521738211886,34.005103610524245],[-118.79521738211886,34.00510835094575],[-118.79489266434486,34.00510835094575]]],[[[-118.79587251097186,34.005364561152746],[-118.79197553010314,34.005421410808744],[-118.79197553010314,34.00515191745625],[-118.79230024951114,34.00515191745625],[-118.79457328324814,34.005118770147455],[-118.79652159492115,34.005090324761056],[-118.79652159492115,34.005085580865256],[-118.79684666646686,34.005085580865256],[-118.79684666646686,34.005355074217746],[-118.79652194804486,34.005355074217746],[-118.79652194804486,34.00535981811355],[-118.79619722954585,34.00535981811355],[-118.79619722954585,34.005364561152746],[-118.79587251097186,34.005364561152746]]],[[[-118.79652764371086,34.005630252093944],[-118.79522876514986,34.00564447878575],[-118.79522876514986,34.005649219303145],[-118.79490404531886,34.005649219303145],[-118.79490404531886,34.00565395896405],[-118.79457932541285,34.00565395896405],[-118.79457932541285,34.00565869776825],[-118.79425460543186,34.00565869776825],[-118.79425460543186,34.005663435715746],[-118.79392988537386,34.005663435715746],[-118.79392988537386,34.00566817280674],[-118.79360516523985,34.00566817280674],[-118.79360516523985,34.005672909041145],[-118.79328044503086,34.005672909041145],[-118.79328044503086,34.005677644418945],[-118.79295572474585,34.005677644418945],[-118.79230628394785,34.00569184541254],[-118.79198121240213,34.00569184541254],[-118.79198121240213,34.00542235206005],[-118.79652764371086,34.00536075874145],[-118.79652764371086,34.005630252093944]]],[[[-118.79458501498586,34.005929132023745],[-118.79328613049086,34.00594334344054],[-118.79328613049086,34.00594807886625],[-118.79296105894514,34.00594807886625],[-118.79296105894514,34.005678585513756],[-118.79328578018215,34.005678585513756],[-118.79393522243014,34.00566911380575],[-118.79425994344014,34.00566437666676],[-118.79425994344014,34.005659638671254],[-118.79458501498586,34.005659638671254],[-118.79458501498586,34.005929132023745]]],[[[-118.79361653829186,34.00594428447465],[-118.79361653829186,34.00621377782714],[-118.79329146674614,34.00621377782714],[-118.79329146674614,34.00594428447465],[-118.79361653829186,34.00594428447465]]],[[[-118.85461912227514,34.03289742819356],[-118.85494419382086,34.03289742819356],[-118.85494419382086,34.03316692154605],[-118.85461912227514,34.03316692154605],[-118.85461912227514,34.03289742819356]]],[[[-118.86048373031886,34.033625253397055],[-118.86048373031886,34.033894746749546],[-118.86015865877314,34.033894746749546],[-118.86015865877314,34.033625253397055],[-118.86048373031886,34.033625253397055]]],[[[-118.79163412232985,34.004350076231255],[-118.79163412232985,34.004619569583745],[-118.79130940577886,34.004619569583745],[-118.79130940577886,34.004624299630244],[-118.79098468915186,34.004624299630244],[-118.79098468915186,34.00462902882035],[-118.79065961760614,34.00462902882035],[-118.79065961760614,34.004359535467856],[-118.79098433423314,34.004359535467856],[-118.79130905078414,34.00435480627775],[-118.79130905078414,34.004350076231255],[-118.79163412232985,34.004350076231255]]],[[[-118.79131473080014,34.00462524106356],[-118.79163980234586,34.004620510969055],[-118.79163980234586,34.004890004321545],[-118.79131508476586,34.004890004321545],[-118.79131508476586,34.00489473441605],[-118.79099036711087,34.00489473441605],[-118.79099036711087,34.00489946365394],[-118.79066529556515,34.00489946365394],[-118.79066529556515,34.00462997030145],[-118.79099001322014,34.00462997030145],[-118.79131473080014,34.00462524106356]]],[[[-118.79099569228315,34.00489567583645],[-118.79132076382886,34.00489567583645],[-118.79132076382886,34.00516516918894],[-118.79099569228315,34.00516516918894],[-118.79099569228315,34.00489567583645]]],[[[-118.79166252316486,34.005702249792854],[-118.79166252316486,34.005971743145345],[-118.79133745161914,34.005971743145345],[-118.79133745161914,34.005702249792854],[-118.79166252316486,34.005702249792854]]],[[[-118.79231764877386,34.00596322122936],[-118.79231764877386,34.00623271458185],[-118.79199257722814,34.00623271458185],[-118.79199257722814,34.00596322122936],[-118.79231764877386,34.00596322122936]]],[[[-118.79101840929314,34.006246908153344],[-118.79101840929314,34.00597741480085],[-118.79166820355987,34.005972684466954],[-118.79166820355987,34.006242177819445],[-118.79134348083886,34.006242177819445],[-118.79134348083886,34.006246908153344],[-118.79101840929314,34.006246908153344]]],[[[-118.79102443645586,34.006517342862544],[-118.79069936491014,34.00652207238765],[-118.79069936491014,34.006252579035156],[-118.79134881248415,34.00624784951005],[-118.79167353615715,34.00624311912836],[-118.79167353615715,34.00623838788996],[-118.79199860770287,34.00623838788996],[-118.79199860770287,34.00650788124245],[-118.79167388402986,34.00650788124245],[-118.79167388402986,34.00651261248085],[-118.79134916028086,34.00651261248085],[-118.79134916028086,34.006517342862544],[-118.79102443645586,34.006517342862544]]],[[[-118.79135483979786,34.006783047129446],[-118.79103011494486,34.00678777755905],[-118.79103011494486,34.00679250713205],[-118.79070504339914,34.00679250713205],[-118.79070504339914,34.00652301377956],[-118.79102976825214,34.00652301377956],[-118.79167921773114,34.006513553776955],[-118.79200394235714,34.00650882249075],[-118.79200394235714,34.006504090347754],[-118.79232901390286,34.006504090347754],[-118.79232901390286,34.006773583700245],[-118.79200428927686,34.006773583700245],[-118.79200428927686,34.00677831584324],[-118.79167956457486,34.00677831584324],[-118.79167956457486,34.006783047129446],[-118.79135483979786,34.006783047129446]]],[[[-118.79103579350986,34.00705821224275],[-118.79071072196415,34.007062941863644],[-118.79071072196415,34.006793448511154],[-118.79103544784614,34.006793448511154],[-118.79168489938114,34.006783988412856],[-118.79200962503513,34.006779257078655],[-118.79200962503513,34.00677452488785],[-118.79233469658085,34.00677452488785],[-118.79233469658085,34.00704401824034],[-118.79200997092686,34.00704401824034],[-118.79200997092686,34.007048750431146],[-118.79168524519686,34.007048750431146],[-118.79168524519686,34.00705348176535],[-118.79136051939186,34.00705348176535],[-118.79136051939186,34.00705821224275],[-118.79103579350986,34.00705821224275]]],[[[-118.79298983247186,34.007035492367756],[-118.79298983247186,34.007304985720246],[-118.79266476092614,34.007304985720246],[-118.79266476092614,34.007035492367756],[-118.79298983247186,34.007035492367756]]],[[[-118.79136619905987,34.007323916388444],[-118.79039167362014,34.007338105394545],[-118.79039167362014,34.007068612042055],[-118.79136585434814,34.00705915356126],[-118.79201530778914,34.007049691653854],[-118.79201530778914,34.007044959415154],[-118.79234037933486,34.007044959415154],[-118.79234037933486,34.007314452767645],[-118.79201565265186,34.007314452767645],[-118.79201565265186,34.007319185006345],[-118.79169092589386,34.007319185006345],[-118.79169092589386,34.007323916388444],[-118.79136619905987,34.007323916388444]]],[[[-118.79299551735785,34.00730592678656],[-118.79299551735785,34.00757542013905],[-118.79267044581213,34.00757542013905],[-118.79267044581213,34.00730592678656],[-118.79299551735785,34.00730592678656]]],[[[-118.79169660666686,34.00758961956885],[-118.79072207932114,34.00760381128865],[-118.79072207932114,34.007334317936156],[-118.79169626290815,34.00732485764625],[-118.79202099061814,34.00732012621636],[-118.79202099061814,34.00731539392975],[-118.79234606216386,34.00731539392975],[-118.79234606216386,34.00758488728224],[-118.79202133445386,34.00758488728224],[-118.79202133445386,34.00758961956885],[-118.79169660666686,34.00758961956885]]],[[[-118.79235140218714,34.00758582843155],[-118.79267647373285,34.007581095240454],[-118.79267647373285,34.007850588592945],[-118.79202667352415,34.00785532178404],[-118.79202667352415,34.00758582843155],[-118.79235140218714,34.00758582843155]]],[[[-118.79105248708014,34.007869516217546],[-118.79105248708014,34.007600022865056],[-118.79170228751586,34.007595292243856],[-118.79170228751586,34.00786478559635],[-118.79137755862585,34.00786478559635],[-118.79137755862585,34.007869516217546],[-118.79105248708014,34.007869516217546]]],[[[-118.79170796844086,34.007865726828754],[-118.79170796844086,34.008135220181245],[-118.79138289689514,34.008135220181245],[-118.79138289689514,34.007865726828754],[-118.79170796844086,34.007865726828754]]],[[[-118.79203838031286,34.00813142982725],[-118.79203838031286,34.00840092317974],[-118.79171330876714,34.00840092317974],[-118.79171330876714,34.00813142982725],[-118.79203838031286,34.00813142982725]]],[[[-118.79107554558486,34.008955984628045],[-118.79042574088415,34.00896071372725],[-118.79042574088415,34.00869122037476],[-118.79107554558486,34.008686491275554],[-118.79107554558486,34.008955984628045]]],[[[-118.78770351424485,34.00278416811746],[-118.78770351424485,34.00305366146995],[-118.78737844269914,34.00305366146995],[-118.78737844269914,34.00278416811746],[-118.78770351424485,34.00278416811746]]],[[[-118.79063158892986,34.003012089202855],[-118.79063158892986,34.003281582555346],[-118.79030651738414,34.003281582555346],[-118.79030651738414,34.003012089202855],[-118.79063158892986,34.003012089202855]]],[[[-118.79032922404814,34.00409382890705],[-118.79097901126886,34.00408910062146],[-118.79097901126886,34.00435859397395],[-118.79065429559385,34.00435859397395],[-118.79065429559385,34.00436332225954],[-118.79032922404814,34.00436332225954],[-118.79032922404814,34.00409382890705]]],[[[-118.79002756366786,34.00518502279145],[-118.79002756366786,34.00545451614394],[-118.78970284365286,34.00545451614394],[-118.78970284365286,34.005459242051145],[-118.78937777210714,34.005459242051145],[-118.78937777210714,34.005189748698655],[-118.79002756366786,34.00518502279145]]],[[[-118.78970851772586,34.00572495108285],[-118.78905872506215,34.00573440213625],[-118.78905872506215,34.00546490878376],[-118.78970816722314,34.00546018368536],[-118.79003288819014,34.005455457730356],[-118.79003288819014,34.00545073091875],[-118.79035795973586,34.00545073091875],[-118.79035795973586,34.00572022427124],[-118.79003323876886,34.00572022427124],[-118.79003323876886,34.00572495108285],[-118.78970851772586,34.00572495108285]]],[[[-118.78971419187486,34.00599538600905],[-118.78938912032915,34.00600011201185],[-118.78938912032915,34.005730618659356],[-118.79003856439614,34.00572589265656],[-118.79036328631514,34.005721165797056],[-118.79036328631514,34.00571643808095],[-118.79068835786086,34.00571643808095],[-118.79068835786086,34.00598593143344],[-118.79036363594186,34.00598593143344],[-118.79036363594186,34.005990659149546],[-118.79003891394586,34.005990659149546],[-118.79003891394586,34.00599538600905],[-118.78971419187486,34.00599538600905]]],[[[-118.79004424067715,34.00599632756995],[-118.79036931222286,34.005991600662554],[-118.79036931222286,34.006261094015045],[-118.78971951765314,34.006265820922444],[-118.78971951765314,34.00599632756995],[-118.79004424067715,34.00599632756995]]],[[[-118.78972554039986,34.006271488569055],[-118.78972554039986,34.006540981921546],[-118.78940046885414,34.006540981921546],[-118.78940046885414,34.006271488569055],[-118.78972554039986,34.006271488569055]]],[[[-118.79012972707586,34.010052849741555],[-118.79012972707586,34.010322343094046],[-118.78980465553015,34.010322343094046],[-118.78980465553015,34.010052849741555],[-118.79012972707586,34.010052849741555]]],[[[-118.78982168514914,34.011133647184344],[-118.78982168514914,34.010864153831854],[-118.79047149822885,34.010859426063256],[-118.79047149822885,34.01112891941575],[-118.79014675669485,34.01112891941575],[-118.79014675669485,34.011133647184344],[-118.78982168514914,34.011133647184344]]],[[[-118.79047717594887,34.01112986068665],[-118.79047717594887,34.01139935403914],[-118.79015210440315,34.01139935403914],[-118.79015210440315,34.01112986068665],[-118.79047717594887,34.01112986068665]]],[[[-118.79048285374385,34.011400295297356],[-118.79048285374385,34.01166978864985],[-118.79015778219814,34.01166978864985],[-118.79015778219814,34.011400295297356],[-118.79048285374385,34.011400295297356]]],[[[-118.78885913502786,34.011423926050554],[-118.78885913502786,34.011693419403045],[-118.78853406348215,34.011693419403045],[-118.78853406348215,34.011423926050554],[-118.78885913502786,34.011423926050554]]],[[[-118.78920090041986,34.01223050594305],[-118.78920090041986,34.01249999929554],[-118.78887582887414,34.01249999929554],[-118.78887582887414,34.01223050594305],[-118.78920090041986,34.01223050594305]]],[[[-118.78921792259786,34.01304181015785],[-118.78921792259786,34.01331130351034],[-118.78889285105214,34.01331130351034],[-118.78889285105214,34.01304181015785],[-118.78921792259786,34.01304181015785]]],[[[-118.78890451897186,34.013852172923144],[-118.78825469522714,34.013861621705445],[-118.78825469522714,34.013592128352954],[-118.78955402314286,34.013577953894256],[-118.78955402314286,34.01384744724675],[-118.78922927109586,34.01384744724675],[-118.78922927109586,34.013852172923144],[-118.78890451897186,34.013852172923144]]],[[[-118.78858543907786,34.01412733247785],[-118.78826036753215,34.01413205648834],[-118.78826036753215,34.01386256313585],[-118.78890987391215,34.01385783912536],[-118.78923462698815,34.013853114257955],[-118.78923462698815,34.01384838853375],[-118.78955969853386,34.01384838853375],[-118.78955969853386,34.01411788188624],[-118.78923494545786,34.01411788188624],[-118.78923494545786,34.014122607610446],[-118.78891019230586,34.014122607610446],[-118.78891019230586,34.01412733247785],[-118.78858543907786,34.01412733247785]]],[[[-118.78891586571486,34.01439304228504],[-118.78859111145786,34.01439776720024],[-118.78859111145786,34.014402491258544],[-118.78826603991214,34.014402491258544],[-118.78826603991214,34.01413299790605],[-118.78859079416914,34.01413299790605],[-118.78924030245514,34.01412354893255],[-118.78956505648414,34.01411882316045],[-118.78956505648414,34.01411409653146],[-118.78989012802985,34.01411409653146],[-118.78989012802985,34.01438358988395],[-118.78956537400086,34.01438358988395],[-118.78956537400086,34.01438831651294],[-118.78924061989586,34.01438831651294],[-118.78924061989586,34.01439304228504],[-118.78891586571486,34.01439304228504]]],[[[-118.78859678391386,34.01466820190984],[-118.78827171236814,34.01467292601595],[-118.78827171236814,34.01440343266346],[-118.78859646765314,34.01440343266346],[-118.78892122286314,34.01439870855735],[-118.78924597799714,34.01439398359435],[-118.78924597799714,34.014389257774454],[-118.78957104954286,34.014389257774454],[-118.78957104954286,34.014658751126944],[-118.78859678391386,34.01466820190984]]],[[[-118.78794727311686,34.01441287830495],[-118.78794727311686,34.01468237165744],[-118.78762220157114,34.01468237165744],[-118.78762220157114,34.01441287830495],[-118.78794727311686,34.01441287830495]]],[[[-118.78827738490014,34.01494336076065],[-118.78827738490014,34.014673867408156],[-118.78892721275986,34.01466914325425],[-118.78892721275986,34.01493863660674],[-118.78860245644586,34.01493863660674],[-118.78860245644586,34.01494336076065],[-118.78827738490014,34.01494336076065]]],[[[-118.78893288639586,34.01493957793836],[-118.78893288639586,34.01520907129085],[-118.78860781485014,34.01520907129085],[-118.78860781485014,34.01493957793836],[-118.78893288639586,34.01493957793836]]],[[[-118.78733177365186,34.01630970233015],[-118.78700670210614,34.01631442329524],[-118.78700670210614,34.01604492994275],[-118.78798129709686,34.016035487155555],[-118.78798129709686,34.016304980508046],[-118.78765653541186,34.016304980508046],[-118.78765653541186,34.01630970233015],[-118.78733177365186,34.01630970233015]]],[[[-118.78701267965786,34.016584858154644],[-118.78668760811215,34.016589578310644],[-118.78668760811215,34.01632008495815],[-118.78733713376513,34.01631536480215],[-118.78766189647914,34.016310643789254],[-118.78766189647914,34.016305921919354],[-118.78798696802485,34.016305921919354],[-118.78798696802485,34.016575415271845],[-118.78766220531085,34.016575415271845],[-118.78766220531085,34.016580137141744],[-118.78733744252285,34.016580137141744],[-118.78733744252285,34.016584858154644],[-118.78701267965786,34.016584858154644]]],[[[-118.78766787528586,34.016850571940545],[-118.78669327602914,34.01686001320505],[-118.78669327602914,34.016590519852556],[-118.78701803992314,34.016590519852556],[-118.78734280374015,34.01658579964875],[-118.78734280374015,34.016581078588054],[-118.78766787528586,34.016581078588054],[-118.78766787528586,34.016850571940545]]],[[[-118.78705975675686,34.00306404170666],[-118.78705975675686,34.00333353505915],[-118.78673468521114,34.00333353505915],[-118.78673468521114,34.00306404170666],[-118.78705975675686,34.00306404170666]]],[[[-118.78657426564014,34.01091138439386],[-118.78689933718586,34.01091138439386],[-118.78689933718586,34.01118087774635],[-118.78657426564014,34.01118087774635],[-118.78657426564014,34.01091138439386]]],[[[-118.78690500359185,34.011181819543154],[-118.78690500359185,34.011451312895645],[-118.78657993204614,34.011451312895645],[-118.78657993204614,34.011181819543154],[-118.78690500359185,34.011181819543154]]],[[[-118.78214688011185,34.01666122007055],[-118.78214688011185,34.016930713423044],[-118.78182180856614,34.016930713423044],[-118.78182180856614,34.01666122007055],[-118.78214688011185,34.01666122007055]]],[[[-118.78669925056985,34.01686567412865],[-118.78669925056985,34.01713516748114],[-118.78637417902414,34.01713516748114],[-118.78637417902414,34.01686567412865],[-118.78669925056985,34.01686567412865]]],[[[-118.78247729872686,34.016926948271056],[-118.78247729872686,34.01719644162355],[-118.78215222718114,34.01719644162355],[-118.78215222718114,34.016926948271056],[-118.78247729872686,34.016926948271056]]],[[[-118.77989045912285,34.01750545527065],[-118.77989045912285,34.01777494862314],[-118.77956538757714,34.01777494862314],[-118.77956538757714,34.01750545527065],[-118.77989045912285,34.01750545527065]]],[[[-118.78476733881413,34.017970057026744],[-118.78476733881413,34.01770056367425],[-118.78541717882186,34.017695848421454],[-118.78541717882186,34.017965341773944],[-118.78476733881413,34.017970057026744]]],[[[-118.77892179524886,34.01778999064165],[-118.77892179524886,34.01805948399414],[-118.77859672370315,34.01805948399414],[-118.77859672370315,34.01778999064165],[-118.77892179524886,34.01778999064165]]],[[[-118.77925220874486,34.01805572764695],[-118.77925220874486,34.018325220999444],[-118.77892713719915,34.018325220999444],[-118.77892713719915,34.01805572764695],[-118.77925220874486,34.01805572764695]]],[[[-118.77925755275314,34.01832146368746],[-118.77990739610085,34.01831676290895],[-118.77990739610085,34.01858625626144],[-118.77958262429885,34.01858625626144],[-118.77958262429885,34.01859095703995],[-118.77925755275314,34.01859095703995],[-118.77925755275314,34.01832146368746]]],[[[-118.77991304191086,34.018851990432346],[-118.77926319753414,34.018861392941446],[-118.77926319753414,34.018591899588955],[-118.77958797036514,34.018591899588955],[-118.77991274312014,34.01858719876295],[-118.78023751580014,34.01857779453965],[-118.78056258734586,34.01857779453965],[-118.78056258734586,34.01884728789214],[-118.78023781466585,34.01884728789214],[-118.78023781466585,34.018851990432346],[-118.77991304191086,34.018851990432346]]],[[[-118.77991868779586,34.01912242622595],[-118.77959361625014,34.019127127956644],[-118.77959361625014,34.01885763460415],[-118.78024316374314,34.01885293287346],[-118.78056793737714,34.018848230285755],[-118.78056793737714,34.01884352684095],[-118.78089300892286,34.01884352684095],[-118.78089300892286,34.019113020193444],[-118.78056823528885,34.019113020193444],[-118.78056823528885,34.019117723638246],[-118.78024346157986,34.019117723638246],[-118.78024346157986,34.01912242622595],[-118.77991868779586,34.01912242622595]]],[[[-118.77699542326714,34.01889521759526],[-118.77764526919886,34.01889052272105],[-118.77764526919886,34.01916001607354],[-118.77699542326714,34.01916471094775],[-118.77699542326714,34.01889521759526]]],[[[-118.78024910856986,34.019123368654355],[-118.78024910856986,34.019392862006846],[-118.77992403702414,34.019392862006846],[-118.77992403702414,34.019123368654355],[-118.78024910856986,34.019123368654355]]],[[[-118.78415176317914,34.01933260269266],[-118.78447683472486,34.01933260269266],[-118.78447683472486,34.01960209604515],[-118.78415176317914,34.01960209604515],[-118.78415176317914,34.01933260269266]]],[[[-118.77635714568615,34.019445477367256],[-118.77700699382586,34.019440784112255],[-118.77700699382586,34.019710277464746],[-118.77635714568615,34.01971497071975],[-118.77635714568615,34.019445477367256]]],[[[-118.78448219951214,34.01959832395615],[-118.78480727105786,34.01959832395615],[-118.78480727105786,34.01986781730864],[-118.78448219951214,34.01986781730864],[-118.78448219951214,34.01959832395615]]],[[[-118.78156486681515,34.019911153459255],[-118.78253949318186,34.019901738475056],[-118.78253949318186,34.02017123182755],[-118.78221471580886,34.02017123182755],[-118.78188993836086,34.020180646811745],[-118.78156486681515,34.020180646811745],[-118.78156486681515,34.019911153459255]]],[[[-118.77442003627786,34.02028398536454],[-118.77279584726814,34.02030741354474],[-118.77279584726814,34.02003792019225],[-118.77506959455886,34.020009803804655],[-118.77506959455886,34.020279297157145],[-118.77474481545586,34.020279297157145],[-118.77474481545586,34.02028398536454],[-118.77442003627786,34.02028398536454]]],[[[-118.78254514767586,34.02017217387166],[-118.78254514767586,34.02044166722415],[-118.78222007613014,34.02044166722415],[-118.78222007613014,34.02017217387166],[-118.78254514767586,34.02017217387166]]],[[[-118.77442566504585,34.02055442190225],[-118.77312625242814,34.020573166350246],[-118.77312625242814,34.020303672997755],[-118.77442537370814,34.020289615947455],[-118.77507493389714,34.02028024029495],[-118.77507493389714,34.020275551183055],[-118.77540000544286,34.020275551183055],[-118.77540000544286,34.020545044535545],[-118.77507522538586,34.020545044535545],[-118.77507522538586,34.02054973364744],[-118.77475044525386,34.02054973364744],[-118.77475044525386,34.02055442190225],[-118.77442566504585,34.02055442190225]]],[[[-118.77475607512586,34.02082017012494],[-118.77313187818415,34.02084360306495],[-118.77313187818415,34.020574109712456],[-118.77475578474115,34.020555365074756],[-118.77573012777515,34.02054129759655],[-118.77573012777515,34.020536606722956],[-118.77605519932087,34.020536606722956],[-118.77605519932087,34.02080610007545],[-118.77573041838485,34.02080610007545],[-118.77573041838485,34.02081079094904],[-118.77540563737286,34.02081079094904],[-118.77540563737286,34.020815480965545],[-118.77508085628686,34.020815480965545],[-118.77508085628686,34.02082017012494],[-118.77475607512586,34.02082017012494]]],[[[-118.77541126937886,34.021081227318945],[-118.77346228650615,34.02110935484565],[-118.77346228650615,34.02083986149316],[-118.77508619783315,34.020821113237155],[-118.77606054372814,34.02080704304535],[-118.77606054372814,34.02080235126706],[-118.77638561527385,34.02080235126706],[-118.77638561527385,34.02107184461955],[-118.77606083338385,34.02107184461955],[-118.77606083338385,34.02107653639784],[-118.77573605141886,34.02107653639784],[-118.77573605141886,34.021081227318945],[-118.77541126937886,34.021081227318945]]],[[[-118.77509211831486,34.021356353787446],[-118.77476704676914,34.02136104304174],[-118.77476704676914,34.02109154968925],[-118.77541661298314,34.021086860434956],[-118.77574139597714,34.02108217032355],[-118.77574139597714,34.02107747935496],[-118.77606646752285,34.02107747935496],[-118.77606646752285,34.02134697270745],[-118.77574168452885,34.02134697270745],[-118.77574168452885,34.02135166367604],[-118.77541690145986,34.02135166367604],[-118.77541690145986,34.021356353787446],[-118.77509211831486,34.021356353787446]]],[[[-118.77509746206914,34.021361986128554],[-118.77574731771386,34.021352606667854],[-118.77574731771386,34.021622100020345],[-118.77542253361486,34.021622100020345],[-118.77542253361486,34.02162679017935],[-118.77509774944185,34.02162679017935],[-118.77509774944185,34.021631479481044],[-118.77477267789614,34.021631479481044],[-118.77477267789614,34.021361986128554],[-118.77509746206914,34.021361986128554]]],[[[-118.77542816584585,34.021897226558444],[-118.77445352382014,34.021906604399646],[-118.77445352382014,34.021637111047156],[-118.77510309430014,34.02163242255516],[-118.77510309430014,34.02162773320595],[-118.77542816584585,34.02162773320595],[-118.77542816584585,34.021897226558444]]],[[[-118.77440848454114,34.01947361889845],[-118.77505833313185,34.019468930786054],[-118.77505833313185,34.019738424138545],[-118.77473355608686,34.019738424138545],[-118.77473355608686,34.01974311225094],[-118.77440848454114,34.01974311225094],[-118.77440848454114,34.01947361889845]]],[[[-118.77473889226214,34.01974405546166],[-118.77506396380785,34.01973936730175],[-118.77506396380785,34.020008860654244],[-118.77441411418815,34.02001354881415],[-118.77441411418815,34.01974405546166],[-118.77473889226214,34.01974405546166]]],[[[-118.77214657992886,34.02005196681505],[-118.77214657992886,34.020321460167544],[-118.77182150838314,34.020321460167544],[-118.77182150838314,34.02005196681505],[-118.77214657992886,34.02005196681505]]],[[[-118.77248793880914,34.02085391368526],[-118.77313779299585,34.020849230478355],[-118.77313779299585,34.021118723830845],[-118.77248793880914,34.02112340703775],[-118.77248793880914,34.02085391368526]]],[[[-118.76859082920686,34.021179538663446],[-118.76826575766114,34.02118421072745],[-118.76826575766114,34.02091471737496],[-118.76924039636185,34.020905372389755],[-118.76924039636185,34.021174865742246],[-118.76891561282186,34.021174865742246],[-118.76891561282186,34.021179538663446],[-118.76859082920686,34.021179538663446]]],[[[-118.77249356265715,34.02112435046916],[-118.77281863420286,34.02112435046916],[-118.77281863420286,34.02139384382165],[-118.77249356265715,34.02139384382165],[-118.77249356265715,34.02112435046916]]],[[[-118.76859643967686,34.02144997601535],[-118.76729701375214,34.02146865931775],[-118.76729701375214,34.02119916596526],[-118.76762179862014,34.02119916596526],[-118.76827136813114,34.021189826028355],[-118.76892093734415,34.02118048266286],[-118.76892093734415,34.021175809694455],[-118.76924600888987,34.021175809694455],[-118.76924600888987,34.021445303046946],[-118.76859643967686,34.02144997601535]]],[[[-118.77249918658015,34.021664280592944],[-118.77249918658015,34.02139478724045],[-118.77282397127914,34.02139478724045],[-118.77282397127914,34.02139010393876],[-118.77314904282485,34.02139010393876],[-118.77314904282485,34.02165959729125],[-118.77282425812587,34.02165959729125],[-118.77282425812587,34.021664280592944],[-118.77249918658015,34.021664280592944]]],[[[-118.77250481057814,34.02193471735144],[-118.77250481057814,34.02166522399895],[-118.77282959630614,34.02166522399895],[-118.77315438195915,34.021660540649854],[-118.77347916753715,34.021651171380256],[-118.77380423908286,34.021651171380256],[-118.77380423908286,34.02192066473275],[-118.77347945350486,34.02192066473275],[-118.77347945350486,34.02192534979615],[-118.77315466785186,34.02192534979615],[-118.77315466785186,34.021930034002345],[-118.77282988212386,34.021930034002345],[-118.77282988212386,34.02193471735144],[-118.77250481057814,34.02193471735144]]],[[[-118.76893244754386,34.021986177618146],[-118.76860766084185,34.02199085068125],[-118.76860766084185,34.021995522887146],[-118.76828258929613,34.021995522887146],[-118.76828258929613,34.021726029534655],[-118.76860737599814,34.021726029534655],[-118.76893216262515,34.02172135732876],[-118.76893216262515,34.021716684265655],[-118.76925723417087,34.021716684265655],[-118.76925723417087,34.021986177618146],[-118.76893244754386,34.021986177618146]]],[[[-118.77380986624286,34.022186415368346],[-118.77283522140814,34.022200470700746],[-118.77283522140814,34.021930977348255],[-118.77316000809014,34.021930977348255],[-118.77380958122914,34.021921607983856],[-118.77413436768614,34.021912235190754],[-118.77445943923186,34.021912235190754],[-118.77445943923186,34.022181728543245],[-118.77413465277486,34.022181728543245],[-118.77413465277486,34.022186415368346],[-118.77380986624286,34.022186415368346]]],[[[-118.77121157128686,34.02195906486936],[-118.77121157128686,34.02222855822185],[-118.77088649974114,34.02222855822185],[-118.77088649974114,34.02195906486936],[-118.77121157128686,34.02195906486936]]],[[[-118.76893777537714,34.02199179464255],[-118.76958763450386,34.02198244756465],[-118.76958763450386,34.022251940917144],[-118.76926284692286,34.022251940917144],[-118.76926284692286,34.022256614884746],[-118.76893805926686,34.022256614884746],[-118.76893805926686,34.02226128799504],[-118.76861298772114,34.02226128799504],[-118.76861298772114,34.02199179464255],[-118.76893777537714,34.02199179464255]]],[[[-118.77413999698014,34.02218735855926],[-118.77478985593686,34.02217798395696],[-118.77478985593686,34.02244747730945],[-118.77381520949415,34.02245685191175],[-118.77381520949415,34.02218735855926],[-118.77413999698014,34.02218735855926]]],[[[-118.77056733050814,34.022503673492444],[-118.77056733050814,34.022234180139954],[-118.77121719028986,34.022229501839256],[-118.77121719028986,34.02249899519175],[-118.77089240205386,34.02249899519175],[-118.77089240205386,34.022503673492444],[-118.77056733050814,34.022503673492444]]],[[[-118.76894367106586,34.02252705213844],[-118.76861859952014,34.02253172529615],[-118.76861859952014,34.02226223194366],[-118.76894338820514,34.02226223194366],[-118.76926817681515,34.02225755878595],[-118.76959296535114,34.022252884771156],[-118.76959296535114,34.02224820989915],[-118.76991803689685,34.02224820989915],[-118.76991803689685,34.022517703251644],[-118.76959324836086,34.022517703251644],[-118.76959324836086,34.02252237812365],[-118.76926845975086,34.02252237812365],[-118.76926845975086,34.02252705213844],[-118.76894367106586,34.02252705213844]]],[[[-118.77154759855686,34.02249525959115],[-118.77154759855686,34.022764752943644],[-118.77089773782114,34.02276943214895],[-118.77089773782114,34.02249993879646],[-118.77122252701115,34.02249993879646],[-118.77122252701115,34.02249525959115],[-118.77154759855686,34.02249525959115]]],[[[-118.76959858031114,34.02278814039815],[-118.76959858031114,34.02251864704566],[-118.76992336980115,34.02251864704566],[-118.76992336980115,34.022513971269156],[-118.77024844134687,34.022513971269156],[-118.77024844134687,34.02278346462165],[-118.76959858031114,34.02278814039815]]],[[[-118.76927407265286,34.02252799602705],[-118.76927407265286,34.02279748937954],[-118.76894900110715,34.02279748937954],[-118.76894900110715,34.02252799602705],[-118.76927407265286,34.02252799602705]]],[[[-118.76729140636914,34.02092872842415],[-118.76794126175386,34.020924058931556],[-118.76794126175386,34.021193552284046],[-118.76729140636914,34.02119822177664],[-118.76729140636914,34.02092872842415]]],[[[-118.76860205022186,34.021455592160756],[-118.76860205022186,34.021725085513246],[-118.76827697867614,34.021725085513246],[-118.76827697867614,34.021455592160756],[-118.76860205022186,34.021455592160756]]],[[[-118.76795247865186,34.02146493390646],[-118.76795247865186,34.02173442725895],[-118.76762769275486,34.02173442725895],[-118.76762769275486,34.02173909684605],[-118.76730290678286,34.02173909684605],[-118.76730290678286,34.02174376557605],[-118.76697812073685,34.02174376557605],[-118.76665333461486,34.021753100464345],[-118.76632826306914,34.021753100464345],[-118.76632826306914,34.021483607111854],[-118.76795247865186,34.02146493390646]]],[[[-118.76470461631786,34.021511591204955],[-118.76470461631786,34.021781084557446],[-118.76437954477214,34.021781084557446],[-118.76437954477214,34.021511591204955],[-118.76470461631786,34.021511591204955]]],[[[-118.76698344174014,34.021744709786354],[-118.76730822874114,34.021744709786354],[-118.76763301566814,34.02174004100915],[-118.76763301566814,34.02173537137485],[-118.76795808721386,34.02173537137485],[-118.76795808721386,34.02200486472734],[-118.76763330028686,34.02200486472734],[-118.76730851328585,34.022014203138845],[-118.76698344174014,34.022014203138845],[-118.76698344174014,34.021744709786354]]],[[[-118.76600936453485,34.02176337632336],[-118.76600936453485,34.02203286967585],[-118.76568429298914,34.02203286967585],[-118.76568429298914,34.02176337632336],[-118.76600936453485,34.02176337632336]]],[[[-118.76535978971086,34.02177270444876],[-118.76535978971086,34.02204219780125],[-118.76503471816514,34.02204219780125],[-118.76503471816514,34.02177270444876],[-118.76535978971086,34.02177270444876]]],[[[-118.76796369584986,34.02200580883046],[-118.76796369584986,34.02227530218295],[-118.76763862430414,34.02227530218295],[-118.76763862430414,34.02200580883046],[-118.76796369584986,34.02200580883046]]],[[[-118.76666454357986,34.022024482413855],[-118.76666454357986,34.022293975766345],[-118.76633947203415,34.022293975766345],[-118.76633947203415,34.022024482413855],[-118.76666454357986,34.022024482413855]]],[[[-118.76667014817386,34.02229492004565],[-118.76667014817386,34.02256441339814],[-118.76634507662814,34.02256441339814],[-118.76634507662814,34.02229492004565],[-118.76667014817386,34.02229492004565]]],[[[-118.76732533324386,34.02282084683215],[-118.76602589098515,34.022839517364645],[-118.76602589098515,34.022570024012154],[-118.76635068129714,34.022570024012154],[-118.76700026169814,34.02256069046025],[-118.76764984180114,34.02254668370355],[-118.76797491334686,34.02254668370355],[-118.76797491334686,34.02281617705604],[-118.76732533324386,34.02282084683215]]],[[[-118.75953034872286,34.02293266429754],[-118.75920527717714,34.02293731264344],[-118.75920527717714,34.02266781929095],[-118.76017993240686,34.02265852174185],[-118.76017993240686,34.022928015094344],[-118.75985514060186,34.022928015094344],[-118.75985514060186,34.02293266429754],[-118.75953034872286,34.02293266429754]]],[[[-118.76700614885385,34.023095953263045],[-118.76603149469913,34.02310995501824],[-118.76603149469913,34.02284046166575],[-118.76765573116386,34.022821790944356],[-118.76765573116386,34.02309128429685],[-118.76733094004686,34.02309128429685],[-118.76733094004686,34.023095953263045],[-118.76700614885385,34.023095953263045]]],[[[-118.75953593082485,34.023203102893746],[-118.75791168690114,34.02322633628624],[-118.75791168690114,34.02295684293375],[-118.76018551656686,34.022928960291054],[-118.76018551656686,34.023198453643545],[-118.75986072373286,34.023198453643545],[-118.75986072373286,34.023203102893746],[-118.75953593082485,34.023203102893746]]],[[[-118.76831092313986,34.023352381150346],[-118.76701147537814,34.02336639076225],[-118.76701147537814,34.02309689740976],[-118.76733626752414,34.02309689740976],[-118.76766105959614,34.02309222839636],[-118.76798585159415,34.023082887797855],[-118.76831092313986,34.023082887797855],[-118.76831092313986,34.023352381150346]]],[[[-118.76473792825715,34.02312955650155],[-118.76538779247286,34.02312489348866],[-118.76538779247286,34.02339438684115],[-118.76506299980286,34.02339438684115],[-118.76506299980286,34.02339904985404],[-118.76473792825715,34.02339904985404],[-118.76473792825715,34.02312955650155]]],[[[-118.75954151300085,34.023473541477244],[-118.75759247065115,34.02350141925874],[-118.75759247065115,34.02323192590625],[-118.76019110080085,34.02319939882756],[-118.76019110080085,34.02346889218005],[-118.75986630693785,34.02346889218005],[-118.75986630693785,34.023473541477244],[-118.75954151300085,34.023473541477244]]],[[[-118.76539339324985,34.023395331258456],[-118.76539339324985,34.02366482461095],[-118.76506832170413,34.02366482461095],[-118.76506832170413,34.023395331258456],[-118.76539339324985,34.023395331258456]]],[[[-118.75987161356414,34.02373933070375],[-118.75987161356414,34.02346983735126],[-118.76019640838214,34.02346983735126],[-118.76052120312615,34.02346518714975],[-118.76052120312615,34.02346053609106],[-118.76084627467186,34.02346053609106],[-118.76084627467186,34.02373002944355],[-118.76052147992786,34.02373002944355],[-118.76052147992786,34.023734680502244],[-118.76019668510986,34.023734680502244],[-118.76019668510986,34.02373933070375],[-118.75987161356414,34.02373933070375]]],[[[-118.76474912782614,34.023670432122856],[-118.76507419937185,34.023670432122856],[-118.76507419937185,34.02393992547535],[-118.76474912782614,34.02393992547535],[-118.76474912782614,34.023670432122856]]],[[[-118.76182597191314,34.02371236151215],[-118.76247583885785,34.02370770612006],[-118.76247583885785,34.02397719947255],[-118.76182597191314,34.023981854864644],[-118.76182597191314,34.02371236151215]]],[[[-118.76085186111285,34.024000467860446],[-118.75955240202615,34.02401441860614],[-118.75955240202615,34.02374492525365],[-118.76020199379514,34.02374027586235],[-118.76052678956714,34.02373562561375],[-118.76052678956714,34.023730974507956],[-118.76085186111285,34.023730974507956],[-118.76085186111285,34.024000467860446]]],[[[-118.76475500343686,34.023945532211556],[-118.76475500343686,34.02421502556405],[-118.76442993189114,34.02421502556405],[-118.76442993189114,34.023945532211556],[-118.76475500343686,34.023945532211556]]],[[[-118.75857243354915,34.02348842958495],[-118.75922230020986,34.023483782812356],[-118.75922230020986,34.02375327616485],[-118.75857243354915,34.02375792293744],[-118.75857243354915,34.02348842958495]]],[[[-118.75694845685514,34.02351165058906],[-118.75792311930086,34.02350236475915],[-118.75792311930086,34.023771858111644],[-118.75759832388786,34.023771858111644],[-118.75759832388786,34.023776501455245],[-118.75727352840086,34.023776501455245],[-118.75727352840086,34.02378114394155],[-118.75694845685514,34.02378114394155],[-118.75694845685514,34.02351165058906]]],[[[-118.75792869647987,34.024037652704045],[-118.75662923538414,34.02405622455174],[-118.75662923538414,34.02378673119925],[-118.75695403197514,34.02378673119925],[-118.75792842130214,34.02377280359936],[-118.75857801381514,34.023758868284155],[-118.75890308536086,34.023758868284155],[-118.75890308536086,34.024028361636645],[-118.75792869647987,34.024037652704045]]],[[[-118.75760920218714,34.02404324242676],[-118.75825907113087,34.02403859813195],[-118.75825907113087,34.02430809148444],[-118.75760920218714,34.02431273577925],[-118.75760920218714,34.02404324242676]]],[[[-118.75436706346287,34.02436471242125],[-118.75436706346287,34.024634205773744],[-118.75404199191715,34.024634205773744],[-118.75404199191715,34.02436471242125],[-118.75436706346287,34.02436471242125]]],[[[-118.75274279419914,34.024383243495656],[-118.75339266528586,34.02437861201295],[-118.75339266528586,34.02464810536544],[-118.75274279419914,34.02465273684815],[-118.75274279419914,34.024383243495656]]],[[[-118.75242938632286,34.02519824656635],[-118.75210431477714,34.025202876428146],[-118.75210431477714,34.024933383075656],[-118.75307898974386,34.02492412249475],[-118.75307898974386,34.02519361584724],[-118.75275418807085,34.02519361584724],[-118.75275418807085,34.02519824656635],[-118.75242938632286,34.02519824656635]]],[[[-118.75211014352386,34.02547331600245],[-118.75178507197815,34.025477945053744],[-118.75178507197815,34.02520845170125],[-118.75275948030914,34.025199192741255],[-118.75308428293815,34.025194561975354],[-118.75308428293815,34.025189930352056],[-118.75340935448386,34.025189930352056],[-118.75340935448386,34.02545942370455],[-118.75308455185485,34.02545942370455],[-118.75308455185485,34.025464055327845],[-118.75275974915186,34.025464055327845],[-118.75275974915186,34.025468686093745],[-118.75243494637486,34.025468686093745],[-118.75243494637486,34.02547331600245],[-118.75211014352386,34.02547331600245]]],[[[-118.75244050650086,34.025739125608446],[-118.75179063107514,34.025748384662045],[-118.75179063107514,34.025478891309554],[-118.75211543495514,34.025478891309554],[-118.75276504249415,34.025469632255955],[-118.75308984615214,34.02546500144305],[-118.75308984615214,34.02546036977296],[-118.75341491769785,34.02546036977296],[-118.75341491769785,34.02572986312545],[-118.75309011403986,34.02572986312545],[-118.75309011403986,34.02573449479554],[-118.75276531030786,34.02573449479554],[-118.75276531030786,34.025739125608446],[-118.75244050650086,34.025739125608446]]],[[[-118.75244606670186,34.02600956511034],[-118.75179619024614,34.02601882425775],[-118.75179619024614,34.025749330905256],[-118.75244579999215,34.02574470176025],[-118.75277060475314,34.02574007175785],[-118.75277060475314,34.02573544089825],[-118.75309567629886,34.02573544089825],[-118.75309567629886,34.02600493425074],[-118.75244606670186,34.02600956511034]]],[[[-118.75180174949114,34.026019770488155],[-118.75245162697585,34.026015141296355],[-118.75245162697585,34.026284634648846],[-118.75212682103685,34.026284634648846],[-118.75212682103685,34.026289263840646],[-118.75180174949114,34.026289263840646],[-118.75180174949114,34.026019770488155]]],[[[-118.75213211577915,34.026290210058356],[-118.75245718732486,34.02628558081965],[-118.75245718732486,34.026555074172144],[-118.75180730881114,34.02655970341085],[-118.75180730881114,34.026290210058356],[-118.75213211577915,34.026290210058356]]]]},"properties":{"id":"malibu-kelp-extent","className":"Kelp Subsurface","years":"Landsat recent","areaKm2":0.367}},{"type":"Feature","geometry":{"type":"MultiPolygon","coordinates":[[[[-118.80452509877914,33.999558047817054],[-118.80485017032485,33.999558047817054],[-118.80485017032485,33.999827541169545],[-118.80452509877914,33.999827541169545],[-118.80452509877914,33.999558047817054]]],[[[-118.79844139068014,34.003704931090255],[-118.79876646222586,34.003704931090255],[-118.79876646222586,34.003974424442745],[-118.79844139068014,34.003974424442745],[-118.79844139068014,34.003704931090255]]],[[[-118.79909652064214,34.00396586454225],[-118.79942159218785,34.00396586454225],[-118.79942159218785,34.00423535789474],[-118.79909652064214,34.00423535789474],[-118.79909652064214,34.00396586454225]]],[[[-118.79422616384686,34.004306526299246],[-118.79390144892986,34.00431126400704],[-118.79390144892986,34.004316000858346],[-118.79357637738414,34.004316000858346],[-118.79357637738414,34.004046507505855],[-118.79520030814186,34.00402755496145],[-118.79520030814186,34.004297048313944],[-118.79487559345286,34.004297048313944],[-118.79487559345286,34.004301787734846],[-118.79455087868786,34.004301787734846],[-118.79455087868786,34.004306526299246],[-118.79422616384686,34.004306526299246]]],[[[-118.79455656788086,34.004572222006246],[-118.79423185201186,34.00457696061854],[-118.79423185201186,34.004581698374345],[-118.79390713606686,34.004581698374345],[-118.79390713606686,34.004586435273445],[-118.79358242004587,34.004586435273445],[-118.79358242004587,34.00459117131614],[-118.79325770394986,34.00459117131614],[-118.79325770394986,34.004595906502146],[-118.79293263240415,34.004595906502146],[-118.79293263240415,34.004326413149656],[-118.79325734850015,34.004326413149656],[-118.79423149633514,34.004312205021854],[-118.79520564348714,34.00429798918476],[-118.79520564348714,34.004293248859256],[-118.79553071503285,34.004293248859256],[-118.79553071503285,34.004562742211746],[-118.79520599939086,34.004562742211746],[-118.79520599939086,34.00456748253725],[-118.79488128367386,34.00456748253725],[-118.79488128367386,34.004572222006246],[-118.79455656788086,34.004572222006246]]],[[[-118.79488697397186,34.004837916747945],[-118.79261360036014,34.00487107537784],[-118.79261360036014,34.00460158202535],[-118.79293831756014,34.00460158202535],[-118.79423718560415,34.00458263937625],[-118.79521133584115,34.004568423395455],[-118.79521133584115,34.004563683021956],[-118.79553640738686,34.004563683021956],[-118.79553640738686,34.00483317637445],[-118.79521169071685,34.00483317637445],[-118.79521169071685,34.004837916747945],[-118.79488697397186,34.004837916747945]]],[[[-118.79489266434486,34.00510835094575],[-118.79261928456414,34.00514150991135],[-118.79261928456414,34.004872016558856],[-118.79586681743785,34.004829375893756],[-118.79586681743785,34.00509886924625],[-118.79554209981586,34.00509886924625],[-118.79554209981586,34.005103610524245],[-118.79521738211886,34.005103610524245],[-118.79521738211886,34.00510835094575],[-118.79489266434486,34.00510835094575]]],[[[-118.79587251097186,34.005364561152746],[-118.79554779232186,34.00536930333534],[-118.79554779232186,34.005374044661345],[-118.79522307359586,34.005374044661345],[-118.79522307359586,34.005378785130844],[-118.79489835479386,34.005378785130844],[-118.79489835479386,34.00538352474364],[-118.79457363591686,34.00538352474364],[-118.79457363591686,34.005388263499945],[-118.79424891696286,34.005388263499945],[-118.79424891696286,34.00539300139955],[-118.79392419793285,34.00539300139955],[-118.79392419793285,34.00539773844255],[-118.79359947882786,34.00539773844255],[-118.79359947882786,34.005402474628944],[-118.79327475964686,34.005402474628944],[-118.79327475964686,34.00540720995885],[-118.79295004038985,34.00540720995885],[-118.79295004038985,34.00541194443205],[-118.79262532105686,34.00541194443205],[-118.79262532105686,34.005416678048746],[-118.79230024951114,34.005416678048746],[-118.79230024951114,34.005147184696256],[-118.79457328324814,34.005118770147455],[-118.79652159492115,34.005090324761056],[-118.79652159492115,34.005085580865256],[-118.79684666646686,34.005085580865256],[-118.79684666646686,34.005355074217746],[-118.79652194804486,34.005355074217746],[-118.79652194804486,34.00535981811355],[-118.79619722954585,34.00535981811355],[-118.79619722954585,34.005364561152746],[-118.79587251097186,34.005364561152746]]],[[[-118.79620257216514,34.005365501828656],[-118.79652764371086,34.00536075874145],[-118.79652764371086,34.005630252093944],[-118.79620292418386,34.005630252093944],[-118.79620292418386,34.00563499518115],[-118.79587820458185,34.00563499518115],[-118.79587820458185,34.00563973741175],[-118.79555348490386,34.00563973741175],[-118.79555348490386,34.00564447878575],[-118.79522876514986,34.00564447878575],[-118.79522876514986,34.005649219303145],[-118.79490404531886,34.005649219303145],[-118.79490404531886,34.00565395896405],[-118.79457932541285,34.00565395896405],[-118.79457932541285,34.00565869776825],[-118.79425460543186,34.00565869776825],[-118.79425460543186,34.005663435715746],[-118.79392988537386,34.005663435715746],[-118.79392988537386,34.00566817280674],[-118.79360516523985,34.00566817280674],[-118.79360516523985,34.005672909041145],[-118.79328044503086,34.005672909041145],[-118.79328044503086,34.005677644418945],[-118.79295572474585,34.005677644418945],[-118.79230628394785,34.00569184541254],[-118.79198121240213,34.00569184541254],[-118.79198121240213,34.00542235206005],[-118.79230593283914,34.00542235206005],[-118.79425425386714,34.005393942363256],[-118.79620257216514,34.005365501828656]]],[[[-118.79458501498586,34.005929132023745],[-118.79328613049086,34.00594334344054],[-118.79328613049086,34.00594807886625],[-118.79296105894514,34.00594807886625],[-118.79296105894514,34.005678585513756],[-118.79328578018215,34.005678585513756],[-118.79393522243014,34.00566911380575],[-118.79425994344014,34.00566437666676],[-118.79425994344014,34.005659638671254],[-118.79458501498586,34.005659638671254],[-118.79458501498586,34.005929132023745]]],[[[-118.79329146674614,34.00594428447465],[-118.79361653829186,34.00594428447465],[-118.79361653829186,34.00621377782714],[-118.79329146674614,34.00621377782714],[-118.79329146674614,34.00594428447465]]],[[[-118.85494419382086,34.03289742819356],[-118.85494419382086,34.03316692154605],[-118.85461912227514,34.03316692154605],[-118.85461912227514,34.03289742819356],[-118.85494419382086,34.03289742819356]]],[[[-118.86048373031886,34.033625253397055],[-118.86048373031886,34.033894746749546],[-118.86015865877314,34.033894746749546],[-118.86015865877314,34.033625253397055],[-118.86048373031886,34.033625253397055]]],[[[-118.79166252316486,34.005702249792854],[-118.79166252316486,34.005971743145345],[-118.79133745161914,34.005971743145345],[-118.79133745161914,34.005702249792854],[-118.79166252316486,34.005702249792854]]],[[[-118.79199257722814,34.00596322122936],[-118.79231764877386,34.00596322122936],[-118.79231764877386,34.00623271458185],[-118.79199257722814,34.00623271458185],[-118.79199257722814,34.00596322122936]]],[[[-118.79101840929314,34.00597741480085],[-118.79166820355987,34.005972684466954],[-118.79166820355987,34.006242177819445],[-118.79134348083886,34.006242177819445],[-118.79134348083886,34.006246908153344],[-118.79101840929314,34.006246908153344],[-118.79101840929314,34.00597741480085]]],[[[-118.79102443645586,34.006517342862544],[-118.79069936491014,34.00652207238765],[-118.79069936491014,34.006252579035156],[-118.79134881248415,34.00624784951005],[-118.79167353615715,34.00624311912836],[-118.79167353615715,34.00623838788996],[-118.79199860770287,34.00623838788996],[-118.79199860770287,34.00650788124245],[-118.79167388402986,34.00650788124245],[-118.79167388402986,34.00651261248085],[-118.79134916028086,34.00651261248085],[-118.79134916028086,34.006517342862544],[-118.79102443645586,34.006517342862544]]],[[[-118.79103011494486,34.00678777755905],[-118.79070504339914,34.00679250713205],[-118.79070504339914,34.00652301377956],[-118.79102976825214,34.00652301377956],[-118.79167921773114,34.006513553776955],[-118.79200394235714,34.00650882249075],[-118.79200394235714,34.006504090347754],[-118.79232901390286,34.006504090347754],[-118.79232901390286,34.006773583700245],[-118.79200428927686,34.006773583700245],[-118.79200428927686,34.00677831584324],[-118.79167956457486,34.00677831584324],[-118.79167956457486,34.006783047129446],[-118.79135483979786,34.006783047129446],[-118.79135483979786,34.00678777755905],[-118.79103011494486,34.00678777755905]]],[[[-118.79136051939186,34.00705348176535],[-118.79103579350986,34.00705821224275],[-118.79103579350986,34.007062941863644],[-118.79071072196415,34.007062941863644],[-118.79071072196415,34.006793448511154],[-118.79103544784614,34.006793448511154],[-118.79168489938114,34.006783988412856],[-118.79200962503513,34.006779257078655],[-118.79200962503513,34.00677452488785],[-118.79233469658085,34.00677452488785],[-118.79233469658085,34.00704401824034],[-118.79200997092686,34.00704401824034],[-118.79200997092686,34.007048750431146],[-118.79168524519686,34.007048750431146],[-118.79168524519686,34.00705348176535],[-118.79136051939186,34.00705348176535]]],[[[-118.79266476092614,34.007035492367756],[-118.79298983247186,34.007035492367756],[-118.79298983247186,34.007304985720246],[-118.79266476092614,34.007304985720246],[-118.79266476092614,34.007035492367756]]],[[[-118.79136619905987,34.007323916388444],[-118.79039167362014,34.007338105394545],[-118.79039167362014,34.007068612042055],[-118.79071640060513,34.007068612042055],[-118.79136585434814,34.00705915356126],[-118.79201530778914,34.007049691653854],[-118.79201530778914,34.007044959415154],[-118.79234037933486,34.007044959415154],[-118.79234037933486,34.007314452767645],[-118.79201565265186,34.007314452767645],[-118.79201565265186,34.007319185006345],[-118.79169092589386,34.007319185006345],[-118.79169092589386,34.007323916388444],[-118.79136619905987,34.007323916388444]]],[[[-118.79299551735785,34.00730592678656],[-118.79299551735785,34.00757542013905],[-118.79267044581213,34.00757542013905],[-118.79267044581213,34.00730592678656],[-118.79299551735785,34.00730592678656]]],[[[-118.79169660666686,34.00758961956885],[-118.79072207932114,34.00760381128865],[-118.79072207932114,34.007334317936156],[-118.79169626290815,34.00732485764625],[-118.79202099061814,34.00732012621636],[-118.79202099061814,34.00731539392975],[-118.79234606216386,34.00731539392975],[-118.79234606216386,34.00758488728224],[-118.79202133445386,34.00758488728224],[-118.79202133445386,34.00758961956885],[-118.79169660666686,34.00758961956885]]],[[[-118.79202667352415,34.00785532178404],[-118.79202667352415,34.00758582843155],[-118.79235140218714,34.00758582843155],[-118.79235140218714,34.007581095240454],[-118.79267647373285,34.007581095240454],[-118.79267647373285,34.007850588592945],[-118.79202667352415,34.00785532178404]]],[[[-118.79105248708014,34.007600022865056],[-118.79170228751586,34.007595292243856],[-118.79170228751586,34.00786478559635],[-118.79137755862585,34.00786478559635],[-118.79137755862585,34.007869516217546],[-118.79105248708014,34.007869516217546],[-118.79105248708014,34.007600022865056]]],[[[-118.79170796844086,34.007865726828754],[-118.79170796844086,34.008135220181245],[-118.79138289689514,34.008135220181245],[-118.79138289689514,34.007865726828754],[-118.79170796844086,34.007865726828754]]],[[[-118.79203838031286,34.00813142982725],[-118.79203838031286,34.00840092317974],[-118.79171330876714,34.00840092317974],[-118.79171330876714,34.00813142982725],[-118.79203838031286,34.00813142982725]]],[[[-118.79042574088415,34.00869122037476],[-118.79107554558486,34.008686491275554],[-118.79107554558486,34.008955984628045],[-118.79042574088415,34.00896071372725],[-118.79042574088415,34.00869122037476]]],[[[-118.79015210440315,34.01112986068665],[-118.79047717594887,34.01112986068665],[-118.79047717594887,34.01139935403914],[-118.79015210440315,34.01139935403914],[-118.79015210440315,34.01112986068665]]],[[[-118.79048285374385,34.011400295297356],[-118.79048285374385,34.01166978864985],[-118.79015778219814,34.01166978864985],[-118.79015778219814,34.011400295297356],[-118.79048285374385,34.011400295297356]]],[[[-118.78770351424485,34.00278416811746],[-118.78770351424485,34.00305366146995],[-118.78737844269914,34.00305366146995],[-118.78737844269914,34.00278416811746],[-118.78770351424485,34.00278416811746]]],[[[-118.78673468521114,34.00306404170666],[-118.78705975675686,34.00306404170666],[-118.78705975675686,34.00333353505915],[-118.78673468521114,34.00333353505915],[-118.78673468521114,34.00306404170666]]],[[[-118.78980465553015,34.010052849741555],[-118.79012972707586,34.010052849741555],[-118.79012972707586,34.010322343094046],[-118.78980465553015,34.010322343094046],[-118.78980465553015,34.010052849741555]]],[[[-118.78982168514914,34.010864153831854],[-118.79047149822885,34.010859426063256],[-118.79047149822885,34.01112891941575],[-118.79014675669485,34.01112891941575],[-118.79014675669485,34.011133647184344],[-118.78982168514914,34.011133647184344],[-118.78982168514914,34.010864153831854]]],[[[-118.78689933718586,34.01091138439386],[-118.78689933718586,34.01118087774635],[-118.78657426564014,34.01118087774635],[-118.78657426564014,34.01091138439386],[-118.78689933718586,34.01091138439386]]],[[[-118.78657993204614,34.011181819543154],[-118.78690500359185,34.011181819543154],[-118.78690500359185,34.011451312895645],[-118.78657993204614,34.011451312895645],[-118.78657993204614,34.011181819543154]]],[[[-118.78885913502786,34.011423926050554],[-118.78885913502786,34.011693419403045],[-118.78853406348215,34.011693419403045],[-118.78853406348215,34.011423926050554],[-118.78885913502786,34.011423926050554]]],[[[-118.78920090041986,34.01223050594305],[-118.78920090041986,34.01249999929554],[-118.78887582887414,34.01249999929554],[-118.78887582887414,34.01223050594305],[-118.78920090041986,34.01223050594305]]],[[[-118.78857976677286,34.01385689774275],[-118.78825469522714,34.013861621705445],[-118.78825469522714,34.013592128352954],[-118.78955402314286,34.013577953894256],[-118.78955402314286,34.01384744724675],[-118.78922927109586,34.01384744724675],[-118.78922927109586,34.013852172923144],[-118.78890451897186,34.013852172923144],[-118.78890451897186,34.01385689774275],[-118.78857976677286,34.01385689774275]]],[[[-118.78858543907786,34.01412733247785],[-118.78826036753215,34.01413205648834],[-118.78826036753215,34.01386256313585],[-118.78890987391215,34.01385783912536],[-118.78923462698815,34.013853114257955],[-118.78923462698815,34.01384838853375],[-118.78955969853386,34.01384838853375],[-118.78955969853386,34.01411788188624],[-118.78923494545786,34.01411788188624],[-118.78923494545786,34.014122607610446],[-118.78891019230586,34.014122607610446],[-118.78891019230586,34.01412733247785],[-118.78858543907786,34.01412733247785]]],[[[-118.78891586571486,34.01439304228504],[-118.78826603991214,34.014402491258544],[-118.78826603991214,34.01413299790605],[-118.78859079416914,34.01413299790605],[-118.78924030245514,34.01412354893255],[-118.78956505648414,34.01411882316045],[-118.78956505648414,34.01411409653146],[-118.78989012802985,34.01411409653146],[-118.78989012802985,34.01438358988395],[-118.78956537400086,34.01438358988395],[-118.78956537400086,34.01438831651294],[-118.78924061989586,34.01438831651294],[-118.78924061989586,34.01439304228504],[-118.78891586571486,34.01439304228504]]],[[[-118.78859678391386,34.01466820190984],[-118.78827171236814,34.01467292601595],[-118.78827171236814,34.01440343266346],[-118.78892122286314,34.01439870855735],[-118.78924597799714,34.01439398359435],[-118.78924597799714,34.014389257774454],[-118.78957104954286,34.014389257774454],[-118.78957104954286,34.014658751126944],[-118.78859678391386,34.01466820190984]]],[[[-118.78827738490014,34.01494336076065],[-118.78827738490014,34.014673867408156],[-118.78892721275986,34.01466914325425],[-118.78892721275986,34.01493863660674],[-118.78860245644586,34.01493863660674],[-118.78860245644586,34.01494336076065],[-118.78827738490014,34.01494336076065]]],[[[-118.78893288639586,34.01493957793836],[-118.78893288639586,34.01520907129085],[-118.78860781485014,34.01520907129085],[-118.78860781485014,34.01493957793836],[-118.78893288639586,34.01493957793836]]],[[[-118.78700670210614,34.01604492994275],[-118.78798129709686,34.016035487155555],[-118.78798129709686,34.016304980508046],[-118.78765653541186,34.016304980508046],[-118.78765653541186,34.01630970233015],[-118.78733177365186,34.01630970233015],[-118.78733177365186,34.01631442329524],[-118.78700670210614,34.01631442329524],[-118.78700670210614,34.01604492994275]]],[[[-118.78733744252285,34.016580137141744],[-118.78668760811215,34.016589578310644],[-118.78668760811215,34.01632008495815],[-118.78733713376513,34.01631536480215],[-118.78766189647914,34.016310643789254],[-118.78766189647914,34.016305921919354],[-118.78798696802485,34.016305921919354],[-118.78798696802485,34.016575415271845],[-118.78733744252285,34.016580137141744]]],[[[-118.78669327602914,34.016590519852556],[-118.78766787528586,34.016581078588054],[-118.78766787528586,34.016850571940545],[-118.78669327602914,34.01686001320505],[-118.78669327602914,34.016590519852556]]],[[[-118.78637417902414,34.01686567412865],[-118.78669925056985,34.01686567412865],[-118.78669925056985,34.01713516748114],[-118.78637417902414,34.01713516748114],[-118.78637417902414,34.01686567412865]]],[[[-118.77956538757714,34.01750545527065],[-118.77989045912285,34.01750545527065],[-118.77989045912285,34.01777494862314],[-118.77956538757714,34.01777494862314],[-118.77956538757714,34.01750545527065]]],[[[-118.78476733881413,34.01770056367425],[-118.78541717882186,34.017695848421454],[-118.78541717882186,34.017965341773944],[-118.78476733881413,34.017970057026744],[-118.78476733881413,34.01770056367425]]],[[[-118.77699542326714,34.01889521759526],[-118.77764526919886,34.01889052272105],[-118.77764526919886,34.01916001607354],[-118.77699542326714,34.01916471094775],[-118.77699542326714,34.01889521759526]]],[[[-118.77635714568615,34.019445477367256],[-118.77700699382586,34.019440784112255],[-118.77700699382586,34.019710277464746],[-118.77635714568615,34.01971497071975],[-118.77635714568615,34.019445477367256]]],[[[-118.78156486681515,34.020180646811745],[-118.78156486681515,34.019911153459255],[-118.78221471580886,34.01990644639565],[-118.78221471580886,34.02017593974814],[-118.78156486681515,34.020180646811745]]],[[[-118.77605519932087,34.020536606722956],[-118.77605519932087,34.02080610007545],[-118.77573041838485,34.02080610007545],[-118.77573041838485,34.02081079094904],[-118.77540563737286,34.02081079094904],[-118.77540563737286,34.020815480965545],[-118.77508085628686,34.020815480965545],[-118.77508085628686,34.02082017012494],[-118.77475607512586,34.02082017012494],[-118.77475607512586,34.02082485842725],[-118.77443129388986,34.02082485842725],[-118.77443129388986,34.020829545872346],[-118.77410651257786,34.020829545872346],[-118.77410651257786,34.020834232460345],[-118.77378144103214,34.020834232460345],[-118.77378144103214,34.020564739107854],[-118.77410622234414,34.020564739107854],[-118.77508056582714,34.02055067677245],[-118.77573012777515,34.020536606722956],[-118.77605519932087,34.020536606722956]]],[[[-118.77508619783315,34.020821113237155],[-118.77638561527385,34.02080235126706],[-118.77638561527385,34.02107184461955],[-118.77606083338385,34.02107184461955],[-118.77606083338385,34.02107653639784],[-118.77573605141886,34.02107653639784],[-118.77573605141886,34.021081227318945],[-118.77541126937886,34.021081227318945],[-118.77541126937886,34.02108591738285],[-118.77508648726386,34.02108591738285],[-118.77508648726386,34.021090606589645],[-118.77476141571815,34.021090606589645],[-118.77476141571815,34.020821113237155],[-118.77508619783315,34.020821113237155]]],[[[-118.77606646752285,34.02107747935496],[-118.77606646752285,34.02134697270745],[-118.77574168452885,34.02134697270745],[-118.77574168452885,34.02135166367604],[-118.77541690145986,34.02135166367604],[-118.77541690145986,34.021356353787446],[-118.77509182991415,34.021356353787446],[-118.77509182991415,34.021086860434956],[-118.77541661298314,34.021086860434956],[-118.77574139597714,34.02108217032355],[-118.77574139597714,34.02107747935496],[-118.77606646752285,34.02107747935496]]],[[[-118.77574731771386,34.021622100020345],[-118.77509774944185,34.02162679017935],[-118.77509774944185,34.021631479481044],[-118.77477267789614,34.021631479481044],[-118.77477267789614,34.021361986128554],[-118.77542224616815,34.02135729682686],[-118.77542224616815,34.021352606667854],[-118.77574731771386,34.021352606667854],[-118.77574731771386,34.021622100020345]]],[[[-118.77344540615015,34.02029804484395],[-118.77344540615015,34.02002855149146],[-118.77442003627786,34.02001917936236],[-118.77442003627786,34.02028867271485],[-118.77409525702485,34.02028867271485],[-118.77409525702485,34.02029335920795],[-118.77377047769586,34.02029335920795],[-118.77377047769586,34.02029804484395],[-118.77344540615015,34.02029804484395]]],[[[-118.77182150838314,34.02005196681505],[-118.77214657992886,34.02005196681505],[-118.77214657992886,34.020321460167544],[-118.77182150838314,34.020321460167544],[-118.77182150838314,34.02005196681505]]],[[[-118.77507522538586,34.02054973364744],[-118.77377610440585,34.020563795840445],[-118.77377610440585,34.020568481523945],[-118.77345103286014,34.020568481523945],[-118.77345103286014,34.020298988171454],[-118.77377581321814,34.020298988171454],[-118.77442537370814,34.020289615947455],[-118.77475015384015,34.02028024029495],[-118.77507522538586,34.02028024029495],[-118.77507522538586,34.02054973364744]]],[[[-118.77443692280787,34.02083048907946],[-118.77443692280787,34.02109998243195],[-118.77411185126215,34.02109998243195],[-118.77411185126215,34.02083048907946],[-118.77443692280787,34.02083048907946]]],[[[-118.76826575766114,34.02118421072745],[-118.76826575766114,34.02091471737496],[-118.76924039636185,34.020905372389755],[-118.76924039636185,34.021174865742246],[-118.76891561282186,34.021174865742246],[-118.76891561282186,34.021179538663446],[-118.76859082920686,34.021179538663446],[-118.76859082920686,34.02118421072745],[-118.76826575766114,34.02118421072745]]],[[[-118.76892093734415,34.02118048266286],[-118.76924600888987,34.021175809694455],[-118.76924600888987,34.021445303046946],[-118.76892122432086,34.021445303046946],[-118.76892122432086,34.02144997601535],[-118.76859643967686,34.02144997601535],[-118.76859643967686,34.02145464812674],[-118.76827165495885,34.02145464812674],[-118.76827165495885,34.021459319380845],[-118.76794687016586,34.021459319380845],[-118.76794687016586,34.02146398977784],[-118.76762208529786,34.02146398977784],[-118.76762208529786,34.02146865931775],[-118.76729701375214,34.02146865931775],[-118.76729701375214,34.02119916596526],[-118.76762179862014,34.02119916596526],[-118.76827136813114,34.021189826028355],[-118.76892093734415,34.02118048266286]]],[[[-118.77445352382014,34.021906604399646],[-118.77445352382014,34.021637111047156],[-118.77510309430014,34.02163242255516],[-118.77510309430014,34.02162773320595],[-118.77542816584585,34.02162773320595],[-118.77542816584585,34.021897226558444],[-118.77445352382014,34.021906604399646]]],[[[-118.77282988212386,34.021930034002345],[-118.77250481057814,34.02193471735144],[-118.77250481057814,34.02166522399895],[-118.77380423908286,34.021651171380256],[-118.77380423908286,34.02192066473275],[-118.77347945350486,34.02192066473275],[-118.77347945350486,34.02192534979615],[-118.77315466785186,34.02192534979615],[-118.77315466785186,34.021930034002345],[-118.77282988212386,34.021930034002345]]],[[[-118.76860766084185,34.02199085068125],[-118.76828258929613,34.021995522887146],[-118.76828258929613,34.021726029534655],[-118.76860737599814,34.021726029534655],[-118.76893216262515,34.02172135732876],[-118.76893216262515,34.021716684265655],[-118.76925723417087,34.021716684265655],[-118.76925723417087,34.021986177618146],[-118.76893244754386,34.021986177618146],[-118.76893244754386,34.02199085068125],[-118.76860766084185,34.02199085068125]]],[[[-118.77380986624286,34.022186415368346],[-118.77283522140814,34.022200470700746],[-118.77283522140814,34.021930977348255],[-118.77316000809014,34.021930977348255],[-118.77380958122914,34.021921607983856],[-118.77413436768614,34.021912235190754],[-118.77445943923186,34.021912235190754],[-118.77445943923186,34.022181728543245],[-118.77413465277486,34.022181728543245],[-118.77413465277486,34.022186415368346],[-118.77380986624286,34.022186415368346]]],[[[-118.77088649974114,34.02195906486936],[-118.77121157128686,34.02195906486936],[-118.77121157128686,34.02222855822185],[-118.77088649974114,34.02222855822185],[-118.77088649974114,34.02195906486936]]],[[[-118.76861298772114,34.02199179464255],[-118.76893777537714,34.02199179464255],[-118.76926256295815,34.021987121532256],[-118.76926256295815,34.02198244756465],[-118.76958763450386,34.02198244756465],[-118.76958763450386,34.022251940917144],[-118.76926284692286,34.022251940917144],[-118.76926284692286,34.022256614884746],[-118.76893805926686,34.022256614884746],[-118.76893805926686,34.02226128799504],[-118.76861298772114,34.02226128799504],[-118.76861298772114,34.02199179464255]]],[[[-118.77478985593686,34.02244747730945],[-118.77381520949415,34.02245685191175],[-118.77381520949415,34.02218735855926],[-118.77413999698014,34.02218735855926],[-118.77446478439114,34.02218267168676],[-118.77446478439114,34.02217798395696],[-118.77478985593686,34.02217798395696],[-118.77478985593686,34.02244747730945]]],[[[-118.77089211874414,34.022229501839256],[-118.77121719028986,34.022229501839256],[-118.77121719028986,34.02249899519175],[-118.77089211874414,34.02249899519175],[-118.77089211874414,34.022229501839256]]],[[[-118.76894367106586,34.02252705213844],[-118.76861859952014,34.02253172529615],[-118.76861859952014,34.02226223194366],[-118.76894338820514,34.02226223194366],[-118.76926817681515,34.02225755878595],[-118.76959296535114,34.022252884771156],[-118.76959296535114,34.02224820989915],[-118.76991803689685,34.02224820989915],[-118.76991803689685,34.022517703251644],[-118.76959324836086,34.022517703251644],[-118.76959324836086,34.02252237812365],[-118.76926845975086,34.02252237812365],[-118.76926845975086,34.02252705213844],[-118.76894367106586,34.02252705213844]]],[[[-118.77122252701115,34.02249993879646],[-118.77154759855686,34.02249525959115],[-118.77154759855686,34.022764752943644],[-118.77089773782114,34.02276943214895],[-118.77089773782114,34.02249993879646],[-118.77122252701115,34.02249993879646]]],[[[-118.76959858031114,34.02278814039815],[-118.76959858031114,34.02251864704566],[-118.76992336980115,34.02251864704566],[-118.76992336980115,34.022513971269156],[-118.77024844134687,34.022513971269156],[-118.77024844134687,34.02278346462165],[-118.76959858031114,34.02278814039815]]],[[[-118.76927407265286,34.02252799602705],[-118.76927407265286,34.02279748937954],[-118.76894900110715,34.02279748937954],[-118.76894900110715,34.02252799602705],[-118.76927407265286,34.02252799602705]]],[[[-118.76729140636914,34.02092872842415],[-118.76794126175386,34.020924058931556],[-118.76794126175386,34.021193552284046],[-118.76729140636914,34.02119822177664],[-118.76729140636914,34.02092872842415]]],[[[-118.76860205022186,34.021455592160756],[-118.76860205022186,34.021725085513246],[-118.76827697867614,34.021725085513246],[-118.76827697867614,34.021455592160756],[-118.76860205022186,34.021455592160756]]],[[[-118.76730290678286,34.02173909684605],[-118.76632826306914,34.021753100464345],[-118.76632826306914,34.021483607111854],[-118.76795247865186,34.02146493390646],[-118.76795247865186,34.02173442725895],[-118.76762769275486,34.02173442725895],[-118.76762769275486,34.02173909684605],[-118.76730290678286,34.02173909684605]]],[[[-118.76470461631786,34.021511591204955],[-118.76470461631786,34.021781084557446],[-118.76437954477214,34.021781084557446],[-118.76437954477214,34.021511591204955],[-118.76470461631786,34.021511591204955]]],[[[-118.76698344174014,34.021744709786354],[-118.76763301566814,34.02174004100915],[-118.76763301566814,34.02173537137485],[-118.76795808721386,34.02173537137485],[-118.76795808721386,34.02200486472734],[-118.76763330028686,34.02200486472734],[-118.76730851328585,34.022014203138845],[-118.76698344174014,34.022014203138845],[-118.76698344174014,34.021744709786354]]],[[[-118.76600936453485,34.02176337632336],[-118.76600936453485,34.02203286967585],[-118.76568429298914,34.02203286967585],[-118.76568429298914,34.02176337632336],[-118.76600936453485,34.02176337632336]]],[[[-118.76503471816514,34.02177270444876],[-118.76535978971086,34.02177270444876],[-118.76535978971086,34.02204219780125],[-118.76503471816514,34.02204219780125],[-118.76503471816514,34.02177270444876]]],[[[-118.76796369584986,34.02200580883046],[-118.76796369584986,34.02227530218295],[-118.76763862430414,34.02227530218295],[-118.76763862430414,34.02200580883046],[-118.76796369584986,34.02200580883046]]],[[[-118.76666454357986,34.022024482413855],[-118.76666454357986,34.022293975766345],[-118.76633947203415,34.022293975766345],[-118.76633947203415,34.022024482413855],[-118.76666454357986,34.022024482413855]]],[[[-118.76634507662814,34.02229492004565],[-118.76667014817386,34.02229492004565],[-118.76667014817386,34.02256441339814],[-118.76634507662814,34.02256441339814],[-118.76634507662814,34.02229492004565]]],[[[-118.76700026169814,34.02256069046025],[-118.76797491334686,34.02254668370355],[-118.76797491334686,34.02281617705604],[-118.76765012333286,34.02281617705604],[-118.76765012333286,34.02282084683215],[-118.76732533324386,34.02282084683215],[-118.76732533324386,34.022825515751045],[-118.76700054308085,34.022825515751045],[-118.76700054308085,34.022830183812744],[-118.76667575284286,34.022830183812744],[-118.76667575284286,34.02283485101734],[-118.76635096253086,34.02283485101734],[-118.76635096253086,34.022839517364645],[-118.76602589098515,34.022839517364645],[-118.76602589098515,34.022570024012154],[-118.76635068129714,34.022570024012154],[-118.76700026169814,34.02256069046025]]],[[[-118.75953034872286,34.02293266429754],[-118.75920527717714,34.02293731264344],[-118.75920527717714,34.02266781929095],[-118.76017993240686,34.02265852174185],[-118.76017993240686,34.022928015094344],[-118.75985514060186,34.022928015094344],[-118.75985514060186,34.02293266429754],[-118.75953034872286,34.02293266429754]]],[[[-118.76700614885385,34.023100621372045],[-118.76603149469913,34.02310995501824],[-118.76603149469913,34.02284046166575],[-118.76635628604114,34.02284046166575],[-118.76700586850114,34.022831128019554],[-118.76733065961814,34.022826459910554],[-118.76733065961814,34.022821790944356],[-118.76765573116386,34.022821790944356],[-118.76765573116386,34.02309128429685],[-118.76733094004686,34.02309128429685],[-118.76733094004686,34.023095953263045],[-118.76700614885385,34.023095953263045],[-118.76700614885385,34.023100621372045]]],[[[-118.75986072373286,34.023198453643545],[-118.75953593082485,34.023203102893746],[-118.75953593082485,34.02320775128675],[-118.75921113784186,34.02320775128675],[-118.75921113784186,34.023212398822444],[-118.75888634478486,34.023212398822444],[-118.75888634478486,34.02321704550094],[-118.75856155165286,34.02321704550094],[-118.75856155165286,34.02322169132225],[-118.75823675844686,34.02322169132225],[-118.75823675844686,34.02322633628624],[-118.75791168690114,34.02322633628624],[-118.75791168690114,34.02295684293375],[-118.76018551656686,34.022928960291054],[-118.76018551656686,34.023198453643545],[-118.75986072373286,34.023198453643545]]],[[[-118.76831092313986,34.023352381150346],[-118.76701147537814,34.02336639076225],[-118.76701147537814,34.02309689740976],[-118.76733626752414,34.02309689740976],[-118.76766105959614,34.02309222839636],[-118.76798585159415,34.023082887797855],[-118.76831092313986,34.023082887797855],[-118.76831092313986,34.023352381150346]]],[[[-118.76473792825715,34.02312955650155],[-118.76538779247286,34.02312489348866],[-118.76538779247286,34.02339438684115],[-118.76506299980286,34.02339438684115],[-118.76506299980286,34.02339904985404],[-118.76473792825715,34.02339904985404],[-118.76473792825715,34.02312955650155]]],[[[-118.75921671898885,34.02347818991724],[-118.75759247065115,34.02350141925874],[-118.75759247065115,34.02323192590625],[-118.75791726496114,34.02323192590625],[-118.75889164744314,34.02321799087306],[-118.75986602925514,34.023204048124754],[-118.75986602925514,34.02319939882756],[-118.76019110080085,34.02319939882756],[-118.76019110080085,34.02346889218005],[-118.75986630693785,34.02346889218005],[-118.75954151300085,34.02347818991724],[-118.75921671898885,34.02347818991724]]],[[[-118.76539339324985,34.023395331258456],[-118.76539339324985,34.02366482461095],[-118.76506832170413,34.02366482461095],[-118.76506832170413,34.023395331258456],[-118.76539339324985,34.023395331258456]]],[[[-118.75987161356414,34.02373933070375],[-118.75987161356414,34.02346983735126],[-118.76019640838214,34.02346983735126],[-118.76052120312615,34.02346518714975],[-118.76052120312615,34.02346053609106],[-118.76084627467186,34.02346053609106],[-118.76084627467186,34.02373002944355],[-118.76052147992786,34.02373002944355],[-118.76052147992786,34.023734680502244],[-118.76019668510986,34.023734680502244],[-118.76019668510986,34.02373933070375],[-118.75987161356414,34.02373933070375]]],[[[-118.76507419937185,34.023670432122856],[-118.76507419937185,34.02393992547535],[-118.76474912782614,34.02393992547535],[-118.76474912782614,34.023670432122856],[-118.76507419937185,34.023670432122856]]],[[[-118.76182597191314,34.023981854864644],[-118.76182597191314,34.02371236151215],[-118.76247583885785,34.02370770612006],[-118.76247583885785,34.02397719947255],[-118.76182597191314,34.023981854864644]]],[[[-118.76085186111285,34.024000467860446],[-118.75955240202615,34.02401441860614],[-118.75955240202615,34.02374492525365],[-118.76020199379514,34.02374027586235],[-118.76052678956714,34.02373562561375],[-118.76052678956714,34.023730974507956],[-118.76085186111285,34.023730974507956],[-118.76085186111285,34.024000467860446]]],[[[-118.76442993189114,34.023945532211556],[-118.76475500343686,34.023945532211556],[-118.76475500343686,34.02421502556405],[-118.76442993189114,34.02421502556405],[-118.76442993189114,34.023945532211556]]],[[[-118.75857243354915,34.02375792293744],[-118.75857243354915,34.02348842958495],[-118.75922230020986,34.023483782812356],[-118.75922230020986,34.02375327616485],[-118.75857243354915,34.02375792293744]]],[[[-118.75694845685514,34.02351165058906],[-118.75792311930086,34.02350236475915],[-118.75792311930086,34.023771858111644],[-118.75759832388786,34.023771858111644],[-118.75759832388786,34.023776501455245],[-118.75727352840086,34.023776501455245],[-118.75727352840086,34.02378114394155],[-118.75694845685514,34.02378114394155],[-118.75694845685514,34.02351165058906]]],[[[-118.75825349284786,34.024033007598945],[-118.75662923538414,34.02405622455174],[-118.75662923538414,34.02378673119925],[-118.75695403197514,34.02378673119925],[-118.75792842130214,34.02377280359936],[-118.75857801381514,34.023758868284155],[-118.75890308536086,34.023758868284155],[-118.75890308536086,34.024028361636645],[-118.75825349284786,34.024033007598945]]],[[[-118.75760920218714,34.02404324242676],[-118.75825907113087,34.02403859813195],[-118.75825907113087,34.02430809148444],[-118.75760920218714,34.02431273577925],[-118.75760920218714,34.02404324242676]]],[[[-118.75404199191715,34.02436471242125],[-118.75436706346287,34.02436471242125],[-118.75436706346287,34.024634205773744],[-118.75404199191715,34.024634205773744],[-118.75404199191715,34.02436471242125]]],[[[-118.75274279419914,34.024383243495656],[-118.75339266528586,34.02437861201295],[-118.75339266528586,34.02464810536544],[-118.75274279419914,34.02465273684815],[-118.75274279419914,34.024383243495656]]],[[[-118.75210431477714,34.025202876428146],[-118.75210431477714,34.024933383075656],[-118.75307898974386,34.02492412249475],[-118.75307898974386,34.02519361584724],[-118.75275418807085,34.02519361584724],[-118.75275418807085,34.02519824656635],[-118.75242938632286,34.02519824656635],[-118.75242938632286,34.025202876428146],[-118.75210431477714,34.025202876428146]]],[[[-118.75243494637486,34.025468686093745],[-118.75211014352386,34.02547331600245],[-118.75211014352386,34.025477945053744],[-118.75178507197815,34.025477945053744],[-118.75178507197815,34.02520845170125],[-118.75210987482915,34.02520845170125],[-118.75275948030914,34.025199192741255],[-118.75308428293815,34.025194561975354],[-118.75308428293815,34.025189930352056],[-118.75340935448386,34.025189930352056],[-118.75340935448386,34.02545942370455],[-118.75308455185485,34.02545942370455],[-118.75308455185485,34.025464055327845],[-118.75275974915186,34.025464055327845],[-118.75275974915186,34.025468686093745],[-118.75243494637486,34.025468686093745]]],[[[-118.75244050650086,34.025739125608446],[-118.75211570262086,34.025743755563944],[-118.75211570262086,34.025748384662045],[-118.75179063107514,34.025748384662045],[-118.75179063107514,34.025478891309554],[-118.75211543495514,34.025478891309554],[-118.75276504249415,34.025469632255955],[-118.75308984615214,34.02546500144305],[-118.75308984615214,34.02546036977296],[-118.75341491769785,34.02546036977296],[-118.75341491769785,34.02572986312545],[-118.75309011403986,34.02572986312545],[-118.75309011403986,34.02573449479554],[-118.75276531030786,34.02573449479554],[-118.75276531030786,34.025739125608446],[-118.75244050650086,34.025739125608446]]],[[[-118.75212126179186,34.026014195112744],[-118.75179619024614,34.02601882425775],[-118.75179619024614,34.025749330905256],[-118.75212099515615,34.025749330905256],[-118.75244579999215,34.02574470176025],[-118.75277060475314,34.02574007175785],[-118.75277060475314,34.02573544089825],[-118.75309567629886,34.02573544089825],[-118.75309567629886,34.02600493425074],[-118.75277087153786,34.02600493425074],[-118.75277087153786,34.02600956511034],[-118.75244606670186,34.02600956511034],[-118.75244606670186,34.026014195112744],[-118.75212126179186,34.026014195112744]]],[[[-118.75245162697585,34.026015141296355],[-118.75245162697585,34.026284634648846],[-118.75212682103685,34.026284634648846],[-118.75212682103685,34.026289263840646],[-118.75180174949114,34.026289263840646],[-118.75180174949114,34.026019770488155],[-118.75212655543014,34.026019770488155],[-118.75212655543014,34.026015141296355],[-118.75245162697585,34.026015141296355]]],[[[-118.75213211577915,34.026290210058356],[-118.75245718732486,34.02628558081965],[-118.75245718732486,34.026555074172144],[-118.75180730881114,34.02655970341085],[-118.75180730881114,34.026290210058356],[-118.75213211577915,34.026290210058356]]]]},"properties":{"id":"malibu-kelp-canopy","className":"Kelp Canopy","years":"Landsat recent","areaKm2":0.299}}]}