{"type":"FeatureCollection","features":[{"type":"Feature","geometry":{"type":"Polygon","coordinates":[[[-118.883,34.038],[-118.883,34.038],[-118.883,34.038],[-118.883,34.038],[-118.883,34.038],[-118.883,34.038],[-118.883,34.038],[-118.883,34.038],[-118.883,34.038],[-118.883,34.038],[-118.883,34.038],[-118.883,34.038],[-118.882,34.038],[-118.882,34.038],[-118.882,34.038],[-118.882,34.038],[-118.882,34.038],[-118.882,34.038],[-118.882,34.038],[-118.882,34.038],[-118.882,34.038],[-118.881,34.038],[-118.881,34.038],[-118.881,34.038],[-118.881,34.038],[-118.881,34.038],[-118.881,34.038],[-118.881,34.038],[-118.881,34.038],[-118.881,34.038],[-118.88,34.038],[-118.88,34.038],[-118.88,34.038],[-118.88,34.038],[-118.88,34.038],[-118.88,34.038],[-118.88,34.038],[-118.88,34.038],[-118.88,34.038],[-118.88,34.038],[-118.88,34.038],[-118.879,34.038],[-118.879,34.038],[-118.879,34.038],[-118.879,34.038],[-118.879,34.038],[-118.879,34.038],[-118.879,34.038],[-118.879,34.038],[-118.879,34.038],[-118.879,34.038],[-118.879,34.038],[-118.879,34.038],[-118.879,34.038],[-118.879,34.038],[-118.878,34.038],[-118.878,34.038],[-118.878,34.038],[-118.878,34.038],[-118.878,34.038],[-118.878,34.038],[-118.878,34.038],[-118.878,34.038],[-118.878,34.038],[-118.878,34.038],[-118.878,34.038],[-118.877,34.038],[-118.877,34.038],[-118.877,34.038],[-118.877,34.038],[-118.877,34.038],[-118.877,34.038],[-118.876,34.038],[-118.876,34.038],[-118.876,34.038],[-118.875,34.038],[-118.875,34.038],[-118.875,34.038],[-118.874,34.038],[-118.874,34.038],[-118.874,34.038],[-118.874,34.038],[-118.873,34.038],[-118.873,34.038],[-118.873,34.038],[-118.873,34.038],[-118.873,34.038],[-118.873,34.038],[-118.873,34.038],[-118.873,34.038],[-118.872,34.038],[-118.872,34.038],[-118.872,34.038],[-118.872,34.037],[-118.872,34.037],[-118.872,34.037],[-118.872,34.037],[-118.871,34.037],[-118.872,34.037],[-118.871,34.037],[-118.871,34.037],[-118.871,34.037],[-118.871,34.037],[-118.87,34.037],[-118.87,34.037],[-118.869,34.037],[-118.869,34.037],[-118.869,34.037],[-118.869,34.037],[-118.868,34.036],[-118.867,34.036],[-118.867,34.036],[-118.867,34.036],[-118.867,34.036],[-118.866,34.036],[-118.866,34.036],[-118.866,34.036],[-118.865,34.036],[-118.865,34.036],[-118.864,34.035],[-118.864,34.035],[-118.864,34.035],[-118.864,34.035],[-118.864,34.035],[-118.864,34.035],[-118.864,34.035],[-118.864,34.035],[-118.864,34.035],[-118.864,34.035],[-118.864,34.035],[-118.863,34.035],[-118.863,34.035],[-118.863,34.035],[-118.863,34.035],[-118.863,34.035],[-118.863,34.035],[-118.863,34.035],[-118.863,34.035],[-118.863,34.035],[-118.863,34.035],[-118.863,34.035],[-118.863,34.035],[-118.863,34.035],[-118.863,34.035],[-118.862,34.035],[-118.862,34.035],[-118.862,34.035],[-118.862,34.035],[-118.862,34.035],[-118.862,34.035],[-118.862,34.035],[-118.862,34.035],[-118.862,34.035],[-118.862,34.035],[-118.862,34.035],[-118.862,34.034],[-118.862,34.034],[-118.862,34.034],[-118.862,34.034],[-118.862,34.035],[-118.862,34.035],[-118.862,34.035],[-118.862,34.035],[-118.862,34.035],[-118.862,34.035],[-118.861,34.035],[-118.861,34.035],[-118.861,34.035],[-118.861,34.035],[-118.861,34.035],[-118.861,34.035],[-118.861,34.035],[-118.861,34.035],[-118.861,34.035],[-118.861,34.035],[-118.861,34.035],[-118.86,34.036],[-118.86,34.035],[-118.86,34.035],[-118.86,34.036],[-118.86,34.036],[-118.859,34.036],[-118.859,34.036],[-118.859,34.036],[-118.859,34.036],[-118.858,34.035],[-118.858,34.035],[-118.858,34.035],[-118.858,34.035],[-118.858,34.035],[-118.858,34.035],[-118.858,34.035],[-118.858,34.035],[-118.857,34.035],[-118.857,34.035],[-118.857,34.035],[-118.857,34.035],[-118.857,34.035],[-118.857,34.035],[-118.857,34.035],[-118.857,34.035],[-118.856,34.035],[-118.855,34.035],[-118.855,34.035],[-118.854,34.035],[-118.853,34.034],[-118.852,34.034],[-118.851,34.034],[-118.85,34.033],[-118.85,34.033],[-118.848,34.032],[-118.848,34.032],[-118.847,34.032],[-118.846,34.031],[-118.846,34.031],[-118.845,34.031],[-118.845,34.031],[-118.845,34.031],[-118.845,34.03],[-118.844,34.03],[-118.844,34.03],[-118.843,34.03],[-118.842,34.029],[-118.841,34.028],[-118.84,34.028],[-118.84,34.027],[-118.839,34.027],[-118.839,34.027],[-118.839,34.027],[-118.838,34.026],[-118.838,34.026],[-118.837,34.026],[-118.836,34.025],[-118.835,34.024],[-118.834,34.023],[-118.832,34.022],[-118.831,34.021],[-118.83,34.02],[-118.829,34.02],[-118.828,34.019],[-118.828,34.019],[-118.827,34.018],[-118.827,34.018],[-118.826,34.017],[-118.826,34.017],[-118.825,34.017],[-118.825,34.017],[-118.824,34.016],[-118.823,34.015],[-118.822,34.015],[-118.821,34.014],[-118.82,34.013],[-118.82,33.949],[-118.82,33.949],[-118.821,33.95],[-118.822,33.95],[-118.823,33.95],[-118.824,33.95],[-118.825,33.95],[-118.826,33.951],[-118.827,33.951],[-118.828,33.951],[-118.829,33.952],[-118.83,33.952],[-118.831,33.952],[-118.832,33.953],[-118.833,33.953],[-118.834,33.953],[-118.834,33.953],[-118.834,33.954],[-118.835,33.954],[-118.836,33.954],[-118.837,33.955],[-118.838,33.955],[-118.839,33.956],[-118.84,33.956],[-118.841,33.957],[-118.842,33.957],[-118.842,33.958],[-118.843,33.958],[-118.844,33.959],[-118.845,33.959],[-118.846,33.96],[-118.847,33.96],[-118.847,33.961],[-118.848,33.961],[-118.849,33.962],[-118.85,33.963],[-118.851,33.963],[-118.851,33.964],[-118.852,33.964],[-118.853,33.965],[-118.853,33.966],[-118.854,33.966],[-118.855,33.967],[-118.855,33.968],[-118.856,33.968],[-118.857,33.969],[-118.857,33.97],[-118.858,33.971],[-118.858,33.971],[-118.859,33.972],[-118.86,33.973],[-118.86,33.973],[-118.861,33.974],[-118.861,33.975],[-118.861,33.975],[-118.862,33.976],[-118.863,33.977],[-118.863,33.977],[-118.864,33.978],[-118.865,33.979],[-118.865,33.979],[-118.865,33.979],[-118.866,33.98],[-118.867,33.98],[-118.868,33.981],[-118.868,33.981],[-118.868,33.982],[-118.869,33.982],[-118.869,33.982],[-118.87,33.983],[-118.87,33.983],[-118.871,33.984],[-118.871,33.984],[-118.872,33.984],[-118.872,33.985],[-118.872,33.985],[-118.873,33.985],[-118.873,33.985],[-118.874,33.985],[-118.874,33.986],[-118.875,33.986],[-118.876,33.986],[-118.877,33.986],[-118.878,33.986],[-118.879,33.986],[-118.88,33.986],[-118.881,33.986],[-118.882,33.986],[-118.883,33.986],[-118.883,33.986],[-118.883,34.038]]]},"properties":{"id":"point-dume-state-marine-conservation-area","name":"Point Dume State Marine Conservation Area","type":"SMCA","shortName":"Point Dume","areaKm2":null,"ccrCitation":null}},{"type":"Feature","geometry":{"type":"Polygon","coordinates":[[[-118.788,34.019],[-118.788,34.019],[-118.788,34.019],[-118.788,34.019],[-118.788,34.019],[-118.788,34.019],[-118.788,34.019],[-118.788,34.019],[-118.788,34.02],[-118.788,34.02],[-118.788,33.951],[-118.788,33.951],[-118.789,33.951],[-118.79,33.95],[-118.791,33.95],[-118.792,33.95],[-118.793,33.95],[-118.794,33.95],[-118.795,33.949],[-118.796,33.949],[-118.797,33.949],[-118.798,33.949],[-118.799,33.949],[-118.8,33.949],[-118.801,33.949],[-118.802,33.948],[-118.803,33.948],[-118.804,33.948],[-118.805,33.948],[-118.806,33.948],[-118.806,33.948],[-118.807,33.948],[-118.809,33.948],[-118.81,33.948],[-118.811,33.948],[-118.812,33.948],[-118.813,33.948],[-118.814,33.949],[-118.815,33.949],[-118.816,33.949],[-118.817,33.949],[-118.818,33.949],[-118.819,33.949],[-118.82,33.949],[-118.82,33.949],[-118.82,33.949],[-118.82,34.013],[-118.819,34.012],[-118.819,34.012],[-118.818,34.012],[-118.818,34.011],[-118.818,34.011],[-118.817,34.011],[-118.817,34.011],[-118.817,34.011],[-118.816,34.01],[-118.816,34.009],[-118.815,34.008],[-118.815,34.008],[-118.814,34.008],[-118.814,34.008],[-118.814,34.007],[-118.813,34.006],[-118.813,34.006],[-118.812,34.005],[-118.812,34.005],[-118.811,34.005],[-118.811,34.004],[-118.811,34.004],[-118.81,34.003],[-118.81,34.003],[-118.81,34.002],[-118.809,34.002],[-118.809,34.002],[-118.809,34.002],[-118.809,34.001],[-118.809,34.001],[-118.808,34.001],[-118.808,34.001],[-118.808,34.001],[-118.808,34.001],[-118.808,34.001],[-118.807,34.001],[-118.807,34.001],[-118.807,34.001],[-118.807,34.001],[-118.807,34.001],[-118.807,34.0],[-118.807,34.0],[-118.807,34.0],[-118.807,34.0],[-118.807,34.0],[-118.807,34.0],[-118.807,34.0],[-118.807,34.0],[-118.806,34.0],[-118.806,34.001],[-118.806,34.0],[-118.806,34.0],[-118.806,34.0],[-118.806,34.0],[-118.806,34.0],[-118.806,34.0],[-118.806,34.0],[-118.805,34.0],[-118.805,34.001],[-118.805,34.001],[-118.805,34.001],[-118.805,34.001],[-118.805,34.001],[-118.805,34.001],[-118.805,34.001],[-118.805,34.001],[-118.805,34.001],[-118.805,34.001],[-118.805,34.002],[-118.805,34.002],[-118.805,34.002],[-118.805,34.002],[-118.805,34.002],[-118.805,34.002],[-118.805,34.002],[-118.805,34.003],[-118.805,34.003],[-118.805,34.003],[-118.805,34.003],[-118.804,34.004],[-118.804,34.004],[-118.804,34.004],[-118.804,34.004],[-118.804,34.004],[-118.804,34.005],[-118.804,34.005],[-118.803,34.005],[-118.803,34.005],[-118.803,34.005],[-118.802,34.006],[-118.802,34.006],[-118.802,34.006],[-118.802,34.006],[-118.801,34.006],[-118.8,34.006],[-118.798,34.007],[-118.797,34.007],[-118.797,34.007],[-118.796,34.007],[-118.796,34.007],[-118.795,34.007],[-118.795,34.007],[-118.795,34.007],[-118.795,34.007],[-118.795,34.007],[-118.795,34.007],[-118.795,34.007],[-118.795,34.007],[-118.794,34.008],[-118.794,34.008],[-118.794,34.008],[-118.794,34.008],[-118.794,34.008],[-118.794,34.008],[-118.794,34.008],[-118.794,34.008],[-118.794,34.008],[-118.794,34.008],[-118.794,34.008],[-118.794,34.008],[-118.794,34.008],[-118.794,34.009],[-118.794,34.009],[-118.794,34.009],[-118.794,34.009],[-118.794,34.009],[-118.794,34.009],[-118.794,34.009],[-118.794,34.01],[-118.794,34.01],[-118.794,34.01],[-118.794,34.01],[-118.794,34.01],[-118.794,34.01],[-118.794,34.011],[-118.794,34.011],[-118.794,34.011],[-118.794,34.011],[-118.793,34.012],[-118.793,34.012],[-118.793,34.012],[-118.793,34.012],[-118.793,34.012],[-118.793,34.012],[-118.792,34.013],[-118.792,34.013],[-118.792,34.013],[-118.792,34.013],[-118.792,34.013],[-118.792,34.014],[-118.791,34.014],[-118.791,34.015],[-118.791,34.015],[-118.791,34.015],[-118.791,34.015],[-118.791,34.015],[-118.791,34.016],[-118.791,34.016],[-118.791,34.016],[-118.79,34.017],[-118.79,34.017],[-118.79,34.017],[-118.789,34.018],[-118.789,34.018],[-118.789,34.018],[-118.789,34.018],[-118.788,34.018],[-118.788,34.018],[-118.788,34.018],[-118.788,34.019],[-118.788,34.019]]]},"properties":{"id":"point-dume-state-marine-reserve","name":"Point Dume State Marine Reserve","type":"SMR","shortName":"Point Dume","areaKm2":null,"ccrCitation":null}}]}