{"type":"FeatureCollection","features":[{"type":"Feature","geometry":{"type":"Point","coordinates":[-118.74353,34.03204]},"properties":{"depth_ft":7,"depth_m":2.2}},{"type":"Feature","geometry":{"type":"Point","coordinates":[-118.75109,34.0289]},"properties":{"depth_ft":13,"depth_m":3.8}},{"type":"Feature","geometry":{"type":"Point","coordinates":[-118.74731,34.0289]},"properties":{"depth_ft":29,"depth_m":8.8}},{"type":"Feature","geometry":{"type":"Point","coordinates":[-118.74353,34.0289]},"properties":{"depth_ft":35,"depth_m":10.7}},{"type":"Feature","geometry":{"type":"Point","coordinates":[-118.75487,34.02577]},"properties":{"depth_ft":12,"depth_m":3.5}},{"type":"Feature","geometry":{"type":"Point","coordinates":[-118.75109,34.02577]},"properties":{"depth_ft":31,"depth_m":9.5}},{"type":"Feature","geometry":{"type":"Point","coordinates":[-118.74731,34.02577]},"properties":{"depth_ft":48,"depth_m":14.7}},{"type":"Feature","geometry":{"type":"Point","coordinates":[-118.74353,34.02577]},"properties":{"depth_ft":53,"depth_m":16.1}},{"type":"Feature","geometry":{"type":"Point","coordinates":[-118.77755,34.02264]},"properties":{"depth_ft":6,"depth_m":1.7}},{"type":"Feature","geometry":{"type":"Point","coordinates":[-118.77377,34.02264]},"properties":{"depth_ft":14,"depth_m":4.2}},{"type":"Feature","geometry":{"type":"Point","coordinates":[-118.76999,34.02264]},"properties":{"depth_ft":18,"depth_m":5.4}},{"type":"Feature","geometry":{"type":"Point","coordinates":[-118.76621,34.02264]},"properties":{"depth_ft":28,"depth_m":8.4}},{"type":"Feature","geometry":{"type":"Point","coordinates":[-118.76243,34.02264]},"properties":{"depth_ft":32,"depth_m":9.8}},{"type":"Feature","geometry":{"type":"Point","coordinates":[-118.75865,34.02264]},"properties":{"depth_ft":31,"depth_m":9.6}},{"type":"Feature","geometry":{"type":"Point","coordinates":[-118.75487,34.02264]},"properties":{"depth_ft":41,"depth_m":12.5}},{"type":"Feature","geometry":{"type":"Point","coordinates":[-118.75109,34.02264]},"properties":{"depth_ft":55,"depth_m":16.8}},{"type":"Feature","geometry":{"type":"Point","coordinates":[-118.74731,34.02264]},"properties":{"depth_ft":64,"depth_m":19.4}},{"type":"Feature","geometry":{"type":"Point","coordinates":[-118.74353,34.02264]},"properties":{"depth_ft":64,"depth_m":19.4}},{"type":"Feature","geometry":{"type":"Point","coordinates":[-118.83047,34.0195]},"properties":{"depth_ft":14,"depth_m":4.2}},{"type":"Feature","geometry":{"type":"Point","coordinates":[-118.78511,34.0195]},"properties":{"depth_ft":15,"depth_m":4.6}},{"type":"Feature","geometry":{"type":"Point","coordinates":[-118.78133,34.0195]},"properties":{"depth_ft":27,"depth_m":8.1}},{"type":"Feature","geometry":{"type":"Point","coordinates":[-118.77755,34.0195]},"properties":{"depth_ft":31,"depth_m":9.3}},{"type":"Feature","geometry":{"type":"Point","coordinates":[-118.77377,34.0195]},"properties":{"depth_ft":36,"depth_m":10.9}},{"type":"Feature","geometry":{"type":"Point","coordinates":[-118.76999,34.0195]},"properties":{"depth_ft":42,"depth_m":12.9}},{"type":"Feature","geometry":{"type":"Point","coordinates":[-118.76621,34.0195]},"properties":{"depth_ft":48,"depth_m":14.8}},{"type":"Feature","geometry":{"type":"Point","coordinates":[-118.76243,34.0195]},"properties":{"depth_ft":53,"depth_m":16.0}},{"type":"Feature","geometry":{"type":"Point","coordinates":[-118.75865,34.0195]},"properties":{"depth_ft":61,"depth_m":18.5}},{"type":"Feature","geometry":{"type":"Point","coordinates":[-118.75487,34.0195]},"properties":{"depth_ft":69,"depth_m":21.0}},{"type":"Feature","geometry":{"type":"Point","coordinates":[-118.75109,34.0195]},"properties":{"depth_ft":76,"depth_m":23.1}},{"type":"Feature","geometry":{"type":"Point","coordinates":[-118.74731,34.0195]},"properties":{"depth_ft":78,"depth_m":23.8}},{"type":"Feature","geometry":{"type":"Point","coordinates":[-118.74353,34.0195]},"properties":{"depth_ft":79,"depth_m":23.9}},{"type":"Feature","geometry":{"type":"Point","coordinates":[-118.83047,34.01637]},"properties":{"depth_ft":51,"depth_m":15.6}},{"type":"Feature","geometry":{"type":"Point","coordinates":[-118.82669,34.01637]},"properties":{"depth_ft":20,"depth_m":6.0}},{"type":"Feature","geometry":{"type":"Point","coordinates":[-118.78889,34.01637]},"properties":{"depth_ft":10,"depth_m":3.0}},{"type":"Feature","geometry":{"type":"Point","coordinates":[-118.78511,34.01637]},"properties":{"depth_ft":30,"depth_m":9.2}},{"type":"Feature","geometry":{"type":"Point","coordinates":[-118.78133,34.01637]},"properties":{"depth_ft":40,"depth_m":12.1}},{"type":"Feature","geometry":{"type":"Point","coordinates":[-118.77755,34.01637]},"properties":{"depth_ft":47,"depth_m":14.2}},{"type":"Feature","geometry":{"type":"Point","coordinates":[-118.77377,34.01637]},"properties":{"depth_ft":55,"depth_m":16.6}},{"type":"Feature","geometry":{"type":"Point","coordinates":[-118.76999,34.01637]},"properties":{"depth_ft":62,"depth_m":18.9}},{"type":"Feature","geometry":{"type":"Point","coordinates":[-118.76621,34.01637]},"properties":{"depth_ft":68,"depth_m":20.8}},{"type":"Feature","geometry":{"type":"Point","coordinates":[-118.76243,34.01637]},"properties":{"depth_ft":74,"depth_m":22.5}},{"type":"Feature","geometry":{"type":"Point","coordinates":[-118.75865,34.01637]},"properties":{"depth_ft":81,"depth_m":24.6}},{"type":"Feature","geometry":{"type":"Point","coordinates":[-118.75487,34.01637]},"properties":{"depth_ft":87,"depth_m":26.5}},{"type":"Feature","geometry":{"type":"Point","coordinates":[-118.75109,34.01637]},"properties":{"depth_ft":90,"depth_m":27.5}},{"type":"Feature","geometry":{"type":"Point","coordinates":[-118.74731,34.01637]},"properties":{"depth_ft":91,"depth_m":27.8}},{"type":"Feature","geometry":{"type":"Point","coordinates":[-118.74353,34.01637]},"properties":{"depth_ft":91,"depth_m":27.8}},{"type":"Feature","geometry":{"type":"Point","coordinates":[-118.83047,34.01323]},"properties":{"depth_ft":67,"depth_m":20.3}},{"type":"Feature","geometry":{"type":"Point","coordinates":[-118.82669,34.01323]},"properties":{"depth_ft":53,"depth_m":16.3}},{"type":"Feature","geometry":{"type":"Point","coordinates":[-118.82291,34.01323]},"properties":{"depth_ft":23,"depth_m":7.0}},{"type":"Feature","geometry":{"type":"Point","coordinates":[-118.78889,34.01323]},"properties":{"depth_ft":21,"depth_m":6.5}},{"type":"Feature","geometry":{"type":"Point","coordinates":[-118.78511,34.01323]},"properties":{"depth_ft":41,"depth_m":12.6}},{"type":"Feature","geometry":{"type":"Point","coordinates":[-118.78133,34.01323]},"properties":{"depth_ft":54,"depth_m":16.5}},{"type":"Feature","geometry":{"type":"Point","coordinates":[-118.77755,34.01323]},"properties":{"depth_ft":62,"depth_m":18.9}},{"type":"Feature","geometry":{"type":"Point","coordinates":[-118.77377,34.01323]},"properties":{"depth_ft":71,"depth_m":21.8}},{"type":"Feature","geometry":{"type":"Point","coordinates":[-118.76999,34.01323]},"properties":{"depth_ft":80,"depth_m":24.3}},{"type":"Feature","geometry":{"type":"Point","coordinates":[-118.76621,34.01323]},"properties":{"depth_ft":86,"depth_m":26.4}},{"type":"Feature","geometry":{"type":"Point","coordinates":[-118.76243,34.01323]},"properties":{"depth_ft":93,"depth_m":28.2}},{"type":"Feature","geometry":{"type":"Point","coordinates":[-118.75865,34.01323]},"properties":{"depth_ft":98,"depth_m":29.8}},{"type":"Feature","geometry":{"type":"Point","coordinates":[-118.75487,34.01323]},"properties":{"depth_ft":101,"depth_m":30.8}},{"type":"Feature","geometry":{"type":"Point","coordinates":[-118.75109,34.01323]},"properties":{"depth_ft":103,"depth_m":31.5}},{"type":"Feature","geometry":{"type":"Point","coordinates":[-118.74731,34.01323]},"properties":{"depth_ft":104,"depth_m":31.7}},{"type":"Feature","geometry":{"type":"Point","coordinates":[-118.74353,34.01323]},"properties":{"depth_ft":106,"depth_m":32.4}},{"type":"Feature","geometry":{"type":"Point","coordinates":[-118.83047,34.0101]},"properties":{"depth_ft":84,"depth_m":25.6}},{"type":"Feature","geometry":{"type":"Point","coordinates":[-118.82669,34.0101]},"properties":{"depth_ft":70,"depth_m":21.3}},{"type":"Feature","geometry":{"type":"Point","coordinates":[-118.82291,34.0101]},"properties":{"depth_ft":53,"depth_m":16.1}},{"type":"Feature","geometry":{"type":"Point","coordinates":[-118.81913,34.0101]},"properties":{"depth_ft":25,"depth_m":7.5}},{"type":"Feature","geometry":{"type":"Point","coordinates":[-118.79267,34.0101]},"properties":{"depth_ft":8,"depth_m":2.4}},{"type":"Feature","geometry":{"type":"Point","coordinates":[-118.78889,34.0101]},"properties":{"depth_ft":31,"depth_m":9.5}},{"type":"Feature","geometry":{"type":"Point","coordinates":[-118.78511,34.0101]},"properties":{"depth_ft":51,"depth_m":15.5}},{"type":"Feature","geometry":{"type":"Point","coordinates":[-118.78133,34.0101]},"properties":{"depth_ft":68,"depth_m":20.7}},{"type":"Feature","geometry":{"type":"Point","coordinates":[-118.77755,34.0101]},"properties":{"depth_ft":76,"depth_m":23.3}},{"type":"Feature","geometry":{"type":"Point","coordinates":[-118.77377,34.0101]},"properties":{"depth_ft":86,"depth_m":26.3}},{"type":"Feature","geometry":{"type":"Point","coordinates":[-118.76999,34.0101]},"properties":{"depth_ft":96,"depth_m":29.2}},{"type":"Feature","geometry":{"type":"Point","coordinates":[-118.76621,34.0101]},"properties":{"depth_ft":104,"depth_m":31.6}},{"type":"Feature","geometry":{"type":"Point","coordinates":[-118.76243,34.0101]},"properties":{"depth_ft":110,"depth_m":33.4}},{"type":"Feature","geometry":{"type":"Point","coordinates":[-118.75865,34.0101]},"properties":{"depth_ft":114,"depth_m":34.7}},{"type":"Feature","geometry":{"type":"Point","coordinates":[-118.75487,34.0101]},"properties":{"depth_ft":117,"depth_m":35.6}},{"type":"Feature","geometry":{"type":"Point","coordinates":[-118.75109,34.0101]},"properties":{"depth_ft":118,"depth_m":36.1}},{"type":"Feature","geometry":{"type":"Point","coordinates":[-118.74731,34.0101]},"properties":{"depth_ft":120,"depth_m":36.5}},{"type":"Feature","geometry":{"type":"Point","coordinates":[-118.74353,34.0101]},"properties":{"depth_ft":121,"depth_m":36.9}},{"type":"Feature","geometry":{"type":"Point","coordinates":[-118.83047,34.00697]},"properties":{"depth_ft":114,"depth_m":34.9}},{"type":"Feature","geometry":{"type":"Point","coordinates":[-118.82669,34.00697]},"properties":{"depth_ft":90,"depth_m":27.3}},{"type":"Feature","geometry":{"type":"Point","coordinates":[-118.82291,34.00697]},"properties":{"depth_ft":69,"depth_m":21.0}},{"type":"Feature","geometry":{"type":"Point","coordinates":[-118.81913,34.00697]},"properties":{"depth_ft":52,"depth_m":15.9}},{"type":"Feature","geometry":{"type":"Point","coordinates":[-118.81535,34.00697]},"properties":{"depth_ft":16,"depth_m":4.8}},{"type":"Feature","geometry":{"type":"Point","coordinates":[-118.79267,34.00697]},"properties":{"depth_ft":15,"depth_m":4.6}},{"type":"Feature","geometry":{"type":"Point","coordinates":[-118.78889,34.00697]},"properties":{"depth_ft":36,"depth_m":10.9}},{"type":"Feature","geometry":{"type":"Point","coordinates":[-118.78511,34.00697]},"properties":{"depth_ft":60,"depth_m":18.2}},{"type":"Feature","geometry":{"type":"Point","coordinates":[-118.78133,34.00697]},"properties":{"depth_ft":78,"depth_m":23.7}},{"type":"Feature","geometry":{"type":"Point","coordinates":[-118.77755,34.00697]},"properties":{"depth_ft":90,"depth_m":27.4}},{"type":"Feature","geometry":{"type":"Point","coordinates":[-118.77377,34.00697]},"properties":{"depth_ft":102,"depth_m":31.1}},{"type":"Feature","geometry":{"type":"Point","coordinates":[-118.76999,34.00697]},"properties":{"depth_ft":113,"depth_m":34.3}},{"type":"Feature","geometry":{"type":"Point","coordinates":[-118.76621,34.00697]},"properties":{"depth_ft":121,"depth_m":36.8}},{"type":"Feature","geometry":{"type":"Point","coordinates":[-118.76243,34.00697]},"properties":{"depth_ft":126,"depth_m":38.4}},{"type":"Feature","geometry":{"type":"Point","coordinates":[-118.75865,34.00697]},"properties":{"depth_ft":130,"depth_m":39.5}},{"type":"Feature","geometry":{"type":"Point","coordinates":[-118.75487,34.00697]},"properties":{"depth_ft":132,"depth_m":40.2}},{"type":"Feature","geometry":{"type":"Point","coordinates":[-118.75109,34.00697]},"properties":{"depth_ft":134,"depth_m":40.8}},{"type":"Feature","geometry":{"type":"Point","coordinates":[-118.74731,34.00697]},"properties":{"depth_ft":135,"depth_m":41.2}},{"type":"Feature","geometry":{"type":"Point","coordinates":[-118.74353,34.00697]},"properties":{"depth_ft":137,"depth_m":41.8}},{"type":"Feature","geometry":{"type":"Point","coordinates":[-118.83047,34.00383]},"properties":{"depth_ft":137,"depth_m":41.7}},{"type":"Feature","geometry":{"type":"Point","coordinates":[-118.82669,34.00383]},"properties":{"depth_ft":118,"depth_m":35.9}},{"type":"Feature","geometry":{"type":"Point","coordinates":[-118.82291,34.00383]},"properties":{"depth_ft":91,"depth_m":27.8}},{"type":"Feature","geometry":{"type":"Point","coordinates":[-118.81913,34.00383]},"properties":{"depth_ft":73,"depth_m":22.3}},{"type":"Feature","geometry":{"type":"Point","coordinates":[-118.81535,34.00383]},"properties":{"depth_ft":42,"depth_m":12.8}},{"type":"Feature","geometry":{"type":"Point","coordinates":[-118.81157,34.00383]},"properties":{"depth_ft":9,"depth_m":2.7}},{"type":"Feature","geometry":{"type":"Point","coordinates":[-118.80401,34.00383]},"properties":{"depth_ft":3,"depth_m":0.8}},{"type":"Feature","geometry":{"type":"Point","coordinates":[-118.80023,34.00383]},"properties":{"depth_ft":21,"depth_m":6.4}},{"type":"Feature","geometry":{"type":"Point","coordinates":[-118.79645,34.00383]},"properties":{"depth_ft":30,"depth_m":9.3}},{"type":"Feature","geometry":{"type":"Point","coordinates":[-118.79267,34.00383]},"properties":{"depth_ft":31,"depth_m":9.6}},{"type":"Feature","geometry":{"type":"Point","coordinates":[-118.78889,34.00383]},"properties":{"depth_ft":46,"depth_m":13.9}},{"type":"Feature","geometry":{"type":"Point","coordinates":[-118.78511,34.00383]},"properties":{"depth_ft":51,"depth_m":15.5}},{"type":"Feature","geometry":{"type":"Point","coordinates":[-118.78133,34.00383]},"properties":{"depth_ft":79,"depth_m":24.1}},{"type":"Feature","geometry":{"type":"Point","coordinates":[-118.77755,34.00383]},"properties":{"depth_ft":101,"depth_m":30.9}},{"type":"Feature","geometry":{"type":"Point","coordinates":[-118.77377,34.00383]},"properties":{"depth_ft":122,"depth_m":37.2}},{"type":"Feature","geometry":{"type":"Point","coordinates":[-118.76999,34.00383]},"properties":{"depth_ft":134,"depth_m":40.9}},{"type":"Feature","geometry":{"type":"Point","coordinates":[-118.76621,34.00383]},"properties":{"depth_ft":142,"depth_m":43.2}},{"type":"Feature","geometry":{"type":"Point","coordinates":[-118.76243,34.00383]},"properties":{"depth_ft":147,"depth_m":44.7}},{"type":"Feature","geometry":{"type":"Point","coordinates":[-118.75865,34.00383]},"properties":{"depth_ft":149,"depth_m":45.5}},{"type":"Feature","geometry":{"type":"Point","coordinates":[-118.75487,34.00383]},"properties":{"depth_ft":153,"depth_m":46.6}},{"type":"Feature","geometry":{"type":"Point","coordinates":[-118.75109,34.00383]},"properties":{"depth_ft":155,"depth_m":47.3}},{"type":"Feature","geometry":{"type":"Point","coordinates":[-118.74731,34.00383]},"properties":{"depth_ft":158,"depth_m":48.3}},{"type":"Feature","geometry":{"type":"Point","coordinates":[-118.74353,34.00383]},"properties":{"depth_ft":161,"depth_m":49.2}},{"type":"Feature","geometry":{"type":"Point","coordinates":[-118.83047,34.0007]},"properties":{"depth_ft":164,"depth_m":50.0}},{"type":"Feature","geometry":{"type":"Point","coordinates":[-118.82669,34.0007]},"properties":{"depth_ft":144,"depth_m":43.8}},{"type":"Feature","geometry":{"type":"Point","coordinates":[-118.82291,34.0007]},"properties":{"depth_ft":128,"depth_m":38.9}},{"type":"Feature","geometry":{"type":"Point","coordinates":[-118.81913,34.0007]},"properties":{"depth_ft":126,"depth_m":38.3}},{"type":"Feature","geometry":{"type":"Point","coordinates":[-118.81535,34.0007]},"properties":{"depth_ft":127,"depth_m":38.6}},{"type":"Feature","geometry":{"type":"Point","coordinates":[-118.81157,34.0007]},"properties":{"depth_ft":55,"depth_m":16.8}},{"type":"Feature","geometry":{"type":"Point","coordinates":[-118.80779,34.0007]},"properties":{"depth_ft":7,"depth_m":2.0}},{"type":"Feature","geometry":{"type":"Point","coordinates":[-118.80401,34.0007]},"properties":{"depth_ft":22,"depth_m":6.7}},{"type":"Feature","geometry":{"type":"Point","coordinates":[-118.80023,34.0007]},"properties":{"depth_ft":39,"depth_m":11.7}},{"type":"Feature","geometry":{"type":"Point","coordinates":[-118.79645,34.0007]},"properties":{"depth_ft":43,"depth_m":13.0}},{"type":"Feature","geometry":{"type":"Point","coordinates":[-118.79267,34.0007]},"properties":{"depth_ft":51,"depth_m":15.6}},{"type":"Feature","geometry":{"type":"Point","coordinates":[-118.78889,34.0007]},"properties":{"depth_ft":61,"depth_m":18.6}},{"type":"Feature","geometry":{"type":"Point","coordinates":[-118.78511,34.0007]},"properties":{"depth_ft":75,"depth_m":22.8}},{"type":"Feature","geometry":{"type":"Point","coordinates":[-118.78133,34.0007]},"properties":{"depth_ft":96,"depth_m":29.3}},{"type":"Feature","geometry":{"type":"Point","coordinates":[-118.77755,34.0007]},"properties":{"depth_ft":120,"depth_m":36.5}},{"type":"Feature","geometry":{"type":"Point","coordinates":[-118.77377,34.0007]},"properties":{"depth_ft":149,"depth_m":45.4}},{"type":"Feature","geometry":{"type":"Point","coordinates":[-118.76999,34.0007]},"properties":{"depth_ft":159,"depth_m":48.5}},{"type":"Feature","geometry":{"type":"Point","coordinates":[-118.76621,34.0007]},"properties":{"depth_ft":164,"depth_m":50.0}},{"type":"Feature","geometry":{"type":"Point","coordinates":[-118.76243,34.0007]},"properties":{"depth_ft":168,"depth_m":51.1}},{"type":"Feature","geometry":{"type":"Point","coordinates":[-118.75865,34.0007]},"properties":{"depth_ft":170,"depth_m":51.8}},{"type":"Feature","geometry":{"type":"Point","coordinates":[-118.75487,34.0007]},"properties":{"depth_ft":173,"depth_m":52.6}},{"type":"Feature","geometry":{"type":"Point","coordinates":[-118.75109,34.0007]},"properties":{"depth_ft":174,"depth_m":53.0}},{"type":"Feature","geometry":{"type":"Point","coordinates":[-118.74731,34.0007]},"properties":{"depth_ft":175,"depth_m":53.3}},{"type":"Feature","geometry":{"type":"Point","coordinates":[-118.74353,34.0007]},"properties":{"depth_ft":176,"depth_m":53.7}},{"type":"Feature","geometry":{"type":"Point","coordinates":[-118.83047,33.99757]},"properties":{"depth_ft":198,"depth_m":60.2}},{"type":"Feature","geometry":{"type":"Point","coordinates":[-118.82669,33.99757]},"properties":{"depth_ft":180,"depth_m":54.8}},{"type":"Feature","geometry":{"type":"Point","coordinates":[-118.82291,33.99757]},"properties":{"depth_ft":164,"depth_m":50.1}},{"type":"Feature","geometry":{"type":"Point","coordinates":[-118.81913,33.99757]},"properties":{"depth_ft":155,"depth_m":47.2}},{"type":"Feature","geometry":{"type":"Point","coordinates":[-118.81157,33.99757]},"properties":{"depth_ft":224,"depth_m":68.1}},{"type":"Feature","geometry":{"type":"Point","coordinates":[-118.80779,33.99757]},"properties":{"depth_ft":63,"depth_m":19.1}},{"type":"Feature","geometry":{"type":"Point","coordinates":[-118.80401,33.99757]},"properties":{"depth_ft":50,"depth_m":15.4}},{"type":"Feature","geometry":{"type":"Point","coordinates":[-118.80023,33.99757]},"properties":{"depth_ft":52,"depth_m":15.7}},{"type":"Feature","geometry":{"type":"Point","coordinates":[-118.79645,33.99757]},"properties":{"depth_ft":64,"depth_m":19.5}},{"type":"Feature","geometry":{"type":"Point","coordinates":[-118.79267,33.99757]},"properties":{"depth_ft":82,"depth_m":25.0}},{"type":"Feature","geometry":{"type":"Point","coordinates":[-118.78889,33.99757]},"properties":{"depth_ft":101,"depth_m":30.8}},{"type":"Feature","geometry":{"type":"Point","coordinates":[-118.78511,33.99757]},"properties":{"depth_ft":115,"depth_m":34.9}},{"type":"Feature","geometry":{"type":"Point","coordinates":[-118.78133,33.99757]},"properties":{"depth_ft":123,"depth_m":37.5}},{"type":"Feature","geometry":{"type":"Point","coordinates":[-118.77755,33.99757]},"properties":{"depth_ft":147,"depth_m":44.9}},{"type":"Feature","geometry":{"type":"Point","coordinates":[-118.77377,33.99757]},"properties":{"depth_ft":167,"depth_m":50.9}},{"type":"Feature","geometry":{"type":"Point","coordinates":[-118.76999,33.99757]},"properties":{"depth_ft":175,"depth_m":53.2}},{"type":"Feature","geometry":{"type":"Point","coordinates":[-118.76621,33.99757]},"properties":{"depth_ft":178,"depth_m":54.4}},{"type":"Feature","geometry":{"type":"Point","coordinates":[-118.76243,33.99757]},"properties":{"depth_ft":183,"depth_m":55.7}},{"type":"Feature","geometry":{"type":"Point","coordinates":[-118.75865,33.99757]},"properties":{"depth_ft":185,"depth_m":56.5}},{"type":"Feature","geometry":{"type":"Point","coordinates":[-118.75487,33.99757]},"properties":{"depth_ft":188,"depth_m":57.3}},{"type":"Feature","geometry":{"type":"Point","coordinates":[-118.75109,33.99757]},"properties":{"depth_ft":190,"depth_m":57.8}},{"type":"Feature","geometry":{"type":"Point","coordinates":[-118.74731,33.99757]},"properties":{"depth_ft":192,"depth_m":58.5}},{"type":"Feature","geometry":{"type":"Point","coordinates":[-118.74353,33.99757]},"properties":{"depth_ft":194,"depth_m":59.2}},{"type":"Feature","geometry":{"type":"Point","coordinates":[-118.83047,33.99443]},"properties":{"depth_ft":232,"depth_m":70.8}},{"type":"Feature","geometry":{"type":"Point","coordinates":[-118.82669,33.99443]},"properties":{"depth_ft":218,"depth_m":66.4}},{"type":"Feature","geometry":{"type":"Point","coordinates":[-118.82291,33.99443]},"properties":{"depth_ft":204,"depth_m":62.3}},{"type":"Feature","geometry":{"type":"Point","coordinates":[-118.81913,33.99443]},"properties":{"depth_ft":194,"depth_m":59.2}},{"type":"Feature","geometry":{"type":"Point","coordinates":[-118.81535,33.99443]},"properties":{"depth_ft":261,"depth_m":79.5}},{"type":"Feature","geometry":{"type":"Point","coordinates":[-118.80779,33.99443]},"properties":{"depth_ft":122,"depth_m":37.1}},{"type":"Feature","geometry":{"type":"Point","coordinates":[-118.80401,33.99443]},"properties":{"depth_ft":88,"depth_m":26.7}},{"type":"Feature","geometry":{"type":"Point","coordinates":[-118.80023,33.99443]},"properties":{"depth_ft":89,"depth_m":27.0}},{"type":"Feature","geometry":{"type":"Point","coordinates":[-118.79645,33.99443]},"properties":{"depth_ft":109,"depth_m":33.4}},{"type":"Feature","geometry":{"type":"Point","coordinates":[-118.79267,33.99443]},"properties":{"depth_ft":128,"depth_m":39.1}},{"type":"Feature","geometry":{"type":"Point","coordinates":[-118.78889,33.99443]},"properties":{"depth_ft":139,"depth_m":42.3}},{"type":"Feature","geometry":{"type":"Point","coordinates":[-118.78511,33.99443]},"properties":{"depth_ft":151,"depth_m":46.0}},{"type":"Feature","geometry":{"type":"Point","coordinates":[-118.78133,33.99443]},"properties":{"depth_ft":163,"depth_m":49.7}},{"type":"Feature","geometry":{"type":"Point","coordinates":[-118.77755,33.99443]},"properties":{"depth_ft":176,"depth_m":53.8}},{"type":"Feature","geometry":{"type":"Point","coordinates":[-118.77377,33.99443]},"properties":{"depth_ft":184,"depth_m":56.0}},{"type":"Feature","geometry":{"type":"Point","coordinates":[-118.76999,33.99443]},"properties":{"depth_ft":190,"depth_m":57.8}},{"type":"Feature","geometry":{"type":"Point","coordinates":[-118.76621,33.99443]},"properties":{"depth_ft":197,"depth_m":60.0}},{"type":"Feature","geometry":{"type":"Point","coordinates":[-118.76243,33.99443]},"properties":{"depth_ft":200,"depth_m":61.1}},{"type":"Feature","geometry":{"type":"Point","coordinates":[-118.75865,33.99443]},"properties":{"depth_ft":204,"depth_m":62.2}},{"type":"Feature","geometry":{"type":"Point","coordinates":[-118.75487,33.99443]},"properties":{"depth_ft":207,"depth_m":63.1}},{"type":"Feature","geometry":{"type":"Point","coordinates":[-118.75109,33.99443]},"properties":{"depth_ft":209,"depth_m":63.7}},{"type":"Feature","geometry":{"type":"Point","coordinates":[-118.74731,33.99443]},"properties":{"depth_ft":212,"depth_m":64.7}},{"type":"Feature","geometry":{"type":"Point","coordinates":[-118.74353,33.99443]},"properties":{"depth_ft":215,"depth_m":65.6}},{"type":"Feature","geometry":{"type":"Point","coordinates":[-118.83047,33.9913]},"properties":{"depth_ft":284,"depth_m":86.5}},{"type":"Feature","geometry":{"type":"Point","coordinates":[-118.82669,33.9913]},"properties":{"depth_ft":264,"depth_m":80.3}},{"type":"Feature","geometry":{"type":"Point","coordinates":[-118.82291,33.9913]},"properties":{"depth_ft":249,"depth_m":75.9}},{"type":"Feature","geometry":{"type":"Point","coordinates":[-118.81913,33.9913]},"properties":{"depth_ft":242,"depth_m":73.8}},{"type":"Feature","geometry":{"type":"Point","coordinates":[-118.81535,33.9913]},"properties":{"depth_ft":254,"depth_m":77.4}},{"type":"Feature","geometry":{"type":"Point","coordinates":[-118.80401,33.9913]},"properties":{"depth_ft":199,"depth_m":60.7}},{"type":"Feature","geometry":{"type":"Point","coordinates":[-118.80023,33.9913]},"properties":{"depth_ft":222,"depth_m":67.7}},{"type":"Feature","geometry":{"type":"Point","coordinates":[-118.79645,33.9913]},"properties":{"depth_ft":187,"depth_m":57.1}},{"type":"Feature","geometry":{"type":"Point","coordinates":[-118.79267,33.9913]},"properties":{"depth_ft":193,"depth_m":58.8}},{"type":"Feature","geometry":{"type":"Point","coordinates":[-118.78889,33.9913]},"properties":{"depth_ft":195,"depth_m":59.4}},{"type":"Feature","geometry":{"type":"Point","coordinates":[-118.78511,33.9913]},"properties":{"depth_ft":202,"depth_m":61.6}},{"type":"Feature","geometry":{"type":"Point","coordinates":[-118.78133,33.9913]},"properties":{"depth_ft":206,"depth_m":62.8}},{"type":"Feature","geometry":{"type":"Point","coordinates":[-118.77755,33.9913]},"properties":{"depth_ft":207,"depth_m":63.1}},{"type":"Feature","geometry":{"type":"Point","coordinates":[-118.77377,33.9913]},"properties":{"depth_ft":211,"depth_m":64.2}},{"type":"Feature","geometry":{"type":"Point","coordinates":[-118.76999,33.9913]},"properties":{"depth_ft":217,"depth_m":66.1}},{"type":"Feature","geometry":{"type":"Point","coordinates":[-118.76621,33.9913]},"properties":{"depth_ft":223,"depth_m":67.9}},{"type":"Feature","geometry":{"type":"Point","coordinates":[-118.76243,33.9913]},"properties":{"depth_ft":225,"depth_m":68.4}},{"type":"Feature","geometry":{"type":"Point","coordinates":[-118.75865,33.9913]},"properties":{"depth_ft":227,"depth_m":69.3}},{"type":"Feature","geometry":{"type":"Point","coordinates":[-118.75487,33.9913]},"properties":{"depth_ft":231,"depth_m":70.4}},{"type":"Feature","geometry":{"type":"Point","coordinates":[-118.75109,33.9913]},"properties":{"depth_ft":233,"depth_m":71.1}},{"type":"Feature","geometry":{"type":"Point","coordinates":[-118.74731,33.9913]},"properties":{"depth_ft":236,"depth_m":72.1}},{"type":"Feature","geometry":{"type":"Point","coordinates":[-118.74353,33.9913]},"properties":{"depth_ft":239,"depth_m":72.8}},{"type":"Feature","geometry":{"type":"Point","coordinates":[-118.82291,33.98817]},"properties":{"depth_ft":313,"depth_m":95.3}},{"type":"Feature","geometry":{"type":"Point","coordinates":[-118.81913,33.98817]},"properties":{"depth_ft":290,"depth_m":88.5}},{"type":"Feature","geometry":{"type":"Point","coordinates":[-118.81535,33.98817]},"properties":{"depth_ft":293,"depth_m":89.2}},{"type":"Feature","geometry":{"type":"Point","coordinates":[-118.79645,33.98817]},"properties":{"depth_ft":275,"depth_m":83.9}},{"type":"Feature","geometry":{"type":"Point","coordinates":[-118.79267,33.98817]},"properties":{"depth_ft":238,"depth_m":72.5}},{"type":"Feature","geometry":{"type":"Point","coordinates":[-118.78889,33.98817]},"properties":{"depth_ft":235,"depth_m":71.7}},{"type":"Feature","geometry":{"type":"Point","coordinates":[-118.78511,33.98817]},"properties":{"depth_ft":237,"depth_m":72.1}},{"type":"Feature","geometry":{"type":"Point","coordinates":[-118.78133,33.98817]},"properties":{"depth_ft":234,"depth_m":71.4}},{"type":"Feature","geometry":{"type":"Point","coordinates":[-118.77755,33.98817]},"properties":{"depth_ft":232,"depth_m":70.7}},{"type":"Feature","geometry":{"type":"Point","coordinates":[-118.77377,33.98817]},"properties":{"depth_ft":234,"depth_m":71.2}},{"type":"Feature","geometry":{"type":"Point","coordinates":[-118.76999,33.98817]},"properties":{"depth_ft":239,"depth_m":72.9}},{"type":"Feature","geometry":{"type":"Point","coordinates":[-118.76621,33.98817]},"properties":{"depth_ft":242,"depth_m":73.8}},{"type":"Feature","geometry":{"type":"Point","coordinates":[-118.76243,33.98817]},"properties":{"depth_ft":243,"depth_m":74.1}},{"type":"Feature","geometry":{"type":"Point","coordinates":[-118.75865,33.98817]},"properties":{"depth_ft":247,"depth_m":75.1}},{"type":"Feature","geometry":{"type":"Point","coordinates":[-118.75487,33.98817]},"properties":{"depth_ft":252,"depth_m":76.9}},{"type":"Feature","geometry":{"type":"Point","coordinates":[-118.75109,33.98817]},"properties":{"depth_ft":258,"depth_m":78.5}},{"type":"Feature","geometry":{"type":"Point","coordinates":[-118.74731,33.98817]},"properties":{"depth_ft":265,"depth_m":80.6}},{"type":"Feature","geometry":{"type":"Point","coordinates":[-118.74353,33.98817]},"properties":{"depth_ft":268,"depth_m":81.8}},{"type":"Feature","geometry":{"type":"Point","coordinates":[-118.79267,33.98503]},"properties":{"depth_ft":271,"depth_m":82.7}},{"type":"Feature","geometry":{"type":"Point","coordinates":[-118.78889,33.98503]},"properties":{"depth_ft":263,"depth_m":80.0}},{"type":"Feature","geometry":{"type":"Point","coordinates":[-118.78511,33.98503]},"properties":{"depth_ft":258,"depth_m":78.7}},{"type":"Feature","geometry":{"type":"Point","coordinates":[-118.78133,33.98503]},"properties":{"depth_ft":249,"depth_m":75.9}},{"type":"Feature","geometry":{"type":"Point","coordinates":[-118.77755,33.98503]},"properties":{"depth_ft":250,"depth_m":76.3}},{"type":"Feature","geometry":{"type":"Point","coordinates":[-118.77377,33.98503]},"properties":{"depth_ft":255,"depth_m":77.8}},{"type":"Feature","geometry":{"type":"Point","coordinates":[-118.76999,33.98503]},"properties":{"depth_ft":259,"depth_m":79.1}},{"type":"Feature","geometry":{"type":"Point","coordinates":[-118.76621,33.98503]},"properties":{"depth_ft":263,"depth_m":80.1}},{"type":"Feature","geometry":{"type":"Point","coordinates":[-118.76243,33.98503]},"properties":{"depth_ft":265,"depth_m":80.7}},{"type":"Feature","geometry":{"type":"Point","coordinates":[-118.75865,33.98503]},"properties":{"depth_ft":271,"depth_m":82.7}},{"type":"Feature","geometry":{"type":"Point","coordinates":[-118.75487,33.98503]},"properties":{"depth_ft":281,"depth_m":85.6}},{"type":"Feature","geometry":{"type":"Point","coordinates":[-118.79267,33.9819]},"properties":{"depth_ft":308,"depth_m":94.0}},{"type":"Feature","geometry":{"type":"Point","coordinates":[-118.78889,33.9819]},"properties":{"depth_ft":298,"depth_m":90.9}},{"type":"Feature","geometry":{"type":"Point","coordinates":[-118.78511,33.9819]},"properties":{"depth_ft":283,"depth_m":86.4}},{"type":"Feature","geometry":{"type":"Point","coordinates":[-118.78133,33.9819]},"properties":{"depth_ft":275,"depth_m":83.8}},{"type":"Feature","geometry":{"type":"Point","coordinates":[-118.77755,33.9819]},"properties":{"depth_ft":280,"depth_m":85.2}},{"type":"Feature","geometry":{"type":"Point","coordinates":[-118.77377,33.9819]},"properties":{"depth_ft":287,"depth_m":87.6}},{"type":"Feature","geometry":{"type":"Point","coordinates":[-118.76999,33.9819]},"properties":{"depth_ft":287,"depth_m":87.4}},{"type":"Feature","geometry":{"type":"Point","coordinates":[-118.76621,33.9819]},"properties":{"depth_ft":290,"depth_m":88.4}},{"type":"Feature","geometry":{"type":"Point","coordinates":[-118.76243,33.9819]},"properties":{"depth_ft":294,"depth_m":89.7}}]}