{"type":"FeatureCollection","features":[{"type":"Feature","geometry":{"type":"Polygon","coordinates":[[[-117.25088,32.41997],[-117.25095,32.42016],[-117.24989,32.42003],[-117.2495,32.41983],[-117.24844,32.41908],[-117.24825,32.41872],[-117.24828,32.41815],[-117.2476,32.41738],[-117.24753,32.41755],[-117.24762,32.41715],[-117.2471,32.41692],[-117.24718,32.41702],[-117.24698,32.41742],[-117.24678,32.41722],[-117.24694,32.41685],[-117.24682,32.41667],[-117.24646,32.41682],[-117.2463,32.41643],[-117.24623,32.41673],[-117.24608,32.4167],[-117.24613,32.41638],[-117.24593,32.41618],[-117.24607,32.41591],[-117.24591,32.41554],[-117.24615,32.41527],[-117.24593,32.41474],[-117.24615,32.41434],[-117.2461,32.41416],[-117.24566,32.41403],[-117.24576,32.4137],[-117.24531,32.41383],[-117.24533,32.41368],[-117.24496,32.41332],[-117.24422,32.41503],[-117.24403,32.41489],[-117.24381,32.41497],[-117.24356,32.41476],[-117.24326,32.41372],[-117.2434,32.41357],[-117.24339,32.41274],[-117.24304,32.41239],[-117.24292,32.41177],[-117.24232,32.41136],[-117.2425,32.41026],[-117.24242,32.40981],[-117.24208,32.4094],[-117.24204,32.40839],[-117.24224,32.40759],[-117.24258,32.40695],[-117.24294,32.40686],[-117.24305,32.40662],[-117.24267,32.40618],[-117.24253,32.40564],[-117.24265,32.40535],[-117.24231,32.40511],[-117.24217,32.40422],[-117.24193,32.40373],[-117.24153,32.40344],[-117.24144,32.40286],[-117.24109,32.40222],[-117.24104,32.40198],[-117.24128,32.40184],[-117.24107,32.40144],[-117.24115,32.4009],[-117.24099,32.40063],[-117.24104,32.40037],[-117.24081,32.40029],[-117.24071,32.39926],[-117.24025,32.39867],[-117.24019,32.39817],[-117.24001,32.39816],[-117.23997,32.39717],[-117.23947,32.39636],[-117.23936,32.39575],[-117.23937,32.39477],[-117.23944,32.39452],[-117.23969,32.39446],[-117.2399,32.39347],[-117.23949,32.39307],[-117.23959,32.39282],[-117.23981,32.39279],[-117.23973,32.39151],[-117.23962,32.39113],[-117.23929,32.39119],[-117.23972,32.39019],[-117.23995,32.3907],[-117.23978,32.39097],[-117.2399,32.39102],[-117.24,32.39085],[-117.24029,32.39083],[-117.24057,32.39108],[-117.24043,32.39082],[-117.24056,32.39075],[-117.24081,32.39089],[-117.24115,32.39078],[-117.24128,32.39097],[-117.24127,32.39082],[-117.24173,32.39067],[-117.24207,32.39094],[-117.24216,32.39109],[-117.24183,32.39109],[-117.24243,32.39151],[-117.24263,32.39238],[-117.24308,32.39259],[-117.2434,32.39344],[-117.24378,32.39385],[-117.24401,32.39443],[-117.24442,32.39489],[-117.24444,32.39523],[-117.24483,32.39567],[-117.2446,32.39602],[-117.24495,32.3971],[-117.24528,32.39749],[-117.24545,32.39834],[-117.24509,32.39925],[-117.24544,32.39986],[-117.24515,32.40063],[-117.24556,32.40165],[-117.24539,32.40182],[-117.24475,32.40377],[-117.2447,32.40536],[-117.24506,32.40574],[-117.24533,32.40671],[-117.24553,32.40675],[-117.24559,32.40783],[-117.24582,32.40765],[-117.24584,32.40776],[-117.24566,32.40845],[-117.24605,32.40917],[-117.24697,32.40943],[-117.24735,32.40925],[-117.24723,32.40895],[-117.24737,32.40854],[-117.24768,32.40846],[-117.24802,32.40892],[-117.24797,32.40922],[-117.24814,32.40927],[-117.248,32.40952],[-117.24854,32.40951],[-117.24864,32.40998],[-117.24893,32.4099],[-117.24896,32.41023],[-117.24925,32.41064],[-117.24948,32.4123],[-117.24963,32.41248],[-117.24967,32.41385],[-117.24951,32.41499],[-117.24965,32.41524],[-117.24961,32.41587],[-117.24992,32.41775],[-117.25014,32.41833],[-117.25108,32.41952],[-117.25088,32.41997]]]},"properties":{"name":"unnamed-land"}},{"type":"Feature","geometry":{"type":"Polygon","coordinates":[[[-117.2941,32.43437],[-117.29408,32.43356],[-117.29436,32.43373],[-117.29451,32.43357],[-117.29445,32.43377],[-117.29477,32.43372],[-117.29461,32.4338],[-117.29487,32.43416],[-117.2953,32.4339],[-117.29564,32.43431],[-117.2958,32.43416],[-117.29611,32.43464],[-117.29622,32.43456],[-117.2966,32.43483],[-117.2966,32.43516],[-117.29686,32.4354],[-117.29697,32.43511],[-117.29714,32.43523],[-117.29733,32.43585],[-117.29776,32.43599],[-117.29781,32.43693],[-117.29804,32.43704],[-117.2979,32.43718],[-117.2979,32.43744],[-117.29808,32.4375],[-117.29802,32.43793],[-117.29831,32.43817],[-117.29816,32.43842],[-117.29821,32.43871],[-117.29848,32.43854],[-117.2987,32.43866],[-117.29851,32.43887],[-117.29887,32.43924],[-117.29893,32.43973],[-117.29911,32.43942],[-117.29933,32.43978],[-117.29962,32.43975],[-117.2996,32.43937],[-117.29965,32.43953],[-117.29988,32.43953],[-117.30016,32.44019],[-117.30007,32.44058],[-117.30033,32.44086],[-117.30003,32.44103],[-117.29991,32.44166],[-117.30034,32.44264],[-117.3002,32.4432],[-117.30037,32.44314],[-117.30038,32.44326],[-117.3002,32.44359],[-117.30029,32.44416],[-117.30047,32.44435],[-117.3004,32.44467],[-117.30053,32.44472],[-117.29996,32.44529],[-117.3,32.44542],[-117.29983,32.44539],[-117.29974,32.44563],[-117.29961,32.4456],[-117.2995,32.44622],[-117.2993,32.44622],[-117.2991,32.44552],[-117.29829,32.44559],[-117.29802,32.44525],[-117.29804,32.44505],[-117.29688,32.4436],[-117.29686,32.44295],[-117.29708,32.44262],[-117.29706,32.4424],[-117.29678,32.44217],[-117.29701,32.44195],[-117.29635,32.44192],[-117.29577,32.44065],[-117.29545,32.43965],[-117.29547,32.43826],[-117.2952,32.43778],[-117.29542,32.43737],[-117.29539,32.4368],[-117.29513,32.43593],[-117.29458,32.4354],[-117.2946,32.43462],[-117.29431,32.43465],[-117.2941,32.43437]]]},"properties":{"name":"unnamed-land"}},{"type":"Feature","geometry":{"type":"Polygon","coordinates":[[[-117.2605,32.42023],[-117.26009,32.41967],[-117.25987,32.41884],[-117.25957,32.41872],[-117.25942,32.41911],[-117.25957,32.41937],[-117.2594,32.41963],[-117.25899,32.41895],[-117.25823,32.41893],[-117.25794,32.41937],[-117.25769,32.41921],[-117.25763,32.4188],[-117.2573,32.41863],[-117.25732,32.41848],[-117.25796,32.41813],[-117.25809,32.41816],[-117.25811,32.41848],[-117.25897,32.41852],[-117.25901,32.41873],[-117.25958,32.41846],[-117.2597,32.41821],[-117.25964,32.41733],[-117.2599,32.41634],[-117.25945,32.41596],[-117.25969,32.41559],[-117.25946,32.41474],[-117.25959,32.41439],[-117.25997,32.41502],[-117.2601,32.41489],[-117.2602,32.41501],[-117.26091,32.41648],[-117.2611,32.41626],[-117.26112,32.41664],[-117.26137,32.41671],[-117.26148,32.41655],[-117.26179,32.4171],[-117.26179,32.41784],[-117.26159,32.41789],[-117.26135,32.41894],[-117.2605,32.42023]]]},"properties":{"name":"unnamed-land"}},{"type":"Feature","geometry":{"type":"Polygon","coordinates":[[[-117.26257,32.4248],[-117.26256,32.42436],[-117.26278,32.42418],[-117.2626,32.42384],[-117.26286,32.42362],[-117.26263,32.42341],[-117.26297,32.423],[-117.26346,32.42384],[-117.26362,32.42388],[-117.26363,32.4241],[-117.2639,32.42423],[-117.26392,32.42473],[-117.26358,32.42466],[-117.26376,32.425],[-117.26336,32.42504],[-117.26372,32.42553],[-117.26334,32.42544],[-117.26342,32.42594],[-117.26303,32.42563],[-117.26257,32.4248]]]},"properties":{"name":"unnamed-land"}}]}