{"type":"FeatureCollection","features":[{"type":"Feature","properties":{"id":"coronados-kelp-former","name":"Coronados former kelp extent (pre-decline)","className":"Kelp Former"},"geometry":{"type":"MultiPolygon","coordinates":[[[[-117.22382,32.35919],[-117.22188,32.35955],[-117.21941,32.35668],[-117.22112,32.35482],[-117.22382,32.35919]]],[[[-117.21994,32.36063],[-117.21975,32.3599],[-117.22052,32.35971],[-117.21994,32.36063]]],[[[-117.22428,32.37959],[-117.22311,32.38089],[-117.22387,32.37735],[-117.22197,32.37451],[-117.21976,32.37472],[-117.22006,32.36538],[-117.22298,32.36467],[-117.22196,32.36161],[-117.22319,32.36076],[-117.22584,32.36482],[-117.2251,32.36995],[-117.22713,32.37291],[-117.22716,32.37573],[-117.22586,32.37787],[-117.22781,32.38031],[-117.22428,32.37959]]],[[[-117.22588,32.38106],[-117.22561,32.38175],[-117.22488,32.38147],[-117.22588,32.38106]]],[[[-117.24681,32.40359],[-117.24671,32.39771],[-117.24528,32.39504],[-117.2424874356411,32.39175984503875],[-117.24243,32.39151],[-117.24204571906354,32.39124100334448],[-117.24191716216215,32.39109],[-117.24216,32.39109],[-117.24207,32.39094],[-117.24173,32.39067],[-117.241596622212,32.39071349275696],[-117.24024,32.38912],[-117.24074,32.38698],[-117.23902,32.38822],[-117.23799,32.38747],[-117.23982,32.38628],[-117.23971,32.3846],[-117.24209,32.38575],[-117.24231,32.38799],[-117.24531,32.38848],[-117.24515,32.39045],[-117.24824,32.39401],[-117.2469,32.39756],[-117.24922,32.39939],[-117.24681,32.40359]]],[[[-117.24026,32.40208],[-117.23916,32.39675],[-117.23980820789866,32.396907896795824],[-117.23997,32.39717],[-117.24001,32.39816],[-117.24019,32.39817],[-117.24025,32.39867],[-117.24047183539311,32.3989545280042],[-117.24080162401117,32.400203727315024],[-117.24081,32.40029],[-117.24082585599388,32.400295515128306],[-117.24109084831056,32.40129927390367],[-117.24107,32.40144],[-117.24118666666666,32.401662222222214],[-117.24123979202773,32.401863454650496],[-117.2410607518797,32.40196789473684],[-117.24026,32.40208]]],[[[-117.2419,32.40674],[-117.24199,32.40517],[-117.24247065934065,32.40522340659341],[-117.24265,32.40535],[-117.24253,32.40564],[-117.24254163300635,32.40568487016734],[-117.2419,32.40674]]],[[[-117.24126,32.4043],[-117.24135,32.40354],[-117.24173318111852,32.40358730631093],[-117.24193,32.40373],[-117.24195834834835,32.40378787787788],[-117.24126,32.4043]]],[[[-117.24220682380671,32.40955293459045],[-117.24242,32.40981],[-117.24245739565943,32.410020350584276],[-117.24247,32.41028],[-117.24166,32.41033],[-117.24220682380671,32.40955293459045]]],[[[-117.24262,32.41304],[-117.24225,32.41173],[-117.24281137083561,32.411695770071],[-117.24292,32.41177],[-117.24296436906377,32.411999240162835],[-117.24262,32.41304]]],[[[-117.24575,32.40703],[-117.2458,32.40491],[-117.24661,32.40496],[-117.2471,32.40647],[-117.24575,32.40703]]],[[[-117.24969,32.40954],[-117.24933,32.40515],[-117.25046,32.40552],[-117.24969,32.40954]]],[[[-117.25734,32.41736],[-117.2573,32.41639],[-117.25805,32.4165],[-117.25734,32.41736]]],[[[-117.25565,32.41618],[-117.25606,32.41461],[-117.25719,32.41498],[-117.25565,32.41618]]],[[[-117.29609,32.44383],[-117.2959,32.4431],[-117.29668,32.44291],[-117.29609,32.44383]]],[[[-117.29929446480232,32.4397218514947],[-117.29923455531454,32.43962381778744],[-117.29908,32.43903],[-117.29986,32.43884],[-117.29929446480232,32.4397218514947]]]]}},{"type":"Feature","properties":{"id":"coronados-kelp-canopy","name":"Coronados recent kelp canopy","className":"Kelp Canopy"},"geometry":{"type":"MultiPolygon","coordinates":[[[[-117.24375,32.39111],[-117.24375,32.39138],[-117.24343,32.39138],[-117.24375,32.39111]]],[[[-117.24664,32.39679],[-117.24664,32.39706],[-117.24632,32.39706],[-117.24664,32.39679]]],[[[-117.24728,32.39814],[-117.24728,32.39841],[-117.24696,32.39841],[-117.24728,32.39814]]],[[[-117.24665,32.4022],[-117.24664,32.40166],[-117.24696,32.40166],[-117.24665,32.4022]]],[[[-117.24252,32.40627],[-117.24252,32.40654],[-117.2422,32.40654],[-117.24252,32.40627]]],[[[-117.25018,32.40815],[-117.24953,32.40788],[-117.24953,32.40734],[-117.25018,32.40815]]],[[[-117.24284,32.41223],[-117.24252,32.41223],[-117.24252,32.41195],[-117.24284,32.41223]]],[[[-117.24314933333333,32.412499333333336],[-117.24316,32.412510000000005],[-117.24316,32.41277],[-117.24284,32.41277],[-117.24314933333333,32.412499333333336]]],[[[-117.24247,32.38895],[-117.24247,32.38922],[-117.24215,32.38922],[-117.24247,32.38895]]],[[[-117.23994,32.39788],[-117.23994,32.39816],[-117.23962,32.39816],[-117.23994,32.39788]]],[[[-117.24026,32.39924],[-117.23994,32.39924],[-117.23994,32.39896],[-117.24026,32.39924]]],[[[-117.24059,32.40005],[-117.24026,32.40005],[-117.24026,32.39978],[-117.24059,32.40005]]],[[[-117.24091,32.40141],[-117.24059,32.40141],[-117.24059,32.40059],[-117.24091,32.40141]]],[[[-117.24187,32.40384],[-117.24187,32.40411],[-117.24155,32.40411],[-117.24187,32.40384]]],[[[-117.24251,32.40573],[-117.24219,32.40573],[-117.24219,32.40546],[-117.24251,32.40573]]],[[[-117.2422,32.40979],[-117.24188,32.40979],[-117.24188,32.40952],[-117.2422,32.40979]]]]}}]}