{"type":"FeatureCollection","features":[{"type":"Feature","geometry":{"type":"Point","coordinates":[-117.32402,32.45505]},"properties":{"depth_ft":325,"depth_m":99.0}},{"type":"Feature","geometry":{"type":"Point","coordinates":[-117.31845,32.45505]},"properties":{"depth_ft":309,"depth_m":94.1}},{"type":"Feature","geometry":{"type":"Point","coordinates":[-117.31289,32.45505]},"properties":{"depth_ft":216,"depth_m":65.7}},{"type":"Feature","geometry":{"type":"Point","coordinates":[-117.30732,32.45505]},"properties":{"depth_ft":89,"depth_m":27.0}},{"type":"Feature","geometry":{"type":"Point","coordinates":[-117.30175,32.45505]},"properties":{"depth_ft":51,"depth_m":15.4}},{"type":"Feature","geometry":{"type":"Point","coordinates":[-117.29619,32.45505]},"properties":{"depth_ft":59,"depth_m":17.9}},{"type":"Feature","geometry":{"type":"Point","coordinates":[-117.29062,32.45505]},"properties":{"depth_ft":80,"depth_m":24.5}},{"type":"Feature","geometry":{"type":"Point","coordinates":[-117.28505,32.45505]},"properties":{"depth_ft":102,"depth_m":31.2}},{"type":"Feature","geometry":{"type":"Point","coordinates":[-117.27948,32.45505]},"properties":{"depth_ft":122,"depth_m":37.0}},{"type":"Feature","geometry":{"type":"Point","coordinates":[-117.27392,32.45505]},"properties":{"depth_ft":135,"depth_m":41.1}},{"type":"Feature","geometry":{"type":"Point","coordinates":[-117.26835,32.45505]},"properties":{"depth_ft":141,"depth_m":43.1}},{"type":"Feature","geometry":{"type":"Point","coordinates":[-117.26278,32.45505]},"properties":{"depth_ft":143,"depth_m":43.7}},{"type":"Feature","geometry":{"type":"Point","coordinates":[-117.25722,32.45505]},"properties":{"depth_ft":144,"depth_m":44.0}},{"type":"Feature","geometry":{"type":"Point","coordinates":[-117.25165,32.45505]},"properties":{"depth_ft":142,"depth_m":43.3}},{"type":"Feature","geometry":{"type":"Point","coordinates":[-117.24608,32.45505]},"properties":{"depth_ft":136,"depth_m":41.5}},{"type":"Feature","geometry":{"type":"Point","coordinates":[-117.24052,32.45505]},"properties":{"depth_ft":129,"depth_m":39.4}},{"type":"Feature","geometry":{"type":"Point","coordinates":[-117.23495,32.45505]},"properties":{"depth_ft":126,"depth_m":38.3}},{"type":"Feature","geometry":{"type":"Point","coordinates":[-117.22938,32.45505]},"properties":{"depth_ft":123,"depth_m":37.4}},{"type":"Feature","geometry":{"type":"Point","coordinates":[-117.22381,32.45505]},"properties":{"depth_ft":120,"depth_m":36.5}},{"type":"Feature","geometry":{"type":"Point","coordinates":[-117.21825,32.45505]},"properties":{"depth_ft":120,"depth_m":36.5}},{"type":"Feature","geometry":{"type":"Point","coordinates":[-117.21268,32.45505]},"properties":{"depth_ft":120,"depth_m":36.5}},{"type":"Feature","geometry":{"type":"Point","coordinates":[-117.20711,32.45505]},"properties":{"depth_ft":118,"depth_m":36.0}},{"type":"Feature","geometry":{"type":"Point","coordinates":[-117.20155,32.45505]},"properties":{"depth_ft":115,"depth_m":35.0}},{"type":"Feature","geometry":{"type":"Point","coordinates":[-117.19598,32.45505]},"properties":{"depth_ft":107,"depth_m":32.5}},{"type":"Feature","geometry":{"type":"Point","coordinates":[-117.31845,32.45035]},"properties":{"depth_ft":308,"depth_m":94.0}},{"type":"Feature","geometry":{"type":"Point","coordinates":[-117.31289,32.45035]},"properties":{"depth_ft":204,"depth_m":62.2}},{"type":"Feature","geometry":{"type":"Point","coordinates":[-117.30732,32.45035]},"properties":{"depth_ft":62,"depth_m":18.8}},{"type":"Feature","geometry":{"type":"Point","coordinates":[-117.30175,32.45035]},"properties":{"depth_ft":40,"depth_m":12.2}},{"type":"Feature","geometry":{"type":"Point","coordinates":[-117.29619,32.45035]},"properties":{"depth_ft":54,"depth_m":16.4}},{"type":"Feature","geometry":{"type":"Point","coordinates":[-117.29062,32.45035]},"properties":{"depth_ft":79,"depth_m":24.2}},{"type":"Feature","geometry":{"type":"Point","coordinates":[-117.28505,32.45035]},"properties":{"depth_ft":102,"depth_m":31.0}},{"type":"Feature","geometry":{"type":"Point","coordinates":[-117.27948,32.45035]},"properties":{"depth_ft":122,"depth_m":37.3}},{"type":"Feature","geometry":{"type":"Point","coordinates":[-117.27392,32.45035]},"properties":{"depth_ft":139,"depth_m":42.2}},{"type":"Feature","geometry":{"type":"Point","coordinates":[-117.26835,32.45035]},"properties":{"depth_ft":141,"depth_m":43.0}},{"type":"Feature","geometry":{"type":"Point","coordinates":[-117.26278,32.45035]},"properties":{"depth_ft":138,"depth_m":42.1}},{"type":"Feature","geometry":{"type":"Point","coordinates":[-117.25722,32.45035]},"properties":{"depth_ft":137,"depth_m":41.8}},{"type":"Feature","geometry":{"type":"Point","coordinates":[-117.25165,32.45035]},"properties":{"depth_ft":135,"depth_m":41.2}},{"type":"Feature","geometry":{"type":"Point","coordinates":[-117.24608,32.45035]},"properties":{"depth_ft":130,"depth_m":39.6}},{"type":"Feature","geometry":{"type":"Point","coordinates":[-117.24052,32.45035]},"properties":{"depth_ft":125,"depth_m":38.3}},{"type":"Feature","geometry":{"type":"Point","coordinates":[-117.23495,32.45035]},"properties":{"depth_ft":123,"depth_m":37.4}},{"type":"Feature","geometry":{"type":"Point","coordinates":[-117.22938,32.45035]},"properties":{"depth_ft":120,"depth_m":36.7}},{"type":"Feature","geometry":{"type":"Point","coordinates":[-117.22381,32.45035]},"properties":{"depth_ft":118,"depth_m":36.1}},{"type":"Feature","geometry":{"type":"Point","coordinates":[-117.21825,32.45035]},"properties":{"depth_ft":118,"depth_m":35.9}},{"type":"Feature","geometry":{"type":"Point","coordinates":[-117.21268,32.45035]},"properties":{"depth_ft":118,"depth_m":36.0}},{"type":"Feature","geometry":{"type":"Point","coordinates":[-117.20711,32.45035]},"properties":{"depth_ft":116,"depth_m":35.4}},{"type":"Feature","geometry":{"type":"Point","coordinates":[-117.20155,32.45035]},"properties":{"depth_ft":103,"depth_m":31.4}},{"type":"Feature","geometry":{"type":"Point","coordinates":[-117.19598,32.45035]},"properties":{"depth_ft":101,"depth_m":30.7}},{"type":"Feature","geometry":{"type":"Point","coordinates":[-117.31845,32.44565]},"properties":{"depth_ft":315,"depth_m":95.9}},{"type":"Feature","geometry":{"type":"Point","coordinates":[-117.29619,32.44565]},"properties":{"depth_ft":3,"depth_m":1.0}},{"type":"Feature","geometry":{"type":"Point","coordinates":[-117.25722,32.44565]},"properties":{"depth_ft":218,"depth_m":66.4}},{"type":"Feature","geometry":{"type":"Point","coordinates":[-117.25165,32.44565]},"properties":{"depth_ft":139,"depth_m":42.2}},{"type":"Feature","geometry":{"type":"Point","coordinates":[-117.24608,32.44565]},"properties":{"depth_ft":150,"depth_m":45.7}},{"type":"Feature","geometry":{"type":"Point","coordinates":[-117.24052,32.44565]},"properties":{"depth_ft":161,"depth_m":49.1}},{"type":"Feature","geometry":{"type":"Point","coordinates":[-117.23495,32.44565]},"properties":{"depth_ft":167,"depth_m":51.0}},{"type":"Feature","geometry":{"type":"Point","coordinates":[-117.22938,32.44565]},"properties":{"depth_ft":171,"depth_m":52.0}},{"type":"Feature","geometry":{"type":"Point","coordinates":[-117.22381,32.44565]},"properties":{"depth_ft":144,"depth_m":43.8}},{"type":"Feature","geometry":{"type":"Point","coordinates":[-117.21825,32.44565]},"properties":{"depth_ft":136,"depth_m":41.5}},{"type":"Feature","geometry":{"type":"Point","coordinates":[-117.21268,32.44565]},"properties":{"depth_ft":141,"depth_m":42.9}},{"type":"Feature","geometry":{"type":"Point","coordinates":[-117.20711,32.44565]},"properties":{"depth_ft":97,"depth_m":29.6}},{"type":"Feature","geometry":{"type":"Point","coordinates":[-117.20155,32.44565]},"properties":{"depth_ft":110,"depth_m":33.4}},{"type":"Feature","geometry":{"type":"Point","coordinates":[-117.19598,32.44565]},"properties":{"depth_ft":108,"depth_m":33.0}},{"type":"Feature","geometry":{"type":"Point","coordinates":[-117.29062,32.44095]},"properties":{"depth_ft":296,"depth_m":90.4}},{"type":"Feature","geometry":{"type":"Point","coordinates":[-117.25722,32.44095]},"properties":{"depth_ft":214,"depth_m":65.2}},{"type":"Feature","geometry":{"type":"Point","coordinates":[-117.25165,32.44095]},"properties":{"depth_ft":116,"depth_m":35.4}},{"type":"Feature","geometry":{"type":"Point","coordinates":[-117.24608,32.44095]},"properties":{"depth_ft":134,"depth_m":40.9}},{"type":"Feature","geometry":{"type":"Point","coordinates":[-117.24052,32.44095]},"properties":{"depth_ft":154,"depth_m":47.1}},{"type":"Feature","geometry":{"type":"Point","coordinates":[-117.23495,32.44095]},"properties":{"depth_ft":156,"depth_m":47.6}},{"type":"Feature","geometry":{"type":"Point","coordinates":[-117.22938,32.44095]},"properties":{"depth_ft":147,"depth_m":44.7}},{"type":"Feature","geometry":{"type":"Point","coordinates":[-117.22381,32.44095]},"properties":{"depth_ft":138,"depth_m":42.1}},{"type":"Feature","geometry":{"type":"Point","coordinates":[-117.21825,32.44095]},"properties":{"depth_ft":132,"depth_m":40.1}},{"type":"Feature","geometry":{"type":"Point","coordinates":[-117.21268,32.44095]},"properties":{"depth_ft":176,"depth_m":53.7}},{"type":"Feature","geometry":{"type":"Point","coordinates":[-117.20711,32.44095]},"properties":{"depth_ft":127,"depth_m":38.8}},{"type":"Feature","geometry":{"type":"Point","coordinates":[-117.20155,32.44095]},"properties":{"depth_ft":99,"depth_m":30.1}},{"type":"Feature","geometry":{"type":"Point","coordinates":[-117.19598,32.44095]},"properties":{"depth_ft":108,"depth_m":32.9}},{"type":"Feature","geometry":{"type":"Point","coordinates":[-117.29062,32.43625]},"properties":{"depth_ft":80,"depth_m":24.3}},{"type":"Feature","geometry":{"type":"Point","coordinates":[-117.26278,32.43625]},"properties":{"depth_ft":254,"depth_m":77.4}},{"type":"Feature","geometry":{"type":"Point","coordinates":[-117.25722,32.43625]},"properties":{"depth_ft":134,"depth_m":40.8}},{"type":"Feature","geometry":{"type":"Point","coordinates":[-117.25165,32.43625]},"properties":{"depth_ft":85,"depth_m":25.8}},{"type":"Feature","geometry":{"type":"Point","coordinates":[-117.24608,32.43625]},"properties":{"depth_ft":115,"depth_m":34.9}},{"type":"Feature","geometry":{"type":"Point","coordinates":[-117.24052,32.43625]},"properties":{"depth_ft":124,"depth_m":37.8}},{"type":"Feature","geometry":{"type":"Point","coordinates":[-117.23495,32.43625]},"properties":{"depth_ft":123,"depth_m":37.5}},{"type":"Feature","geometry":{"type":"Point","coordinates":[-117.22938,32.43625]},"properties":{"depth_ft":115,"depth_m":35.0}},{"type":"Feature","geometry":{"type":"Point","coordinates":[-117.22381,32.43625]},"properties":{"depth_ft":119,"depth_m":36.3}},{"type":"Feature","geometry":{"type":"Point","coordinates":[-117.21825,32.43625]},"properties":{"depth_ft":108,"depth_m":32.8}},{"type":"Feature","geometry":{"type":"Point","coordinates":[-117.21268,32.43625]},"properties":{"depth_ft":102,"depth_m":31.1}},{"type":"Feature","geometry":{"type":"Point","coordinates":[-117.20711,32.43625]},"properties":{"depth_ft":144,"depth_m":43.9}},{"type":"Feature","geometry":{"type":"Point","coordinates":[-117.20155,32.43625]},"properties":{"depth_ft":104,"depth_m":31.6}},{"type":"Feature","geometry":{"type":"Point","coordinates":[-117.19598,32.43625]},"properties":{"depth_ft":108,"depth_m":32.9}},{"type":"Feature","geometry":{"type":"Point","coordinates":[-117.29062,32.43155]},"properties":{"depth_ft":185,"depth_m":56.5}},{"type":"Feature","geometry":{"type":"Point","coordinates":[-117.27392,32.43155]},"properties":{"depth_ft":321,"depth_m":97.7}},{"type":"Feature","geometry":{"type":"Point","coordinates":[-117.26835,32.43155]},"properties":{"depth_ft":212,"depth_m":64.5}},{"type":"Feature","geometry":{"type":"Point","coordinates":[-117.26278,32.43155]},"properties":{"depth_ft":138,"depth_m":42.0}},{"type":"Feature","geometry":{"type":"Point","coordinates":[-117.25722,32.43155]},"properties":{"depth_ft":101,"depth_m":30.8}},{"type":"Feature","geometry":{"type":"Point","coordinates":[-117.25165,32.43155]},"properties":{"depth_ft":98,"depth_m":29.9}},{"type":"Feature","geometry":{"type":"Point","coordinates":[-117.24608,32.43155]},"properties":{"depth_ft":113,"depth_m":34.3}},{"type":"Feature","geometry":{"type":"Point","coordinates":[-117.24052,32.43155]},"properties":{"depth_ft":108,"depth_m":33.0}},{"type":"Feature","geometry":{"type":"Point","coordinates":[-117.23495,32.43155]},"properties":{"depth_ft":117,"depth_m":35.7}},{"type":"Feature","geometry":{"type":"Point","coordinates":[-117.22938,32.43155]},"properties":{"depth_ft":134,"depth_m":40.9}},{"type":"Feature","geometry":{"type":"Point","coordinates":[-117.22381,32.43155]},"properties":{"depth_ft":126,"depth_m":38.4}},{"type":"Feature","geometry":{"type":"Point","coordinates":[-117.21825,32.43155]},"properties":{"depth_ft":111,"depth_m":33.7}},{"type":"Feature","geometry":{"type":"Point","coordinates":[-117.21268,32.43155]},"properties":{"depth_ft":109,"depth_m":33.1}},{"type":"Feature","geometry":{"type":"Point","coordinates":[-117.20711,32.43155]},"properties":{"depth_ft":121,"depth_m":37.0}},{"type":"Feature","geometry":{"type":"Point","coordinates":[-117.20155,32.43155]},"properties":{"depth_ft":110,"depth_m":33.4}},{"type":"Feature","geometry":{"type":"Point","coordinates":[-117.19598,32.43155]},"properties":{"depth_ft":113,"depth_m":34.4}},{"type":"Feature","geometry":{"type":"Point","coordinates":[-117.26835,32.42685]},"properties":{"depth_ft":121,"depth_m":36.9}},{"type":"Feature","geometry":{"type":"Point","coordinates":[-117.26278,32.42685]},"properties":{"depth_ft":58,"depth_m":17.8}},{"type":"Feature","geometry":{"type":"Point","coordinates":[-117.25722,32.42685]},"properties":{"depth_ft":56,"depth_m":17.0}},{"type":"Feature","geometry":{"type":"Point","coordinates":[-117.25165,32.42685]},"properties":{"depth_ft":67,"depth_m":20.3}},{"type":"Feature","geometry":{"type":"Point","coordinates":[-117.24608,32.42685]},"properties":{"depth_ft":78,"depth_m":23.8}},{"type":"Feature","geometry":{"type":"Point","coordinates":[-117.24052,32.42685]},"properties":{"depth_ft":95,"depth_m":28.9}},{"type":"Feature","geometry":{"type":"Point","coordinates":[-117.23495,32.42685]},"properties":{"depth_ft":127,"depth_m":38.7}},{"type":"Feature","geometry":{"type":"Point","coordinates":[-117.22938,32.42685]},"properties":{"depth_ft":152,"depth_m":46.3}},{"type":"Feature","geometry":{"type":"Point","coordinates":[-117.22381,32.42685]},"properties":{"depth_ft":135,"depth_m":41.2}},{"type":"Feature","geometry":{"type":"Point","coordinates":[-117.21825,32.42685]},"properties":{"depth_ft":118,"depth_m":36.1}},{"type":"Feature","geometry":{"type":"Point","coordinates":[-117.21268,32.42685]},"properties":{"depth_ft":118,"depth_m":36.1}},{"type":"Feature","geometry":{"type":"Point","coordinates":[-117.20711,32.42685]},"properties":{"depth_ft":107,"depth_m":32.6}},{"type":"Feature","geometry":{"type":"Point","coordinates":[-117.20155,32.42685]},"properties":{"depth_ft":106,"depth_m":32.3}},{"type":"Feature","geometry":{"type":"Point","coordinates":[-117.19598,32.42685]},"properties":{"depth_ft":97,"depth_m":29.5}},{"type":"Feature","geometry":{"type":"Point","coordinates":[-117.26835,32.42215]},"properties":{"depth_ft":159,"depth_m":48.5}},{"type":"Feature","geometry":{"type":"Point","coordinates":[-117.26278,32.42215]},"properties":{"depth_ft":53,"depth_m":16.1}},{"type":"Feature","geometry":{"type":"Point","coordinates":[-117.25722,32.42215]},"properties":{"depth_ft":19,"depth_m":5.7}},{"type":"Feature","geometry":{"type":"Point","coordinates":[-117.25165,32.42215]},"properties":{"depth_ft":10,"depth_m":3.2}},{"type":"Feature","geometry":{"type":"Point","coordinates":[-117.24608,32.42215]},"properties":{"depth_ft":12,"depth_m":3.5}},{"type":"Feature","geometry":{"type":"Point","coordinates":[-117.24052,32.42215]},"properties":{"depth_ft":80,"depth_m":24.4}},{"type":"Feature","geometry":{"type":"Point","coordinates":[-117.23495,32.42215]},"properties":{"depth_ft":140,"depth_m":42.8}},{"type":"Feature","geometry":{"type":"Point","coordinates":[-117.22938,32.42215]},"properties":{"depth_ft":152,"depth_m":46.4}},{"type":"Feature","geometry":{"type":"Point","coordinates":[-117.22381,32.42215]},"properties":{"depth_ft":129,"depth_m":39.5}},{"type":"Feature","geometry":{"type":"Point","coordinates":[-117.21825,32.42215]},"properties":{"depth_ft":121,"depth_m":36.7}},{"type":"Feature","geometry":{"type":"Point","coordinates":[-117.21268,32.42215]},"properties":{"depth_ft":142,"depth_m":43.3}},{"type":"Feature","geometry":{"type":"Point","coordinates":[-117.20711,32.42215]},"properties":{"depth_ft":146,"depth_m":44.5}},{"type":"Feature","geometry":{"type":"Point","coordinates":[-117.20155,32.42215]},"properties":{"depth_ft":95,"depth_m":28.9}},{"type":"Feature","geometry":{"type":"Point","coordinates":[-117.19598,32.42215]},"properties":{"depth_ft":77,"depth_m":23.5}},{"type":"Feature","geometry":{"type":"Point","coordinates":[-117.26278,32.41745]},"properties":{"depth_ft":140,"depth_m":42.6}},{"type":"Feature","geometry":{"type":"Point","coordinates":[-117.25722,32.41745]},"properties":{"depth_ft":40,"depth_m":12.2}},{"type":"Feature","geometry":{"type":"Point","coordinates":[-117.25165,32.41745]},"properties":{"depth_ft":9,"depth_m":2.8}},{"type":"Feature","geometry":{"type":"Point","coordinates":[-117.24608,32.41745]},"properties":{"depth_ft":4,"depth_m":1.3}},{"type":"Feature","geometry":{"type":"Point","coordinates":[-117.24052,32.41745]},"properties":{"depth_ft":63,"depth_m":19.1}},{"type":"Feature","geometry":{"type":"Point","coordinates":[-117.23495,32.41745]},"properties":{"depth_ft":117,"depth_m":35.5}},{"type":"Feature","geometry":{"type":"Point","coordinates":[-117.22938,32.41745]},"properties":{"depth_ft":121,"depth_m":37.0}},{"type":"Feature","geometry":{"type":"Point","coordinates":[-117.22381,32.41745]},"properties":{"depth_ft":113,"depth_m":34.3}},{"type":"Feature","geometry":{"type":"Point","coordinates":[-117.21825,32.41745]},"properties":{"depth_ft":118,"depth_m":36.0}},{"type":"Feature","geometry":{"type":"Point","coordinates":[-117.21268,32.41745]},"properties":{"depth_ft":146,"depth_m":44.4}},{"type":"Feature","geometry":{"type":"Point","coordinates":[-117.20711,32.41745]},"properties":{"depth_ft":148,"depth_m":45.0}},{"type":"Feature","geometry":{"type":"Point","coordinates":[-117.20155,32.41745]},"properties":{"depth_ft":102,"depth_m":31.0}},{"type":"Feature","geometry":{"type":"Point","coordinates":[-117.19598,32.41745]},"properties":{"depth_ft":102,"depth_m":31.2}},{"type":"Feature","geometry":{"type":"Point","coordinates":[-117.26278,32.41275]},"properties":{"depth_ft":250,"depth_m":76.3}},{"type":"Feature","geometry":{"type":"Point","coordinates":[-117.25722,32.41275]},"properties":{"depth_ft":70,"depth_m":21.5}},{"type":"Feature","geometry":{"type":"Point","coordinates":[-117.25165,32.41275]},"properties":{"depth_ft":27,"depth_m":8.3}},{"type":"Feature","geometry":{"type":"Point","coordinates":[-117.24052,32.41275]},"properties":{"depth_ft":42,"depth_m":12.8}},{"type":"Feature","geometry":{"type":"Point","coordinates":[-117.23495,32.41275]},"properties":{"depth_ft":79,"depth_m":24.2}},{"type":"Feature","geometry":{"type":"Point","coordinates":[-117.22938,32.41275]},"properties":{"depth_ft":79,"depth_m":24.0}},{"type":"Feature","geometry":{"type":"Point","coordinates":[-117.22381,32.41275]},"properties":{"depth_ft":93,"depth_m":28.4}},{"type":"Feature","geometry":{"type":"Point","coordinates":[-117.21825,32.41275]},"properties":{"depth_ft":113,"depth_m":34.4}},{"type":"Feature","geometry":{"type":"Point","coordinates":[-117.21268,32.41275]},"properties":{"depth_ft":137,"depth_m":41.8}},{"type":"Feature","geometry":{"type":"Point","coordinates":[-117.20711,32.41275]},"properties":{"depth_ft":155,"depth_m":47.1}},{"type":"Feature","geometry":{"type":"Point","coordinates":[-117.20155,32.41275]},"properties":{"depth_ft":95,"depth_m":28.9}},{"type":"Feature","geometry":{"type":"Point","coordinates":[-117.19598,32.41275]},"properties":{"depth_ft":125,"depth_m":38.2}},{"type":"Feature","geometry":{"type":"Point","coordinates":[-117.26278,32.40805]},"properties":{"depth_ft":259,"depth_m":79.0}},{"type":"Feature","geometry":{"type":"Point","coordinates":[-117.25722,32.40805]},"properties":{"depth_ft":29,"depth_m":8.8}},{"type":"Feature","geometry":{"type":"Point","coordinates":[-117.25165,32.40805]},"properties":{"depth_ft":10,"depth_m":3.2}},{"type":"Feature","geometry":{"type":"Point","coordinates":[-117.24608,32.40805]},"properties":{"depth_ft":13,"depth_m":4.1}},{"type":"Feature","geometry":{"type":"Point","coordinates":[-117.24052,32.40805]},"properties":{"depth_ft":15,"depth_m":4.6}},{"type":"Feature","geometry":{"type":"Point","coordinates":[-117.23495,32.40805]},"properties":{"depth_ft":38,"depth_m":11.7}},{"type":"Feature","geometry":{"type":"Point","coordinates":[-117.22938,32.40805]},"properties":{"depth_ft":63,"depth_m":19.3}},{"type":"Feature","geometry":{"type":"Point","coordinates":[-117.22381,32.40805]},"properties":{"depth_ft":87,"depth_m":26.4}},{"type":"Feature","geometry":{"type":"Point","coordinates":[-117.21825,32.40805]},"properties":{"depth_ft":112,"depth_m":34.2}},{"type":"Feature","geometry":{"type":"Point","coordinates":[-117.21268,32.40805]},"properties":{"depth_ft":142,"depth_m":43.4}},{"type":"Feature","geometry":{"type":"Point","coordinates":[-117.20711,32.40805]},"properties":{"depth_ft":158,"depth_m":48.1}},{"type":"Feature","geometry":{"type":"Point","coordinates":[-117.20155,32.40805]},"properties":{"depth_ft":103,"depth_m":31.4}},{"type":"Feature","geometry":{"type":"Point","coordinates":[-117.19598,32.40805]},"properties":{"depth_ft":109,"depth_m":33.3}},{"type":"Feature","geometry":{"type":"Point","coordinates":[-117.26278,32.40335]},"properties":{"depth_ft":283,"depth_m":86.2}},{"type":"Feature","geometry":{"type":"Point","coordinates":[-117.25722,32.40335]},"properties":{"depth_ft":17,"depth_m":5.2}},{"type":"Feature","geometry":{"type":"Point","coordinates":[-117.25165,32.40335]},"properties":{"depth_ft":3,"depth_m":1.0}},{"type":"Feature","geometry":{"type":"Point","coordinates":[-117.24052,32.40335]},"properties":{"depth_ft":2,"depth_m":0.7}},{"type":"Feature","geometry":{"type":"Point","coordinates":[-117.23495,32.40335]},"properties":{"depth_ft":14,"depth_m":4.3}},{"type":"Feature","geometry":{"type":"Point","coordinates":[-117.22938,32.40335]},"properties":{"depth_ft":63,"depth_m":19.2}},{"type":"Feature","geometry":{"type":"Point","coordinates":[-117.22381,32.40335]},"properties":{"depth_ft":87,"depth_m":26.6}},{"type":"Feature","geometry":{"type":"Point","coordinates":[-117.21825,32.40335]},"properties":{"depth_ft":107,"depth_m":32.7}},{"type":"Feature","geometry":{"type":"Point","coordinates":[-117.21268,32.40335]},"properties":{"depth_ft":138,"depth_m":41.9}},{"type":"Feature","geometry":{"type":"Point","coordinates":[-117.20711,32.40335]},"properties":{"depth_ft":157,"depth_m":47.8}},{"type":"Feature","geometry":{"type":"Point","coordinates":[-117.20155,32.40335]},"properties":{"depth_ft":115,"depth_m":34.9}},{"type":"Feature","geometry":{"type":"Point","coordinates":[-117.19598,32.40335]},"properties":{"depth_ft":117,"depth_m":35.6}},{"type":"Feature","geometry":{"type":"Point","coordinates":[-117.25722,32.39865]},"properties":{"depth_ft":122,"depth_m":37.1}},{"type":"Feature","geometry":{"type":"Point","coordinates":[-117.25165,32.39865]},"properties":{"depth_ft":33,"depth_m":10.2}},{"type":"Feature","geometry":{"type":"Point","coordinates":[-117.24608,32.39865]},"properties":{"depth_ft":2,"depth_m":0.7}},{"type":"Feature","geometry":{"type":"Point","coordinates":[-117.23495,32.39865]},"properties":{"depth_ft":16,"depth_m":4.7}},{"type":"Feature","geometry":{"type":"Point","coordinates":[-117.22938,32.39865]},"properties":{"depth_ft":69,"depth_m":21.1}},{"type":"Feature","geometry":{"type":"Point","coordinates":[-117.22381,32.39865]},"properties":{"depth_ft":85,"depth_m":25.9}},{"type":"Feature","geometry":{"type":"Point","coordinates":[-117.21825,32.39865]},"properties":{"depth_ft":90,"depth_m":27.3}},{"type":"Feature","geometry":{"type":"Point","coordinates":[-117.21268,32.39865]},"properties":{"depth_ft":110,"depth_m":33.5}},{"type":"Feature","geometry":{"type":"Point","coordinates":[-117.20711,32.39865]},"properties":{"depth_ft":141,"depth_m":42.8}},{"type":"Feature","geometry":{"type":"Point","coordinates":[-117.20155,32.39865]},"properties":{"depth_ft":121,"depth_m":37.0}},{"type":"Feature","geometry":{"type":"Point","coordinates":[-117.19598,32.39865]},"properties":{"depth_ft":105,"depth_m":32.0}},{"type":"Feature","geometry":{"type":"Point","coordinates":[-117.25722,32.39395]},"properties":{"depth_ft":284,"depth_m":86.7}},{"type":"Feature","geometry":{"type":"Point","coordinates":[-117.25165,32.39395]},"properties":{"depth_ft":119,"depth_m":36.4}},{"type":"Feature","geometry":{"type":"Point","coordinates":[-117.24608,32.39395]},"properties":{"depth_ft":21,"depth_m":6.4}},{"type":"Feature","geometry":{"type":"Point","coordinates":[-117.23495,32.39395]},"properties":{"depth_ft":30,"depth_m":9.1}},{"type":"Feature","geometry":{"type":"Point","coordinates":[-117.22938,32.39395]},"properties":{"depth_ft":82,"depth_m":24.9}},{"type":"Feature","geometry":{"type":"Point","coordinates":[-117.22381,32.39395]},"properties":{"depth_ft":85,"depth_m":26.0}},{"type":"Feature","geometry":{"type":"Point","coordinates":[-117.21825,32.39395]},"properties":{"depth_ft":79,"depth_m":24.1}},{"type":"Feature","geometry":{"type":"Point","coordinates":[-117.21268,32.39395]},"properties":{"depth_ft":93,"depth_m":28.4}},{"type":"Feature","geometry":{"type":"Point","coordinates":[-117.20711,32.39395]},"properties":{"depth_ft":127,"depth_m":38.6}},{"type":"Feature","geometry":{"type":"Point","coordinates":[-117.20155,32.39395]},"properties":{"depth_ft":109,"depth_m":33.2}},{"type":"Feature","geometry":{"type":"Point","coordinates":[-117.19598,32.39395]},"properties":{"depth_ft":113,"depth_m":34.3}},{"type":"Feature","geometry":{"type":"Point","coordinates":[-117.25165,32.38925]},"properties":{"depth_ft":238,"depth_m":72.4}},{"type":"Feature","geometry":{"type":"Point","coordinates":[-117.24608,32.38925]},"properties":{"depth_ft":100,"depth_m":30.4}},{"type":"Feature","geometry":{"type":"Point","coordinates":[-117.24052,32.38925]},"properties":{"depth_ft":60,"depth_m":18.2}},{"type":"Feature","geometry":{"type":"Point","coordinates":[-117.23495,32.38925]},"properties":{"depth_ft":69,"depth_m":21.1}},{"type":"Feature","geometry":{"type":"Point","coordinates":[-117.22938,32.38925]},"properties":{"depth_ft":89,"depth_m":27.2}},{"type":"Feature","geometry":{"type":"Point","coordinates":[-117.22381,32.38925]},"properties":{"depth_ft":88,"depth_m":26.9}},{"type":"Feature","geometry":{"type":"Point","coordinates":[-117.21825,32.38925]},"properties":{"depth_ft":85,"depth_m":25.9}},{"type":"Feature","geometry":{"type":"Point","coordinates":[-117.21268,32.38925]},"properties":{"depth_ft":102,"depth_m":31.2}},{"type":"Feature","geometry":{"type":"Point","coordinates":[-117.20711,32.38925]},"properties":{"depth_ft":122,"depth_m":37.3}},{"type":"Feature","geometry":{"type":"Point","coordinates":[-117.20155,32.38925]},"properties":{"depth_ft":104,"depth_m":31.8}},{"type":"Feature","geometry":{"type":"Point","coordinates":[-117.19598,32.38925]},"properties":{"depth_ft":105,"depth_m":32.1}},{"type":"Feature","geometry":{"type":"Point","coordinates":[-117.25165,32.38455]},"properties":{"depth_ft":317,"depth_m":96.7}},{"type":"Feature","geometry":{"type":"Point","coordinates":[-117.24608,32.38455]},"properties":{"depth_ft":145,"depth_m":44.2}},{"type":"Feature","geometry":{"type":"Point","coordinates":[-117.24052,32.38455]},"properties":{"depth_ft":84,"depth_m":25.7}},{"type":"Feature","geometry":{"type":"Point","coordinates":[-117.23495,32.38455]},"properties":{"depth_ft":85,"depth_m":25.8}},{"type":"Feature","geometry":{"type":"Point","coordinates":[-117.22938,32.38455]},"properties":{"depth_ft":91,"depth_m":27.7}},{"type":"Feature","geometry":{"type":"Point","coordinates":[-117.22381,32.38455]},"properties":{"depth_ft":86,"depth_m":26.2}},{"type":"Feature","geometry":{"type":"Point","coordinates":[-117.21825,32.38455]},"properties":{"depth_ft":90,"depth_m":27.5}},{"type":"Feature","geometry":{"type":"Point","coordinates":[-117.21268,32.38455]},"properties":{"depth_ft":116,"depth_m":35.4}},{"type":"Feature","geometry":{"type":"Point","coordinates":[-117.20711,32.38455]},"properties":{"depth_ft":132,"depth_m":40.3}},{"type":"Feature","geometry":{"type":"Point","coordinates":[-117.20155,32.38455]},"properties":{"depth_ft":128,"depth_m":38.9}},{"type":"Feature","geometry":{"type":"Point","coordinates":[-117.19598,32.38455]},"properties":{"depth_ft":121,"depth_m":36.9}},{"type":"Feature","geometry":{"type":"Point","coordinates":[-117.24608,32.37985]},"properties":{"depth_ft":156,"depth_m":47.6}},{"type":"Feature","geometry":{"type":"Point","coordinates":[-117.24052,32.37985]},"properties":{"depth_ft":87,"depth_m":26.5}},{"type":"Feature","geometry":{"type":"Point","coordinates":[-117.23495,32.37985]},"properties":{"depth_ft":81,"depth_m":24.8}},{"type":"Feature","geometry":{"type":"Point","coordinates":[-117.22938,32.37985]},"properties":{"depth_ft":89,"depth_m":27.1}},{"type":"Feature","geometry":{"type":"Point","coordinates":[-117.22381,32.37985]},"properties":{"depth_ft":77,"depth_m":23.6}},{"type":"Feature","geometry":{"type":"Point","coordinates":[-117.21825,32.37985]},"properties":{"depth_ft":87,"depth_m":26.6}},{"type":"Feature","geometry":{"type":"Point","coordinates":[-117.21268,32.37985]},"properties":{"depth_ft":132,"depth_m":40.2}},{"type":"Feature","geometry":{"type":"Point","coordinates":[-117.20711,32.37985]},"properties":{"depth_ft":143,"depth_m":43.7}},{"type":"Feature","geometry":{"type":"Point","coordinates":[-117.20155,32.37985]},"properties":{"depth_ft":143,"depth_m":43.6}},{"type":"Feature","geometry":{"type":"Point","coordinates":[-117.19598,32.37985]},"properties":{"depth_ft":132,"depth_m":40.2}},{"type":"Feature","geometry":{"type":"Point","coordinates":[-117.24608,32.37515]},"properties":{"depth_ft":243,"depth_m":74.1}},{"type":"Feature","geometry":{"type":"Point","coordinates":[-117.24052,32.37515]},"properties":{"depth_ft":113,"depth_m":34.6}},{"type":"Feature","geometry":{"type":"Point","coordinates":[-117.23495,32.37515]},"properties":{"depth_ft":80,"depth_m":24.5}},{"type":"Feature","geometry":{"type":"Point","coordinates":[-117.22938,32.37515]},"properties":{"depth_ft":85,"depth_m":26.0}},{"type":"Feature","geometry":{"type":"Point","coordinates":[-117.22381,32.37515]},"properties":{"depth_ft":74,"depth_m":22.6}},{"type":"Feature","geometry":{"type":"Point","coordinates":[-117.21825,32.37515]},"properties":{"depth_ft":84,"depth_m":25.5}},{"type":"Feature","geometry":{"type":"Point","coordinates":[-117.21268,32.37515]},"properties":{"depth_ft":126,"depth_m":38.4}},{"type":"Feature","geometry":{"type":"Point","coordinates":[-117.20711,32.37515]},"properties":{"depth_ft":144,"depth_m":44.0}},{"type":"Feature","geometry":{"type":"Point","coordinates":[-117.20155,32.37515]},"properties":{"depth_ft":148,"depth_m":45.2}},{"type":"Feature","geometry":{"type":"Point","coordinates":[-117.19598,32.37515]},"properties":{"depth_ft":131,"depth_m":39.9}},{"type":"Feature","geometry":{"type":"Point","coordinates":[-117.24052,32.37045]},"properties":{"depth_ft":154,"depth_m":46.8}},{"type":"Feature","geometry":{"type":"Point","coordinates":[-117.23495,32.37045]},"properties":{"depth_ft":86,"depth_m":26.1}},{"type":"Feature","geometry":{"type":"Point","coordinates":[-117.22938,32.37045]},"properties":{"depth_ft":85,"depth_m":25.9}},{"type":"Feature","geometry":{"type":"Point","coordinates":[-117.22381,32.37045]},"properties":{"depth_ft":65,"depth_m":19.8}},{"type":"Feature","geometry":{"type":"Point","coordinates":[-117.21825,32.37045]},"properties":{"depth_ft":71,"depth_m":21.5}},{"type":"Feature","geometry":{"type":"Point","coordinates":[-117.21268,32.37045]},"properties":{"depth_ft":113,"depth_m":34.3}},{"type":"Feature","geometry":{"type":"Point","coordinates":[-117.20711,32.37045]},"properties":{"depth_ft":138,"depth_m":41.9}},{"type":"Feature","geometry":{"type":"Point","coordinates":[-117.20155,32.37045]},"properties":{"depth_ft":148,"depth_m":45.1}},{"type":"Feature","geometry":{"type":"Point","coordinates":[-117.19598,32.37045]},"properties":{"depth_ft":148,"depth_m":45.3}},{"type":"Feature","geometry":{"type":"Point","coordinates":[-117.24052,32.36575]},"properties":{"depth_ft":189,"depth_m":57.5}},{"type":"Feature","geometry":{"type":"Point","coordinates":[-117.23495,32.36575]},"properties":{"depth_ft":100,"depth_m":30.6}},{"type":"Feature","geometry":{"type":"Point","coordinates":[-117.22938,32.36575]},"properties":{"depth_ft":77,"depth_m":23.3}},{"type":"Feature","geometry":{"type":"Point","coordinates":[-117.22381,32.36575]},"properties":{"depth_ft":45,"depth_m":13.8}},{"type":"Feature","geometry":{"type":"Point","coordinates":[-117.21825,32.36575]},"properties":{"depth_ft":49,"depth_m":14.8}},{"type":"Feature","geometry":{"type":"Point","coordinates":[-117.21268,32.36575]},"properties":{"depth_ft":101,"depth_m":30.8}},{"type":"Feature","geometry":{"type":"Point","coordinates":[-117.20711,32.36575]},"properties":{"depth_ft":131,"depth_m":39.8}},{"type":"Feature","geometry":{"type":"Point","coordinates":[-117.20155,32.36575]},"properties":{"depth_ft":140,"depth_m":42.7}},{"type":"Feature","geometry":{"type":"Point","coordinates":[-117.19598,32.36575]},"properties":{"depth_ft":117,"depth_m":35.5}},{"type":"Feature","geometry":{"type":"Point","coordinates":[-117.24052,32.36105]},"properties":{"depth_ft":208,"depth_m":63.4}},{"type":"Feature","geometry":{"type":"Point","coordinates":[-117.23495,32.36105]},"properties":{"depth_ft":110,"depth_m":33.4}},{"type":"Feature","geometry":{"type":"Point","coordinates":[-117.22938,32.36105]},"properties":{"depth_ft":83,"depth_m":25.4}},{"type":"Feature","geometry":{"type":"Point","coordinates":[-117.22381,32.36105]},"properties":{"depth_ft":43,"depth_m":13.2}},{"type":"Feature","geometry":{"type":"Point","coordinates":[-117.21825,32.36105]},"properties":{"depth_ft":45,"depth_m":13.6}},{"type":"Feature","geometry":{"type":"Point","coordinates":[-117.21268,32.36105]},"properties":{"depth_ft":106,"depth_m":32.4}},{"type":"Feature","geometry":{"type":"Point","coordinates":[-117.20711,32.36105]},"properties":{"depth_ft":134,"depth_m":40.8}},{"type":"Feature","geometry":{"type":"Point","coordinates":[-117.20155,32.36105]},"properties":{"depth_ft":145,"depth_m":44.3}},{"type":"Feature","geometry":{"type":"Point","coordinates":[-117.19598,32.36105]},"properties":{"depth_ft":156,"depth_m":47.5}},{"type":"Feature","geometry":{"type":"Point","coordinates":[-117.24052,32.35635]},"properties":{"depth_ft":236,"depth_m":72.0}},{"type":"Feature","geometry":{"type":"Point","coordinates":[-117.23495,32.35635]},"properties":{"depth_ft":110,"depth_m":33.5}},{"type":"Feature","geometry":{"type":"Point","coordinates":[-117.22938,32.35635]},"properties":{"depth_ft":101,"depth_m":30.7}},{"type":"Feature","geometry":{"type":"Point","coordinates":[-117.22381,32.35635]},"properties":{"depth_ft":64,"depth_m":19.6}},{"type":"Feature","geometry":{"type":"Point","coordinates":[-117.21825,32.35635]},"properties":{"depth_ft":68,"depth_m":20.8}},{"type":"Feature","geometry":{"type":"Point","coordinates":[-117.21268,32.35635]},"properties":{"depth_ft":127,"depth_m":38.7}},{"type":"Feature","geometry":{"type":"Point","coordinates":[-117.20711,32.35635]},"properties":{"depth_ft":143,"depth_m":43.7}},{"type":"Feature","geometry":{"type":"Point","coordinates":[-117.20155,32.35635]},"properties":{"depth_ft":147,"depth_m":44.7}},{"type":"Feature","geometry":{"type":"Point","coordinates":[-117.19598,32.35635]},"properties":{"depth_ft":155,"depth_m":47.2}},{"type":"Feature","geometry":{"type":"Point","coordinates":[-117.24052,32.35165]},"properties":{"depth_ft":304,"depth_m":92.6}},{"type":"Feature","geometry":{"type":"Point","coordinates":[-117.23495,32.35165]},"properties":{"depth_ft":118,"depth_m":36.1}},{"type":"Feature","geometry":{"type":"Point","coordinates":[-117.22938,32.35165]},"properties":{"depth_ft":99,"depth_m":30.1}},{"type":"Feature","geometry":{"type":"Point","coordinates":[-117.22381,32.35165]},"properties":{"depth_ft":61,"depth_m":18.7}},{"type":"Feature","geometry":{"type":"Point","coordinates":[-117.21825,32.35165]},"properties":{"depth_ft":74,"depth_m":22.5}},{"type":"Feature","geometry":{"type":"Point","coordinates":[-117.21268,32.35165]},"properties":{"depth_ft":142,"depth_m":43.2}},{"type":"Feature","geometry":{"type":"Point","coordinates":[-117.20711,32.35165]},"properties":{"depth_ft":152,"depth_m":46.4}},{"type":"Feature","geometry":{"type":"Point","coordinates":[-117.20155,32.35165]},"properties":{"depth_ft":146,"depth_m":44.6}},{"type":"Feature","geometry":{"type":"Point","coordinates":[-117.19598,32.35165]},"properties":{"depth_ft":150,"depth_m":45.8}},{"type":"Feature","geometry":{"type":"Point","coordinates":[-117.23495,32.34695]},"properties":{"depth_ft":149,"depth_m":45.5}},{"type":"Feature","geometry":{"type":"Point","coordinates":[-117.22938,32.34695]},"properties":{"depth_ft":94,"depth_m":28.6}},{"type":"Feature","geometry":{"type":"Point","coordinates":[-117.22381,32.34695]},"properties":{"depth_ft":31,"depth_m":9.5}},{"type":"Feature","geometry":{"type":"Point","coordinates":[-117.21825,32.34695]},"properties":{"depth_ft":51,"depth_m":15.4}},{"type":"Feature","geometry":{"type":"Point","coordinates":[-117.21268,32.34695]},"properties":{"depth_ft":146,"depth_m":44.4}},{"type":"Feature","geometry":{"type":"Point","coordinates":[-117.20711,32.34695]},"properties":{"depth_ft":156,"depth_m":47.5}},{"type":"Feature","geometry":{"type":"Point","coordinates":[-117.20155,32.34695]},"properties":{"depth_ft":146,"depth_m":44.6}},{"type":"Feature","geometry":{"type":"Point","coordinates":[-117.19598,32.34695]},"properties":{"depth_ft":148,"depth_m":45.2}}]}