{"type":"FeatureCollection","features":[{"type":"Feature","geometry":{"type":"Polygon","coordinates":[[[-115.30722,28.14706],[-115.30442,28.15029],[-115.29985,28.15511],[-115.29817,28.15716],[-115.29375,28.16166],[-115.29323,28.16232],[-115.29301,28.16289],[-115.29223,28.16327],[-115.29156,28.16394],[-115.28799,28.16779],[-115.28616,28.17006],[-115.28226,28.17417],[-115.28083,28.17603],[-115.28071,28.17688],[-115.28103,28.17733],[-115.28008,28.17734],[-115.27963,28.17777],[-115.27957,28.17831],[-115.27999,28.17874],[-115.27883,28.17889],[-115.27808,28.1802],[-115.27754,28.18062],[-115.27715,28.18143],[-115.27627,28.18182],[-115.27589,28.18223],[-115.27539,28.18359],[-115.27544,28.18494],[-115.27503,28.18501],[-115.27491,28.18556],[-115.27428,28.1857],[-115.27407,28.1862],[-115.27367,28.18621],[-115.27378,28.18652],[-115.27363,28.18669],[-115.27265,28.18658],[-115.27204,28.18688],[-115.27196,28.18718],[-115.27249,28.18769],[-115.27234,28.18794],[-115.27204,28.18799],[-115.27149,28.18754],[-115.27148,28.18785],[-115.27102,28.18811],[-115.2707,28.18791],[-115.27037,28.18811],[-115.27017,28.18889],[-115.27081,28.18996],[-115.26959,28.19087],[-115.2685,28.19068],[-115.2682,28.19078],[-115.26808,28.19113],[-115.2685,28.19144],[-115.26831,28.19193],[-115.26759,28.19221],[-115.26732,28.19253],[-115.26671,28.19264],[-115.26647,28.19317],[-115.26611,28.19325],[-115.26596,28.19359],[-115.26559,28.19382],[-115.26572,28.19413],[-115.2655,28.19442],[-115.26467,28.19465],[-115.26454,28.19511],[-115.26512,28.1954],[-115.26501,28.19585],[-115.26461,28.19646],[-115.26376,28.19695],[-115.2633,28.1978],[-115.2634,28.19861],[-115.26289,28.19864],[-115.26225,28.19895],[-115.26147,28.19882],[-115.26101,28.19927],[-115.26039,28.19939],[-115.25898,28.20041],[-115.25676,28.20264],[-115.25581,28.20399],[-115.25567,28.2045],[-115.25591,28.20529],[-115.25577,28.20582],[-115.25558,28.2058],[-115.25508,28.20503],[-115.25399,28.20566],[-115.25191,28.20914],[-115.25084,28.20997],[-115.25005,28.21148],[-115.24891,28.21275],[-115.24619,28.21642],[-115.24306,28.22106],[-115.24278,28.22195],[-115.2428,28.22301],[-115.24308,28.22347],[-115.24387,28.22405],[-115.24426,28.22509],[-115.24441,28.22611],[-115.24472,28.22654],[-115.24448,28.22672],[-115.244,28.22665],[-115.24428,28.2274],[-115.24395,28.22758],[-115.2428,28.22766],[-115.2417,28.22677],[-115.24129,28.22667],[-115.24021,28.22728],[-115.23879,28.23037],[-115.23802,28.23159],[-115.23798,28.23195],[-115.23837,28.23287],[-115.23941,28.23431],[-115.23955,28.23479],[-115.24081,28.23504],[-115.24066,28.23566],[-115.24036,28.23604],[-115.24064,28.23655],[-115.24017,28.23684],[-115.24028,28.23714],[-115.2407,28.23724],[-115.2407,28.23754],[-115.2405,28.23767],[-115.24078,28.23803],[-115.24065,28.23869],[-115.24043,28.23901],[-115.24081,28.23957],[-115.24068,28.23981],[-115.24102,28.23981],[-115.24136,28.24021],[-115.24113,28.24032],[-115.24128,28.24063],[-115.24204,28.2409],[-115.2426,28.2414],[-115.24303,28.2414],[-115.2435,28.2418],[-115.24392,28.24184],[-115.24359,28.24193],[-115.24437,28.24261],[-115.24429,28.24302],[-115.24471,28.24302],[-115.24519,28.2434],[-115.24532,28.24372],[-115.24505,28.24396],[-115.24547,28.24436],[-115.2453,28.24452],[-115.24542,28.24474],[-115.24513,28.24491],[-115.24536,28.24514],[-115.24527,28.24544],[-115.24563,28.24559],[-115.24564,28.24601],[-115.24623,28.24736],[-115.24721,28.24821],[-115.24735,28.24884],[-115.24789,28.24915],[-115.24772,28.24935],[-115.24801,28.2497],[-115.24788,28.25002],[-115.24846,28.25014],[-115.24826,28.25047],[-115.2476,28.2504],[-115.24774,28.25074],[-115.24823,28.25093],[-115.24814,28.2511],[-115.24772,28.25111],[-115.2477,28.25129],[-115.24811,28.25154],[-115.24793,28.25158],[-115.24803,28.25174],[-115.24893,28.25207],[-115.24895,28.2525],[-115.24945,28.2527],[-115.24986,28.25311],[-115.2495,28.25325],[-115.24895,28.25317],[-115.2492,28.25366],[-115.24864,28.25376],[-115.24959,28.25388],[-115.24993,28.25446],[-115.24988,28.25485],[-115.25035,28.25494],[-115.25022,28.25517],[-115.25076,28.25556],[-115.25121,28.25561],[-115.2514,28.25597],[-115.25214,28.25653],[-115.25228,28.25712],[-115.25258,28.25721],[-115.25274,28.25745],[-115.25256,28.25858],[-115.25231,28.25891],[-115.25289,28.26004],[-115.25265,28.26023],[-115.2527,28.26037],[-115.25369,28.26134],[-115.25335,28.26122],[-115.25318,28.26164],[-115.25294,28.26165],[-115.25285,28.26202],[-115.25311,28.26198],[-115.25322,28.26239],[-115.25346,28.26249],[-115.25325,28.2626],[-115.25332,28.26289],[-115.25304,28.26302],[-115.25354,28.26361],[-115.25319,28.26368],[-115.25334,28.26409],[-115.25276,28.26437],[-115.25354,28.26463],[-115.25326,28.26476],[-115.25305,28.26466],[-115.25298,28.26489],[-115.25261,28.26495],[-115.25374,28.26582],[-115.25374,28.26608],[-115.25404,28.26652],[-115.25333,28.26678],[-115.25352,28.26704],[-115.25328,28.26728],[-115.2536,28.26733],[-115.25328,28.26739],[-115.25328,28.26751],[-115.25388,28.26777],[-115.25386,28.26817],[-115.25424,28.26829],[-115.25421,28.26871],[-115.25378,28.26887],[-115.25374,28.26914],[-115.25403,28.26957],[-115.25491,28.26996],[-115.25485,28.27012],[-115.2552,28.27032],[-115.2553,28.27073],[-115.2559,28.27099],[-115.25631,28.27139],[-115.25603,28.27182],[-115.25637,28.2719],[-115.25671,28.27244],[-115.25725,28.27261],[-115.25721,28.27274],[-115.25685,28.27275],[-115.25685,28.27312],[-115.25753,28.27327],[-115.25769,28.27357],[-115.25778,28.27458],[-115.25707,28.27486],[-115.25729,28.27551],[-115.25677,28.27529],[-115.2569,28.27582],[-115.25642,28.27599],[-115.25692,28.27609],[-115.25636,28.27618],[-115.25635,28.27657],[-115.25601,28.27659],[-115.25682,28.27724],[-115.25582,28.27745],[-115.25541,28.27737],[-115.25596,28.27773],[-115.25599,28.27805],[-115.25626,28.27824],[-115.25578,28.27826],[-115.25552,28.27808],[-115.25545,28.27836],[-115.25587,28.27866],[-115.25553,28.27928],[-115.25499,28.27931],[-115.25506,28.27983],[-115.2548,28.28016],[-115.25502,28.28035],[-115.25472,28.28034],[-115.25502,28.28076],[-115.25465,28.28084],[-115.25513,28.28133],[-115.25482,28.2814],[-115.25535,28.28191],[-115.2551,28.28195],[-115.25419,28.28153],[-115.25397,28.28161],[-115.25458,28.28217],[-115.25527,28.28252],[-115.25545,28.28295],[-115.25464,28.28316],[-115.25381,28.28299],[-115.25375,28.28315],[-115.25403,28.28337],[-115.25357,28.28333],[-115.25361,28.28369],[-115.25345,28.28376],[-115.25355,28.28387],[-115.25443,28.28384],[-115.25469,28.28413],[-115.25414,28.28395],[-115.2543,28.28428],[-115.25398,28.28418],[-115.25364,28.28436],[-115.25381,28.28448],[-115.25371,28.2847],[-115.25411,28.28498],[-115.25359,28.28516],[-115.25386,28.286],[-115.25373,28.28633],[-115.25412,28.28638],[-115.25441,28.28661],[-115.25436,28.28686],[-115.2546,28.28702],[-115.25463,28.28758],[-115.2558,28.28726],[-115.25605,28.28742],[-115.25607,28.28768],[-115.25628,28.2876],[-115.25657,28.28784],[-115.25692,28.28858],[-115.25695,28.28897],[-115.25777,28.28987],[-115.25757,28.29046],[-115.25771,28.29064],[-115.25736,28.2907],[-115.25727,28.29086],[-115.25792,28.29084],[-115.25821,28.29107],[-115.25914,28.2912],[-115.25943,28.29147],[-115.26062,28.29177],[-115.26095,28.29204],[-115.26045,28.29254],[-115.26047,28.2927],[-115.2607,28.29275],[-115.26097,28.29256],[-115.26134,28.29263],[-115.26154,28.29324],[-115.26218,28.29307],[-115.26222,28.29338],[-115.2634,28.29341],[-115.26346,28.29371],[-115.26383,28.29375],[-115.264,28.29402],[-115.26427,28.294],[-115.26391,28.29445],[-115.26255,28.29441],[-115.2619,28.29462],[-115.26076,28.29416],[-115.26093,28.29447],[-115.26167,28.29491],[-115.26162,28.29522],[-115.26197,28.29514],[-115.26191,28.29537],[-115.26237,28.29531],[-115.26075,28.29581],[-115.26121,28.29588],[-115.26119,28.29601],[-115.26068,28.29596],[-115.26168,28.29619],[-115.2616,28.29663],[-115.26207,28.29694],[-115.26179,28.29724],[-115.26242,28.29717],[-115.26169,28.2975],[-115.26118,28.29737],[-115.26133,28.29764],[-115.26071,28.29818],[-115.26082,28.29843],[-115.26127,28.29857],[-115.2613,28.29883],[-115.26088,28.2987],[-115.26086,28.29886],[-115.26064,28.2989],[-115.26064,28.29912],[-115.2608,28.29933],[-115.26195,28.2996],[-115.26179,28.2999],[-115.26226,28.30006],[-115.26226,28.30026],[-115.26149,28.30049],[-115.26075,28.30048],[-115.26044,28.30074],[-115.25992,28.3005],[-115.25982,28.30079],[-115.25934,28.30056],[-115.25907,28.30076],[-115.25871,28.30051],[-115.25859,28.30004],[-115.25757,28.299],[-115.25707,28.29893],[-115.25669,28.29929],[-115.25663,28.29959],[-115.25721,28.3004],[-115.2573,28.30079],[-115.257,28.30081],[-115.25739,28.3012],[-115.25745,28.30175],[-115.25723,28.30175],[-115.25721,28.30217],[-115.2569,28.30222],[-115.25668,28.30193],[-115.25634,28.30233],[-115.2564,28.30274],[-115.25662,28.30294],[-115.25684,28.30296],[-115.25713,28.30271],[-115.25708,28.30337],[-115.2569,28.30341],[-115.25682,28.3031],[-115.25661,28.30311],[-115.25621,28.30335],[-115.25613,28.30357],[-115.25694,28.30426],[-115.25694,28.30449],[-115.25656,28.30463],[-115.25613,28.30402],[-115.25554,28.30413],[-115.25473,28.30352],[-115.25446,28.30435],[-115.25422,28.30411],[-115.25366,28.30395],[-115.25408,28.30485],[-115.25372,28.30497],[-115.25387,28.30516],[-115.25358,28.30518],[-115.25373,28.30538],[-115.25332,28.30548],[-115.25369,28.30575],[-115.25353,28.3067],[-115.25435,28.30704],[-115.25435,28.30769],[-115.25417,28.30787],[-115.25437,28.30807],[-115.25438,28.30845],[-115.25396,28.30866],[-115.25413,28.30933],[-115.25443,28.30972],[-115.25437,28.3099],[-115.25475,28.30997],[-115.25499,28.3102],[-115.25505,28.31055],[-115.2549,28.31087],[-115.25443,28.3111],[-115.25404,28.31082],[-115.25384,28.3113],[-115.25332,28.31158],[-115.2526,28.31121],[-115.25216,28.31129],[-115.25137,28.31099],[-115.25103,28.31129],[-115.25037,28.31137],[-115.2497,28.31122],[-115.24914,28.31184],[-115.24924,28.3127],[-115.24909,28.31464],[-115.24858,28.3152],[-115.24778,28.31542],[-115.24761,28.31576],[-115.24763,28.31603],[-115.24806,28.31644],[-115.24795,28.3168],[-115.24831,28.31689],[-115.24817,28.31726],[-115.24887,28.31757],[-115.24885,28.31786],[-115.24854,28.31808],[-115.24915,28.31853],[-115.2489,28.31883],[-115.24905,28.31899],[-115.24895,28.3192],[-115.24785,28.31917],[-115.24781,28.31928],[-115.24832,28.31946],[-115.24748,28.31953],[-115.24726,28.3198],[-115.24765,28.31993],[-115.24761,28.32012],[-115.24801,28.32032],[-115.24807,28.32057],[-115.24798,28.32075],[-115.24761,28.32076],[-115.24734,28.32147],[-115.2468,28.3221],[-115.24712,28.32305],[-115.24696,28.32362],[-115.24726,28.32397],[-115.24717,28.32422],[-115.2475,28.32473],[-115.24713,28.32475],[-115.24783,28.32544],[-115.24765,28.32627],[-115.24833,28.32628],[-115.24851,28.32652],[-115.24891,28.32636],[-115.24928,28.32682],[-115.24904,28.32709],[-115.24863,28.32722],[-115.24787,28.32687],[-115.24778,28.3266],[-115.24758,28.3266],[-115.24744,28.32711],[-115.24773,28.32776],[-115.24723,28.32757],[-115.24701,28.32794],[-115.24733,28.32811],[-115.24722,28.32837],[-115.24739,28.32864],[-115.24788,28.32881],[-115.24735,28.32878],[-115.2467,28.3285],[-115.24602,28.32856],[-115.24571,28.32909],[-115.2461,28.32949],[-115.24589,28.32963],[-115.24643,28.32982],[-115.24644,28.33003],[-115.24668,28.33003],[-115.24623,28.3304],[-115.24645,28.33059],[-115.24654,28.33106],[-115.24704,28.3313],[-115.24676,28.33141],[-115.24681,28.33167],[-115.24746,28.33197],[-115.24785,28.33249],[-115.24862,28.3326],[-115.24846,28.33289],[-115.248,28.33293],[-115.24802,28.33324],[-115.24845,28.33333],[-115.24803,28.33344],[-115.24819,28.3336],[-115.24805,28.33379],[-115.24821,28.33409],[-115.24843,28.33422],[-115.24891,28.33408],[-115.2493,28.33429],[-115.24825,28.33453],[-115.24835,28.33473],[-115.24819,28.33488],[-115.24872,28.33487],[-115.2484,28.33507],[-115.248,28.33508],[-115.24797,28.33527],[-115.24844,28.3357],[-115.24912,28.33584],[-115.24938,28.33606],[-115.24964,28.33593],[-115.25007,28.33609],[-115.25056,28.33663],[-115.25081,28.33639],[-115.25098,28.3366],[-115.2514,28.33652],[-115.2512,28.33709],[-115.25051,28.33711],[-115.25074,28.33736],[-115.25027,28.33796],[-115.25011,28.33853],[-115.25015,28.33898],[-115.25049,28.33943],[-115.25043,28.3397],[-115.25009,28.3396],[-115.24967,28.3399],[-115.24917,28.33984],[-115.2488,28.33972],[-115.24862,28.33948],[-115.24828,28.33961],[-115.24805,28.3393],[-115.24758,28.33951],[-115.24766,28.3399],[-115.24736,28.33998],[-115.24746,28.34031],[-115.24732,28.34048],[-115.24687,28.34076],[-115.24641,28.34071],[-115.24609,28.3409],[-115.24567,28.34045],[-115.24568,28.34009],[-115.24491,28.34039],[-115.24466,28.34026],[-115.24464,28.34004],[-115.24445,28.34016],[-115.24434,28.33994],[-115.24434,28.34034],[-115.24408,28.34068],[-115.24362,28.34062],[-115.2431,28.34016],[-115.24271,28.34028],[-115.24259,28.3405],[-115.2428,28.34118],[-115.24247,28.34125],[-115.24183,28.34103],[-115.24186,28.34122],[-115.24014,28.34186],[-115.24005,28.34203],[-115.24018,28.34228],[-115.23956,28.34237],[-115.24048,28.34347],[-115.24033,28.34381],[-115.23993,28.3439],[-115.23992,28.34405],[-115.2408,28.34429],[-115.2407,28.34469],[-115.24099,28.34475],[-115.2409,28.34508],[-115.24119,28.34539],[-115.24155,28.34544],[-115.24159,28.34571],[-115.24222,28.34588],[-115.24221,28.34631],[-115.24188,28.34631],[-115.24116,28.34673],[-115.24131,28.34691],[-115.24118,28.34734],[-115.24075,28.34798],[-115.24104,28.3488],[-115.24201,28.34902],[-115.24143,28.34938],[-115.24139,28.34986],[-115.2424,28.3509],[-115.24282,28.3511],[-115.24372,28.35112],[-115.24425,28.35079],[-115.24434,28.35104],[-115.24474,28.35092],[-115.24561,28.35125],[-115.24586,28.35221],[-115.24563,28.35264],[-115.24566,28.35313],[-115.24684,28.35418],[-115.24629,28.3543],[-115.24598,28.35371],[-115.2457,28.35416],[-115.24547,28.35415],[-115.24532,28.35391],[-115.24546,28.35365],[-115.24511,28.35362],[-115.24458,28.35298],[-115.24425,28.35316],[-115.24401,28.35307],[-115.24359,28.35352],[-115.24304,28.35276],[-115.24257,28.35268],[-115.24288,28.35327],[-115.24275,28.35344],[-115.24251,28.35335],[-115.24204,28.35404],[-115.24219,28.35441],[-115.24183,28.35502],[-115.24205,28.35531],[-115.242,28.35551],[-115.24109,28.35581],[-115.24078,28.3553],[-115.23996,28.35483],[-115.23962,28.35485],[-115.23947,28.35509],[-115.23934,28.35637],[-115.23862,28.35678],[-115.23842,28.35734],[-115.23862,28.35859],[-115.2384,28.35874],[-115.23762,28.35856],[-115.23698,28.35886],[-115.23702,28.35923],[-115.23765,28.3594],[-115.2377,28.35956],[-115.23699,28.35989],[-115.23683,28.36028],[-115.2366,28.36001],[-115.23613,28.36023],[-115.23574,28.3601],[-115.23584,28.36115],[-115.23514,28.36134],[-115.23497,28.36163],[-115.23433,28.36183],[-115.23389,28.3616],[-115.234,28.36115],[-115.23365,28.36152],[-115.23327,28.36148],[-115.23313,28.36185],[-115.2329,28.36186],[-115.2328,28.36219],[-115.23248,28.3624],[-115.23216,28.36223],[-115.23117,28.36224],[-115.23087,28.36207],[-115.22929,28.36256],[-115.22898,28.36321],[-115.22902,28.36363],[-115.22916,28.36381],[-115.22984,28.36399],[-115.23,28.36479],[-115.2292,28.36463],[-115.22955,28.3651],[-115.22901,28.365],[-115.22924,28.3654],[-115.22876,28.36541],[-115.22914,28.36578],[-115.22874,28.36569],[-115.22829,28.36597],[-115.22827,28.36621],[-115.2289,28.36644],[-115.22961,28.36733],[-115.23041,28.36762],[-115.23045,28.36834],[-115.23082,28.36815],[-115.23068,28.36873],[-115.23107,28.36896],[-115.23116,28.36941],[-115.23074,28.37031],[-115.2295,28.37089],[-115.2295,28.37163],[-115.22908,28.37248],[-115.2286,28.37257],[-115.22802,28.37206],[-115.22731,28.37277],[-115.22693,28.37287],[-115.22669,28.3727],[-115.22655,28.37221],[-115.22614,28.37212],[-115.22579,28.37239],[-115.22571,28.37321],[-115.22557,28.3734],[-115.22464,28.37332],[-115.22431,28.37402],[-115.22353,28.37404],[-115.22294,28.37431],[-115.223,28.37528],[-115.22322,28.37564],[-115.22246,28.37645],[-115.2218,28.37667],[-115.22149,28.37615],[-115.22052,28.37625],[-115.22001,28.376],[-115.21909,28.37695],[-115.21823,28.37698],[-115.21814,28.37771],[-115.21762,28.37765],[-115.21733,28.37727],[-115.21696,28.37774],[-115.21644,28.37774],[-115.21615,28.37707],[-115.21528,28.37685],[-115.21491,28.37644],[-115.21495,28.37585],[-115.21449,28.37598],[-115.21429,28.37543],[-115.2139,28.37569],[-115.21374,28.37541],[-115.21311,28.37548],[-115.21301,28.37497],[-115.21263,28.37508],[-115.21265,28.37462],[-115.21302,28.3744],[-115.21262,28.3743],[-115.21306,28.37407],[-115.21258,28.374],[-115.21305,28.37325],[-115.21308,28.37266],[-115.21214,28.37286],[-115.212,28.37218],[-115.21131,28.37237],[-115.21097,28.37217],[-115.2109,28.37249],[-115.21068,28.37221],[-115.21044,28.37237],[-115.21002,28.37228],[-115.20986,28.37136],[-115.20969,28.37126],[-115.20948,28.37135],[-115.20888,28.37226],[-115.20854,28.37192],[-115.20813,28.37323],[-115.20801,28.37287],[-115.20757,28.37325],[-115.20725,28.37297],[-115.20674,28.37297],[-115.20674,28.37238],[-115.2065,28.37219],[-115.2065,28.3716],[-115.20665,28.37136],[-115.20639,28.37133],[-115.20658,28.37042],[-115.20622,28.37011],[-115.2065,28.36987],[-115.20625,28.36984],[-115.20631,28.36953],[-115.20667,28.36917],[-115.20629,28.36919],[-115.20645,28.36888],[-115.20622,28.36883],[-115.20597,28.36757],[-115.20602,28.36732],[-115.20631,28.36709],[-115.20633,28.36658],[-115.20523,28.3656],[-115.20451,28.36534],[-115.2045,28.36502],[-115.20421,28.36508],[-115.20428,28.36475],[-115.2041,28.36452],[-115.20331,28.3643],[-115.20266,28.36438],[-115.20193,28.36474],[-115.2015,28.36465],[-115.20132,28.36518],[-115.20122,28.36483],[-115.20104,28.36534],[-115.20061,28.36581],[-115.20045,28.36562],[-115.20063,28.36527],[-115.20044,28.36496],[-115.20021,28.3647],[-115.19973,28.36458],[-115.19865,28.36478],[-115.19834,28.36515],[-115.19832,28.36492],[-115.19815,28.36488],[-115.19772,28.36541],[-115.19802,28.36433],[-115.19789,28.36431],[-115.19764,28.36469],[-115.19753,28.36447],[-115.19793,28.36392],[-115.19798,28.36356],[-115.19732,28.36327],[-115.19744,28.36224],[-115.19732,28.36193],[-115.19603,28.361],[-115.19554,28.36104],[-115.19519,28.36147],[-115.19483,28.36155],[-115.19426,28.36116],[-115.19456,28.36083],[-115.19477,28.35911],[-115.19513,28.35841],[-115.19462,28.35752],[-115.19379,28.35694],[-115.19403,28.35565],[-115.19387,28.35431],[-115.19445,28.35335],[-115.19457,28.35192],[-115.19514,28.35135],[-115.19529,28.35039],[-115.19513,28.34983],[-115.19586,28.34854],[-115.19594,28.34806],[-115.19581,28.34725],[-115.19469,28.34453],[-115.1941,28.34367],[-115.19404,28.34322],[-115.19447,28.34208],[-115.19441,28.34092],[-115.1948,28.33989],[-115.19562,28.33896],[-115.19586,28.33831],[-115.19579,28.33694],[-115.19613,28.33545],[-115.19536,28.33255],[-115.19425,28.33107],[-115.19309,28.33008],[-115.19271,28.32942],[-115.19266,28.32785],[-115.19185,28.32687],[-115.19158,28.32588],[-115.19103,28.32485],[-115.19126,28.32387],[-115.19122,28.3232],[-115.18995,28.321],[-115.1883,28.31886],[-115.18653,28.31506],[-115.1856,28.31442],[-115.18524,28.31373],[-115.18395,28.31295],[-115.18043,28.3119],[-115.18006,28.312],[-115.17951,28.31185],[-115.17906,28.31164],[-115.17812,28.31077],[-115.17755,28.31069],[-115.17665,28.31017],[-115.17644,28.30961],[-115.17602,28.30917],[-115.17593,28.30846],[-115.17418,28.30614],[-115.17478,28.30482],[-115.17483,28.30397],[-115.17463,28.30299],[-115.17506,28.30216],[-115.17511,28.30068],[-115.1757,28.29994],[-115.17587,28.29931],[-115.17591,28.29808],[-115.17556,28.29654],[-115.17531,28.29611],[-115.17531,28.29577],[-115.17511,28.29563],[-115.1752,28.29514],[-115.17494,28.29486],[-115.17523,28.2947],[-115.1753,28.29447],[-115.17425,28.29226],[-115.17373,28.29149],[-115.17378,28.28962],[-115.17398,28.28913],[-115.17345,28.28756],[-115.17263,28.2867],[-115.17206,28.28577],[-115.17055,28.28484],[-115.17014,28.2842],[-115.17017,28.2837],[-115.17099,28.28263],[-115.1711,28.28203],[-115.17101,28.28131],[-115.17,28.27813],[-115.16855,28.27576],[-115.16746,28.27461],[-115.16727,28.27281],[-115.16556,28.26958],[-115.16542,28.26872],[-115.16589,28.26534],[-115.16584,28.26456],[-115.16553,28.26368],[-115.16405,28.26125],[-115.16381,28.2604],[-115.16572,28.25658],[-115.16628,28.25511],[-115.16722,28.25154],[-115.16743,28.24896],[-115.16945,28.24542],[-115.17028,28.24303],[-115.17033,28.2403],[-115.17099,28.23861],[-115.17143,28.2369],[-115.17146,28.23612],[-115.17183,28.23532],[-115.17181,28.23425],[-115.17145,28.23209],[-115.1715,28.23125],[-115.17222,28.23062],[-115.17246,28.23013],[-115.17329,28.22612],[-115.173,28.22326],[-115.17352,28.22235],[-115.17331,28.22055],[-115.17362,28.22003],[-115.17374,28.21941],[-115.1732,28.21659],[-115.1736,28.21583],[-115.17363,28.21485],[-115.17319,28.21267],[-115.17268,28.21107],[-115.17249,28.20933],[-115.17033,28.2053],[-115.17028,28.20363],[-115.16996,28.20266],[-115.16842,28.20051],[-115.16586,28.19776],[-115.16453,28.19664],[-115.16358,28.19521],[-115.16241,28.19426],[-115.16046,28.19301],[-115.15993,28.19216],[-115.15993,28.19158],[-115.16044,28.18937],[-115.1604,28.18805],[-115.16009,28.18635],[-115.15951,28.18538],[-115.15924,28.18526],[-115.15934,28.18511],[-115.15913,28.18456],[-115.15871,28.18434],[-115.15901,28.1838],[-115.15877,28.18334],[-115.15842,28.18311],[-115.15858,28.18244],[-115.15811,28.18199],[-115.15706,28.17986],[-115.15655,28.17945],[-115.15714,28.17873],[-115.15741,28.17782],[-115.15785,28.17751],[-115.15787,28.17707],[-115.15842,28.17676],[-115.15854,28.17594],[-115.15817,28.17298],[-115.15792,28.17224],[-115.15801,28.17163],[-115.15773,28.17108],[-115.15803,28.1703],[-115.15781,28.1685],[-115.15684,28.1658],[-115.15703,28.16462],[-115.15761,28.16347],[-115.15771,28.16285],[-115.15805,28.16262],[-115.15803,28.16219],[-115.15829,28.1618],[-115.15858,28.15954],[-115.15829,28.15728],[-115.15935,28.15546],[-115.15948,28.15354],[-115.1601,28.15277],[-115.16004,28.1521],[-115.16037,28.15149],[-115.16025,28.15083],[-115.16067,28.1504],[-115.16023,28.14851],[-115.15826,28.14504],[-115.15799,28.1448],[-115.15776,28.14382],[-115.15778,28.1422],[-115.15928,28.13791],[-115.16213,28.13453],[-115.16267,28.13334],[-115.16322,28.13309],[-115.16467,28.13117],[-115.16911,28.12735],[-115.1696,28.12711],[-115.16976,28.12681],[-115.17269,28.12547],[-115.17446,28.12429],[-115.17499,28.12374],[-115.17548,28.12297],[-115.17655,28.12021],[-115.17724,28.11742],[-115.17867,28.11643],[-115.1818,28.11333],[-115.18265,28.1123],[-115.18453,28.10865],[-115.18451,28.10839],[-115.18473,28.10839],[-115.18517,28.10772],[-115.18558,28.10753],[-115.18584,28.10718],[-115.18636,28.10561],[-115.18655,28.10427],[-115.18636,28.10328],[-115.18661,28.10188],[-115.186,28.09908],[-115.18532,28.09791],[-115.18445,28.09788],[-115.18279,28.09642],[-115.1825,28.09597],[-115.18267,28.09488],[-115.18284,28.09478],[-115.18294,28.09504],[-115.18275,28.09586],[-115.18289,28.09618],[-115.18315,28.09601],[-115.18378,28.09652],[-115.18359,28.09673],[-115.18461,28.09776],[-115.18519,28.09764],[-115.18536,28.09721],[-115.1853,28.09643],[-115.18554,28.09622],[-115.1859,28.09528],[-115.1858,28.09447],[-115.18554,28.09408],[-115.18593,28.09348],[-115.18605,28.0916],[-115.18766,28.09068],[-115.18801,28.08996],[-115.18817,28.0881],[-115.18799,28.086],[-115.18778,28.08494],[-115.18661,28.08209],[-115.18461,28.07801],[-115.18393,28.07725],[-115.18267,28.07489],[-115.18179,28.07162],[-115.18154,28.0695],[-115.18255,28.06806],[-115.18343,28.06724],[-115.18391,28.06614],[-115.18508,28.0652],[-115.1858,28.06396],[-115.18779,28.06197],[-115.1885,28.06095],[-115.18939,28.05867],[-115.18955,28.05518],[-115.18897,28.05209],[-115.18799,28.04967],[-115.18715,28.04806],[-115.18483,28.04444],[-115.18133,28.04102],[-115.18105,28.04056],[-115.18114,28.04033],[-115.1842,28.03867],[-115.18549,28.03713],[-115.18567,28.03648],[-115.18561,28.03587],[-115.18532,28.0356],[-115.18497,28.03585],[-115.18481,28.0355],[-115.18461,28.03552],[-115.18458,28.03539],[-115.18489,28.03527],[-115.18501,28.035],[-115.18444,28.03455],[-115.18492,28.03428],[-115.18491,28.034],[-115.18468,28.03385],[-115.18456,28.03346],[-115.1854,28.03249],[-115.18552,28.03145],[-115.18592,28.03131],[-115.18633,28.03176],[-115.18679,28.0319],[-115.18794,28.03179],[-115.18806,28.03262],[-115.18869,28.03326],[-115.18863,28.03409],[-115.19011,28.03463],[-115.19092,28.03572],[-115.19145,28.03608],[-115.19304,28.03671],[-115.19427,28.03746],[-115.20193,28.03989],[-115.20411,28.03958],[-115.20596,28.0398],[-115.20619,28.03939],[-115.20637,28.03953],[-115.20796,28.03973],[-115.21028,28.03971],[-115.21118,28.03951],[-115.21184,28.03917],[-115.21363,28.03897],[-115.214,28.03854],[-115.21398,28.03788],[-115.21598,28.03692],[-115.2167,28.03586],[-115.21662,28.0354],[-115.2161,28.03506],[-115.21626,28.03477],[-115.216,28.03427],[-115.21625,28.03341],[-115.21643,28.0338],[-115.2172,28.03365],[-115.21763,28.03368],[-115.21779,28.03384],[-115.21792,28.03374],[-115.21785,28.03386],[-115.21761,28.03391],[-115.2178,28.03419],[-115.21743,28.03461],[-115.21769,28.03511],[-115.21795,28.03528],[-115.21831,28.03544],[-115.21868,28.03537],[-115.21882,28.03561],[-115.21931,28.03572],[-115.22097,28.03568],[-115.22326,28.03466],[-115.22351,28.03422],[-115.22405,28.03393],[-115.22415,28.03324],[-115.22474,28.03273],[-115.22524,28.0319],[-115.22428,28.03139],[-115.22415,28.03116],[-115.22517,28.03165],[-115.22578,28.03171],[-115.2263,28.03134],[-115.22695,28.03114],[-115.22689,28.03083],[-115.22747,28.03062],[-115.22741,28.03014],[-115.22779,28.03011],[-115.22803,28.02991],[-115.22835,28.03015],[-115.22897,28.03017],[-115.22961,28.02992],[-115.22972,28.02957],[-115.23003,28.02974],[-115.2305,28.02972],[-115.23021,28.03014],[-115.23062,28.03049],[-115.2312,28.03049],[-115.23155,28.03028],[-115.23176,28.03055],[-115.23223,28.03018],[-115.23266,28.03042],[-115.23271,28.03067],[-115.23176,28.03078],[-115.23173,28.03097],[-115.23195,28.03112],[-115.23166,28.03162],[-115.23188,28.03197],[-115.23248,28.03182],[-115.23267,28.03209],[-115.23291,28.03214],[-115.23237,28.0327],[-115.23262,28.03302],[-115.23229,28.03305],[-115.23226,28.03333],[-115.23191,28.03365],[-115.23204,28.03406],[-115.2326,28.03463],[-115.23463,28.03426],[-115.23459,28.03461],[-115.23477,28.03495],[-115.2354,28.0355],[-115.23789,28.03549],[-115.2386,28.03523],[-115.23904,28.03559],[-115.23962,28.03566],[-115.24011,28.03548],[-115.24001,28.03515],[-115.24013,28.03488],[-115.24036,28.03499],[-115.24069,28.03477],[-115.24045,28.03529],[-115.2407,28.03528],[-115.24068,28.03558],[-115.24097,28.03565],[-115.24177,28.03535],[-115.242,28.03473],[-115.24229,28.03468],[-115.24243,28.03495],[-115.24318,28.03486],[-115.24328,28.03443],[-115.24344,28.03452],[-115.24375,28.03396],[-115.24413,28.03404],[-115.24438,28.03433],[-115.24475,28.03404],[-115.24481,28.03472],[-115.24522,28.03461],[-115.24467,28.03506],[-115.2453,28.03521],[-115.24566,28.03502],[-115.24576,28.03538],[-115.24654,28.03548],[-115.24642,28.03579],[-115.24658,28.03593],[-115.24747,28.03551],[-115.24765,28.03526],[-115.24814,28.03517],[-115.24836,28.03575],[-115.24876,28.03558],[-115.2489,28.0358],[-115.24958,28.03553],[-115.25077,28.03595],[-115.25097,28.03575],[-115.25145,28.03585],[-115.2515,28.03595],[-115.25122,28.03614],[-115.25142,28.03613],[-115.25138,28.03625],[-115.25095,28.03628],[-115.25125,28.03663],[-115.25108,28.03693],[-115.25131,28.03698],[-115.25148,28.03727],[-115.25179,28.03727],[-115.25203,28.03763],[-115.25299,28.03725],[-115.25332,28.03725],[-115.25334,28.03756],[-115.25358,28.03756],[-115.2539,28.03786],[-115.25413,28.03747],[-115.25437,28.03737],[-115.25511,28.03754],[-115.25519,28.03792],[-115.25462,28.03825],[-115.2549,28.03836],[-115.25494,28.03856],[-115.25585,28.03893],[-115.25553,28.04001],[-115.25459,28.04022],[-115.25335,28.04084],[-115.25207,28.04099],[-115.25181,28.04188],[-115.25187,28.04285],[-115.25215,28.04357],[-115.25241,28.04369],[-115.25273,28.04458],[-115.25305,28.04465],[-115.25298,28.04502],[-115.25321,28.04563],[-115.2552,28.048],[-115.25651,28.0506],[-115.25658,28.05212],[-115.25693,28.05318],[-115.25699,28.054],[-115.2576,28.05533],[-115.25793,28.05714],[-115.25832,28.05798],[-115.25916,28.06072],[-115.26241,28.06822],[-115.26391,28.0708],[-115.26621,28.07427],[-115.2672,28.07567],[-115.27072,28.07984],[-115.27456,28.08373],[-115.27812,28.08677],[-115.28172,28.08918],[-115.28597,28.09143],[-115.28914,28.09292],[-115.29384,28.09439],[-115.29944,28.09507],[-115.30246,28.09519],[-115.30457,28.0955],[-115.30512,28.09546],[-115.30582,28.09514],[-115.30627,28.09523],[-115.30747,28.09463],[-115.30747,28.09423],[-115.30855,28.09441],[-115.30966,28.09375],[-115.31072,28.0938],[-115.31177,28.09356],[-115.3124,28.09297],[-115.3132,28.09272],[-115.31337,28.09233],[-115.31386,28.0923],[-115.3143,28.09193],[-115.3146,28.09197],[-115.31487,28.09175],[-115.31646,28.09149],[-115.31707,28.09156],[-115.31821,28.09125],[-115.3184,28.09108],[-115.31853,28.08995],[-115.31879,28.08964],[-115.31853,28.08907],[-115.319,28.08887],[-115.31941,28.08755],[-115.31959,28.08763],[-115.31953,28.08798],[-115.32059,28.08869],[-115.32123,28.0885],[-115.32174,28.08772],[-115.32235,28.08766],[-115.32231,28.08725],[-115.32283,28.08708],[-115.32334,28.08656],[-115.32413,28.08737],[-115.32491,28.0872],[-115.32584,28.08744],[-115.32681,28.08678],[-115.32705,28.0868],[-115.32728,28.08708],[-115.32794,28.08703],[-115.32957,28.08646],[-115.32978,28.08614],[-115.33022,28.08638],[-115.33092,28.08613],[-115.33133,28.08618],[-115.33187,28.0867],[-115.3334,28.08648],[-115.3339,28.08615],[-115.33412,28.08641],[-115.33432,28.08638],[-115.33567,28.0856],[-115.33581,28.08482],[-115.33619,28.08453],[-115.33609,28.08418],[-115.33649,28.08338],[-115.33622,28.08311],[-115.33632,28.08266],[-115.33662,28.0827],[-115.33682,28.08246],[-115.3365,28.08209],[-115.33694,28.0821],[-115.33711,28.08228],[-115.33719,28.08206],[-115.3377,28.08209],[-115.33781,28.08179],[-115.33824,28.08191],[-115.33884,28.08172],[-115.33886,28.0816],[-115.3386,28.08148],[-115.33861,28.08123],[-115.33831,28.08108],[-115.33858,28.08089],[-115.33811,28.08017],[-115.33838,28.08004],[-115.33891,28.08029],[-115.33911,28.08013],[-115.33839,28.07932],[-115.33883,28.07935],[-115.33947,28.07985],[-115.33957,28.07964],[-115.33948,28.07886],[-115.33964,28.07884],[-115.3399,28.07916],[-115.34014,28.07907],[-115.34058,28.07988],[-115.34041,28.07998],[-115.34058,28.08029],[-115.34086,28.08019],[-115.34109,28.08079],[-115.34168,28.08087],[-115.34244,28.08148],[-115.34271,28.08144],[-115.3431,28.08106],[-115.34302,28.08074],[-115.34316,28.08044],[-115.34354,28.08075],[-115.34394,28.08054],[-115.34409,28.07959],[-115.34397,28.07936],[-115.34429,28.07892],[-115.34368,28.0778],[-115.34386,28.07698],[-115.34365,28.07645],[-115.34358,28.07526],[-115.34374,28.07488],[-115.3444,28.0751],[-115.34495,28.07477],[-115.34547,28.07471],[-115.34543,28.07435],[-115.34561,28.07439],[-115.34585,28.07481],[-115.34685,28.07498],[-115.34713,28.07517],[-115.34721,28.07485],[-115.34758,28.07442],[-115.34805,28.07471],[-115.34884,28.07445],[-115.34922,28.07451],[-115.34953,28.0748],[-115.34982,28.07478],[-115.34976,28.07429],[-115.34989,28.07412],[-115.35039,28.07441],[-115.35049,28.07478],[-115.3508,28.07447],[-115.35108,28.07491],[-115.35143,28.07491],[-115.35145,28.07516],[-115.35219,28.07606],[-115.35217,28.07659],[-115.35249,28.07657],[-115.35261,28.07616],[-115.35321,28.07644],[-115.35414,28.07622],[-115.35474,28.07655],[-115.35481,28.07687],[-115.35657,28.07824],[-115.35658,28.07885],[-115.35748,28.07874],[-115.35818,28.07906],[-115.35838,28.07967],[-115.35925,28.08056],[-115.35929,28.08084],[-115.35815,28.0809],[-115.3576,28.08077],[-115.35692,28.08028],[-115.35651,28.08029],[-115.35559,28.08127],[-115.35546,28.08195],[-115.35555,28.08245],[-115.35582,28.08269],[-115.35809,28.08357],[-115.35802,28.08414],[-115.35672,28.0846],[-115.3564,28.08491],[-115.35557,28.08507],[-115.35493,28.08478],[-115.35446,28.08494],[-115.35449,28.08535],[-115.35426,28.08542],[-115.3544,28.08562],[-115.3534,28.08588],[-115.35303,28.08643],[-115.35317,28.08676],[-115.35274,28.0868],[-115.35257,28.08749],[-115.35266,28.08792],[-115.35361,28.08871],[-115.35356,28.08894],[-115.35263,28.08919],[-115.35256,28.08979],[-115.35346,28.09075],[-115.35286,28.09092],[-115.35275,28.09129],[-115.35361,28.09208],[-115.35318,28.09269],[-115.35244,28.0932],[-115.35235,28.09358],[-115.35247,28.09383],[-115.35214,28.09405],[-115.35209,28.09619],[-115.35267,28.09814],[-115.35245,28.09873],[-115.35315,28.10093],[-115.35369,28.10154],[-115.35412,28.10162],[-115.35344,28.10248],[-115.3535,28.10283],[-115.35395,28.10307],[-115.35401,28.10331],[-115.35437,28.10355],[-115.35384,28.10356],[-115.35376,28.10418],[-115.3542,28.10441],[-115.35397,28.10451],[-115.3541,28.10515],[-115.35511,28.10587],[-115.3552,28.1064],[-115.35437,28.10643],[-115.35427,28.10685],[-115.35377,28.10686],[-115.35344,28.10718],[-115.35275,28.10746],[-115.35201,28.10812],[-115.35242,28.1088],[-115.35186,28.10894],[-115.35174,28.1091],[-115.35207,28.10992],[-115.35279,28.11013],[-115.35285,28.11041],[-115.35353,28.11044],[-115.35302,28.11055],[-115.35297,28.11079],[-115.35348,28.11105],[-115.35289,28.11106],[-115.35304,28.11129],[-115.35348,28.11133],[-115.35304,28.11152],[-115.35295,28.11178],[-115.35297,28.11201],[-115.35333,28.11233],[-115.35279,28.11259],[-115.35216,28.11377],[-115.3523,28.11453],[-115.35275,28.11483],[-115.35214,28.11488],[-115.35163,28.11555],[-115.35181,28.11654],[-115.35237,28.11683],[-115.35287,28.11659],[-115.35283,28.11678],[-115.35249,28.1169],[-115.35255,28.11721],[-115.35201,28.11733],[-115.35156,28.11723],[-115.35072,28.11652],[-115.3496,28.11668],[-115.3478,28.11786],[-115.3474,28.11739],[-115.34652,28.11724],[-115.34602,28.11739],[-115.34568,28.11774],[-115.34575,28.11812],[-115.3456,28.11865],[-115.34618,28.119],[-115.34602,28.11934],[-115.34556,28.11927],[-115.34513,28.11893],[-115.34455,28.11916],[-115.3443,28.11958],[-115.34393,28.11932],[-115.34317,28.11913],[-115.34262,28.11941],[-115.34207,28.12001],[-115.34066,28.1203],[-115.34022,28.12098],[-115.33917,28.12113],[-115.33867,28.12101],[-115.3381,28.12125],[-115.33716,28.12234],[-115.33725,28.12273],[-115.33805,28.12323],[-115.33805,28.12378],[-115.3377,28.12405],[-115.33699,28.12388],[-115.33675,28.12354],[-115.33669,28.12289],[-115.33652,28.12264],[-115.33501,28.12275],[-115.33427,28.12345],[-115.33413,28.12421],[-115.33432,28.12446],[-115.33399,28.12451],[-115.33362,28.12491],[-115.33361,28.12517],[-115.33396,28.12549],[-115.33367,28.12562],[-115.33363,28.12595],[-115.33204,28.12574],[-115.33076,28.12628],[-115.33024,28.12684],[-115.33036,28.12751],[-115.33009,28.12769],[-115.32938,28.12766],[-115.32894,28.12793],[-115.3286,28.12877],[-115.32795,28.12971],[-115.32741,28.12964],[-115.32695,28.12919],[-115.32629,28.12937],[-115.32614,28.12986],[-115.32555,28.13007],[-115.32393,28.13147],[-115.32355,28.13251],[-115.32278,28.13256],[-115.32246,28.13275],[-115.32193,28.13355],[-115.32034,28.13413],[-115.31784,28.13627],[-115.30722,28.14706]]]},"properties":{"name":"isla-cedros"}},{"type":"Feature","geometry":{"type":"Polygon","coordinates":[[[-115.25695,28.28749],[-115.25767,28.28736],[-115.25796,28.28716],[-115.2584,28.28746],[-115.25848,28.28798],[-115.25832,28.28837],[-115.25796,28.28847],[-115.25749,28.28827],[-115.25726,28.28791],[-115.2568,28.28774],[-115.25695,28.28749]]]},"properties":{"name":"unnamed-land"}},{"type":"Feature","geometry":{"type":"Polygon","coordinates":[[[-115.36099,28.11858],[-115.36133,28.11852],[-115.36178,28.11883],[-115.36285,28.11912],[-115.36291,28.11927],[-115.36256,28.11949],[-115.36139,28.11923],[-115.36102,28.11883],[-115.36063,28.11891],[-115.3605,28.1186],[-115.36081,28.11837],[-115.36099,28.11858]]]},"properties":{"name":"unnamed-land"}}]}