{"type":"FeatureCollection","features":[{"type":"Feature","geometry":{"type":"Polygon","coordinates":[[[-114.105,28.239],[-114.1,28.239],[-114.096,28.241],[-114.094,28.242],[-114.093,28.246],[-114.086,28.247],[-114.085,28.247],[-114.076,28.241],[-114.072,28.237],[-114.068,28.222],[-114.071,28.194],[-114.09,28.159],[-114.138,28.085],[-114.186,28.022],[-114.205,28.0],[-114.252,28.0],[-114.507,27.82],[-114.861,27.875],[-114.963,27.871],[-115.051,27.908],[-115.122,27.909],[-115.187,27.943],[-115.248,27.932],[-115.253,27.864],[-115.209,27.823],[-115.12,27.818],[-115.111,27.803],[-115.126,27.795],[-115.278,27.721],[-115.581,27.896],[-115.833,28.333],[-115.562,28.672],[-115.282,28.596],[-114.124,28.255],[-114.12,28.253],[-114.116,28.249],[-114.116,28.245],[-114.115,28.243],[-114.105,28.239]]]},"properties":{"id":"islas-del-pac-fico-de-la-pen-nsula-de-baja-california-3","name":"Islas del Pac\u00edfico de la Pen\u00ednsula de Baja California","type":"Reserva de la Biosfera","shortName":"Islas del Pac\u00edfico de la Pen\u00ednsula de Baja California","areaKm2":11612.2,"ccrCitation":null}}]}