{"type":"FeatureCollection","features":[{"type":"Feature","geometry":{"type":"Point","coordinates":[-115.14325,28.14306]},"properties":{"depth_ft":89,"depth_m":27.0}},{"type":"Feature","geometry":{"type":"Point","coordinates":[-115.13703,28.14306]},"properties":{"depth_ft":38,"depth_m":11.5}},{"type":"Feature","geometry":{"type":"Point","coordinates":[-115.13082,28.14306]},"properties":{"depth_ft":79,"depth_m":24.1}},{"type":"Feature","geometry":{"type":"Point","coordinates":[-115.1246,28.14306]},"properties":{"depth_ft":141,"depth_m":43.1}},{"type":"Feature","geometry":{"type":"Point","coordinates":[-115.11838,28.14306]},"properties":{"depth_ft":212,"depth_m":64.8}},{"type":"Feature","geometry":{"type":"Point","coordinates":[-115.11217,28.14306]},"properties":{"depth_ft":263,"depth_m":80.1}},{"type":"Feature","geometry":{"type":"Point","coordinates":[-115.10595,28.14306]},"properties":{"depth_ft":285,"depth_m":86.8}},{"type":"Feature","geometry":{"type":"Point","coordinates":[-115.09974,28.14306]},"properties":{"depth_ft":284,"depth_m":86.5}},{"type":"Feature","geometry":{"type":"Point","coordinates":[-115.09352,28.14306]},"properties":{"depth_ft":285,"depth_m":86.8}},{"type":"Feature","geometry":{"type":"Point","coordinates":[-115.14325,28.13758]},"properties":{"depth_ft":94,"depth_m":28.7}},{"type":"Feature","geometry":{"type":"Point","coordinates":[-115.13703,28.13758]},"properties":{"depth_ft":59,"depth_m":18.1}},{"type":"Feature","geometry":{"type":"Point","coordinates":[-115.13082,28.13758]},"properties":{"depth_ft":106,"depth_m":32.4}},{"type":"Feature","geometry":{"type":"Point","coordinates":[-115.1246,28.13758]},"properties":{"depth_ft":175,"depth_m":53.4}},{"type":"Feature","geometry":{"type":"Point","coordinates":[-115.11838,28.13758]},"properties":{"depth_ft":242,"depth_m":73.7}},{"type":"Feature","geometry":{"type":"Point","coordinates":[-115.11217,28.13758]},"properties":{"depth_ft":276,"depth_m":84.0}},{"type":"Feature","geometry":{"type":"Point","coordinates":[-115.10595,28.13758]},"properties":{"depth_ft":284,"depth_m":86.5}},{"type":"Feature","geometry":{"type":"Point","coordinates":[-115.09974,28.13758]},"properties":{"depth_ft":281,"depth_m":85.7}},{"type":"Feature","geometry":{"type":"Point","coordinates":[-115.09352,28.13758]},"properties":{"depth_ft":281,"depth_m":85.5}},{"type":"Feature","geometry":{"type":"Point","coordinates":[-115.16189,28.1321]},"properties":{"depth_ft":55,"depth_m":16.6}},{"type":"Feature","geometry":{"type":"Point","coordinates":[-115.15568,28.1321]},"properties":{"depth_ft":320,"depth_m":97.6}},{"type":"Feature","geometry":{"type":"Point","coordinates":[-115.14946,28.1321]},"properties":{"depth_ft":218,"depth_m":66.5}},{"type":"Feature","geometry":{"type":"Point","coordinates":[-115.14325,28.1321]},"properties":{"depth_ft":106,"depth_m":32.2}},{"type":"Feature","geometry":{"type":"Point","coordinates":[-115.13703,28.1321]},"properties":{"depth_ft":99,"depth_m":30.1}},{"type":"Feature","geometry":{"type":"Point","coordinates":[-115.13082,28.1321]},"properties":{"depth_ft":146,"depth_m":44.5}},{"type":"Feature","geometry":{"type":"Point","coordinates":[-115.1246,28.1321]},"properties":{"depth_ft":209,"depth_m":63.9}},{"type":"Feature","geometry":{"type":"Point","coordinates":[-115.11838,28.1321]},"properties":{"depth_ft":259,"depth_m":78.9}},{"type":"Feature","geometry":{"type":"Point","coordinates":[-115.11217,28.1321]},"properties":{"depth_ft":276,"depth_m":84.0}},{"type":"Feature","geometry":{"type":"Point","coordinates":[-115.10595,28.1321]},"properties":{"depth_ft":283,"depth_m":86.2}},{"type":"Feature","geometry":{"type":"Point","coordinates":[-115.09974,28.1321]},"properties":{"depth_ft":283,"depth_m":86.4}},{"type":"Feature","geometry":{"type":"Point","coordinates":[-115.09352,28.1321]},"properties":{"depth_ft":284,"depth_m":86.6}},{"type":"Feature","geometry":{"type":"Point","coordinates":[-115.16811,28.12661]},"properties":{"depth_ft":8,"depth_m":2.4}},{"type":"Feature","geometry":{"type":"Point","coordinates":[-115.16189,28.12661]},"properties":{"depth_ft":14,"depth_m":4.1}},{"type":"Feature","geometry":{"type":"Point","coordinates":[-115.15568,28.12661]},"properties":{"depth_ft":199,"depth_m":60.7}},{"type":"Feature","geometry":{"type":"Point","coordinates":[-115.14946,28.12661]},"properties":{"depth_ft":181,"depth_m":55.1}},{"type":"Feature","geometry":{"type":"Point","coordinates":[-115.14325,28.12661]},"properties":{"depth_ft":136,"depth_m":41.5}},{"type":"Feature","geometry":{"type":"Point","coordinates":[-115.13703,28.12661]},"properties":{"depth_ft":143,"depth_m":43.7}},{"type":"Feature","geometry":{"type":"Point","coordinates":[-115.13082,28.12661]},"properties":{"depth_ft":187,"depth_m":56.9}},{"type":"Feature","geometry":{"type":"Point","coordinates":[-115.1246,28.12661]},"properties":{"depth_ft":242,"depth_m":73.6}},{"type":"Feature","geometry":{"type":"Point","coordinates":[-115.11838,28.12661]},"properties":{"depth_ft":270,"depth_m":82.4}},{"type":"Feature","geometry":{"type":"Point","coordinates":[-115.11217,28.12661]},"properties":{"depth_ft":274,"depth_m":83.4}},{"type":"Feature","geometry":{"type":"Point","coordinates":[-115.10595,28.12661]},"properties":{"depth_ft":276,"depth_m":84.0}},{"type":"Feature","geometry":{"type":"Point","coordinates":[-115.09974,28.12661]},"properties":{"depth_ft":280,"depth_m":85.4}},{"type":"Feature","geometry":{"type":"Point","coordinates":[-115.09352,28.12661]},"properties":{"depth_ft":282,"depth_m":85.8}},{"type":"Feature","geometry":{"type":"Point","coordinates":[-115.17432,28.12113]},"properties":{"depth_ft":5,"depth_m":1.4}},{"type":"Feature","geometry":{"type":"Point","coordinates":[-115.16189,28.12113]},"properties":{"depth_ft":72,"depth_m":22.0}},{"type":"Feature","geometry":{"type":"Point","coordinates":[-115.15568,28.12113]},"properties":{"depth_ft":194,"depth_m":59.0}},{"type":"Feature","geometry":{"type":"Point","coordinates":[-115.14946,28.12113]},"properties":{"depth_ft":189,"depth_m":57.7}},{"type":"Feature","geometry":{"type":"Point","coordinates":[-115.14325,28.12113]},"properties":{"depth_ft":168,"depth_m":51.3}},{"type":"Feature","geometry":{"type":"Point","coordinates":[-115.13703,28.12113]},"properties":{"depth_ft":178,"depth_m":54.4}},{"type":"Feature","geometry":{"type":"Point","coordinates":[-115.13082,28.12113]},"properties":{"depth_ft":215,"depth_m":65.6}},{"type":"Feature","geometry":{"type":"Point","coordinates":[-115.1246,28.12113]},"properties":{"depth_ft":262,"depth_m":79.7}},{"type":"Feature","geometry":{"type":"Point","coordinates":[-115.11838,28.12113]},"properties":{"depth_ft":277,"depth_m":84.5}},{"type":"Feature","geometry":{"type":"Point","coordinates":[-115.11217,28.12113]},"properties":{"depth_ft":274,"depth_m":83.4}},{"type":"Feature","geometry":{"type":"Point","coordinates":[-115.10595,28.12113]},"properties":{"depth_ft":274,"depth_m":83.6}},{"type":"Feature","geometry":{"type":"Point","coordinates":[-115.09974,28.12113]},"properties":{"depth_ft":277,"depth_m":84.5}},{"type":"Feature","geometry":{"type":"Point","coordinates":[-115.09352,28.12113]},"properties":{"depth_ft":277,"depth_m":84.5}},{"type":"Feature","geometry":{"type":"Point","coordinates":[-115.17432,28.11564]},"properties":{"depth_ft":65,"depth_m":19.7}},{"type":"Feature","geometry":{"type":"Point","coordinates":[-115.16811,28.11564]},"properties":{"depth_ft":140,"depth_m":42.6}},{"type":"Feature","geometry":{"type":"Point","coordinates":[-115.16189,28.11564]},"properties":{"depth_ft":188,"depth_m":57.3}},{"type":"Feature","geometry":{"type":"Point","coordinates":[-115.15568,28.11564]},"properties":{"depth_ft":223,"depth_m":67.8}},{"type":"Feature","geometry":{"type":"Point","coordinates":[-115.14946,28.11564]},"properties":{"depth_ft":207,"depth_m":63.0}},{"type":"Feature","geometry":{"type":"Point","coordinates":[-115.14325,28.11564]},"properties":{"depth_ft":196,"depth_m":59.8}},{"type":"Feature","geometry":{"type":"Point","coordinates":[-115.13703,28.11564]},"properties":{"depth_ft":203,"depth_m":61.9}},{"type":"Feature","geometry":{"type":"Point","coordinates":[-115.13082,28.11564]},"properties":{"depth_ft":227,"depth_m":69.1}},{"type":"Feature","geometry":{"type":"Point","coordinates":[-115.1246,28.11564]},"properties":{"depth_ft":255,"depth_m":77.6}},{"type":"Feature","geometry":{"type":"Point","coordinates":[-115.11838,28.11564]},"properties":{"depth_ft":269,"depth_m":81.9}},{"type":"Feature","geometry":{"type":"Point","coordinates":[-115.11217,28.11564]},"properties":{"depth_ft":270,"depth_m":82.4}},{"type":"Feature","geometry":{"type":"Point","coordinates":[-115.10595,28.11564]},"properties":{"depth_ft":270,"depth_m":82.3}},{"type":"Feature","geometry":{"type":"Point","coordinates":[-115.09974,28.11564]},"properties":{"depth_ft":275,"depth_m":84.0}},{"type":"Feature","geometry":{"type":"Point","coordinates":[-115.09352,28.11564]},"properties":{"depth_ft":279,"depth_m":85.0}},{"type":"Feature","geometry":{"type":"Point","coordinates":[-115.18054,28.11016]},"properties":{"depth_ft":46,"depth_m":13.9}},{"type":"Feature","geometry":{"type":"Point","coordinates":[-115.16189,28.11016]},"properties":{"depth_ft":283,"depth_m":86.2}},{"type":"Feature","geometry":{"type":"Point","coordinates":[-115.15568,28.11016]},"properties":{"depth_ft":230,"depth_m":70.0}},{"type":"Feature","geometry":{"type":"Point","coordinates":[-115.14946,28.11016]},"properties":{"depth_ft":212,"depth_m":64.6}},{"type":"Feature","geometry":{"type":"Point","coordinates":[-115.14325,28.11016]},"properties":{"depth_ft":207,"depth_m":63.1}},{"type":"Feature","geometry":{"type":"Point","coordinates":[-115.13703,28.11016]},"properties":{"depth_ft":214,"depth_m":65.2}},{"type":"Feature","geometry":{"type":"Point","coordinates":[-115.13082,28.11016]},"properties":{"depth_ft":231,"depth_m":70.3}},{"type":"Feature","geometry":{"type":"Point","coordinates":[-115.1246,28.11016]},"properties":{"depth_ft":245,"depth_m":74.8}},{"type":"Feature","geometry":{"type":"Point","coordinates":[-115.11838,28.11016]},"properties":{"depth_ft":260,"depth_m":79.2}},{"type":"Feature","geometry":{"type":"Point","coordinates":[-115.11217,28.11016]},"properties":{"depth_ft":268,"depth_m":81.6}},{"type":"Feature","geometry":{"type":"Point","coordinates":[-115.10595,28.11016]},"properties":{"depth_ft":269,"depth_m":82.0}},{"type":"Feature","geometry":{"type":"Point","coordinates":[-115.09974,28.11016]},"properties":{"depth_ft":272,"depth_m":83.0}},{"type":"Feature","geometry":{"type":"Point","coordinates":[-115.09352,28.11016]},"properties":{"depth_ft":276,"depth_m":84.0}},{"type":"Feature","geometry":{"type":"Point","coordinates":[-115.18054,28.10468]},"properties":{"depth_ft":59,"depth_m":18.0}},{"type":"Feature","geometry":{"type":"Point","coordinates":[-115.16189,28.10468]},"properties":{"depth_ft":308,"depth_m":93.8}},{"type":"Feature","geometry":{"type":"Point","coordinates":[-115.15568,28.10468]},"properties":{"depth_ft":223,"depth_m":68.0}},{"type":"Feature","geometry":{"type":"Point","coordinates":[-115.14946,28.10468]},"properties":{"depth_ft":204,"depth_m":62.3}},{"type":"Feature","geometry":{"type":"Point","coordinates":[-115.14325,28.10468]},"properties":{"depth_ft":205,"depth_m":62.3}},{"type":"Feature","geometry":{"type":"Point","coordinates":[-115.13703,28.10468]},"properties":{"depth_ft":215,"depth_m":65.6}},{"type":"Feature","geometry":{"type":"Point","coordinates":[-115.13082,28.10468]},"properties":{"depth_ft":232,"depth_m":70.7}},{"type":"Feature","geometry":{"type":"Point","coordinates":[-115.1246,28.10468]},"properties":{"depth_ft":247,"depth_m":75.2}},{"type":"Feature","geometry":{"type":"Point","coordinates":[-115.11838,28.10468]},"properties":{"depth_ft":259,"depth_m":78.9}},{"type":"Feature","geometry":{"type":"Point","coordinates":[-115.11217,28.10468]},"properties":{"depth_ft":266,"depth_m":81.0}},{"type":"Feature","geometry":{"type":"Point","coordinates":[-115.10595,28.10468]},"properties":{"depth_ft":269,"depth_m":82.0}},{"type":"Feature","geometry":{"type":"Point","coordinates":[-115.09974,28.10468]},"properties":{"depth_ft":271,"depth_m":82.6}},{"type":"Feature","geometry":{"type":"Point","coordinates":[-115.09352,28.10468]},"properties":{"depth_ft":273,"depth_m":83.3}},{"type":"Feature","geometry":{"type":"Point","coordinates":[-115.18054,28.09919]},"properties":{"depth_ft":34,"depth_m":10.4}},{"type":"Feature","geometry":{"type":"Point","coordinates":[-115.16189,28.09919]},"properties":{"depth_ft":279,"depth_m":85.0}},{"type":"Feature","geometry":{"type":"Point","coordinates":[-115.15568,28.09919]},"properties":{"depth_ft":222,"depth_m":67.6}},{"type":"Feature","geometry":{"type":"Point","coordinates":[-115.14946,28.09919]},"properties":{"depth_ft":197,"depth_m":60.0}},{"type":"Feature","geometry":{"type":"Point","coordinates":[-115.14325,28.09919]},"properties":{"depth_ft":194,"depth_m":59.2}},{"type":"Feature","geometry":{"type":"Point","coordinates":[-115.13703,28.09919]},"properties":{"depth_ft":214,"depth_m":65.1}},{"type":"Feature","geometry":{"type":"Point","coordinates":[-115.13082,28.09919]},"properties":{"depth_ft":237,"depth_m":72.3}},{"type":"Feature","geometry":{"type":"Point","coordinates":[-115.1246,28.09919]},"properties":{"depth_ft":259,"depth_m":79.0}},{"type":"Feature","geometry":{"type":"Point","coordinates":[-115.11838,28.09919]},"properties":{"depth_ft":267,"depth_m":81.4}},{"type":"Feature","geometry":{"type":"Point","coordinates":[-115.11217,28.09919]},"properties":{"depth_ft":268,"depth_m":81.6}},{"type":"Feature","geometry":{"type":"Point","coordinates":[-115.10595,28.09919]},"properties":{"depth_ft":267,"depth_m":81.3}},{"type":"Feature","geometry":{"type":"Point","coordinates":[-115.09974,28.09919]},"properties":{"depth_ft":269,"depth_m":82.0}},{"type":"Feature","geometry":{"type":"Point","coordinates":[-115.09352,28.09919]},"properties":{"depth_ft":269,"depth_m":82.0}},{"type":"Feature","geometry":{"type":"Point","coordinates":[-115.18054,28.09371]},"properties":{"depth_ft":2,"depth_m":0.6}},{"type":"Feature","geometry":{"type":"Point","coordinates":[-115.17432,28.09371]},"properties":{"depth_ft":156,"depth_m":47.6}},{"type":"Feature","geometry":{"type":"Point","coordinates":[-115.16811,28.09371]},"properties":{"depth_ft":232,"depth_m":70.8}},{"type":"Feature","geometry":{"type":"Point","coordinates":[-115.16189,28.09371]},"properties":{"depth_ft":228,"depth_m":69.6}},{"type":"Feature","geometry":{"type":"Point","coordinates":[-115.15568,28.09371]},"properties":{"depth_ft":208,"depth_m":63.3}},{"type":"Feature","geometry":{"type":"Point","coordinates":[-115.14946,28.09371]},"properties":{"depth_ft":185,"depth_m":56.4}},{"type":"Feature","geometry":{"type":"Point","coordinates":[-115.14325,28.09371]},"properties":{"depth_ft":182,"depth_m":55.5}},{"type":"Feature","geometry":{"type":"Point","coordinates":[-115.13703,28.09371]},"properties":{"depth_ft":211,"depth_m":64.2}},{"type":"Feature","geometry":{"type":"Point","coordinates":[-115.13082,28.09371]},"properties":{"depth_ft":245,"depth_m":74.6}},{"type":"Feature","geometry":{"type":"Point","coordinates":[-115.1246,28.09371]},"properties":{"depth_ft":274,"depth_m":83.6}},{"type":"Feature","geometry":{"type":"Point","coordinates":[-115.11838,28.09371]},"properties":{"depth_ft":275,"depth_m":83.9}},{"type":"Feature","geometry":{"type":"Point","coordinates":[-115.11217,28.09371]},"properties":{"depth_ft":268,"depth_m":81.8}},{"type":"Feature","geometry":{"type":"Point","coordinates":[-115.10595,28.09371]},"properties":{"depth_ft":263,"depth_m":80.1}},{"type":"Feature","geometry":{"type":"Point","coordinates":[-115.09974,28.09371]},"properties":{"depth_ft":266,"depth_m":81.0}},{"type":"Feature","geometry":{"type":"Point","coordinates":[-115.09352,28.09371]},"properties":{"depth_ft":266,"depth_m":81.0}},{"type":"Feature","geometry":{"type":"Point","coordinates":[-115.18054,28.08823]},"properties":{"depth_ft":39,"depth_m":11.8}},{"type":"Feature","geometry":{"type":"Point","coordinates":[-115.17432,28.08823]},"properties":{"depth_ft":122,"depth_m":37.3}},{"type":"Feature","geometry":{"type":"Point","coordinates":[-115.16811,28.08823]},"properties":{"depth_ft":178,"depth_m":54.2}},{"type":"Feature","geometry":{"type":"Point","coordinates":[-115.16189,28.08823]},"properties":{"depth_ft":186,"depth_m":56.8}},{"type":"Feature","geometry":{"type":"Point","coordinates":[-115.15568,28.08823]},"properties":{"depth_ft":180,"depth_m":54.9}},{"type":"Feature","geometry":{"type":"Point","coordinates":[-115.14946,28.08823]},"properties":{"depth_ft":174,"depth_m":53.1}},{"type":"Feature","geometry":{"type":"Point","coordinates":[-115.14325,28.08823]},"properties":{"depth_ft":179,"depth_m":54.6}},{"type":"Feature","geometry":{"type":"Point","coordinates":[-115.13703,28.08823]},"properties":{"depth_ft":212,"depth_m":64.5}},{"type":"Feature","geometry":{"type":"Point","coordinates":[-115.13082,28.08823]},"properties":{"depth_ft":246,"depth_m":75.0}},{"type":"Feature","geometry":{"type":"Point","coordinates":[-115.1246,28.08823]},"properties":{"depth_ft":274,"depth_m":83.4}},{"type":"Feature","geometry":{"type":"Point","coordinates":[-115.11838,28.08823]},"properties":{"depth_ft":278,"depth_m":84.9}},{"type":"Feature","geometry":{"type":"Point","coordinates":[-115.11217,28.08823]},"properties":{"depth_ft":269,"depth_m":82.0}},{"type":"Feature","geometry":{"type":"Point","coordinates":[-115.10595,28.08823]},"properties":{"depth_ft":263,"depth_m":80.0}},{"type":"Feature","geometry":{"type":"Point","coordinates":[-115.09974,28.08823]},"properties":{"depth_ft":267,"depth_m":81.4}},{"type":"Feature","geometry":{"type":"Point","coordinates":[-115.09352,28.08823]},"properties":{"depth_ft":262,"depth_m":80.0}},{"type":"Feature","geometry":{"type":"Point","coordinates":[-115.18054,28.08274]},"properties":{"depth_ft":24,"depth_m":7.2}},{"type":"Feature","geometry":{"type":"Point","coordinates":[-115.17432,28.08274]},"properties":{"depth_ft":155,"depth_m":47.3}},{"type":"Feature","geometry":{"type":"Point","coordinates":[-115.16811,28.08274]},"properties":{"depth_ft":169,"depth_m":51.4}},{"type":"Feature","geometry":{"type":"Point","coordinates":[-115.16189,28.08274]},"properties":{"depth_ft":163,"depth_m":49.7}},{"type":"Feature","geometry":{"type":"Point","coordinates":[-115.15568,28.08274]},"properties":{"depth_ft":162,"depth_m":49.4}},{"type":"Feature","geometry":{"type":"Point","coordinates":[-115.14946,28.08274]},"properties":{"depth_ft":172,"depth_m":52.5}},{"type":"Feature","geometry":{"type":"Point","coordinates":[-115.14325,28.08274]},"properties":{"depth_ft":187,"depth_m":57.1}},{"type":"Feature","geometry":{"type":"Point","coordinates":[-115.13703,28.08274]},"properties":{"depth_ft":219,"depth_m":66.7}},{"type":"Feature","geometry":{"type":"Point","coordinates":[-115.13082,28.08274]},"properties":{"depth_ft":248,"depth_m":75.5}},{"type":"Feature","geometry":{"type":"Point","coordinates":[-115.1246,28.08274]},"properties":{"depth_ft":272,"depth_m":82.8}},{"type":"Feature","geometry":{"type":"Point","coordinates":[-115.11838,28.08274]},"properties":{"depth_ft":274,"depth_m":83.5}},{"type":"Feature","geometry":{"type":"Point","coordinates":[-115.11217,28.08274]},"properties":{"depth_ft":267,"depth_m":81.3}},{"type":"Feature","geometry":{"type":"Point","coordinates":[-115.10595,28.08274]},"properties":{"depth_ft":265,"depth_m":80.7}},{"type":"Feature","geometry":{"type":"Point","coordinates":[-115.09974,28.08274]},"properties":{"depth_ft":267,"depth_m":81.4}},{"type":"Feature","geometry":{"type":"Point","coordinates":[-115.09352,28.08274]},"properties":{"depth_ft":260,"depth_m":79.4}},{"type":"Feature","geometry":{"type":"Point","coordinates":[-115.18054,28.07726]},"properties":{"depth_ft":33,"depth_m":10.0}},{"type":"Feature","geometry":{"type":"Point","coordinates":[-115.17432,28.07726]},"properties":{"depth_ft":194,"depth_m":59.1}},{"type":"Feature","geometry":{"type":"Point","coordinates":[-115.16811,28.07726]},"properties":{"depth_ft":172,"depth_m":52.5}},{"type":"Feature","geometry":{"type":"Point","coordinates":[-115.16189,28.07726]},"properties":{"depth_ft":160,"depth_m":48.7}},{"type":"Feature","geometry":{"type":"Point","coordinates":[-115.15568,28.07726]},"properties":{"depth_ft":157,"depth_m":48.0}},{"type":"Feature","geometry":{"type":"Point","coordinates":[-115.14946,28.07726]},"properties":{"depth_ft":184,"depth_m":56.2}},{"type":"Feature","geometry":{"type":"Point","coordinates":[-115.14325,28.07726]},"properties":{"depth_ft":208,"depth_m":63.3}},{"type":"Feature","geometry":{"type":"Point","coordinates":[-115.13703,28.07726]},"properties":{"depth_ft":231,"depth_m":70.3}},{"type":"Feature","geometry":{"type":"Point","coordinates":[-115.13082,28.07726]},"properties":{"depth_ft":250,"depth_m":76.2}},{"type":"Feature","geometry":{"type":"Point","coordinates":[-115.1246,28.07726]},"properties":{"depth_ft":262,"depth_m":79.9}},{"type":"Feature","geometry":{"type":"Point","coordinates":[-115.11838,28.07726]},"properties":{"depth_ft":260,"depth_m":79.1}},{"type":"Feature","geometry":{"type":"Point","coordinates":[-115.11217,28.07726]},"properties":{"depth_ft":257,"depth_m":78.5}},{"type":"Feature","geometry":{"type":"Point","coordinates":[-115.10595,28.07726]},"properties":{"depth_ft":257,"depth_m":78.2}},{"type":"Feature","geometry":{"type":"Point","coordinates":[-115.09974,28.07726]},"properties":{"depth_ft":268,"depth_m":81.6}},{"type":"Feature","geometry":{"type":"Point","coordinates":[-115.09352,28.07726]},"properties":{"depth_ft":259,"depth_m":79.0}},{"type":"Feature","geometry":{"type":"Point","coordinates":[-115.18054,28.07177]},"properties":{"depth_ft":16,"depth_m":4.7}},{"type":"Feature","geometry":{"type":"Point","coordinates":[-115.17432,28.07177]},"properties":{"depth_ft":80,"depth_m":24.3}},{"type":"Feature","geometry":{"type":"Point","coordinates":[-115.16811,28.07177]},"properties":{"depth_ft":150,"depth_m":45.8}},{"type":"Feature","geometry":{"type":"Point","coordinates":[-115.16189,28.07177]},"properties":{"depth_ft":167,"depth_m":51.0}},{"type":"Feature","geometry":{"type":"Point","coordinates":[-115.15568,28.07177]},"properties":{"depth_ft":187,"depth_m":57.0}},{"type":"Feature","geometry":{"type":"Point","coordinates":[-115.14946,28.07177]},"properties":{"depth_ft":220,"depth_m":67.1}},{"type":"Feature","geometry":{"type":"Point","coordinates":[-115.14325,28.07177]},"properties":{"depth_ft":247,"depth_m":75.4}},{"type":"Feature","geometry":{"type":"Point","coordinates":[-115.13703,28.07177]},"properties":{"depth_ft":254,"depth_m":77.4}},{"type":"Feature","geometry":{"type":"Point","coordinates":[-115.13082,28.07177]},"properties":{"depth_ft":250,"depth_m":76.1}},{"type":"Feature","geometry":{"type":"Point","coordinates":[-115.1246,28.07177]},"properties":{"depth_ft":242,"depth_m":73.9}},{"type":"Feature","geometry":{"type":"Point","coordinates":[-115.11838,28.07177]},"properties":{"depth_ft":246,"depth_m":74.9}},{"type":"Feature","geometry":{"type":"Point","coordinates":[-115.11217,28.07177]},"properties":{"depth_ft":249,"depth_m":75.9}},{"type":"Feature","geometry":{"type":"Point","coordinates":[-115.10595,28.07177]},"properties":{"depth_ft":256,"depth_m":77.9}},{"type":"Feature","geometry":{"type":"Point","coordinates":[-115.09974,28.07177]},"properties":{"depth_ft":273,"depth_m":83.2}},{"type":"Feature","geometry":{"type":"Point","coordinates":[-115.09352,28.07177]},"properties":{"depth_ft":265,"depth_m":80.6}},{"type":"Feature","geometry":{"type":"Point","coordinates":[-115.18054,28.06629]},"properties":{"depth_ft":28,"depth_m":8.5}},{"type":"Feature","geometry":{"type":"Point","coordinates":[-115.17432,28.06629]},"properties":{"depth_ft":70,"depth_m":21.4}},{"type":"Feature","geometry":{"type":"Point","coordinates":[-115.16811,28.06629]},"properties":{"depth_ft":139,"depth_m":42.2}},{"type":"Feature","geometry":{"type":"Point","coordinates":[-115.16189,28.06629]},"properties":{"depth_ft":178,"depth_m":54.2}},{"type":"Feature","geometry":{"type":"Point","coordinates":[-115.15568,28.06629]},"properties":{"depth_ft":217,"depth_m":66.0}},{"type":"Feature","geometry":{"type":"Point","coordinates":[-115.14946,28.06629]},"properties":{"depth_ft":257,"depth_m":78.2}},{"type":"Feature","geometry":{"type":"Point","coordinates":[-115.14325,28.06629]},"properties":{"depth_ft":288,"depth_m":87.9}},{"type":"Feature","geometry":{"type":"Point","coordinates":[-115.13703,28.06629]},"properties":{"depth_ft":280,"depth_m":85.4}},{"type":"Feature","geometry":{"type":"Point","coordinates":[-115.13082,28.06629]},"properties":{"depth_ft":257,"depth_m":78.3}},{"type":"Feature","geometry":{"type":"Point","coordinates":[-115.1246,28.06629]},"properties":{"depth_ft":234,"depth_m":71.4}},{"type":"Feature","geometry":{"type":"Point","coordinates":[-115.11838,28.06629]},"properties":{"depth_ft":235,"depth_m":71.6}},{"type":"Feature","geometry":{"type":"Point","coordinates":[-115.11217,28.06629]},"properties":{"depth_ft":244,"depth_m":74.2}},{"type":"Feature","geometry":{"type":"Point","coordinates":[-115.10595,28.06629]},"properties":{"depth_ft":253,"depth_m":77.0}},{"type":"Feature","geometry":{"type":"Point","coordinates":[-115.09974,28.06629]},"properties":{"depth_ft":259,"depth_m":79.0}},{"type":"Feature","geometry":{"type":"Point","coordinates":[-115.09352,28.06629]},"properties":{"depth_ft":260,"depth_m":79.3}},{"type":"Feature","geometry":{"type":"Point","coordinates":[-115.18675,28.06081]},"properties":{"depth_ft":7,"depth_m":2.3}},{"type":"Feature","geometry":{"type":"Point","coordinates":[-115.18054,28.06081]},"properties":{"depth_ft":16,"depth_m":4.8}},{"type":"Feature","geometry":{"type":"Point","coordinates":[-115.17432,28.06081]},"properties":{"depth_ft":94,"depth_m":28.7}},{"type":"Feature","geometry":{"type":"Point","coordinates":[-115.16811,28.06081]},"properties":{"depth_ft":153,"depth_m":46.6}},{"type":"Feature","geometry":{"type":"Point","coordinates":[-115.16189,28.06081]},"properties":{"depth_ft":193,"depth_m":58.7}},{"type":"Feature","geometry":{"type":"Point","coordinates":[-115.15568,28.06081]},"properties":{"depth_ft":234,"depth_m":71.3}},{"type":"Feature","geometry":{"type":"Point","coordinates":[-115.14946,28.06081]},"properties":{"depth_ft":287,"depth_m":87.4}},{"type":"Feature","geometry":{"type":"Point","coordinates":[-115.14325,28.06081]},"properties":{"depth_ft":324,"depth_m":98.8}},{"type":"Feature","geometry":{"type":"Point","coordinates":[-115.13703,28.06081]},"properties":{"depth_ft":310,"depth_m":94.5}},{"type":"Feature","geometry":{"type":"Point","coordinates":[-115.13082,28.06081]},"properties":{"depth_ft":271,"depth_m":82.7}},{"type":"Feature","geometry":{"type":"Point","coordinates":[-115.1246,28.06081]},"properties":{"depth_ft":239,"depth_m":73.0}},{"type":"Feature","geometry":{"type":"Point","coordinates":[-115.11838,28.06081]},"properties":{"depth_ft":236,"depth_m":72.0}},{"type":"Feature","geometry":{"type":"Point","coordinates":[-115.11217,28.06081]},"properties":{"depth_ft":244,"depth_m":74.2}},{"type":"Feature","geometry":{"type":"Point","coordinates":[-115.10595,28.06081]},"properties":{"depth_ft":250,"depth_m":76.2}},{"type":"Feature","geometry":{"type":"Point","coordinates":[-115.09974,28.06081]},"properties":{"depth_ft":253,"depth_m":77.2}},{"type":"Feature","geometry":{"type":"Point","coordinates":[-115.09352,28.06081]},"properties":{"depth_ft":253,"depth_m":77.3}},{"type":"Feature","geometry":{"type":"Point","coordinates":[-115.18675,28.05532]},"properties":{"depth_ft":22,"depth_m":6.6}},{"type":"Feature","geometry":{"type":"Point","coordinates":[-115.18054,28.05532]},"properties":{"depth_ft":94,"depth_m":28.6}},{"type":"Feature","geometry":{"type":"Point","coordinates":[-115.17432,28.05532]},"properties":{"depth_ft":161,"depth_m":49.2}},{"type":"Feature","geometry":{"type":"Point","coordinates":[-115.16811,28.05532]},"properties":{"depth_ft":187,"depth_m":57.1}},{"type":"Feature","geometry":{"type":"Point","coordinates":[-115.16189,28.05532]},"properties":{"depth_ft":205,"depth_m":62.6}},{"type":"Feature","geometry":{"type":"Point","coordinates":[-115.15568,28.05532]},"properties":{"depth_ft":242,"depth_m":73.9}},{"type":"Feature","geometry":{"type":"Point","coordinates":[-115.14946,28.05532]},"properties":{"depth_ft":312,"depth_m":95.2}},{"type":"Feature","geometry":{"type":"Point","coordinates":[-115.13082,28.05532]},"properties":{"depth_ft":300,"depth_m":91.4}},{"type":"Feature","geometry":{"type":"Point","coordinates":[-115.1246,28.05532]},"properties":{"depth_ft":262,"depth_m":79.8}},{"type":"Feature","geometry":{"type":"Point","coordinates":[-115.11838,28.05532]},"properties":{"depth_ft":249,"depth_m":75.8}},{"type":"Feature","geometry":{"type":"Point","coordinates":[-115.11217,28.05532]},"properties":{"depth_ft":247,"depth_m":75.3}},{"type":"Feature","geometry":{"type":"Point","coordinates":[-115.10595,28.05532]},"properties":{"depth_ft":249,"depth_m":75.8}},{"type":"Feature","geometry":{"type":"Point","coordinates":[-115.09974,28.05532]},"properties":{"depth_ft":252,"depth_m":76.8}},{"type":"Feature","geometry":{"type":"Point","coordinates":[-115.09352,28.05532]},"properties":{"depth_ft":254,"depth_m":77.6}},{"type":"Feature","geometry":{"type":"Point","coordinates":[-115.18675,28.04984]},"properties":{"depth_ft":1,"depth_m":0.4}},{"type":"Feature","geometry":{"type":"Point","coordinates":[-115.18054,28.04984]},"properties":{"depth_ft":171,"depth_m":52.0}},{"type":"Feature","geometry":{"type":"Point","coordinates":[-115.17432,28.04984]},"properties":{"depth_ft":235,"depth_m":71.7}},{"type":"Feature","geometry":{"type":"Point","coordinates":[-115.16811,28.04984]},"properties":{"depth_ft":207,"depth_m":63.1}},{"type":"Feature","geometry":{"type":"Point","coordinates":[-115.16189,28.04984]},"properties":{"depth_ft":202,"depth_m":61.7}},{"type":"Feature","geometry":{"type":"Point","coordinates":[-115.15568,28.04984]},"properties":{"depth_ft":228,"depth_m":69.6}},{"type":"Feature","geometry":{"type":"Point","coordinates":[-115.14946,28.04984]},"properties":{"depth_ft":312,"depth_m":95.0}},{"type":"Feature","geometry":{"type":"Point","coordinates":[-115.13082,28.04984]},"properties":{"depth_ft":323,"depth_m":98.4}},{"type":"Feature","geometry":{"type":"Point","coordinates":[-115.1246,28.04984]},"properties":{"depth_ft":289,"depth_m":88.0}},{"type":"Feature","geometry":{"type":"Point","coordinates":[-115.11838,28.04984]},"properties":{"depth_ft":263,"depth_m":80.3}},{"type":"Feature","geometry":{"type":"Point","coordinates":[-115.11217,28.04984]},"properties":{"depth_ft":252,"depth_m":76.9}},{"type":"Feature","geometry":{"type":"Point","coordinates":[-115.10595,28.04984]},"properties":{"depth_ft":248,"depth_m":75.6}},{"type":"Feature","geometry":{"type":"Point","coordinates":[-115.09974,28.04984]},"properties":{"depth_ft":251,"depth_m":76.5}},{"type":"Feature","geometry":{"type":"Point","coordinates":[-115.09352,28.04984]},"properties":{"depth_ft":249,"depth_m":76.0}},{"type":"Feature","geometry":{"type":"Point","coordinates":[-115.18054,28.04436]},"properties":{"depth_ft":35,"depth_m":10.8}},{"type":"Feature","geometry":{"type":"Point","coordinates":[-115.17432,28.04436]},"properties":{"depth_ft":203,"depth_m":61.9}},{"type":"Feature","geometry":{"type":"Point","coordinates":[-115.16811,28.04436]},"properties":{"depth_ft":173,"depth_m":52.8}},{"type":"Feature","geometry":{"type":"Point","coordinates":[-115.16189,28.04436]},"properties":{"depth_ft":155,"depth_m":47.3}},{"type":"Feature","geometry":{"type":"Point","coordinates":[-115.15568,28.04436]},"properties":{"depth_ft":177,"depth_m":54.1}},{"type":"Feature","geometry":{"type":"Point","coordinates":[-115.14946,28.04436]},"properties":{"depth_ft":282,"depth_m":86.1}},{"type":"Feature","geometry":{"type":"Point","coordinates":[-115.13082,28.04436]},"properties":{"depth_ft":329,"depth_m":100.2}},{"type":"Feature","geometry":{"type":"Point","coordinates":[-115.1246,28.04436]},"properties":{"depth_ft":294,"depth_m":89.5}},{"type":"Feature","geometry":{"type":"Point","coordinates":[-115.11838,28.04436]},"properties":{"depth_ft":268,"depth_m":81.6}},{"type":"Feature","geometry":{"type":"Point","coordinates":[-115.11217,28.04436]},"properties":{"depth_ft":252,"depth_m":76.9}},{"type":"Feature","geometry":{"type":"Point","coordinates":[-115.10595,28.04436]},"properties":{"depth_ft":249,"depth_m":76.0}},{"type":"Feature","geometry":{"type":"Point","coordinates":[-115.09974,28.04436]},"properties":{"depth_ft":248,"depth_m":75.6}},{"type":"Feature","geometry":{"type":"Point","coordinates":[-115.09352,28.04436]},"properties":{"depth_ft":249,"depth_m":76.0}},{"type":"Feature","geometry":{"type":"Point","coordinates":[-115.2054,28.03887]},"properties":{"depth_ft":2,"depth_m":0.7}},{"type":"Feature","geometry":{"type":"Point","coordinates":[-115.18054,28.03887]},"properties":{"depth_ft":30,"depth_m":9.1}},{"type":"Feature","geometry":{"type":"Point","coordinates":[-115.17432,28.03887]},"properties":{"depth_ft":105,"depth_m":32.1}},{"type":"Feature","geometry":{"type":"Point","coordinates":[-115.16811,28.03887]},"properties":{"depth_ft":100,"depth_m":30.6}},{"type":"Feature","geometry":{"type":"Point","coordinates":[-115.16189,28.03887]},"properties":{"depth_ft":85,"depth_m":25.8}},{"type":"Feature","geometry":{"type":"Point","coordinates":[-115.15568,28.03887]},"properties":{"depth_ft":107,"depth_m":32.5}},{"type":"Feature","geometry":{"type":"Point","coordinates":[-115.14946,28.03887]},"properties":{"depth_ft":234,"depth_m":71.5}},{"type":"Feature","geometry":{"type":"Point","coordinates":[-115.13082,28.03887]},"properties":{"depth_ft":313,"depth_m":95.3}},{"type":"Feature","geometry":{"type":"Point","coordinates":[-115.1246,28.03887]},"properties":{"depth_ft":283,"depth_m":86.3}},{"type":"Feature","geometry":{"type":"Point","coordinates":[-115.11838,28.03887]},"properties":{"depth_ft":258,"depth_m":78.5}},{"type":"Feature","geometry":{"type":"Point","coordinates":[-115.11217,28.03887]},"properties":{"depth_ft":238,"depth_m":72.6}},{"type":"Feature","geometry":{"type":"Point","coordinates":[-115.10595,28.03887]},"properties":{"depth_ft":238,"depth_m":72.4}},{"type":"Feature","geometry":{"type":"Point","coordinates":[-115.09974,28.03887]},"properties":{"depth_ft":239,"depth_m":73.0}},{"type":"Feature","geometry":{"type":"Point","coordinates":[-115.09352,28.03887]},"properties":{"depth_ft":245,"depth_m":74.8}},{"type":"Feature","geometry":{"type":"Point","coordinates":[-115.23648,28.03339]},"properties":{"depth_ft":55,"depth_m":16.8}},{"type":"Feature","geometry":{"type":"Point","coordinates":[-115.21783,28.03339]},"properties":{"depth_ft":22,"depth_m":6.7}},{"type":"Feature","geometry":{"type":"Point","coordinates":[-115.21162,28.03339]},"properties":{"depth_ft":67,"depth_m":20.4}},{"type":"Feature","geometry":{"type":"Point","coordinates":[-115.2054,28.03339]},"properties":{"depth_ft":88,"depth_m":26.8}},{"type":"Feature","geometry":{"type":"Point","coordinates":[-115.19918,28.03339]},"properties":{"depth_ft":59,"depth_m":18.0}},{"type":"Feature","geometry":{"type":"Point","coordinates":[-115.19297,28.03339]},"properties":{"depth_ft":25,"depth_m":7.6}},{"type":"Feature","geometry":{"type":"Point","coordinates":[-115.18054,28.03339]},"properties":{"depth_ft":6,"depth_m":1.9}},{"type":"Feature","geometry":{"type":"Point","coordinates":[-115.17432,28.03339]},"properties":{"depth_ft":40,"depth_m":12.1}},{"type":"Feature","geometry":{"type":"Point","coordinates":[-115.16811,28.03339]},"properties":{"depth_ft":43,"depth_m":13.1}},{"type":"Feature","geometry":{"type":"Point","coordinates":[-115.16189,28.03339]},"properties":{"depth_ft":38,"depth_m":11.5}},{"type":"Feature","geometry":{"type":"Point","coordinates":[-115.15568,28.03339]},"properties":{"depth_ft":70,"depth_m":21.3}},{"type":"Feature","geometry":{"type":"Point","coordinates":[-115.14946,28.03339]},"properties":{"depth_ft":192,"depth_m":58.5}},{"type":"Feature","geometry":{"type":"Point","coordinates":[-115.14325,28.03339]},"properties":{"depth_ft":297,"depth_m":90.5}},{"type":"Feature","geometry":{"type":"Point","coordinates":[-115.13703,28.03339]},"properties":{"depth_ft":311,"depth_m":94.9}},{"type":"Feature","geometry":{"type":"Point","coordinates":[-115.13082,28.03339]},"properties":{"depth_ft":285,"depth_m":86.7}},{"type":"Feature","geometry":{"type":"Point","coordinates":[-115.1246,28.03339]},"properties":{"depth_ft":255,"depth_m":77.8}},{"type":"Feature","geometry":{"type":"Point","coordinates":[-115.11838,28.03339]},"properties":{"depth_ft":235,"depth_m":71.5}},{"type":"Feature","geometry":{"type":"Point","coordinates":[-115.11217,28.03339]},"properties":{"depth_ft":219,"depth_m":66.6}},{"type":"Feature","geometry":{"type":"Point","coordinates":[-115.10595,28.03339]},"properties":{"depth_ft":230,"depth_m":70.1}},{"type":"Feature","geometry":{"type":"Point","coordinates":[-115.09974,28.03339]},"properties":{"depth_ft":240,"depth_m":73.3}},{"type":"Feature","geometry":{"type":"Point","coordinates":[-115.09352,28.03339]},"properties":{"depth_ft":243,"depth_m":74.0}},{"type":"Feature","geometry":{"type":"Point","coordinates":[-115.23648,28.0279]},"properties":{"depth_ft":64,"depth_m":19.4}},{"type":"Feature","geometry":{"type":"Point","coordinates":[-115.23026,28.0279]},"properties":{"depth_ft":18,"depth_m":5.3}},{"type":"Feature","geometry":{"type":"Point","coordinates":[-115.22405,28.0279]},"properties":{"depth_ft":9,"depth_m":2.7}},{"type":"Feature","geometry":{"type":"Point","coordinates":[-115.21783,28.0279]},"properties":{"depth_ft":57,"depth_m":17.5}},{"type":"Feature","geometry":{"type":"Point","coordinates":[-115.21162,28.0279]},"properties":{"depth_ft":166,"depth_m":50.6}},{"type":"Feature","geometry":{"type":"Point","coordinates":[-115.2054,28.0279]},"properties":{"depth_ft":168,"depth_m":51.1}},{"type":"Feature","geometry":{"type":"Point","coordinates":[-115.19918,28.0279]},"properties":{"depth_ft":103,"depth_m":31.4}},{"type":"Feature","geometry":{"type":"Point","coordinates":[-115.19297,28.0279]},"properties":{"depth_ft":44,"depth_m":13.3}},{"type":"Feature","geometry":{"type":"Point","coordinates":[-115.18675,28.0279]},"properties":{"depth_ft":18,"depth_m":5.4}},{"type":"Feature","geometry":{"type":"Point","coordinates":[-115.18054,28.0279]},"properties":{"depth_ft":17,"depth_m":5.2}},{"type":"Feature","geometry":{"type":"Point","coordinates":[-115.17432,28.0279]},"properties":{"depth_ft":14,"depth_m":4.2}},{"type":"Feature","geometry":{"type":"Point","coordinates":[-115.16811,28.0279]},"properties":{"depth_ft":15,"depth_m":4.6}},{"type":"Feature","geometry":{"type":"Point","coordinates":[-115.16189,28.0279]},"properties":{"depth_ft":8,"depth_m":2.6}},{"type":"Feature","geometry":{"type":"Point","coordinates":[-115.15568,28.0279]},"properties":{"depth_ft":30,"depth_m":9.1}},{"type":"Feature","geometry":{"type":"Point","coordinates":[-115.14946,28.0279]},"properties":{"depth_ft":164,"depth_m":50.1}},{"type":"Feature","geometry":{"type":"Point","coordinates":[-115.14325,28.0279]},"properties":{"depth_ft":278,"depth_m":84.8}},{"type":"Feature","geometry":{"type":"Point","coordinates":[-115.13703,28.0279]},"properties":{"depth_ft":282,"depth_m":86.1}},{"type":"Feature","geometry":{"type":"Point","coordinates":[-115.13082,28.0279]},"properties":{"depth_ft":253,"depth_m":77.0}},{"type":"Feature","geometry":{"type":"Point","coordinates":[-115.1246,28.0279]},"properties":{"depth_ft":224,"depth_m":68.2}},{"type":"Feature","geometry":{"type":"Point","coordinates":[-115.11838,28.0279]},"properties":{"depth_ft":214,"depth_m":65.2}},{"type":"Feature","geometry":{"type":"Point","coordinates":[-115.11217,28.0279]},"properties":{"depth_ft":220,"depth_m":66.9}},{"type":"Feature","geometry":{"type":"Point","coordinates":[-115.10595,28.0279]},"properties":{"depth_ft":230,"depth_m":70.1}},{"type":"Feature","geometry":{"type":"Point","coordinates":[-115.09974,28.0279]},"properties":{"depth_ft":239,"depth_m":72.9}},{"type":"Feature","geometry":{"type":"Point","coordinates":[-115.09352,28.0279]},"properties":{"depth_ft":243,"depth_m":74.0}},{"type":"Feature","geometry":{"type":"Point","coordinates":[-115.23648,28.02242]},"properties":{"depth_ft":129,"depth_m":39.3}},{"type":"Feature","geometry":{"type":"Point","coordinates":[-115.23026,28.02242]},"properties":{"depth_ft":89,"depth_m":27.1}},{"type":"Feature","geometry":{"type":"Point","coordinates":[-115.22405,28.02242]},"properties":{"depth_ft":68,"depth_m":20.7}},{"type":"Feature","geometry":{"type":"Point","coordinates":[-115.21783,28.02242]},"properties":{"depth_ft":109,"depth_m":33.1}},{"type":"Feature","geometry":{"type":"Point","coordinates":[-115.21162,28.02242]},"properties":{"depth_ft":251,"depth_m":76.5}},{"type":"Feature","geometry":{"type":"Point","coordinates":[-115.2054,28.02242]},"properties":{"depth_ft":229,"depth_m":69.8}},{"type":"Feature","geometry":{"type":"Point","coordinates":[-115.19918,28.02242]},"properties":{"depth_ft":128,"depth_m":38.9}},{"type":"Feature","geometry":{"type":"Point","coordinates":[-115.19297,28.02242]},"properties":{"depth_ft":53,"depth_m":16.3}},{"type":"Feature","geometry":{"type":"Point","coordinates":[-115.18675,28.02242]},"properties":{"depth_ft":28,"depth_m":8.7}},{"type":"Feature","geometry":{"type":"Point","coordinates":[-115.18054,28.02242]},"properties":{"depth_ft":32,"depth_m":9.6}},{"type":"Feature","geometry":{"type":"Point","coordinates":[-115.17432,28.02242]},"properties":{"depth_ft":36,"depth_m":10.9}},{"type":"Feature","geometry":{"type":"Point","coordinates":[-115.16811,28.02242]},"properties":{"depth_ft":24,"depth_m":7.2}},{"type":"Feature","geometry":{"type":"Point","coordinates":[-115.16189,28.02242]},"properties":{"depth_ft":8,"depth_m":2.6}},{"type":"Feature","geometry":{"type":"Point","coordinates":[-115.15568,28.02242]},"properties":{"depth_ft":30,"depth_m":9.2}},{"type":"Feature","geometry":{"type":"Point","coordinates":[-115.14946,28.02242]},"properties":{"depth_ft":154,"depth_m":47.0}},{"type":"Feature","geometry":{"type":"Point","coordinates":[-115.14325,28.02242]},"properties":{"depth_ft":253,"depth_m":77.1}},{"type":"Feature","geometry":{"type":"Point","coordinates":[-115.13703,28.02242]},"properties":{"depth_ft":254,"depth_m":77.5}},{"type":"Feature","geometry":{"type":"Point","coordinates":[-115.13082,28.02242]},"properties":{"depth_ft":215,"depth_m":65.6}},{"type":"Feature","geometry":{"type":"Point","coordinates":[-115.1246,28.02242]},"properties":{"depth_ft":190,"depth_m":57.9}},{"type":"Feature","geometry":{"type":"Point","coordinates":[-115.11838,28.02242]},"properties":{"depth_ft":194,"depth_m":59.1}},{"type":"Feature","geometry":{"type":"Point","coordinates":[-115.11217,28.02242]},"properties":{"depth_ft":220,"depth_m":66.9}},{"type":"Feature","geometry":{"type":"Point","coordinates":[-115.10595,28.02242]},"properties":{"depth_ft":229,"depth_m":69.9}},{"type":"Feature","geometry":{"type":"Point","coordinates":[-115.09974,28.02242]},"properties":{"depth_ft":231,"depth_m":70.5}},{"type":"Feature","geometry":{"type":"Point","coordinates":[-115.09352,28.02242]},"properties":{"depth_ft":236,"depth_m":71.9}},{"type":"Feature","geometry":{"type":"Point","coordinates":[-115.23648,28.01694]},"properties":{"depth_ft":147,"depth_m":44.9}},{"type":"Feature","geometry":{"type":"Point","coordinates":[-115.23026,28.01694]},"properties":{"depth_ft":113,"depth_m":34.4}},{"type":"Feature","geometry":{"type":"Point","coordinates":[-115.22405,28.01694]},"properties":{"depth_ft":107,"depth_m":32.7}},{"type":"Feature","geometry":{"type":"Point","coordinates":[-115.21783,28.01694]},"properties":{"depth_ft":165,"depth_m":50.4}},{"type":"Feature","geometry":{"type":"Point","coordinates":[-115.21162,28.01694]},"properties":{"depth_ft":280,"depth_m":85.4}},{"type":"Feature","geometry":{"type":"Point","coordinates":[-115.2054,28.01694]},"properties":{"depth_ft":230,"depth_m":70.0}},{"type":"Feature","geometry":{"type":"Point","coordinates":[-115.19918,28.01694]},"properties":{"depth_ft":109,"depth_m":33.3}},{"type":"Feature","geometry":{"type":"Point","coordinates":[-115.19297,28.01694]},"properties":{"depth_ft":42,"depth_m":12.7}},{"type":"Feature","geometry":{"type":"Point","coordinates":[-115.18675,28.01694]},"properties":{"depth_ft":26,"depth_m":8.0}},{"type":"Feature","geometry":{"type":"Point","coordinates":[-115.18054,28.01694]},"properties":{"depth_ft":45,"depth_m":13.7}},{"type":"Feature","geometry":{"type":"Point","coordinates":[-115.17432,28.01694]},"properties":{"depth_ft":60,"depth_m":18.3}},{"type":"Feature","geometry":{"type":"Point","coordinates":[-115.16811,28.01694]},"properties":{"depth_ft":48,"depth_m":14.8}},{"type":"Feature","geometry":{"type":"Point","coordinates":[-115.16189,28.01694]},"properties":{"depth_ft":38,"depth_m":11.7}},{"type":"Feature","geometry":{"type":"Point","coordinates":[-115.15568,28.01694]},"properties":{"depth_ft":63,"depth_m":19.1}},{"type":"Feature","geometry":{"type":"Point","coordinates":[-115.14946,28.01694]},"properties":{"depth_ft":167,"depth_m":51.0}},{"type":"Feature","geometry":{"type":"Point","coordinates":[-115.14325,28.01694]},"properties":{"depth_ft":247,"depth_m":75.1}},{"type":"Feature","geometry":{"type":"Point","coordinates":[-115.13703,28.01694]},"properties":{"depth_ft":240,"depth_m":73.2}},{"type":"Feature","geometry":{"type":"Point","coordinates":[-115.13082,28.01694]},"properties":{"depth_ft":198,"depth_m":60.4}},{"type":"Feature","geometry":{"type":"Point","coordinates":[-115.1246,28.01694]},"properties":{"depth_ft":177,"depth_m":54.0}},{"type":"Feature","geometry":{"type":"Point","coordinates":[-115.11838,28.01694]},"properties":{"depth_ft":186,"depth_m":56.5}},{"type":"Feature","geometry":{"type":"Point","coordinates":[-115.11217,28.01694]},"properties":{"depth_ft":215,"depth_m":65.4}},{"type":"Feature","geometry":{"type":"Point","coordinates":[-115.10595,28.01694]},"properties":{"depth_ft":226,"depth_m":69.0}},{"type":"Feature","geometry":{"type":"Point","coordinates":[-115.09974,28.01694]},"properties":{"depth_ft":230,"depth_m":70.1}},{"type":"Feature","geometry":{"type":"Point","coordinates":[-115.09352,28.01694]},"properties":{"depth_ft":235,"depth_m":71.5}}]}