{"type":"FeatureCollection","features":[{"type":"Feature","geometry":{"type":"Polygon","coordinates":[[[-124.207,41.958],[-124.285,41.958],[-124.285,41.959],[-124.286,41.96],[-124.286,41.96],[-124.286,41.961],[-124.287,41.962],[-124.287,41.963],[-124.287,41.964],[-124.287,41.965],[-124.288,41.965],[-124.288,41.966],[-124.289,41.966],[-124.289,41.967],[-124.29,41.967],[-124.29,41.968],[-124.291,41.968],[-124.291,41.969],[-124.292,41.97],[-124.293,41.97],[-124.294,41.971],[-124.294,41.972],[-124.295,41.972],[-124.296,41.973],[-124.297,41.974],[-124.297,41.974],[-124.298,41.975],[-124.299,41.976],[-124.299,41.977],[-124.3,41.977],[-124.3,41.978],[-124.301,41.979],[-124.302,41.98],[-124.302,41.98],[-124.303,41.981],[-124.303,41.982],[-124.304,41.983],[-124.304,41.983],[-124.305,41.984],[-124.305,41.985],[-124.305,41.986],[-124.306,41.987],[-124.306,41.988],[-124.307,41.988],[-124.307,41.989],[-124.307,41.99],[-124.307,41.991],[-124.308,41.992],[-124.308,41.993],[-124.308,41.993],[-124.31,41.993],[-124.311,41.993],[-124.312,41.993],[-124.313,41.994],[-124.314,41.994],[-124.315,41.994],[-124.316,41.995],[-124.317,41.995],[-124.318,41.995],[-124.319,41.996],[-124.32,41.996],[-124.321,41.996],[-124.323,41.997],[-124.324,41.997],[-124.325,41.998],[-124.326,41.998],[-124.327,41.998],[-124.328,41.999],[-124.328,41.999],[-124.328,41.999],[-124.329,42.0],[-124.33,42.0],[-124.26,42.0],[-124.234,42.0],[-124.212,42.0],[-124.212,42.0],[-124.212,41.999],[-124.212,41.999],[-124.211,41.999],[-124.211,41.998],[-124.211,41.998],[-124.211,41.998],[-124.211,41.997],[-124.21,41.997],[-124.21,41.996],[-124.21,41.996],[-124.21,41.996],[-124.21,41.995],[-124.21,41.995],[-124.21,41.994],[-124.21,41.994],[-124.21,41.993],[-124.21,41.993],[-124.209,41.992],[-124.209,41.992],[-124.209,41.992],[-124.209,41.991],[-124.209,41.991],[-124.209,41.991],[-124.209,41.991],[-124.209,41.991],[-124.209,41.991],[-124.209,41.991],[-124.209,41.99],[-124.209,41.99],[-124.209,41.99],[-124.209,41.99],[-124.209,41.99],[-124.209,41.99],[-124.209,41.99],[-124.209,41.99],[-124.209,41.99],[-124.209,41.99],[-124.209,41.99],[-124.209,41.989],[-124.209,41.989],[-124.209,41.989],[-124.209,41.989],[-124.209,41.989],[-124.209,41.989],[-124.209,41.989],[-124.209,41.989],[-124.209,41.989],[-124.208,41.989],[-124.208,41.988],[-124.208,41.988],[-124.208,41.988],[-124.208,41.988],[-124.207,41.988],[-124.207,41.988],[-124.207,41.988],[-124.207,41.988],[-124.207,41.988],[-124.206,41.988],[-124.206,41.987],[-124.206,41.987],[-124.206,41.987],[-124.206,41.987],[-124.206,41.987],[-124.206,41.987],[-124.206,41.986],[-124.206,41.986],[-124.206,41.986],[-124.206,41.986],[-124.206,41.985],[-124.206,41.985],[-124.205,41.985],[-124.205,41.984],[-124.205,41.984],[-124.205,41.984],[-124.205,41.983],[-124.205,41.983],[-124.205,41.983],[-124.205,41.982],[-124.205,41.982],[-124.205,41.982],[-124.205,41.982],[-124.205,41.981],[-124.205,41.981],[-124.205,41.98],[-124.205,41.98],[-124.205,41.98],[-124.205,41.979],[-124.205,41.979],[-124.205,41.979],[-124.205,41.978],[-124.205,41.978],[-124.205,41.978],[-124.205,41.977],[-124.205,41.977],[-124.205,41.977],[-124.205,41.977],[-124.205,41.976],[-124.205,41.976],[-124.205,41.975],[-124.206,41.975],[-124.205,41.975],[-124.205,41.974],[-124.205,41.974],[-124.206,41.973],[-124.206,41.973],[-124.206,41.972],[-124.206,41.972],[-124.206,41.971],[-124.206,41.971],[-124.206,41.971],[-124.206,41.97],[-124.206,41.97],[-124.206,41.97],[-124.206,41.969],[-124.206,41.969],[-124.205,41.969],[-124.205,41.968],[-124.205,41.968],[-124.205,41.967],[-124.206,41.967],[-124.206,41.967],[-124.206,41.967],[-124.206,41.966],[-124.206,41.966],[-124.206,41.965],[-124.206,41.965],[-124.206,41.965],[-124.206,41.964],[-124.206,41.964],[-124.206,41.963],[-124.206,41.963],[-124.206,41.962],[-124.206,41.962],[-124.206,41.962],[-124.206,41.962],[-124.206,41.961],[-124.206,41.961],[-124.207,41.96],[-124.207,41.959],[-124.207,41.959],[-124.207,41.958],[-124.207,41.958]]]},"properties":{"id":"pyramid-point-state-marine-conservation-area","name":"Pyramid Point State Marine Conservation Area","type":"SMCA","shortName":"Pyramid Point","areaKm2":null,"ccrCitation":null}}]}