{"type":"FeatureCollection","features":[{"type":"Feature","geometry":{"type":"Polygon","coordinates":[[[-118.38916,33.32069],[-118.38903,33.32053],[-118.38907,33.32045],[-118.38899,33.32041],[-118.38891,33.32052],[-118.3888,33.32051],[-118.38878,33.32043],[-118.38886,33.32035],[-118.38874,33.32035],[-118.3886,33.32043],[-118.38814,33.32034],[-118.38767,33.32033],[-118.38733,33.32039],[-118.38695,33.32055],[-118.38659,33.32059],[-118.38616,33.32064],[-118.38585,33.32063],[-118.38563,33.32057],[-118.38569,33.32044],[-118.38569,33.32034],[-118.38547,33.3205],[-118.38539,33.32073],[-118.38551,33.32066],[-118.38558,33.32071],[-118.3854,33.32082],[-118.38525,33.32091],[-118.38513,33.32101],[-118.38492,33.32099],[-118.38482,33.32098],[-118.38441,33.32102],[-118.38422,33.32104],[-118.38387,33.32101],[-118.38322,33.3208],[-118.3829,33.32072],[-118.38236,33.3207],[-118.38205,33.32086],[-118.38155,33.32084],[-118.38127,33.32083],[-118.38089,33.32072],[-118.38057,33.32075],[-118.38014,33.32078],[-118.37981,33.32079],[-118.37958,33.32074],[-118.37939,33.32069],[-118.37915,33.32063],[-118.37929,33.32051],[-118.37926,33.32048],[-118.37909,33.32062],[-118.37885,33.32074],[-118.37852,33.32061],[-118.37766,33.3204],[-118.37666,33.3202],[-118.37651,33.32029],[-118.3758,33.32015],[-118.37559,33.3201],[-118.37519,33.32002],[-118.37496,33.31999],[-118.3742,33.31994],[-118.3735,33.31974],[-118.3728,33.31949],[-118.3716,33.31891],[-118.37098,33.31854],[-118.37044,33.31816],[-118.3697,33.31786],[-118.36933,33.31776],[-118.36905,33.31765],[-118.36878,33.3175],[-118.36822,33.31741],[-118.36761,33.3172],[-118.36669,33.31686],[-118.3665,33.31676],[-118.36611,33.31673],[-118.36581,33.31667],[-118.36553,33.31658],[-118.36538,33.3165],[-118.36468,33.3161],[-118.364,33.31582],[-118.36369,33.31579],[-118.36347,33.3158],[-118.36301,33.3157],[-118.3625,33.31564],[-118.36195,33.31561],[-118.36112,33.31548],[-118.3605,33.31556],[-118.35997,33.31546],[-118.35957,33.31533],[-118.35868,33.31504],[-118.35868,33.31193],[-118.54132,33.31193],[-118.54132,33.43428],[-118.54129,33.43429],[-118.54096,33.43446],[-118.53974,33.4346],[-118.53896,33.43474],[-118.53871,33.43466],[-118.53831,33.43463],[-118.53795,33.43464],[-118.53761,33.43461],[-118.53739,33.43467],[-118.53717,33.43468],[-118.53703,33.43455],[-118.53693,33.43435],[-118.53665,33.43433],[-118.53641,33.43439],[-118.53611,33.43435],[-118.53584,33.43425],[-118.53562,33.43411],[-118.53545,33.43384],[-118.53543,33.43367],[-118.53545,33.43337],[-118.53578,33.43252],[-118.53584,33.43195],[-118.53573,33.43178],[-118.53554,33.43154],[-118.53542,33.43132],[-118.53559,33.43103],[-118.5357,33.43079],[-118.53584,33.43058],[-118.53594,33.43045],[-118.53586,33.43031],[-118.53559,33.43029],[-118.53539,33.43031],[-118.53512,33.43013],[-118.53495,33.43021],[-118.53478,33.43012],[-118.53457,33.42979],[-118.53435,33.42966],[-118.53426,33.42953],[-118.53419,33.42939],[-118.53432,33.42911],[-118.53417,33.42906],[-118.53389,33.42915],[-118.53373,33.42924],[-118.53373,33.42942],[-118.53358,33.42954],[-118.53323,33.42904],[-118.53331,33.42886],[-118.53332,33.42874],[-118.53314,33.42875],[-118.53296,33.42886],[-118.5327,33.42898],[-118.5325,33.42917],[-118.53234,33.4294],[-118.53239,33.4296],[-118.53215,33.42974],[-118.53192,33.42992],[-118.53189,33.43011],[-118.53148,33.43046],[-118.53127,33.43072],[-118.53106,33.43068],[-118.5311,33.43049],[-118.53104,33.4304],[-118.53089,33.43027],[-118.53084,33.43013],[-118.53071,33.42999],[-118.5303,33.42987],[-118.53,33.42993],[-118.52979,33.43006],[-118.52954,33.4301],[-118.52935,33.43026],[-118.52921,33.43043],[-118.52906,33.43037],[-118.52904,33.43019],[-118.52893,33.43014],[-118.52875,33.43025],[-118.52871,33.43041],[-118.5286,33.43058],[-118.52831,33.43069],[-118.52801,33.43077],[-118.5277,33.43083],[-118.52744,33.43077],[-118.52727,33.4307],[-118.52701,33.43075],[-118.52676,33.43075],[-118.5265,33.43067],[-118.52617,33.43048],[-118.52564,33.43048],[-118.52532,33.43058],[-118.52512,33.43071],[-118.52445,33.43087],[-118.52413,33.43088],[-118.52359,33.43092],[-118.52314,33.43078],[-118.52301,33.43059],[-118.52293,33.43042],[-118.52268,33.43035],[-118.52251,33.43028],[-118.52243,33.43015],[-118.5223,33.43003],[-118.52205,33.4299],[-118.52186,33.42971],[-118.52162,33.4296],[-118.52136,33.42944],[-118.52118,33.42926],[-118.52101,33.42905],[-118.52073,33.42892],[-118.52016,33.42824],[-118.51991,33.42787],[-118.51967,33.4277],[-118.51941,33.42756],[-118.51906,33.42734],[-118.51855,33.42699],[-118.51835,33.42694],[-118.51803,33.42699],[-118.51775,33.42697],[-118.51748,33.42701],[-118.51725,33.42708],[-118.51701,33.42709],[-118.51683,33.42707],[-118.51662,33.42695],[-118.5165,33.42674],[-118.51646,33.4265],[-118.51631,33.42625],[-118.51624,33.42598],[-118.51607,33.42579],[-118.51604,33.42566],[-118.51612,33.42553],[-118.51617,33.42536],[-118.51617,33.42521],[-118.51626,33.42509],[-118.51626,33.42491],[-118.51636,33.4248],[-118.51634,33.42469],[-118.51626,33.42449],[-118.51629,33.42437],[-118.51627,33.42419],[-118.5161,33.42395],[-118.51604,33.4236],[-118.51614,33.4233],[-118.51629,33.42316],[-118.51619,33.42264],[-118.51592,33.42254],[-118.51574,33.42232],[-118.51557,33.42232],[-118.51531,33.42238],[-118.51526,33.42223],[-118.51515,33.42217],[-118.5146,33.42245],[-118.51468,33.42264],[-118.51464,33.42272],[-118.5145,33.42266],[-118.51432,33.42264],[-118.51412,33.4227],[-118.51398,33.42272],[-118.51377,33.42253],[-118.51356,33.42248],[-118.51339,33.42233],[-118.51331,33.42214],[-118.51309,33.42204],[-118.51301,33.42197],[-118.513,33.42185],[-118.51279,33.42188],[-118.51263,33.42198],[-118.51252,33.42205],[-118.51212,33.42256],[-118.51204,33.4227],[-118.51212,33.42295],[-118.51229,33.4231],[-118.51236,33.42325],[-118.5124,33.42342],[-118.51241,33.42378],[-118.51245,33.424],[-118.51242,33.42415],[-118.51215,33.42449],[-118.51212,33.42467],[-118.51199,33.42488],[-118.51182,33.42502],[-118.51181,33.42511],[-118.51183,33.42516],[-118.51193,33.42516],[-118.51206,33.42517],[-118.51213,33.42525],[-118.5121,33.42535],[-118.51225,33.4255],[-118.51231,33.42573],[-118.51228,33.42596],[-118.51222,33.42614],[-118.51231,33.42635],[-118.51237,33.42656],[-118.51242,33.42686],[-118.51246,33.4272],[-118.51242,33.42743],[-118.5123,33.42758],[-118.51205,33.42769],[-118.51184,33.42785],[-118.51174,33.42805],[-118.5116,33.42823],[-118.51131,33.42846],[-118.51107,33.42855],[-118.5109,33.42867],[-118.51081,33.42884],[-118.51057,33.42899],[-118.5104,33.42924],[-118.5104,33.42944],[-118.50998,33.42983],[-118.50965,33.43025],[-118.50957,33.43058],[-118.50957,33.43085],[-118.50983,33.43152],[-118.50986,33.43176],[-118.50974,33.43194],[-118.50947,33.43207],[-118.50905,33.4322],[-118.50879,33.43217],[-118.50795,33.4322],[-118.50754,33.43218],[-118.50735,33.43217],[-118.50728,33.43215],[-118.50711,33.43212],[-118.50707,33.43212],[-118.50689,33.43211],[-118.50667,33.43217],[-118.50627,33.43244],[-118.50615,33.43288],[-118.50581,33.43329],[-118.50559,33.43362],[-118.50539,33.43382],[-118.5052,33.43409],[-118.50508,33.43436],[-118.50495,33.43451],[-118.50441,33.43457],[-118.50397,33.43475],[-118.5036,33.43487],[-118.50325,33.43499],[-118.50282,33.4351],[-118.50272,33.43526],[-118.50251,33.43539],[-118.50231,33.43589],[-118.50215,33.4361],[-118.50196,33.43614],[-118.50177,33.43612],[-118.50161,33.43605],[-118.50141,33.436],[-118.50129,33.43593],[-118.50112,33.43583],[-118.50101,33.43572],[-118.50108,33.4353],[-118.5013,33.43515],[-118.5018,33.43436],[-118.50219,33.43405],[-118.50261,33.4334],[-118.50271,33.43321],[-118.50268,33.43288],[-118.50266,33.43263],[-118.50257,33.43234],[-118.50265,33.43203],[-118.50281,33.43186],[-118.50323,33.43169],[-118.50357,33.43145],[-118.50414,33.4312],[-118.50436,33.43107],[-118.50439,33.431],[-118.50438,33.43084],[-118.50449,33.43041],[-118.50446,33.43011],[-118.50468,33.42981],[-118.5049,33.42977],[-118.50496,33.42968],[-118.50497,33.42946],[-118.50504,33.42938],[-118.50513,33.42927],[-118.50519,33.4292],[-118.50533,33.42923],[-118.50539,33.42924],[-118.50553,33.42952],[-118.50566,33.42979],[-118.50573,33.4301],[-118.50556,33.43046],[-118.50549,33.43068],[-118.50513,33.43078],[-118.50505,33.43092],[-118.50512,33.43103],[-118.5052,33.4311],[-118.50527,33.43115],[-118.5054,33.43114],[-118.50546,33.43108],[-118.50577,33.43074],[-118.5059,33.43043],[-118.50592,33.42987],[-118.50587,33.42977],[-118.50573,33.42929],[-118.50571,33.42907],[-118.50574,33.42884],[-118.50596,33.42864],[-118.50619,33.42855],[-118.50641,33.42837],[-118.50659,33.42827],[-118.50675,33.42816],[-118.50682,33.42798],[-118.50674,33.42778],[-118.50662,33.4276],[-118.50645,33.42721],[-118.50616,33.4267],[-118.50603,33.42646],[-118.50577,33.42626],[-118.50564,33.42611],[-118.50558,33.42581],[-118.50566,33.4256],[-118.50572,33.42539],[-118.50563,33.42526],[-118.50547,33.42509],[-118.50533,33.42505],[-118.50524,33.4249],[-118.50511,33.42479],[-118.5049,33.42477],[-118.50478,33.42473],[-118.50458,33.42458],[-118.50446,33.42457],[-118.50429,33.42456],[-118.5042,33.42446],[-118.50434,33.42437],[-118.50427,33.42423],[-118.50417,33.42429],[-118.50398,33.4242],[-118.50388,33.42424],[-118.50379,33.42421],[-118.5038,33.42412],[-118.5037,33.42407],[-118.50359,33.4241],[-118.50351,33.42408],[-118.50353,33.42392],[-118.50341,33.42388],[-118.50329,33.42393],[-118.50318,33.42396],[-118.50319,33.42387],[-118.50311,33.4238],[-118.50312,33.42374],[-118.50302,33.42369],[-118.5029,33.42373],[-118.50282,33.42376],[-118.50264,33.42367],[-118.50259,33.42359],[-118.50262,33.4235],[-118.50245,33.42342],[-118.50237,33.42339],[-118.50231,33.42342],[-118.50217,33.4234],[-118.50207,33.4234],[-118.50183,33.42333],[-118.50149,33.42319],[-118.50155,33.42312],[-118.50151,33.42298],[-118.50144,33.42295],[-118.5013,33.423],[-118.5012,33.423],[-118.50115,33.42308],[-118.50114,33.42322],[-118.50109,33.42331],[-118.50106,33.42326],[-118.50099,33.42326],[-118.50095,33.42334],[-118.5008,33.4233],[-118.50066,33.42323],[-118.50057,33.42303],[-118.50058,33.42295],[-118.50042,33.42285],[-118.50031,33.42283],[-118.5001,33.42278],[-118.49975,33.42264],[-118.49958,33.42253],[-118.49945,33.42236],[-118.49944,33.42217],[-118.49952,33.4221],[-118.49971,33.42199],[-118.49979,33.42189],[-118.4997,33.4218],[-118.49958,33.42183],[-118.49954,33.4219],[-118.4994,33.42188],[-118.49917,33.42192],[-118.49916,33.42178],[-118.49924,33.42167],[-118.49926,33.42157],[-118.49912,33.42153],[-118.49886,33.42173],[-118.49875,33.42175],[-118.49866,33.42163],[-118.49843,33.4216],[-118.49816,33.42159],[-118.49785,33.42155],[-118.49759,33.42154],[-118.49724,33.42157],[-118.49689,33.42166],[-118.49664,33.42172],[-118.49636,33.4219],[-118.49602,33.42191],[-118.49565,33.42184],[-118.49549,33.42173],[-118.49541,33.42162],[-118.49526,33.42167],[-118.49515,33.42165],[-118.49506,33.42169],[-118.49494,33.42166],[-118.49483,33.42156],[-118.4949,33.42147],[-118.49496,33.42146],[-118.49499,33.42141],[-118.49496,33.42135],[-118.49487,33.42134],[-118.49482,33.4214],[-118.49471,33.42139],[-118.49457,33.42133],[-118.49435,33.42133],[-118.49397,33.42136],[-118.49388,33.42133],[-118.49383,33.4214],[-118.49381,33.42151],[-118.49359,33.42157],[-118.49339,33.4216],[-118.49323,33.42164],[-118.49306,33.42166],[-118.49299,33.42162],[-118.49291,33.42155],[-118.49273,33.4215],[-118.49259,33.4214],[-118.49251,33.42138],[-118.49245,33.42143],[-118.49239,33.42144],[-118.49232,33.42141],[-118.49228,33.42131],[-118.49204,33.42126],[-118.49192,33.42137],[-118.49183,33.42132],[-118.49176,33.42116],[-118.49177,33.42108],[-118.49186,33.42101],[-118.49195,33.42098],[-118.49198,33.42094],[-118.49192,33.4209],[-118.49178,33.4209],[-118.49169,33.42095],[-118.49159,33.42099],[-118.4915,33.42104],[-118.49141,33.42101],[-118.49135,33.42099],[-118.4913,33.42092],[-118.4912,33.42083],[-118.49103,33.42066],[-118.49089,33.42069],[-118.49076,33.42064],[-118.49063,33.42057],[-118.49044,33.42032],[-118.49031,33.4202],[-118.49007,33.42012],[-118.48995,33.42004],[-118.48983,33.41999],[-118.48989,33.41991],[-118.48985,33.41985],[-118.4896,33.41985],[-118.48955,33.41989],[-118.48949,33.41993],[-118.4895,33.41998],[-118.48948,33.42002],[-118.4894,33.42003],[-118.48935,33.41999],[-118.48909,33.42003],[-118.48892,33.41995],[-118.48884,33.41988],[-118.48863,33.41986],[-118.48854,33.41984],[-118.48844,33.41977],[-118.48857,33.41962],[-118.48869,33.4195],[-118.48876,33.4194],[-118.48869,33.41927],[-118.48856,33.41921],[-118.48835,33.41922],[-118.48821,33.4191],[-118.48802,33.4189],[-118.48807,33.41858],[-118.48817,33.41843],[-118.48805,33.41833],[-118.488,33.41816],[-118.48795,33.41811],[-118.48776,33.41809],[-118.48765,33.41808],[-118.48756,33.41794],[-118.4875,33.41776],[-118.48748,33.41771],[-118.4875,33.4174],[-118.48738,33.41733],[-118.48729,33.41722],[-118.48729,33.41707],[-118.48728,33.41693],[-118.48721,33.41676],[-118.48715,33.41664],[-118.4872,33.41639],[-118.48715,33.41616],[-118.48712,33.41608],[-118.48714,33.41595],[-118.48695,33.41582],[-118.48679,33.41571],[-118.48673,33.4156],[-118.48669,33.41549],[-118.48671,33.41539],[-118.48666,33.41536],[-118.48662,33.4153],[-118.48666,33.41522],[-118.48652,33.41504],[-118.48644,33.4148],[-118.48645,33.41464],[-118.4865,33.41455],[-118.48653,33.41452],[-118.48661,33.41458],[-118.48667,33.41449],[-118.48671,33.41436],[-118.48669,33.41425],[-118.48662,33.4141],[-118.48658,33.41398],[-118.48656,33.41389],[-118.48651,33.41379],[-118.48646,33.41377],[-118.48638,33.41383],[-118.48638,33.4139],[-118.48638,33.41403],[-118.48642,33.41414],[-118.48642,33.4142],[-118.48632,33.4142],[-118.4862,33.41405],[-118.48598,33.41394],[-118.48594,33.41386],[-118.48596,33.41376],[-118.48588,33.4137],[-118.48587,33.41363],[-118.4859,33.41359],[-118.4859,33.41352],[-118.4858,33.41348],[-118.48561,33.41344],[-118.48536,33.41345],[-118.48526,33.41338],[-118.48516,33.41308],[-118.48481,33.41266],[-118.48473,33.41241],[-118.48474,33.41167],[-118.4848,33.41135],[-118.48484,33.41107],[-118.48492,33.41085],[-118.48506,33.41066],[-118.48513,33.41048],[-118.48512,33.41027],[-118.48501,33.40999],[-118.48501,33.4098],[-118.48511,33.40935],[-118.48521,33.40913],[-118.48523,33.40907],[-118.48548,33.40901],[-118.48572,33.4089],[-118.48591,33.40872],[-118.48598,33.40859],[-118.4861,33.40855],[-118.48622,33.40843],[-118.48633,33.4084],[-118.48642,33.40835],[-118.48649,33.40825],[-118.48644,33.40817],[-118.4864,33.40801],[-118.48642,33.40788],[-118.48625,33.40784],[-118.48614,33.40793],[-118.48595,33.40793],[-118.4858,33.40792],[-118.48546,33.40802],[-118.48528,33.40793],[-118.48521,33.40764],[-118.48491,33.40768],[-118.48469,33.40766],[-118.48447,33.40748],[-118.48429,33.40743],[-118.48414,33.40743],[-118.48354,33.40679],[-118.48344,33.40662],[-118.48346,33.40642],[-118.48358,33.40621],[-118.48372,33.4061],[-118.48395,33.40615],[-118.48405,33.40597],[-118.48401,33.40581],[-118.48382,33.40572],[-118.48378,33.40557],[-118.4838,33.40538],[-118.48385,33.40521],[-118.48399,33.405],[-118.48408,33.40485],[-118.48425,33.40476],[-118.48435,33.40463],[-118.48456,33.40461],[-118.48474,33.4045],[-118.48485,33.40436],[-118.48506,33.40421],[-118.48524,33.404],[-118.48524,33.40378],[-118.48489,33.40346],[-118.4849,33.40332],[-118.48482,33.40289],[-118.48464,33.4027],[-118.48451,33.40253],[-118.48455,33.40237],[-118.48471,33.40222],[-118.48478,33.40207],[-118.48492,33.40195],[-118.48509,33.40188],[-118.48523,33.4018],[-118.48545,33.40168],[-118.48559,33.40147],[-118.48563,33.40131],[-118.48559,33.40115],[-118.48553,33.40098],[-118.48537,33.40092],[-118.48517,33.40089],[-118.48497,33.4009],[-118.48486,33.40081],[-118.48474,33.40062],[-118.48458,33.40049],[-118.4842,33.40033],[-118.48411,33.40022],[-118.48406,33.40013],[-118.48419,33.40009],[-118.48422,33.40001],[-118.48407,33.39993],[-118.48394,33.39987],[-118.48385,33.39991],[-118.48378,33.39992],[-118.48371,33.39984],[-118.48368,33.39983],[-118.48367,33.39976],[-118.48371,33.39972],[-118.48375,33.39972],[-118.48359,33.39962],[-118.48348,33.39943],[-118.48359,33.39909],[-118.48364,33.39885],[-118.4835,33.39862],[-118.48331,33.39849],[-118.48326,33.39831],[-118.48324,33.39806],[-118.48302,33.39773],[-118.4828,33.39758],[-118.48259,33.39741],[-118.48255,33.3973],[-118.48241,33.39713],[-118.48219,33.39704],[-118.48194,33.397],[-118.48173,33.39693],[-118.48156,33.39685],[-118.48145,33.3967],[-118.48142,33.39652],[-118.4813,33.39631],[-118.48128,33.39618],[-118.4812,33.39597],[-118.48122,33.39582],[-118.4812,33.39557],[-118.48122,33.39539],[-118.48137,33.39534],[-118.48135,33.39519],[-118.48114,33.39502],[-118.48082,33.39459],[-118.48077,33.39441],[-118.48083,33.3942],[-118.48072,33.39397],[-118.4808,33.39378],[-118.48064,33.39355],[-118.48058,33.39336],[-118.48063,33.39322],[-118.48076,33.39313],[-118.48065,33.39266],[-118.48066,33.39248],[-118.4806,33.39232],[-118.48063,33.39211],[-118.48054,33.39198],[-118.48063,33.3918],[-118.48082,33.39173],[-118.4809,33.3916],[-118.48109,33.39148],[-118.48117,33.39137],[-118.48109,33.39119],[-118.48107,33.39096],[-118.48089,33.39082],[-118.48065,33.39082],[-118.4805,33.39072],[-118.48036,33.3904],[-118.48047,33.39025],[-118.48048,33.39],[-118.48044,33.38985],[-118.4801,33.38961],[-118.47991,33.3895],[-118.47987,33.38934],[-118.47996,33.38926],[-118.4801,33.38925],[-118.48023,33.38917],[-118.4802,33.38887],[-118.48016,33.3888],[-118.47994,33.38894],[-118.47986,33.38885],[-118.47974,33.38861],[-118.47952,33.38841],[-118.47938,33.38825],[-118.47921,33.38802],[-118.47905,33.38785],[-118.47884,33.3876],[-118.47869,33.38754],[-118.47869,33.38748],[-118.47863,33.38733],[-118.47858,33.38727],[-118.4786,33.38721],[-118.4787,33.38705],[-118.47862,33.38689],[-118.47855,33.38683],[-118.47867,33.38671],[-118.47869,33.38661],[-118.4786,33.38643],[-118.47839,33.38631],[-118.47816,33.38611],[-118.4779,33.386],[-118.47761,33.38595],[-118.47749,33.3858],[-118.47727,33.38568],[-118.47707,33.3858],[-118.47692,33.38582],[-118.47685,33.38594],[-118.47689,33.38614],[-118.47675,33.38629],[-118.47654,33.38621],[-118.47641,33.38619],[-118.47623,33.38622],[-118.47587,33.38659],[-118.47566,33.38666],[-118.47561,33.38672],[-118.47533,33.3867],[-118.47508,33.38662],[-118.47485,33.38651],[-118.47469,33.38638],[-118.47459,33.38629],[-118.47444,33.38614],[-118.4743,33.38599],[-118.4742,33.38584],[-118.47415,33.38568],[-118.47411,33.38549],[-118.47425,33.38529],[-118.47439,33.38526],[-118.4746,33.38528],[-118.47474,33.38532],[-118.475,33.38533],[-118.47519,33.38521],[-118.47528,33.38508],[-118.47534,33.38492],[-118.47527,33.38488],[-118.47506,33.38501],[-118.47491,33.38493],[-118.47482,33.38499],[-118.4748,33.38491],[-118.47491,33.38483],[-118.47497,33.38477],[-118.47498,33.38464],[-118.47498,33.38456],[-118.47492,33.38445],[-118.47485,33.3845],[-118.4747,33.38456],[-118.4746,33.38475],[-118.4745,33.3849],[-118.4742,33.38483],[-118.47408,33.38469],[-118.47405,33.38452],[-118.474,33.38437],[-118.47389,33.38419],[-118.47369,33.38393],[-118.47341,33.3835],[-118.47335,33.38332],[-118.47331,33.38278],[-118.47336,33.38261],[-118.47359,33.38257],[-118.47383,33.38242],[-118.47398,33.38224],[-118.47459,33.38161],[-118.47501,33.38147],[-118.47517,33.38138],[-118.47536,33.38133],[-118.47544,33.3812],[-118.4756,33.38118],[-118.47576,33.38121],[-118.47592,33.38118],[-118.47601,33.38106],[-118.47618,33.38111],[-118.47654,33.38112],[-118.4767,33.38116],[-118.47678,33.38126],[-118.47695,33.38136],[-118.47714,33.38137],[-118.47735,33.38132],[-118.47759,33.38114],[-118.47773,33.38099],[-118.47807,33.38093],[-118.47825,33.381],[-118.4787,33.38098],[-118.47889,33.38096],[-118.47906,33.38091],[-118.4792,33.38092],[-118.47935,33.38099],[-118.47958,33.38099],[-118.47974,33.38097],[-118.4801,33.38072],[-118.48028,33.38072],[-118.4805,33.38069],[-118.4807,33.38058],[-118.48067,33.38041],[-118.48058,33.38023],[-118.48061,33.38015],[-118.48075,33.38009],[-118.48065,33.3799],[-118.48063,33.37976],[-118.4808,33.37973],[-118.481,33.37977],[-118.48116,33.37956],[-118.48116,33.37944],[-118.48125,33.37922],[-118.48119,33.3791],[-118.48117,33.37897],[-118.4811,33.37885],[-118.48092,33.37864],[-118.48097,33.37851],[-118.48098,33.37838],[-118.4806,33.37808],[-118.48046,33.37789],[-118.48037,33.37777],[-118.48037,33.37763],[-118.48021,33.37727],[-118.48004,33.37712],[-118.47997,33.37694],[-118.47938,33.37681],[-118.47925,33.37657],[-118.47911,33.37627],[-118.47911,33.37613],[-118.47912,33.37599],[-118.47919,33.37589],[-118.4797,33.3757],[-118.47974,33.37558],[-118.47975,33.37544],[-118.47995,33.37529],[-118.48007,33.37517],[-118.4801,33.37503],[-118.48006,33.37489],[-118.4802,33.37479],[-118.48027,33.37476],[-118.4803,33.37475],[-118.48063,33.37485],[-118.48076,33.37481],[-118.4809,33.37463],[-118.48116,33.37459],[-118.4812,33.37448],[-118.48136,33.37442],[-118.48181,33.37442],[-118.48201,33.37435],[-118.4821,33.37413],[-118.48222,33.37412],[-118.48239,33.37421],[-118.48256,33.37421],[-118.48271,33.37419],[-118.4828,33.37414],[-118.48286,33.37398],[-118.48276,33.37381],[-118.48288,33.37374],[-118.48301,33.37374],[-118.48308,33.37371],[-118.48334,33.37375],[-118.48346,33.37371],[-118.48352,33.37363],[-118.48362,33.37356],[-118.484,33.37347],[-118.48413,33.37349],[-118.48431,33.37359],[-118.48464,33.37353],[-118.48484,33.37343],[-118.48491,33.37333],[-118.48492,33.37325],[-118.4849,33.37313],[-118.48479,33.37302],[-118.4848,33.37295],[-118.48494,33.37283],[-118.48499,33.37272],[-118.48502,33.37262],[-118.485,33.37252],[-118.48484,33.37246],[-118.4847,33.37242],[-118.48458,33.37233],[-118.48429,33.37196],[-118.48379,33.37152],[-118.48363,33.37135],[-118.48351,33.37118],[-118.48335,33.37104],[-118.48319,33.37085],[-118.48308,33.37067],[-118.48273,33.37032],[-118.48264,33.37015],[-118.48205,33.3697],[-118.48167,33.36902],[-118.48175,33.36861],[-118.48174,33.36843],[-118.48181,33.36783],[-118.48199,33.36728],[-118.48218,33.36698],[-118.48289,33.36686],[-118.48335,33.36662],[-118.48349,33.36639],[-118.48352,33.36621],[-118.48359,33.36605],[-118.48384,33.36602],[-118.48393,33.36584],[-118.48386,33.36555],[-118.48434,33.36532],[-118.48442,33.36521],[-118.48434,33.36506],[-118.48439,33.36494],[-118.48469,33.36491],[-118.48505,33.36448],[-118.48559,33.36438],[-118.48553,33.36424],[-118.48529,33.36408],[-118.48572,33.36366],[-118.48573,33.36345],[-118.48544,33.36336],[-118.48526,33.36348],[-118.48488,33.36353],[-118.48462,33.36345],[-118.48446,33.36334],[-118.48437,33.36316],[-118.48428,33.36302],[-118.4843,33.3629],[-118.48428,33.36275],[-118.48427,33.36259],[-118.48425,33.36237],[-118.48436,33.36222],[-118.48476,33.36203],[-118.48479,33.3619],[-118.48481,33.36165],[-118.48502,33.36158],[-118.48533,33.3616],[-118.48535,33.36137],[-118.48634,33.36101],[-118.48632,33.36085],[-118.48632,33.36076],[-118.48668,33.36059],[-118.48678,33.35991],[-118.48676,33.35979],[-118.48667,33.35975],[-118.48676,33.35956],[-118.48712,33.35948],[-118.48701,33.35931],[-118.4871,33.35906],[-118.48744,33.35906],[-118.48771,33.35897],[-118.48768,33.35886],[-118.48742,33.35882],[-118.48747,33.35865],[-118.48763,33.35851],[-118.48807,33.35741],[-118.48844,33.35748],[-118.48868,33.35727],[-118.48868,33.35696],[-118.48841,33.35697],[-118.48808,33.35693],[-118.48825,33.35656],[-118.48837,33.35654],[-118.48861,33.35667],[-118.48872,33.35646],[-118.4885,33.35624],[-118.48824,33.35635],[-118.48809,33.35624],[-118.48799,33.356],[-118.48782,33.35587],[-118.48784,33.35549],[-118.48775,33.35504],[-118.48781,33.35486],[-118.48764,33.35481],[-118.48762,33.35492],[-118.48744,33.35489],[-118.48713,33.35452],[-118.48683,33.35406],[-118.48703,33.35392],[-118.48698,33.35374],[-118.48682,33.35363],[-118.48663,33.35357],[-118.48649,33.35336],[-118.48656,33.35319],[-118.48671,33.35311],[-118.4868,33.35279],[-118.48653,33.35263],[-118.48625,33.35252],[-118.48601,33.35254],[-118.48583,33.35258],[-118.4857,33.35246],[-118.48574,33.35235],[-118.48616,33.35217],[-118.48616,33.35203],[-118.48587,33.35196],[-118.48605,33.35178],[-118.48566,33.35151],[-118.48541,33.35147],[-118.48569,33.35098],[-118.48557,33.35075],[-118.48551,33.35047],[-118.48511,33.35024],[-118.48467,33.35],[-118.48439,33.34985],[-118.48436,33.34969],[-118.48406,33.34962],[-118.48407,33.34914],[-118.48408,33.34872],[-118.48412,33.34829],[-118.48416,33.34812],[-118.48417,33.34783],[-118.48413,33.34767],[-118.48397,33.34754],[-118.48372,33.34743],[-118.48346,33.34728],[-118.48325,33.3471],[-118.48311,33.34702],[-118.48294,33.34685],[-118.48268,33.34657],[-118.48259,33.34619],[-118.48248,33.34608],[-118.48227,33.34579],[-118.48224,33.34562],[-118.48227,33.34542],[-118.4822,33.3452],[-118.48205,33.34491],[-118.48186,33.34468],[-118.48187,33.3445],[-118.48207,33.34459],[-118.48218,33.34446],[-118.48187,33.34419],[-118.48152,33.34421],[-118.48136,33.3441],[-118.48138,33.34397],[-118.48171,33.34388],[-118.48181,33.34379],[-118.48174,33.34356],[-118.48164,33.3435],[-118.48143,33.34354],[-118.48121,33.34359],[-118.48105,33.34372],[-118.48081,33.34343],[-118.48062,33.34329],[-118.48038,33.3432],[-118.48027,33.34297],[-118.47991,33.34283],[-118.47972,33.34268],[-118.47963,33.34253],[-118.47949,33.34223],[-118.47932,33.34232],[-118.47919,33.34227],[-118.4791,33.34215],[-118.47899,33.34206],[-118.47885,33.34204],[-118.47875,33.34197],[-118.47866,33.34193],[-118.47855,33.34192],[-118.4784,33.34187],[-118.47829,33.34191],[-118.4781,33.34178],[-118.47775,33.3415],[-118.47749,33.34107],[-118.47757,33.34075],[-118.47745,33.34057],[-118.47741,33.3404],[-118.47734,33.34024],[-118.47722,33.34003],[-118.47716,33.33973],[-118.47734,33.33963],[-118.47714,33.33951],[-118.47714,33.33943],[-118.47744,33.3393],[-118.4775,33.3392],[-118.47749,33.33913],[-118.47747,33.3391],[-118.47741,33.3391],[-118.47736,33.33903],[-118.4773,33.33902],[-118.47714,33.33898],[-118.47711,33.33892],[-118.47694,33.33889],[-118.4769,33.33882],[-118.47682,33.33881],[-118.47668,33.33879],[-118.47656,33.33894],[-118.47654,33.33902],[-118.47656,33.33911],[-118.47642,33.33921],[-118.47629,33.33922],[-118.47613,33.33931],[-118.47594,33.33918],[-118.47562,33.33903],[-118.47556,33.3391],[-118.47533,33.33917],[-118.47493,33.3389],[-118.47498,33.3388],[-118.4749,33.33867],[-118.47484,33.33849],[-118.47464,33.33828],[-118.47441,33.338],[-118.47424,33.33767],[-118.47356,33.33748],[-118.47322,33.3371],[-118.47301,33.33679],[-118.4728,33.33658],[-118.47263,33.33617],[-118.47242,33.33551],[-118.47247,33.33528],[-118.47253,33.33537],[-118.47266,33.33537],[-118.4727,33.33527],[-118.47263,33.33517],[-118.47269,33.33491],[-118.47292,33.33456],[-118.47287,33.33449],[-118.47277,33.33407],[-118.47294,33.33399],[-118.47313,33.3339],[-118.47332,33.33388],[-118.47343,33.3338],[-118.47328,33.33358],[-118.47306,33.33359],[-118.47308,33.33351],[-118.47295,33.33343],[-118.47275,33.33358],[-118.47251,33.33351],[-118.47228,33.33345],[-118.47213,33.33342],[-118.47182,33.33339],[-118.47176,33.33312],[-118.47178,33.33292],[-118.47196,33.33283],[-118.47219,33.33269],[-118.47214,33.33255],[-118.472,33.33256],[-118.47195,33.3324],[-118.4717,33.33239],[-118.47149,33.33222],[-118.47125,33.33193],[-118.47092,33.33189],[-118.47083,33.33175],[-118.4706,33.33182],[-118.47033,33.33166],[-118.46995,33.33149],[-118.4695,33.33159],[-118.46906,33.33143],[-118.46889,33.33128],[-118.4682,33.331],[-118.4678,33.33067],[-118.46751,33.33059],[-118.46732,33.33044],[-118.4672,33.33023],[-118.46712,33.33005],[-118.46705,33.32984],[-118.46698,33.32946],[-118.46716,33.32923],[-118.46737,33.32898],[-118.46741,33.32879],[-118.46735,33.3287],[-118.46715,33.3286],[-118.46696,33.32853],[-118.46681,33.3285],[-118.46623,33.32846],[-118.46611,33.32822],[-118.46556,33.32793],[-118.46539,33.32781],[-118.46522,33.32714],[-118.46521,33.32694],[-118.46543,33.32646],[-118.46534,33.32638],[-118.46536,33.32624],[-118.46546,33.32622],[-118.46552,33.32613],[-118.4652,33.32601],[-118.465,33.326],[-118.46492,33.32593],[-118.46484,33.32584],[-118.46467,33.32576],[-118.46457,33.32554],[-118.46441,33.32557],[-118.46427,33.32552],[-118.4643,33.32564],[-118.46438,33.32574],[-118.46427,33.32575],[-118.46409,33.3259],[-118.46387,33.32583],[-118.46354,33.32549],[-118.46345,33.32529],[-118.46336,33.32519],[-118.46313,33.32508],[-118.46291,33.32499],[-118.46266,33.32493],[-118.46238,33.32481],[-118.46209,33.3247],[-118.46179,33.32455],[-118.46149,33.32454],[-118.46126,33.32457],[-118.46098,33.32458],[-118.46078,33.32452],[-118.46056,33.3244],[-118.4604,33.32429],[-118.46042,33.3241],[-118.46039,33.32398],[-118.46023,33.32385],[-118.4599,33.32398],[-118.45979,33.32397],[-118.45937,33.32366],[-118.45884,33.32338],[-118.45844,33.32309],[-118.45805,33.32279],[-118.45784,33.3226],[-118.45772,33.32242],[-118.45747,33.32237],[-118.45727,33.32224],[-118.45707,33.32217],[-118.45679,33.32212],[-118.45571,33.32183],[-118.45397,33.32152],[-118.45359,33.32143],[-118.45286,33.32135],[-118.45232,33.32117],[-118.45203,33.32119],[-118.45179,33.32115],[-118.45157,33.32113],[-118.45128,33.32104],[-118.45117,33.32098],[-118.45078,33.32074],[-118.45049,33.32067],[-118.45014,33.32057],[-118.44966,33.32051],[-118.44924,33.32047],[-118.44827,33.32032],[-118.44804,33.32027],[-118.44771,33.32022],[-118.44709,33.32033],[-118.44665,33.32044],[-118.44569,33.32066],[-118.44528,33.32072],[-118.44472,33.32082],[-118.44433,33.32072],[-118.44403,33.32058],[-118.44374,33.32043],[-118.44346,33.32032],[-118.44313,33.32013],[-118.44278,33.31988],[-118.44249,33.31962],[-118.44229,33.31947],[-118.44218,33.3193],[-118.44215,33.31919],[-118.44204,33.31921],[-118.44197,33.31917],[-118.44208,33.31901],[-118.44204,33.31899],[-118.44191,33.31909],[-118.44182,33.31902],[-118.44172,33.3189],[-118.44186,33.31877],[-118.44185,33.31864],[-118.44174,33.31869],[-118.44168,33.31881],[-118.44131,33.31866],[-118.44096,33.31858],[-118.44072,33.31854],[-118.4403,33.31852],[-118.43994,33.31848],[-118.43947,33.3185],[-118.43897,33.3186],[-118.43852,33.31867],[-118.43792,33.31884],[-118.43734,33.31896],[-118.4365,33.31909],[-118.43512,33.31937],[-118.43459,33.31943],[-118.43411,33.31953],[-118.43333,33.3195],[-118.43285,33.3194],[-118.43256,33.31933],[-118.43221,33.31916],[-118.43157,33.31888],[-118.43122,33.31883],[-118.4308,33.31886],[-118.43011,33.31902],[-118.42982,33.31903],[-118.42957,33.319],[-118.42897,33.31888],[-118.42861,33.31888],[-118.42805,33.31896],[-118.42776,33.31892],[-118.42739,33.31875],[-118.4268,33.31823],[-118.42652,33.31809],[-118.4261,33.31801],[-118.42579,33.31799],[-118.42549,33.31805],[-118.42511,33.31806],[-118.42483,33.31807],[-118.42405,33.31781],[-118.42382,33.31764],[-118.42347,33.31746],[-118.42323,33.31726],[-118.42302,33.31712],[-118.4228,33.31704],[-118.42231,33.3169],[-118.42178,33.31696],[-118.42152,33.31703],[-118.4212,33.31722],[-118.42097,33.31742],[-118.42074,33.31758],[-118.42042,33.31771],[-118.41996,33.31787],[-118.41963,33.31791],[-118.41932,33.31811],[-118.41896,33.31826],[-118.41806,33.31858],[-118.41774,33.3186],[-118.41744,33.31864],[-118.41682,33.31898],[-118.41665,33.31913],[-118.41646,33.31932],[-118.41636,33.31952],[-118.41613,33.31965],[-118.41571,33.31976],[-118.41482,33.3199],[-118.41443,33.31993],[-118.4141,33.31993],[-118.41379,33.31988],[-118.41355,33.3199],[-118.41332,33.32005],[-118.41307,33.32016],[-118.4128,33.32024],[-118.41245,33.32029],[-118.4116,33.32034],[-118.41141,33.32026],[-118.41135,33.32023],[-118.41093,33.32036],[-118.41088,33.32022],[-118.41073,33.3202],[-118.41074,33.32052],[-118.4107,33.32061],[-118.41029,33.32071],[-118.40971,33.32078],[-118.40922,33.32082],[-118.40874,33.32087],[-118.40832,33.32086],[-118.40802,33.32083],[-118.40774,33.32087],[-118.40745,33.32102],[-118.40697,33.32105],[-118.40645,33.3211],[-118.40588,33.32103],[-118.40497,33.32103],[-118.40442,33.32097],[-118.40358,33.3209],[-118.40324,33.3208],[-118.40283,33.32079],[-118.40248,33.32071],[-118.40204,33.32065],[-118.4016,33.32066],[-118.40104,33.32061],[-118.4,33.32045],[-118.39996,33.32039],[-118.40012,33.32038],[-118.40008,33.32025],[-118.39988,33.32022],[-118.39974,33.32027],[-118.39961,33.32026],[-118.39942,33.3202],[-118.39919,33.32005],[-118.39893,33.32002],[-118.39896,33.31987],[-118.39886,33.31985],[-118.39874,33.32003],[-118.39851,33.32008],[-118.39819,33.32014],[-118.39772,33.32004],[-118.39754,33.31988],[-118.39736,33.31974],[-118.39713,33.31967],[-118.39693,33.3197],[-118.39663,33.32003],[-118.39633,33.32015],[-118.39604,33.32029],[-118.39582,33.32028],[-118.39563,33.32021],[-118.39558,33.32009],[-118.39546,33.32018],[-118.3953,33.32024],[-118.39507,33.32026],[-118.39487,33.32025],[-118.39457,33.32018],[-118.39432,33.32007],[-118.39415,33.31993],[-118.39365,33.31951],[-118.39342,33.31957],[-118.39313,33.31968],[-118.39288,33.31968],[-118.39281,33.31966],[-118.39279,33.3195],[-118.39264,33.31957],[-118.39264,33.31971],[-118.39202,33.32013],[-118.39215,33.32036],[-118.39205,33.32051],[-118.39159,33.32062],[-118.39104,33.32066],[-118.3901,33.32069],[-118.38978,33.3207],[-118.38916,33.32069]],[[-118.39397,33.31868],[-118.39394,33.31868],[-118.39388,33.31869],[-118.39382,33.31873],[-118.39372,33.31884],[-118.39369,33.31892],[-118.39369,33.31919],[-118.39375,33.31923],[-118.3938,33.31923],[-118.39384,33.31922],[-118.39391,33.31918],[-118.39396,33.31913],[-118.394,33.31912],[-118.39405,33.31914],[-118.39409,33.31912],[-118.39412,33.31909],[-118.39415,33.31886],[-118.39414,33.31882],[-118.39397,33.31868]],[[-118.40469,33.31917],[-118.40465,33.31918],[-118.40457,33.31925],[-118.40457,33.3193],[-118.4046,33.31935],[-118.40476,33.31947],[-118.40481,33.31943],[-118.40481,33.31928],[-118.40469,33.31917]],[[-118.39918,33.31958],[-118.39915,33.31958],[-118.39909,33.31959],[-118.39906,33.31962],[-118.39904,33.31964],[-118.39904,33.3197],[-118.39908,33.31974],[-118.39911,33.31975],[-118.39919,33.31977],[-118.39927,33.31977],[-118.39932,33.31972],[-118.3993,33.31969],[-118.39918,33.31958]],[[-118.40244,33.32042],[-118.40236,33.32046],[-118.40236,33.32051],[-118.40239,33.32053],[-118.40244,33.32055],[-118.40251,33.32053],[-118.40251,33.32046],[-118.40244,33.32042]],[[-118.46858,33.32823],[-118.46855,33.32825],[-118.46853,33.32826],[-118.46854,33.3283],[-118.4686,33.32835],[-118.46866,33.32831],[-118.46858,33.32823]],[[-118.4679,33.32839],[-118.46786,33.3284],[-118.46783,33.32843],[-118.46787,33.32847],[-118.4679,33.32849],[-118.46794,33.32849],[-118.46799,33.32845],[-118.46794,33.3284],[-118.4679,33.32839]],[[-118.46814,33.32823],[-118.46808,33.32823],[-118.46798,33.32827],[-118.46792,33.32828],[-118.46794,33.32833],[-118.46799,33.32834],[-118.46807,33.32832],[-118.46814,33.32827],[-118.46816,33.32825],[-118.46814,33.32823]],[[-118.47972,33.34173],[-118.47965,33.34173],[-118.47961,33.34177],[-118.47962,33.34185],[-118.47972,33.34192],[-118.47975,33.34192],[-118.4798,33.34187],[-118.47981,33.34181],[-118.47972,33.34173]],[[-118.48131,33.34316],[-118.48127,33.34318],[-118.48128,33.34322],[-118.48132,33.34326],[-118.48134,33.34327],[-118.48138,33.34325],[-118.48139,33.34324],[-118.48136,33.34318],[-118.48131,33.34316]],[[-118.48294,33.34602],[-118.4829,33.34604],[-118.48287,33.34606],[-118.48288,33.34609],[-118.48296,33.34614],[-118.48302,33.34609],[-118.48294,33.34602]],[[-118.48443,33.36588],[-118.48438,33.36588],[-118.48434,33.36589],[-118.48429,33.36592],[-118.48429,33.36601],[-118.48439,33.36608],[-118.48446,33.36608],[-118.48451,33.36604],[-118.48454,33.36601],[-118.48452,33.36596],[-118.48443,33.36588]],[[-118.48407,33.36635],[-118.484,33.36635],[-118.48394,33.36641],[-118.48401,33.36646],[-118.48407,33.36647],[-118.48412,33.36643],[-118.48413,33.3664],[-118.48407,33.36635]],[[-118.48535,33.37243],[-118.48528,33.37243],[-118.48525,33.37245],[-118.48523,33.37248],[-118.48527,33.37251],[-118.48534,33.37254],[-118.4854,33.3725],[-118.48541,33.37248],[-118.48535,33.37243]],[[-118.48574,33.37219],[-118.4857,33.37222],[-118.48571,33.37227],[-118.48578,33.37231],[-118.48583,33.37226],[-118.48574,33.37219]],[[-118.48568,33.37258],[-118.48566,33.3726],[-118.48564,33.37261],[-118.48564,33.37264],[-118.48565,33.37267],[-118.48571,33.3727],[-118.48574,33.37267],[-118.48576,33.37265],[-118.48568,33.37258]],[[-118.48519,33.37261],[-118.48515,33.37261],[-118.48512,33.37265],[-118.4851,33.37276],[-118.48508,33.37279],[-118.48509,33.37286],[-118.48514,33.3729],[-118.48518,33.37292],[-118.48527,33.37286],[-118.48528,33.37275],[-118.48528,33.37268],[-118.48519,33.37261]],[[-118.48695,33.37258],[-118.4869,33.3726],[-118.48687,33.37262],[-118.48687,33.37264],[-118.48698,33.37272],[-118.48702,33.37273],[-118.48708,33.37271],[-118.4871,33.37268],[-118.48701,33.3726],[-118.48699,33.37258],[-118.48695,33.37258]],[[-118.48144,33.37862],[-118.4814,33.37862],[-118.48134,33.37864],[-118.48129,33.37868],[-118.48129,33.37873],[-118.4813,33.37875],[-118.48137,33.3788],[-118.48151,33.3788],[-118.48159,33.37873],[-118.4815,33.37864],[-118.48144,33.37862]],[[-118.48147,33.37933],[-118.48142,33.37933],[-118.48138,33.37937],[-118.48138,33.3794],[-118.48139,33.37942],[-118.48148,33.37948],[-118.48152,33.37945],[-118.48156,33.37941],[-118.48147,33.37933]],[[-118.48107,33.38049],[-118.48093,33.38051],[-118.4809,33.38054],[-118.4809,33.38056],[-118.48096,33.3806],[-118.48103,33.38061],[-118.48112,33.38053],[-118.48107,33.38049]],[[-118.47957,33.38789],[-118.47954,33.38789],[-118.4795,33.38793],[-118.47949,33.388],[-118.47968,33.38813],[-118.47972,33.38815],[-118.47975,33.38815],[-118.47981,33.38809],[-118.4798,33.38805],[-118.47965,33.38792],[-118.47957,33.38789]],[[-118.48599,33.39958],[-118.48591,33.3996],[-118.48587,33.39963],[-118.48587,33.39966],[-118.48589,33.39969],[-118.48597,33.39973],[-118.48601,33.39974],[-118.48607,33.39968],[-118.48607,33.39965],[-118.48599,33.39958]],[[-118.48436,33.39933],[-118.48431,33.39934],[-118.48428,33.39936],[-118.48428,33.39938],[-118.48433,33.39942],[-118.48438,33.39944],[-118.48442,33.39941],[-118.48442,33.39938],[-118.48436,33.39933]],[[-118.48574,33.41049],[-118.48568,33.4105],[-118.48566,33.41052],[-118.48566,33.41054],[-118.48575,33.4106],[-118.48579,33.41061],[-118.48584,33.41057],[-118.48574,33.41049]],[[-118.48722,33.415],[-118.48716,33.41501],[-118.48713,33.41501],[-118.48703,33.41509],[-118.48702,33.41515],[-118.48699,33.41518],[-118.48696,33.41527],[-118.48696,33.41534],[-118.48701,33.41534],[-118.48706,33.4153],[-118.48709,33.41529],[-118.48717,33.41524],[-118.48725,33.41517],[-118.48726,33.41508],[-118.48725,33.41502],[-118.48722,33.415]],[[-118.5069,33.42524],[-118.50687,33.42528],[-118.50687,33.42533],[-118.50689,33.42537],[-118.50692,33.42533],[-118.50694,33.4253],[-118.50693,33.42525],[-118.5069,33.42524]]]},"properties":{}},{"type":"Feature","geometry":{"type":"Polygon","coordinates":[[[-118.47188,33.44194],[-118.47202,33.44196],[-118.47223,33.44201],[-118.47253,33.44222],[-118.47282,33.44239],[-118.47294,33.44259],[-118.473,33.44272],[-118.47318,33.44291],[-118.47366,33.44309],[-118.47384,33.44325],[-118.47397,33.44347],[-118.47405,33.44365],[-118.47423,33.4439],[-118.47456,33.44412],[-118.47474,33.44428],[-118.47493,33.44439],[-118.47515,33.44444],[-118.4754,33.44451],[-118.4758,33.44471],[-118.47582,33.44497],[-118.47577,33.44517],[-118.47579,33.44528],[-118.4759,33.44542],[-118.4759,33.44563],[-118.47605,33.44573],[-118.47619,33.44582],[-118.47623,33.44622],[-118.4765,33.44625],[-118.47659,33.4465],[-118.47662,33.44675],[-118.47659,33.44694],[-118.47655,33.44711],[-118.47643,33.44747],[-118.47648,33.44761],[-118.47661,33.44769],[-118.47673,33.4477],[-118.47682,33.44769],[-118.477,33.44772],[-118.47716,33.44793],[-118.47711,33.44813],[-118.47714,33.44817],[-118.47724,33.44812],[-118.47729,33.44817],[-118.4773,33.44825],[-118.47736,33.44832],[-118.47747,33.44833],[-118.47756,33.44837],[-118.47773,33.44835],[-118.47788,33.44831],[-118.47803,33.4483],[-118.47814,33.44827],[-118.47833,33.44815],[-118.47846,33.44812],[-118.47856,33.4481],[-118.47868,33.44803],[-118.47881,33.44796],[-118.47887,33.4479],[-118.47905,33.44784],[-118.47933,33.44771],[-118.47949,33.44772],[-118.47964,33.44771],[-118.47984,33.44775],[-118.47993,33.44788],[-118.47994,33.44802],[-118.4801,33.44799],[-118.4802,33.44805],[-118.4803,33.44804],[-118.48049,33.44798],[-118.48063,33.44788],[-118.48076,33.44787],[-118.48086,33.4479],[-118.481,33.44793],[-118.48123,33.44787],[-118.48142,33.44786],[-118.48188,33.44775],[-118.48213,33.44776],[-118.48237,33.44764],[-118.48267,33.44756],[-118.48284,33.44751],[-118.48292,33.44752],[-118.48301,33.4474],[-118.48307,33.44734],[-118.4832,33.44729],[-118.48332,33.44728],[-118.48346,33.4473],[-118.48369,33.4473],[-118.4838,33.44734],[-118.48394,33.44725],[-118.48412,33.44723],[-118.4841,33.44717],[-118.48398,33.44715],[-118.48394,33.44712],[-118.48394,33.44706],[-118.484,33.44704],[-118.48414,33.44698],[-118.48436,33.44699],[-118.48453,33.44694],[-118.48466,33.44683],[-118.48471,33.44676],[-118.48486,33.44666],[-118.48501,33.44667],[-118.48515,33.44657],[-118.48535,33.44639],[-118.48537,33.44625],[-118.48525,33.44606],[-118.4851,33.44588],[-118.48489,33.4457],[-118.48481,33.4456],[-118.48481,33.44554],[-118.48465,33.4454],[-118.48453,33.44536],[-118.48445,33.44539],[-118.48432,33.44535],[-118.48413,33.44531],[-118.484,33.44529],[-118.48388,33.44526],[-118.4838,33.44527],[-118.48366,33.44517],[-118.48345,33.44516],[-118.48334,33.44508],[-118.48343,33.44501],[-118.48352,33.44495],[-118.48373,33.44493],[-118.48402,33.44502],[-118.4841,33.44499],[-118.48413,33.44493],[-118.48412,33.44487],[-118.48404,33.44481],[-118.48385,33.44477],[-118.48377,33.44473],[-118.4838,33.44456],[-118.48412,33.44408],[-118.48436,33.4439],[-118.48455,33.44378],[-118.48474,33.44373],[-118.48487,33.44381],[-118.48507,33.44366],[-118.48524,33.44361],[-118.48536,33.44369],[-118.48547,33.4437],[-118.48567,33.44367],[-118.48578,33.44369],[-118.48583,33.44377],[-118.48583,33.44385],[-118.48587,33.44393],[-118.486,33.444],[-118.48609,33.4441],[-118.48625,33.44419],[-118.48642,33.44425],[-118.48677,33.44446],[-118.48688,33.44449],[-118.48701,33.44451],[-118.48721,33.44443],[-118.48741,33.44441],[-118.4875,33.44446],[-118.48764,33.44465],[-118.4878,33.44474],[-118.48793,33.44476],[-118.48807,33.44471],[-118.48816,33.44462],[-118.48814,33.44431],[-118.48808,33.44414],[-118.48812,33.44403],[-118.48826,33.44398],[-118.48838,33.44398],[-118.48855,33.44406],[-118.48881,33.44412],[-118.489,33.44411],[-118.48918,33.44417],[-118.48954,33.44433],[-118.48965,33.44426],[-118.49001,33.44384],[-118.49017,33.44376],[-118.49031,33.44362],[-118.49043,33.44348],[-118.49057,33.44346],[-118.49074,33.44349],[-118.49085,33.44347],[-118.49093,33.44339],[-118.49102,33.44324],[-118.4912,33.443],[-118.49118,33.44289],[-118.49112,33.44278],[-118.49103,33.44273],[-118.49098,33.4426],[-118.49089,33.44244],[-118.49091,33.44239],[-118.49094,33.44234],[-118.49106,33.44223],[-118.49124,33.44213],[-118.49145,33.44204],[-118.49168,33.44195],[-118.49195,33.44193],[-118.49209,33.44191],[-118.49234,33.44197],[-118.49249,33.44196],[-118.49278,33.44159],[-118.49294,33.44144],[-118.4932,33.44134],[-118.49365,33.44114],[-118.49394,33.44109],[-118.49419,33.44109],[-118.49486,33.44116],[-118.49524,33.44124],[-118.49544,33.44125],[-118.49562,33.4412],[-118.49605,33.44123],[-118.4961,33.44124],[-118.49674,33.44135],[-118.49726,33.44156],[-118.49794,33.44179],[-118.49807,33.44186],[-118.49825,33.44197],[-118.49846,33.44217],[-118.49884,33.44243],[-118.49935,33.4429],[-118.49966,33.44339],[-118.4997,33.44362],[-118.49971,33.44377],[-118.49965,33.44386],[-118.49952,33.44397],[-118.49918,33.44414],[-118.49896,33.44421],[-118.49876,33.44437],[-118.4986,33.44454],[-118.49863,33.44477],[-118.49861,33.44487],[-118.49853,33.445],[-118.4983,33.44519],[-118.49823,33.44537],[-118.49826,33.44551],[-118.4982,33.44567],[-118.4982,33.44581],[-118.49831,33.44593],[-118.4985,33.44605],[-118.49897,33.44628],[-118.49938,33.44652],[-118.49955,33.44665],[-118.49968,33.44679],[-118.49981,33.44689],[-118.50015,33.44697],[-118.50023,33.44694],[-118.50043,33.44694],[-118.50091,33.44684],[-118.501,33.44686],[-118.50105,33.44691],[-118.50113,33.44693],[-118.50124,33.44709],[-118.50128,33.44719],[-118.50128,33.44736],[-118.50122,33.44751],[-118.50101,33.4476],[-118.50092,33.44761],[-118.50083,33.44768],[-118.50076,33.44773],[-118.50065,33.44776],[-118.5005,33.44774],[-118.50039,33.44779],[-118.50014,33.44782],[-118.49986,33.44795],[-118.49971,33.44794],[-118.49958,33.44802],[-118.49961,33.44814],[-118.49972,33.44818],[-118.49976,33.44827],[-118.49973,33.44837],[-118.49976,33.44847],[-118.49973,33.44858],[-118.49973,33.44871],[-118.49977,33.44886],[-118.49968,33.44898],[-118.49964,33.44911],[-118.49974,33.44925],[-118.49985,33.44932],[-118.5,33.44957],[-118.50011,33.44966],[-118.50024,33.44969],[-118.50032,33.44969],[-118.50044,33.44967],[-118.50074,33.44947],[-118.50091,33.44944],[-118.50106,33.44954],[-118.50124,33.44954],[-118.50145,33.44961],[-118.50169,33.44963],[-118.50236,33.44993],[-118.50254,33.45009],[-118.50259,33.45018],[-118.5027,33.45023],[-118.50287,33.45036],[-118.50336,33.45035],[-118.5036,33.45063],[-118.50366,33.45094],[-118.50365,33.45119],[-118.5036,33.45123],[-118.50346,33.45128],[-118.50326,33.45141],[-118.5032,33.4516],[-118.50318,33.45195],[-118.50313,33.45208],[-118.50301,33.45217],[-118.50251,33.45241],[-118.50233,33.45248],[-118.50214,33.45248],[-118.50163,33.45261],[-118.50154,33.4527],[-118.50146,33.45289],[-118.50145,33.45305],[-118.50154,33.45311],[-118.50162,33.45315],[-118.50184,33.45318],[-118.50203,33.45311],[-118.50215,33.45305],[-118.50231,33.45303],[-118.50248,33.45312],[-118.5026,33.45331],[-118.50276,33.45339],[-118.50299,33.45333],[-118.50352,33.45323],[-118.50376,33.45316],[-118.50407,33.45317],[-118.5045,33.45333],[-118.50494,33.4533],[-118.50512,33.45335],[-118.5053,33.45336],[-118.50547,33.45349],[-118.50556,33.4537],[-118.50561,33.45389],[-118.50579,33.45403],[-118.50608,33.45414],[-118.50635,33.45415],[-118.50656,33.45412],[-118.50676,33.45417],[-118.50694,33.45429],[-118.50717,33.45442],[-118.5074,33.45447],[-118.50763,33.45444],[-118.50787,33.45448],[-118.50808,33.45461],[-118.50832,33.45462],[-118.50854,33.45469],[-118.50867,33.45479],[-118.50877,33.45496],[-118.50878,33.45519],[-118.50884,33.45533],[-118.50887,33.45551],[-118.50901,33.45563],[-118.50918,33.45554],[-118.50926,33.45542],[-118.50946,33.45534],[-118.50966,33.45537],[-118.50993,33.45528],[-118.51007,33.45527],[-118.51047,33.45571],[-118.51072,33.45585],[-118.51098,33.45588],[-118.5113,33.45584],[-118.51177,33.45561],[-118.51198,33.45562],[-118.51215,33.45569],[-118.51228,33.4559],[-118.51262,33.45648],[-118.51287,33.45656],[-118.51329,33.45661],[-118.51374,33.45674],[-118.51401,33.45685],[-118.51426,33.45701],[-118.51445,33.45708],[-118.51462,33.45707],[-118.51506,33.45725],[-118.5155,33.45713],[-118.5156,33.45707],[-118.51578,33.45709],[-118.51587,33.45727],[-118.51583,33.45744],[-118.5157,33.45769],[-118.51575,33.45784],[-118.5159,33.45803],[-118.5161,33.45817],[-118.51625,33.45839],[-118.51645,33.45888],[-118.51663,33.45898],[-118.51707,33.45903],[-118.51738,33.45896],[-118.51767,33.45894],[-118.51795,33.45894],[-118.51819,33.45911],[-118.51835,33.45946],[-118.51834,33.45976],[-118.51818,33.46022],[-118.51818,33.46037],[-118.51832,33.46058],[-118.51861,33.46078],[-118.51916,33.46109],[-118.51972,33.46124],[-118.51998,33.46135],[-118.52026,33.46143],[-118.52054,33.46149],[-118.52083,33.46145],[-118.5211,33.46147],[-118.52135,33.46139],[-118.52146,33.46129],[-118.52171,33.46134],[-118.52202,33.46156],[-118.52225,33.46175],[-118.52247,33.46205],[-118.52283,33.46267],[-118.52297,33.46298],[-118.52302,33.46319],[-118.52307,33.46349],[-118.52268,33.46379],[-118.52251,33.46399],[-118.52218,33.46425],[-118.52201,33.46441],[-118.522,33.46464],[-118.52204,33.46482],[-118.52197,33.46517],[-118.52196,33.46538],[-118.52208,33.46557],[-118.52242,33.46568],[-118.52263,33.46577],[-118.52284,33.46583],[-118.52384,33.46572],[-118.5241,33.46559],[-118.52436,33.46548],[-118.52458,33.46545],[-118.5248,33.46551],[-118.52497,33.46549],[-118.5252,33.46535],[-118.52548,33.46545],[-118.52572,33.46557],[-118.52573,33.46578],[-118.52591,33.46584],[-118.52612,33.46599],[-118.5262,33.46607],[-118.52136,33.46607],[-118.52146,33.46599],[-118.52154,33.4659],[-118.52158,33.46582],[-118.52152,33.46577],[-118.52145,33.46578],[-118.52139,33.46579],[-118.52132,33.46584],[-118.5212,33.46593],[-118.52117,33.46596],[-118.52116,33.46599],[-118.52116,33.46605],[-118.52117,33.46607],[-118.52118,33.46607],[-118.35868,33.46607],[-118.35868,33.38166],[-118.35871,33.38171],[-118.35873,33.38189],[-118.35892,33.38203],[-118.3591,33.38211],[-118.35928,33.38232],[-118.3596,33.38254],[-118.35979,33.38288],[-118.35982,33.38309],[-118.35989,33.38309],[-118.3599,33.38299],[-118.36022,33.38317],[-118.36072,33.3837],[-118.3614,33.38423],[-118.3618,33.38455],[-118.36209,33.38484],[-118.36246,33.38521],[-118.36234,33.38525],[-118.36234,33.3853],[-118.36238,33.3854],[-118.36239,33.38545],[-118.36251,33.3855],[-118.36259,33.38554],[-118.36261,33.38561],[-118.36272,33.38564],[-118.3627,33.38568],[-118.36274,33.38574],[-118.36287,33.3858],[-118.36286,33.38585],[-118.36296,33.38596],[-118.36314,33.386],[-118.3633,33.38616],[-118.36347,33.38634],[-118.36365,33.38659],[-118.36396,33.38694],[-118.36422,33.38728],[-118.36431,33.38745],[-118.36435,33.38753],[-118.36442,33.38759],[-118.36443,33.38767],[-118.36452,33.38776],[-118.36458,33.38783],[-118.36465,33.38782],[-118.36474,33.38791],[-118.36479,33.38789],[-118.36481,33.38804],[-118.36485,33.38808],[-118.36498,33.38816],[-118.36507,33.38818],[-118.36514,33.38811],[-118.36523,33.38817],[-118.3653,33.3881],[-118.36546,33.38805],[-118.36563,33.38808],[-118.36588,33.38819],[-118.36617,33.38817],[-118.36644,33.38808],[-118.36664,33.3881],[-118.36681,33.38815],[-118.36698,33.38825],[-118.36738,33.38853],[-118.36811,33.38901],[-118.36819,33.38908],[-118.36825,33.38918],[-118.36827,33.38925],[-118.36825,33.38932],[-118.36821,33.38933],[-118.36816,33.38931],[-118.36808,33.38937],[-118.36805,33.38944],[-118.36798,33.38944],[-118.36807,33.38948],[-118.36817,33.3895],[-118.3682,33.38954],[-118.36827,33.38955],[-118.36834,33.38963],[-118.36832,33.38973],[-118.36833,33.38978],[-118.36838,33.38979],[-118.36843,33.38977],[-118.36848,33.38975],[-118.36852,33.38976],[-118.36853,33.38981],[-118.36851,33.38983],[-118.36855,33.38984],[-118.36861,33.38986],[-118.3686,33.38989],[-118.36853,33.38998],[-118.3684,33.39006],[-118.36836,33.39012],[-118.36828,33.39016],[-118.36833,33.39036],[-118.36836,33.39066],[-118.36841,33.39091],[-118.36845,33.39098],[-118.36851,33.39106],[-118.36864,33.39104],[-118.36872,33.39106],[-118.36872,33.39112],[-118.36887,33.39105],[-118.36899,33.39098],[-118.3691,33.39084],[-118.36931,33.39095],[-118.36941,33.39106],[-118.36947,33.39134],[-118.36956,33.3915],[-118.36963,33.39174],[-118.36971,33.39201],[-118.36975,33.39237],[-118.36977,33.39245],[-118.36983,33.39269],[-118.37003,33.39332],[-118.37008,33.39363],[-118.37009,33.39382],[-118.3701,33.39399],[-118.37007,33.39421],[-118.37,33.39433],[-118.36997,33.39439],[-118.36965,33.39468],[-118.36946,33.39481],[-118.36944,33.39494],[-118.36941,33.39503],[-118.36939,33.39509],[-118.36931,33.39512],[-118.36919,33.39516],[-118.36915,33.39524],[-118.36921,33.39525],[-118.36926,33.39516],[-118.36935,33.39515],[-118.36945,33.39517],[-118.36955,33.39513],[-118.36963,33.39509],[-118.36967,33.3951],[-118.3697,33.39517],[-118.36974,33.39518],[-118.36982,33.39515],[-118.36999,33.39518],[-118.37005,33.39524],[-118.37009,33.39548],[-118.37003,33.39559],[-118.36992,33.3956],[-118.36989,33.39565],[-118.3699,33.3957],[-118.36993,33.39572],[-118.36996,33.39573],[-118.37,33.39571],[-118.37003,33.39572],[-118.37007,33.39574],[-118.37012,33.3959],[-118.37015,33.39621],[-118.37006,33.39646],[-118.36987,33.39689],[-118.36975,33.39691],[-118.36974,33.39714],[-118.36986,33.39727],[-118.3698,33.39742],[-118.36959,33.39776],[-118.36947,33.39775],[-118.36915,33.39811],[-118.36912,33.39832],[-118.36883,33.39843],[-118.36866,33.39846],[-118.36861,33.39835],[-118.36849,33.39836],[-118.36852,33.39855],[-118.36834,33.39883],[-118.36814,33.39902],[-118.36784,33.39912],[-118.36776,33.39936],[-118.36738,33.3996],[-118.36745,33.4],[-118.3676,33.40009],[-118.36737,33.40035],[-118.36706,33.40039],[-118.36698,33.40066],[-118.36716,33.40085],[-118.36743,33.40116],[-118.36761,33.40149],[-118.3676,33.40208],[-118.36765,33.40235],[-118.36777,33.40258],[-118.36773,33.40271],[-118.3678,33.40282],[-118.36796,33.40283],[-118.36823,33.40319],[-118.36837,33.40355],[-118.36853,33.4037],[-118.36876,33.40387],[-118.36899,33.40389],[-118.36903,33.40403],[-118.36907,33.4042],[-118.36905,33.40447],[-118.36895,33.40491],[-118.3688,33.40522],[-118.36872,33.40537],[-118.36872,33.40539],[-118.3686,33.40545],[-118.36832,33.40543],[-118.36803,33.40543],[-118.3679,33.40557],[-118.36766,33.40557],[-118.36745,33.4056],[-118.36723,33.40566],[-118.36714,33.40579],[-118.36714,33.40609],[-118.36704,33.40617],[-118.36696,33.40623],[-118.36685,33.40624],[-118.36666,33.40626],[-118.36642,33.40619],[-118.36629,33.4062],[-118.36628,33.40624],[-118.3663,33.40633],[-118.36638,33.40642],[-118.36666,33.40661],[-118.36683,33.40671],[-118.36714,33.40663],[-118.36738,33.4066],[-118.36762,33.40664],[-118.36788,33.40686],[-118.36816,33.40695],[-118.36836,33.40695],[-118.36865,33.40701],[-118.36898,33.40717],[-118.36912,33.4073],[-118.36928,33.40748],[-118.36938,33.40761],[-118.36955,33.40777],[-118.36961,33.40799],[-118.36963,33.4082],[-118.3697,33.40862],[-118.36998,33.40876],[-118.37016,33.40889],[-118.37033,33.40905],[-118.37071,33.40932],[-118.37105,33.40945],[-118.37135,33.40957],[-118.37165,33.40961],[-118.37205,33.4098],[-118.37245,33.41],[-118.37278,33.41003],[-118.37301,33.41013],[-118.37322,33.41011],[-118.37344,33.4101],[-118.37369,33.41007],[-118.37449,33.41008],[-118.37501,33.41013],[-118.37551,33.41026],[-118.3758,33.41033],[-118.37597,33.4103],[-118.37625,33.41028],[-118.37652,33.41022],[-118.37672,33.41009],[-118.37808,33.40971],[-118.37855,33.40971],[-118.37889,33.4097],[-118.37955,33.40959],[-118.38045,33.40963],[-118.38072,33.40965],[-118.38079,33.40956],[-118.3809,33.40958],[-118.38095,33.40972],[-118.38102,33.40968],[-118.38175,33.40977],[-118.38202,33.40983],[-118.38221,33.40987],[-118.38255,33.41017],[-118.3827,33.41025],[-118.38293,33.41034],[-118.38315,33.41058],[-118.38325,33.4108],[-118.38323,33.4109],[-118.38325,33.41105],[-118.38359,33.41135],[-118.38373,33.41155],[-118.38379,33.41178],[-118.38391,33.412],[-118.3841,33.41219],[-118.38424,33.41257],[-118.38446,33.41267],[-118.38508,33.41306],[-118.38573,33.41357],[-118.38621,33.41406],[-118.38665,33.41464],[-118.3871,33.41518],[-118.38732,33.41528],[-118.38737,33.41551],[-118.3876,33.41576],[-118.38805,33.41618],[-118.38825,33.41624],[-118.38838,33.41623],[-118.38846,33.41634],[-118.3884,33.41645],[-118.38842,33.41661],[-118.38867,33.41661],[-118.38869,33.41702],[-118.38855,33.41722],[-118.38859,33.41725],[-118.38868,33.41717],[-118.38882,33.41725],[-118.38891,33.41735],[-118.38908,33.41761],[-118.38915,33.4177],[-118.38971,33.41758],[-118.39001,33.41759],[-118.39022,33.41759],[-118.39032,33.41742],[-118.39064,33.41735],[-118.39083,33.41738],[-118.39097,33.41733],[-118.39127,33.41728],[-118.39166,33.41729],[-118.39173,33.41752],[-118.39187,33.41749],[-118.39178,33.41736],[-118.39177,33.41722],[-118.39191,33.41718],[-118.39216,33.41712],[-118.39247,33.41713],[-118.39278,33.4171],[-118.39295,33.41708],[-118.39308,33.41719],[-118.39372,33.41683],[-118.39392,33.41685],[-118.39402,33.41683],[-118.39421,33.41666],[-118.39419,33.41649],[-118.39429,33.41637],[-118.39454,33.41627],[-118.39497,33.41613],[-118.39562,33.41604],[-118.39611,33.416],[-118.39632,33.41609],[-118.39637,33.41623],[-118.39653,33.4163],[-118.39664,33.41625],[-118.39709,33.41639],[-118.39737,33.41655],[-118.39734,33.41671],[-118.39738,33.4169],[-118.39753,33.4172],[-118.39764,33.41731],[-118.39781,33.41735],[-118.39794,33.4174],[-118.39811,33.41752],[-118.39832,33.41778],[-118.39833,33.41799],[-118.39837,33.41818],[-118.39842,33.41829],[-118.39856,33.41829],[-118.39884,33.41836],[-118.39899,33.41843],[-118.39916,33.41849],[-118.39941,33.41853],[-118.39966,33.41855],[-118.39983,33.41842],[-118.40001,33.41844],[-118.40025,33.41862],[-118.40053,33.41868],[-118.40082,33.41871],[-118.40098,33.41875],[-118.4013,33.41884],[-118.4015,33.41887],[-118.40174,33.41874],[-118.40213,33.41872],[-118.4025,33.41895],[-118.4026,33.41901],[-118.40272,33.41909],[-118.40281,33.4192],[-118.40302,33.41939],[-118.40329,33.41937],[-118.40358,33.41936],[-118.40385,33.41947],[-118.40407,33.41957],[-118.40422,33.41963],[-118.40442,33.41973],[-118.40461,33.41985],[-118.40479,33.41994],[-118.4051,33.42021],[-118.40528,33.42038],[-118.40538,33.42052],[-118.40533,33.42095],[-118.40532,33.42113],[-118.40515,33.42125],[-118.40518,33.42151],[-118.40523,33.42169],[-118.40532,33.42184],[-118.40542,33.42196],[-118.40558,33.42201],[-118.40573,33.42195],[-118.4061,33.42169],[-118.4063,33.42154],[-118.4066,33.42147],[-118.40688,33.42139],[-118.40705,33.42133],[-118.40765,33.42117],[-118.40795,33.42109],[-118.40822,33.42109],[-118.40843,33.42117],[-118.40851,33.42129],[-118.40854,33.4215],[-118.40864,33.42161],[-118.40871,33.42164],[-118.40883,33.42149],[-118.40903,33.42143],[-118.40915,33.42148],[-118.40916,33.42163],[-118.40922,33.42176],[-118.40952,33.42155],[-118.40984,33.42154],[-118.4102,33.42155],[-118.41075,33.42179],[-118.41119,33.42202],[-118.41132,33.42218],[-118.41154,33.42239],[-118.41171,33.4224],[-118.41197,33.4223],[-118.4124,33.42226],[-118.41323,33.42254],[-118.41351,33.42261],[-118.41366,33.4228],[-118.41388,33.42309],[-118.414,33.42331],[-118.4141,33.42336],[-118.41422,33.42321],[-118.4144,33.42323],[-118.41464,33.42326],[-118.41483,33.42319],[-118.41506,33.42315],[-118.4154,33.42322],[-118.41557,33.42331],[-118.41557,33.42342],[-118.41552,33.42351],[-118.41552,33.42362],[-118.41557,33.4237],[-118.41567,33.42381],[-118.41568,33.42396],[-118.41577,33.42406],[-118.41592,33.42402],[-118.41618,33.42385],[-118.41652,33.424],[-118.41658,33.42429],[-118.41669,33.42434],[-118.41674,33.4242],[-118.41691,33.42418],[-118.41697,33.42431],[-118.41699,33.42447],[-118.41699,33.42477],[-118.41731,33.42504],[-118.41743,33.42532],[-118.41762,33.42537],[-118.41778,33.4253],[-118.41793,33.42556],[-118.41823,33.42576],[-118.41922,33.42595],[-118.42014,33.42637],[-118.42071,33.42657],[-118.42093,33.42694],[-118.42144,33.42676],[-118.42213,33.42686],[-118.42272,33.42691],[-118.4233,33.42708],[-118.424,33.42724],[-118.4245,33.42731],[-118.42447,33.42723],[-118.42449,33.42714],[-118.42479,33.42691],[-118.42505,33.42681],[-118.42554,33.42678],[-118.42579,33.42683],[-118.42594,33.42693],[-118.42607,33.42705],[-118.42623,33.42709],[-118.4264,33.42721],[-118.42653,33.42737],[-118.42664,33.42743],[-118.42706,33.42752],[-118.42748,33.42771],[-118.42764,33.42769],[-118.42768,33.42759],[-118.42791,33.42755],[-118.42806,33.42761],[-118.42821,33.42776],[-118.42842,33.42793],[-118.42865,33.42796],[-118.42912,33.42795],[-118.42921,33.428],[-118.42943,33.42802],[-118.42962,33.42792],[-118.42986,33.42789],[-118.43004,33.42779],[-118.43023,33.42773],[-118.43041,33.42776],[-118.43063,33.42774],[-118.43083,33.42766],[-118.43095,33.42758],[-118.43107,33.42743],[-118.43121,33.42738],[-118.43136,33.4273],[-118.4317,33.42701],[-118.43193,33.42689],[-118.43226,33.42664],[-118.43242,33.42656],[-118.43292,33.42647],[-118.43319,33.42644],[-118.43328,33.42643],[-118.43342,33.42643],[-118.43384,33.42643],[-118.43421,33.42648],[-118.43443,33.42656],[-118.43459,33.42671],[-118.43468,33.42687],[-118.43475,33.42705],[-118.43481,33.42714],[-118.43488,33.42733],[-118.43507,33.42763],[-118.43527,33.42784],[-118.43538,33.42802],[-118.43557,33.42805],[-118.43595,33.42836],[-118.43627,33.42852],[-118.43658,33.42866],[-118.43686,33.4287],[-118.43708,33.42876],[-118.43735,33.42876],[-118.43761,33.42885],[-118.43782,33.42894],[-118.43795,33.42904],[-118.43881,33.42897],[-118.43915,33.42887],[-118.43948,33.42874],[-118.43971,33.42874],[-118.44004,33.4287],[-118.4403,33.42863],[-118.4407,33.4285],[-118.44127,33.42835],[-118.44157,33.42825],[-118.44182,33.42819],[-118.44216,33.42812],[-118.44273,33.42797],[-118.44332,33.42802],[-118.44382,33.42818],[-118.44429,33.42843],[-118.44492,33.42852],[-118.4452,33.42861],[-118.44542,33.42873],[-118.44568,33.42889],[-118.44588,33.429],[-118.44623,33.42924],[-118.44646,33.4294],[-118.44672,33.42965],[-118.44696,33.42977],[-118.44734,33.43003],[-118.44759,33.43012],[-118.44803,33.43051],[-118.44862,33.43123],[-118.44871,33.43145],[-118.44879,33.4318],[-118.44893,33.43196],[-118.44908,33.4322],[-118.44936,33.4325],[-118.45001,33.43269],[-118.4505,33.43261],[-118.45071,33.43282],[-118.45108,33.43285],[-118.4517,33.43295],[-118.45206,33.43296],[-118.45238,33.43301],[-118.45292,33.43325],[-118.45325,33.43335],[-118.4535,33.43339],[-118.45376,33.43346],[-118.45402,33.43358],[-118.4547,33.43394],[-118.45492,33.43408],[-118.45512,33.43434],[-118.45528,33.43446],[-118.45531,33.43455],[-118.45522,33.43473],[-118.45528,33.43489],[-118.45551,33.43473],[-118.45562,33.43487],[-118.45579,33.43484],[-118.45604,33.43489],[-118.45628,33.435],[-118.45648,33.43516],[-118.45673,33.43533],[-118.45692,33.43553],[-118.45716,33.43569],[-118.45743,33.4359],[-118.45762,33.43607],[-118.45789,33.43631],[-118.45807,33.43646],[-118.45832,33.43655],[-118.45857,33.4366],[-118.45884,33.43664],[-118.45916,33.43666],[-118.45969,33.43684],[-118.46018,33.43695],[-118.46045,33.43708],[-118.46077,33.43729],[-118.46102,33.4375],[-118.46118,33.43769],[-118.46138,33.43806],[-118.46154,33.43827],[-118.46187,33.43924],[-118.46205,33.43955],[-118.46227,33.43984],[-118.46254,33.44012],[-118.46259,33.4403],[-118.46273,33.44048],[-118.46285,33.44055],[-118.46318,33.44057],[-118.46337,33.44055],[-118.46371,33.44044],[-118.46408,33.44042],[-118.46433,33.44042],[-118.46458,33.4405],[-118.4649,33.44069],[-118.46516,33.44089],[-118.46542,33.44116],[-118.46563,33.44132],[-118.46601,33.44129],[-118.46628,33.44142],[-118.46669,33.44174],[-118.46698,33.44187],[-118.46718,33.4419],[-118.46731,33.44197],[-118.4675,33.4421],[-118.46778,33.44215],[-118.46796,33.4423],[-118.46813,33.44233],[-118.46837,33.44234],[-118.46861,33.44242],[-118.46875,33.4425],[-118.46931,33.44267],[-118.46958,33.44262],[-118.46977,33.44254],[-118.46994,33.44254],[-118.47014,33.44241],[-118.47042,33.44228],[-118.47087,33.44215],[-118.47129,33.4421],[-118.47144,33.44202],[-118.47157,33.44208],[-118.47155,33.44218],[-118.47174,33.4422],[-118.47188,33.44194]],[[-118.48655,33.45067],[-118.48657,33.45084],[-118.48664,33.451],[-118.48672,33.45111],[-118.48683,33.45121],[-118.48693,33.45124],[-118.48693,33.4513],[-118.48695,33.45136],[-118.48703,33.45141],[-118.48721,33.4515],[-118.48733,33.45156],[-118.48747,33.4516],[-118.48755,33.45162],[-118.48762,33.45184],[-118.48774,33.45189],[-118.48786,33.45179],[-118.48786,33.45161],[-118.48782,33.45135],[-118.48779,33.45111],[-118.48762,33.45086],[-118.48745,33.45075],[-118.4873,33.45068],[-118.48717,33.45058],[-118.48694,33.45051],[-118.48673,33.45051],[-118.48662,33.45056],[-118.48655,33.45067]],[[-118.40505,33.42037],[-118.40501,33.42037],[-118.40495,33.42042],[-118.40497,33.42045],[-118.40502,33.42049],[-118.40505,33.42049],[-118.40511,33.42043],[-118.40505,33.42037]],[[-118.40488,33.4215],[-118.4048,33.4215],[-118.40476,33.42152],[-118.40477,33.42156],[-118.4048,33.42158],[-118.40485,33.4216],[-118.40493,33.42154],[-118.40488,33.4215]],[[-118.38976,33.4177],[-118.38972,33.41774],[-118.38971,33.41779],[-118.38977,33.41784],[-118.38988,33.41785],[-118.38992,33.41781],[-118.38981,33.41772],[-118.38976,33.4177]],[[-118.36947,33.39458],[-118.36939,33.3946],[-118.36936,33.39456],[-118.36924,33.39454],[-118.36919,33.39456],[-118.36915,33.39457],[-118.36909,33.3946],[-118.36916,33.39465],[-118.36919,33.39466],[-118.36923,33.39466],[-118.36931,33.39471],[-118.36936,33.39473],[-118.36941,33.39473],[-118.36946,33.39471],[-118.36949,33.39469],[-118.3695,33.39466],[-118.3695,33.39463],[-118.36947,33.39458]],[[-118.36568,33.38838],[-118.36565,33.38835],[-118.36565,33.38838],[-118.36567,33.38844],[-118.36566,33.38848],[-118.3657,33.38851],[-118.36573,33.38852],[-118.36575,33.38857],[-118.36579,33.38855],[-118.3658,33.38851],[-118.3658,33.38846],[-118.36575,33.38842],[-118.36572,33.38841],[-118.36568,33.38838]],[[-118.49185,33.46316],[-118.49186,33.46304],[-118.49183,33.46295],[-118.49158,33.46282],[-118.49149,33.46286],[-118.49145,33.46296],[-118.49149,33.46307],[-118.49143,33.46318],[-118.49143,33.46328],[-118.49153,33.46332],[-118.49171,33.46331],[-118.49183,33.46325],[-118.49185,33.46316]],[[-118.3676,33.3991],[-118.36759,33.39919],[-118.36769,33.39925],[-118.36772,33.39922],[-118.36773,33.39911],[-118.36766,33.39907],[-118.3676,33.3991]],[[-118.3671,33.39916],[-118.36717,33.39919],[-118.36724,33.39916],[-118.36723,33.3991],[-118.36718,33.39906],[-118.3671,33.39908],[-118.36705,33.39911],[-118.3671,33.39916]]]},"properties":{}},{"type":"Feature","geometry":{"type":"Polygon","coordinates":[[[-118.48655,33.45067],[-118.48662,33.45056],[-118.48673,33.45051],[-118.48694,33.45051],[-118.48717,33.45058],[-118.4873,33.45068],[-118.48745,33.45075],[-118.48762,33.45086],[-118.48779,33.45111],[-118.48782,33.45135],[-118.48786,33.45161],[-118.48786,33.45179],[-118.48774,33.45189],[-118.48762,33.45184],[-118.48755,33.45162],[-118.48747,33.4516],[-118.48733,33.45156],[-118.48721,33.4515],[-118.48703,33.45141],[-118.48695,33.45136],[-118.48693,33.4513],[-118.48693,33.45124],[-118.48683,33.45121],[-118.48672,33.45111],[-118.48664,33.451],[-118.48657,33.45084],[-118.48655,33.45067]]]},"properties":{}},{"type":"Feature","geometry":{"type":"Polygon","coordinates":[[[-118.39397,33.31868],[-118.39414,33.31882],[-118.39415,33.31886],[-118.39412,33.31909],[-118.39409,33.31912],[-118.39405,33.31914],[-118.394,33.31912],[-118.39396,33.31913],[-118.39391,33.31918],[-118.39384,33.31922],[-118.3938,33.31923],[-118.39375,33.31923],[-118.39369,33.31919],[-118.39369,33.31892],[-118.39372,33.31884],[-118.39382,33.31873],[-118.39388,33.31869],[-118.39394,33.31868],[-118.39397,33.31868]]]},"properties":{}},{"type":"Feature","geometry":{"type":"Polygon","coordinates":[[[-118.49185,33.46316],[-118.49183,33.46325],[-118.49171,33.46331],[-118.49153,33.46332],[-118.49143,33.46328],[-118.49143,33.46318],[-118.49149,33.46307],[-118.49145,33.46296],[-118.49149,33.46286],[-118.49158,33.46282],[-118.49183,33.46295],[-118.49186,33.46304],[-118.49185,33.46316]]]},"properties":{}}]}