{"type":"FeatureCollection","features":[{"type":"Feature","properties":{"id":"catalina-kelp-canopy","name":"Catalina recent kelp canopy","className":"Kelp Canopy"},"geometry":{"type":"MultiPolygon","coordinates":[[[[-118.56039,33.43368],[-118.56039,33.43314],[-118.56232,33.43393],[-118.56071,33.43341],[-118.56039,33.43368]]],[[[-118.56298,33.43419],[-118.56233,33.4342],[-118.56233,33.43365],[-118.56329,33.43364],[-118.56298,33.43419]]],[[[-118.56427,33.43417],[-118.56461,33.43552],[-118.56494,33.43525],[-118.56495,33.43633],[-118.56431,33.43607],[-118.56429,33.43499],[-118.5633,33.43364],[-118.56427,33.43417]]],[[[-118.56658,33.43685],[-118.56626,33.4374],[-118.5653,33.43741],[-118.56497,33.43687],[-118.56658,33.43685]]],[[[-118.5682,33.4371],[-118.56918,33.4379],[-118.57047,33.43788],[-118.57047,33.43842],[-118.57112,33.43814],[-118.57146,33.43896],[-118.57049,33.43896],[-118.56886,33.4379],[-118.56854889867842,33.438163964757706],[-118.56851483333332,33.438141609374995],[-118.56821,33.43737],[-118.56666932892178,33.43764579914364],[-118.56659,33.43763513833992],[-118.56659,33.43711],[-118.5682,33.4371]],[[-118.57081,33.43842],[-118.5708,33.43869],[-118.57081,33.43869],[-118.57081,33.43842]]],[[[-118.57188,33.44463],[-118.57161755593803,33.444187125645435],[-118.5717541364296,33.444086966618286],[-118.5722,33.44408],[-118.57188,33.44463]]],[[[-118.57354,33.44704],[-118.57386,33.44677],[-118.57419,33.44758],[-118.5732338837808,33.44758995954395],[-118.57322994316225,33.447586400275576],[-118.5732,33.44569],[-118.57352,33.44569],[-118.57354,33.44704]]],[[[-118.5771,33.44754],[-118.57677,33.44727],[-118.5771,33.44727],[-118.5771,33.44754]]],[[[-118.57452,33.4473],[-118.57452,33.44785],[-118.5742,33.4473],[-118.57452,33.4473]]],[[[-118.57646,33.44809],[-118.57484,33.44756],[-118.57677,33.44754],[-118.57646,33.44809]]],[[[-118.57808,33.44834],[-118.57872,33.44806],[-118.57873,33.4486],[-118.57808,33.44834]]],[[[-118.57906,33.4486],[-118.57906,33.44887],[-118.57874,33.4486],[-118.57906,33.4486]]],[[[-118.57948,33.44994],[-118.57910578947369,33.44937868421052],[-118.57939,33.44913],[-118.57972,33.44994],[-118.57948,33.44994]]],[[[-118.58299,33.45233],[-118.58203,33.45262],[-118.5817,33.45208],[-118.58299,33.45233]]],[[[-118.58366,33.45368],[-118.58366,33.45395],[-118.58334,33.45368],[-118.58366,33.45368]]],[[[-118.58399,33.45367],[-118.58367,33.45422],[-118.58367,33.45367],[-118.58399,33.45367]]],[[[-118.584,33.45448],[-118.58432,33.45421],[-118.58432,33.45448],[-118.584,33.45448]]],[[[-118.58631,33.45744],[-118.58607677966103,33.45744],[-118.58598870674412,33.45733395301843],[-118.58598,33.45662],[-118.58662,33.45662],[-118.58631,33.45744]],[[-118.58631,33.45716],[-118.58631,33.45689],[-118.5863,33.45716],[-118.58631,33.45716]]],[[[-118.58993,33.46063],[-118.58961,33.46118],[-118.58897,33.46119],[-118.58864,33.46064],[-118.58993,33.46063]]],[[[-118.59143716150082,33.461913531810765],[-118.59123,33.46142],[-118.59187,33.46142],[-118.59162263736265,33.46208787912088],[-118.59143716150082,33.461913531810765]]],[[[-118.59222,33.46223],[-118.59222,33.4625],[-118.5919,33.46223],[-118.59222,33.46223]]],[[[-118.59256366319444,33.463820446428564],[-118.59222,33.46276],[-118.5932,33.46329],[-118.59321,33.46384],[-118.59259027777779,33.46384],[-118.59256366319444,33.463820446428564]]],[[[-118.59619,33.46759],[-118.59562403301211,33.467825093979584],[-118.59558,33.46779],[-118.59554,33.467775411764705],[-118.59554,33.46705],[-118.59488,33.46706],[-118.59488,33.46651],[-118.59584,33.46651],[-118.59617,33.46704],[-118.5965,33.46677],[-118.5965,33.46731],[-118.59779,33.46729],[-118.5978,33.46811],[-118.59813,33.46783],[-118.59943,33.46863],[-118.59717,33.46865],[-118.59717,33.46811],[-118.59652,33.46839],[-118.59619,33.46759]],[[-118.59748,33.46757],[-118.59747,33.46784],[-118.59748,33.46784],[-118.59748,33.46757]],[[-118.59814,33.4681],[-118.59813,33.46837],[-118.59814,33.46837],[-118.59814,33.4681]],[[-118.59683,33.46731],[-118.59682,33.46758],[-118.59683,33.46758],[-118.59683,33.46731]]],[[[-118.60337,33.47236],[-118.60337,33.47182],[-118.60304,33.4721],[-118.60304,33.47155],[-118.60271,33.47183],[-118.60239,33.47102],[-118.60206,33.4713],[-118.60172,33.46995],[-118.60114983009709,33.46995877184466],[-118.60107,33.46990377777778],[-118.60107,33.46942],[-118.60074899463807,33.46968264075067],[-118.60073232265447,33.469671155606406],[-118.60041,33.46888],[-118.59943,33.46889],[-118.59943,33.46863],[-118.59943,33.46835],[-118.60072,33.46861],[-118.60171,33.46968],[-118.60268,33.46939],[-118.60397,33.46992],[-118.60435,33.4729],[-118.60275,33.47345],[-118.60275,33.47291],[-118.60306,33.47291],[-118.60306,33.47236],[-118.60337,33.47236]],[[-118.60336,33.47101],[-118.60335,33.47101],[-118.60336,33.47128],[-118.60336,33.47101]],[[-118.603,33.4702],[-118.60301,33.4702],[-118.603,33.46993],[-118.603,33.4702]],[[-118.60367,33.47073],[-118.60367,33.47047],[-118.60366,33.47073],[-118.60367,33.47073]],[[-118.60333,33.4702],[-118.60333,33.47047],[-118.60334,33.4702],[-118.60333,33.4702]],[[-118.6027,33.47075],[-118.6027,33.47048],[-118.60269,33.47075],[-118.6027,33.47075]],[[-118.60204,33.47021],[-118.60204,33.47049],[-118.60205,33.47021],[-118.60204,33.47021]],[[-118.60303,33.47102],[-118.60303,33.47075],[-118.60302,33.47102],[-118.60303,33.47102]],[[-118.60402,33.47235],[-118.60402,33.47263],[-118.60403,33.47235],[-118.60402,33.47235]],[[-118.60339,33.4729],[-118.60339,33.47263],[-118.60338,33.4729],[-118.60339,33.4729]],[[-118.6037,33.47209],[-118.60369,33.47209],[-118.6037,33.47236],[-118.6037,33.47209]]],[[[-118.56596,33.47474],[-118.56532,33.47474],[-118.56499,33.4742],[-118.56596,33.47392],[-118.56596,33.47474]]],[[[-118.60341,33.47425],[-118.60342,33.4748],[-118.60277,33.47453],[-118.60276,33.47399],[-118.60341,33.47425]]],[[[-118.55886,33.47429],[-118.56079,33.47399],[-118.56144,33.47453],[-118.56016,33.47481],[-118.55886,33.47429]],[[-118.56048,33.47453],[-118.56047,33.47426],[-118.56047,33.47453],[-118.56048,33.47453]]],[[[-118.58244,33.4748],[-118.58244,33.47452],[-118.58264034482758,33.47452],[-118.58281087071241,33.47463774406332],[-118.58244,33.4748]]],[[[-118.57389,33.47485],[-118.57422,33.47464],[-118.57487,33.47465],[-118.57488300578035,33.47466387283237],[-118.57276,33.47546],[-118.57211,33.4752],[-118.57211,33.47465],[-118.57250955170656,33.47453346408558],[-118.57307361485688,33.47466280340667],[-118.57308,33.47518],[-118.57372288479034,33.47481168058887],[-118.57389,33.47485]]],[[[-118.58083,33.47536],[-118.58102297188755,33.47484955823293],[-118.58171378548897,33.474535552050476],[-118.58243,33.47453],[-118.58212,33.47507],[-118.58115,33.47562],[-118.58083,33.47536]]],[[[-118.57146,33.47548],[-118.57018,33.47549],[-118.57178,33.47493],[-118.57146,33.47548]]],[[[-118.56946935692706,33.47582993957704],[-118.5695,33.47589],[-118.56954,33.47587],[-118.56954,33.47632],[-118.56858,33.47633],[-118.56857,33.47551],[-118.56792,33.47579],[-118.56727,33.47526],[-118.56758,33.47444],[-118.56792,33.47525],[-118.56856,33.47497],[-118.56921,33.47605],[-118.56946935692706,33.47582993957704]],[[-118.56758,33.47472],[-118.56758,33.47498],[-118.56759,33.47472],[-118.56758,33.47472]]],[[[-118.57727,33.47486],[-118.57954,33.47592],[-118.57729,33.47567],[-118.57727,33.47486]]],[[[-118.60538,33.47612],[-118.60538,33.47667],[-118.6041,33.47641],[-118.60408,33.4756],[-118.60473,33.47559],[-118.60473,33.47613],[-118.60538,33.47612]]],[[[-118.59247,33.47602],[-118.59247,33.4763],[-118.59215,33.47602],[-118.59247,33.47602]]],[[[-118.56955,33.47604],[-118.57018,33.47604],[-118.56955,33.47631],[-118.56955,33.47604]]],[[[-118.59116,33.47577],[-118.59149,33.47549],[-118.59181,33.47603],[-118.59214,33.47575],[-118.59214,33.4763],[-118.5915,33.4763],[-118.59119,33.47685],[-118.59054,33.47659],[-118.59023,33.47713],[-118.58926,33.47714],[-118.58925,33.47633],[-118.5886,33.47661],[-118.58859,33.4758],[-118.58826,33.47607],[-118.58826,33.47553],[-118.58923,33.47525],[-118.59019,33.47578],[-118.59045776859504,33.47533371900826],[-118.59059,33.47538],[-118.59112,33.47527],[-118.59116,33.47527127659575],[-118.59116,33.47577]],[[-118.59086,33.47631],[-118.59085,33.47604],[-118.59085,33.47631],[-118.59086,33.47631]],[[-118.59052,33.47604],[-118.59053,33.47577],[-118.59052,33.47577],[-118.59052,33.47604]],[[-118.58989,33.47632],[-118.58988,33.47606],[-118.58988,33.47632],[-118.58989,33.47632]],[[-118.58955,33.47606],[-118.58956,33.47579],[-118.58955,33.47579],[-118.58955,33.47606]],[[-118.58892,33.47607],[-118.58891,33.47634],[-118.58892,33.47634],[-118.58892,33.47607]],[[-118.59021,33.47659],[-118.59022,33.47632],[-118.59021,33.47632],[-118.59021,33.47659]],[[-118.58958,33.47687],[-118.58957,33.4766],[-118.58957,33.47687],[-118.58958,33.47687]]],[[[-118.59538,33.4768],[-118.59538,33.47707],[-118.59506,33.4768],[-118.59538,33.4768]]],[[[-118.59605,33.4776],[-118.59572,33.47706],[-118.596746594808,33.477258952482174],[-118.59701,33.47736018656716],[-118.59701,33.47759],[-118.59605,33.4776]]],[[[-118.60104399999999,33.47726],[-118.6012,33.47726],[-118.60056,33.47754],[-118.60056,33.47748],[-118.60104399999999,33.47726]]],[[[-118.60121,33.47753],[-118.60150612565445,33.47728014397906],[-118.60153,33.4772885],[-118.60153,33.47753],[-118.60121,33.47753]]],[[[-118.60549111111112,33.47803925925926],[-118.60541658914728,33.47786537467698],[-118.60539938992042,33.477085676392576],[-118.60547,33.47706],[-118.60539785482825,33.47701608554764],[-118.60539,33.47666],[-118.60637,33.47719],[-118.60638,33.47828],[-118.60549111111112,33.47803925925926]],[[-118.60605,33.47774],[-118.60606,33.47747],[-118.60605,33.47747],[-118.60605,33.47774]]],[[[-118.59734,33.47758],[-118.5971376040609,33.47740922842639],[-118.59734,33.47748701492537],[-118.59734,33.47758]]],[[[-118.59734,33.47785],[-118.59734,33.47758],[-118.59757248979594,33.47757636734694],[-118.59766,33.47761],[-118.59779941908714,33.477572821576764],[-118.59798,33.47757],[-118.59734,33.47785]]],[[[-118.60009367521367,33.477691965811964],[-118.60024,33.47762545454545],[-118.60024,33.47782],[-118.60009367521367,33.477691965811964]]],[[[-118.60185384615384,33.47752538461538],[-118.60192,33.47779],[-118.60204461538461,33.47783153846154],[-118.60218,33.47806],[-118.60186,33.47806],[-118.60154,33.4778],[-118.60185384615384,33.47752538461538]]],[[[-118.60219,33.47806],[-118.60219,33.47788],[-118.60234,33.47793],[-118.60249704521556,33.47792566771819],[-118.60219,33.47806]]],[[[-118.60381,33.47804],[-118.60381,33.47831],[-118.60349,33.47804],[-118.60381,33.47804]]],[[[-118.60413,33.47885],[-118.60381,33.47885],[-118.60413,33.47831],[-118.60413,33.47885]]],[[[-118.6064,33.47882],[-118.60672,33.47854],[-118.60672,33.47882],[-118.6064,33.47882]]],[[[-118.60446,33.47885],[-118.60414,33.47857],[-118.60446,33.47857],[-118.60446,33.47885]]],[[[-118.60479,33.47911],[-118.60447,33.47911],[-118.60479,33.47884],[-118.60479,33.47911]]],[[[-118.60576,33.47937],[-118.60512,33.47937],[-118.60511251411202,33.478965762049505],[-118.60519,33.479],[-118.60527562929848,33.478967599724896],[-118.60576,33.47937]]],[[[-118.53323,33.42904],[-118.53332,33.42874],[-118.5332,33.42878645161291],[-118.5332,33.4286],[-118.53481,33.42859],[-118.53515,33.42994],[-118.5346409490594,33.429947953920944],[-118.5344253933162,33.42968124935733],[-118.53427563667232,33.42920555178267],[-118.53432,33.42911],[-118.5342503845025,33.429125339007925],[-118.53417,33.42887],[-118.53328901372213,33.42912430531732],[-118.53323,33.42904]]],[[[-118.53095,33.42945],[-118.53128,33.42971],[-118.52999,33.42973],[-118.52999,33.42945],[-118.53095,33.42945]]],[[[-118.53645,33.42993],[-118.5358,33.42939],[-118.53644,33.42938],[-118.53645,33.42993]]],[[[-118.5358,33.42966],[-118.5358,33.43021],[-118.53529157894738,33.43021],[-118.53516,33.43018685185186],[-118.53516,33.42966],[-118.5358,33.42966]]],[[[-118.53559555555556,33.431583333333336],[-118.53552295739348,33.431147744360906],[-118.53594,33.43045],[-118.53593583875163,33.430442717815346],[-118.53613,33.43019],[-118.53645,33.43019],[-118.53649,33.43263],[-118.53586,33.43317],[-118.53573858156028,33.432441489361686],[-118.53584,33.43195],[-118.53559555555556,33.431583333333336]],[[-118.53615,33.43128],[-118.53615,33.43101],[-118.53614,33.43128],[-118.53615,33.43128]]],[[[-118.55682,33.43291],[-118.55714,33.43237],[-118.55843,33.43262],[-118.55843,33.4329],[-118.55682,33.43291]]],[[[-118.55844,33.43262],[-118.55908,33.43261],[-118.55941,33.43316],[-118.55844,33.4329],[-118.55844,33.43262]]],[[[-118.53587,33.43372],[-118.53555,33.43372],[-118.53586,33.43317],[-118.53587,33.43372]]],[[[-118.54456,33.4328],[-118.54523,33.43414],[-118.54588,33.43413],[-118.5462,33.43467],[-118.54491,33.43442],[-118.54458,33.43334],[-118.54425,33.43361],[-118.54393,33.43307],[-118.54295,33.43309],[-118.54264,33.43364],[-118.54231,33.43336],[-118.542,33.43391],[-118.54167,33.43364],[-118.54136,33.43419],[-118.54071,33.43393],[-118.54007,33.43448],[-118.53878,33.43449],[-118.53846,33.43395],[-118.53975,33.43421],[-118.5423,33.43282],[-118.54456,33.4328]]],[[[-118.55329,33.43404],[-118.55233,33.43405],[-118.55265,33.4335],[-118.55329,33.4335],[-118.55329,33.43404]]],[[[-118.53781,33.43396],[-118.53845,33.43396],[-118.53781,33.43423],[-118.53781,33.43396]]],[[[-118.55201,33.43405],[-118.55233,33.43405],[-118.55169,33.43433],[-118.55169,33.43406],[-118.55201,33.43406],[-118.55201,33.43405]]],[[[-118.53781,33.43451],[-118.53717,33.43424],[-118.53781,33.43423],[-118.53781,33.43451]]],[[[-118.54749,33.43411],[-118.54781,33.43411],[-118.54718,33.43466],[-118.54717,33.43411],[-118.54749,33.43411]]],[[[-118.54781,33.43411],[-118.5491,33.43409],[-118.54944,33.43491],[-118.54781,33.43411]]],[[[-118.55169,33.43433],[-118.55138,33.43488],[-118.55106,33.43488],[-118.55169,33.43433]]],[[[-118.54686,33.43466],[-118.54686,33.43494],[-118.54654,33.43466],[-118.54686,33.43466]]],[[[-118.54653,33.43467],[-118.54653,33.43494],[-118.54621,33.43467],[-118.54653,33.43467]]],[[[-118.54977,33.43517],[-118.54945,33.43517],[-118.54977,33.4349],[-118.54977,33.43517]]],[[[-118.55042,33.43488],[-118.55106,33.43515],[-118.55042,33.43543],[-118.55042,33.43488]]],[[[-118.53037,33.47031],[-118.53005,33.47031],[-118.53037,33.47004],[-118.53037,33.47031]]],[[[-118.5307,33.47004],[-118.53038,33.47058],[-118.53038,33.47004],[-118.5307,33.47004]]],[[[-118.53082,33.4703],[-118.53086,33.47034],[-118.530945,33.4703],[-118.53135,33.4703],[-118.53071,33.47058],[-118.53071,33.4703],[-118.53082,33.4703]]],[[[-118.53137,33.47192],[-118.53137,33.47137],[-118.53169,33.47192],[-118.53137,33.47192]]],[[[-118.5317,33.47219],[-118.53202,33.47191],[-118.53202,33.47219],[-118.5317,33.47219]]],[[[-118.53231571428572,33.47245],[-118.53236,33.47246690909091],[-118.53236,33.47272],[-118.53204,33.47245],[-118.53231571428572,33.47245]]],[[[-118.53268,33.47272],[-118.53268,33.47299],[-118.53236,33.47272],[-118.53268,33.47272]]],[[[-118.53301,33.47353],[-118.53269,33.47353],[-118.53298217391306,33.473274347826084],[-118.53301,33.47333],[-118.53301,33.47353]]],[[[-118.551684,33.47329],[-118.55174,33.47332208333333],[-118.55174,33.47356],[-118.55142,33.47329],[-118.551684,33.47329]]],[[[-118.53310273504272,33.4733896153846],[-118.53334,33.47379],[-118.53302,33.47379],[-118.53302,33.47333642857142],[-118.53310273504272,33.4733896153846]]],[[[-118.55045,33.47385],[-118.55013,33.47358],[-118.55045,33.47358],[-118.55045,33.47385]]],[[[-118.5524,33.47409],[-118.55303,33.47355],[-118.55304,33.47409],[-118.5524,33.47409]]],[[[-118.55821,33.47429],[-118.5582,33.47348],[-118.55885,33.47429],[-118.55821,33.47429]]],[[[-118.53335,33.47379],[-118.5337166440678,33.47378427118644],[-118.53382338842975,33.47385289256198],[-118.53335,33.47406],[-118.53335,33.47379]]],[[[-118.55692,33.47404],[-118.55627,33.47432],[-118.55627,33.47404],[-118.55692,33.47404]]],[[[-118.53465,33.47432],[-118.53432,33.47404],[-118.5343851851852,33.47404],[-118.53465,33.47412411764706],[-118.53465,33.47432]]],[[[-118.534,33.47432],[-118.53432,33.47405],[-118.53432,33.47432],[-118.534,33.47432]]],[[[-118.5524,33.47409],[-118.5524,33.47437],[-118.55177,33.47519],[-118.5508,33.47493],[-118.5508,33.47438],[-118.55047,33.47466],[-118.55047,33.47411],[-118.55143,33.47411],[-118.55175,33.47356],[-118.55239,33.47382],[-118.5524,33.47409]],[[-118.55175,33.47437],[-118.55176,33.4741],[-118.55175,33.4741],[-118.55175,33.47437]],[[-118.55144,33.47492],[-118.55145,33.47465],[-118.55144,33.47465],[-118.55144,33.47492]]],[[[-118.55402,33.47434],[-118.55402,33.47462],[-118.55305,33.47463],[-118.55402,33.47434]]],[[[-118.55454,33.47418],[-118.55494,33.47444],[-118.5553798395722,33.474447854278075],[-118.55563,33.47487],[-118.55435,33.47488],[-118.55410037371134,33.47426728092783],[-118.55423,33.47415],[-118.55454,33.47418]]],[[[-118.55571933333333,33.47459],[-118.55587397849463,33.47468870967742],[-118.55564,33.47459],[-118.55571933333333,33.47459]]],[[[-118.5559856646102,33.47473582725743],[-118.55614684210526,33.47459],[-118.55628,33.47459],[-118.55628,33.47486],[-118.5559856646102,33.47473582725743]]],[[[-118.5354988731965,33.47458124872993],[-118.53562346783295,33.47486089446951],[-118.53563,33.47539],[-118.53465,33.47459],[-118.5354988731965,33.47458124872993]]],[[[-118.54337,33.47475],[-118.54241,33.47557],[-118.54180823899372,33.47531613207547],[-118.54268888888889,33.47475],[-118.54337,33.47475]]],[[[-118.54467,33.475],[-118.54369,33.47447],[-118.54498,33.47446],[-118.54531,33.47527],[-118.54564988653554,33.47526306354009],[-118.54564,33.47553],[-118.54565,33.47553],[-118.54565,33.47526306122449],[-118.54629,33.47525],[-118.54654597716588,33.47491682337139],[-118.54662,33.4749],[-118.54663104740904,33.474806097023155],[-118.54692,33.47443],[-118.54821,33.47469],[-118.54822,33.47523],[-118.54694,33.47606],[-118.54597,33.47607],[-118.54501,33.47581],[-118.54467,33.475]],[[-118.5463,33.47579],[-118.54629,33.47552],[-118.54629,33.47579],[-118.5463,33.47579]],[[-118.54758,33.47523],[-118.54757,33.47496],[-118.54757,33.47523],[-118.54758,33.47523]],[[-118.54694,33.47524],[-118.54693,33.47551],[-118.54694,33.47551],[-118.54694,33.47524]]],[[[-118.54565,33.47526306122449],[-118.54564988653554,33.47526306354009],[-118.54565,33.47526],[-118.54565,33.47526306122449]]],[[[-118.54048,33.47559],[-118.54048,33.47532],[-118.54069941176472,33.47532],[-118.54093230516818,33.475399183757176],[-118.54048,33.47559]]],[[[-118.54984,33.47575],[-118.54984,33.47548],[-118.55048,33.47575],[-118.54984,33.47575]]],[[[-118.53564,33.47593],[-118.53564,33.47538],[-118.53610437440307,33.475572893982815],[-118.53619709847037,33.47569001912046],[-118.53564,33.47593]]],[[[-118.53661,33.47619],[-118.53629,33.47619],[-118.53651843023256,33.47599012354651],[-118.53661,33.47606144230769],[-118.53661,33.47619]]],[[[-118.53863632101489,33.47695065637066],[-118.53865,33.47674],[-118.53856486614707,33.47654902405964],[-118.53856,33.47615],[-118.53883188576411,33.47591664922607],[-118.53911,33.47592],[-118.53942,33.47575],[-118.53961,33.47527],[-118.54039828856484,33.475299746738294],[-118.54047,33.47533],[-118.54016,33.47587],[-118.53952,33.47615],[-118.53953,33.47669],[-118.53863632101489,33.47695065637066]],[[-118.53983,33.47561],[-118.53983,33.47587],[-118.53984,33.47587],[-118.53983,33.47561]],[[-118.53888,33.47643],[-118.53888,33.4767],[-118.53889,33.4767],[-118.53888,33.47643]],[[-118.5392,33.47615],[-118.5392,33.47588],[-118.53919,33.47588],[-118.5392,33.47615]]],[[[-118.53792273764259,33.47685783269963],[-118.53793,33.47725],[-118.53728,33.47699],[-118.53781224489795,33.476757142857146],[-118.53786,33.47677],[-118.53792273764259,33.47685783269963]]],[[[-118.53820285714285,33.47725],[-118.53825,33.47731600000001],[-118.53825,33.47752],[-118.53793,33.47725],[-118.53820285714285,33.47725]]],[[[-118.51437,33.42235],[-118.51357247979384,33.42235822185779],[-118.51330113676732,33.42211733570159],[-118.51307,33.42155],[-118.51437,33.42235]]],[[[-118.5163,33.42233],[-118.51566,33.42206],[-118.5163,33.42205],[-118.5163,33.42233]]],[[[-118.5146,33.42245],[-118.51462518518518,33.42262],[-118.51437,33.42262],[-118.51469,33.42207],[-118.51469,33.42240418181818],[-118.5146,33.42245]]],[[[-118.5005,33.42252],[-118.50179,33.42223],[-118.50211,33.42277],[-118.50244,33.42249],[-118.50309,33.4233],[-118.50342,33.42302],[-118.50342,33.42356],[-118.50439,33.42328],[-118.50504,33.42435],[-118.50537,33.42408],[-118.50537,33.42463],[-118.50473,33.42463],[-118.5044,33.42382],[-118.50375,33.4241],[-118.50345701339641,33.423920827423196],[-118.50341,33.42388],[-118.50339741153913,33.42388437859508],[-118.50115,33.42251],[-118.50082,33.42278],[-118.5005,33.42252]]],[[[-118.51227962085308,33.423111848341236],[-118.51236,33.42325],[-118.51244746081505,33.423978840125386],[-118.51214,33.42346],[-118.51181,33.42373],[-118.5118,33.42292],[-118.51227962085308,33.423111848341236]]],[[[-118.51183,33.42427],[-118.51215,33.42427],[-118.51215,33.424520312499986],[-118.51214236363636,33.424533556818176],[-118.51183,33.42427]]],[[[-118.50538,33.42435],[-118.5057,33.42435],[-118.50538,33.42489],[-118.50538,33.42435]]],[[[-118.51151,33.42481],[-118.51183,33.42481],[-118.51183,33.425075312499985],[-118.51182437125749,33.425085074850294],[-118.51151,33.42481]]],[[[-118.50571,33.42538016393442],[-118.50571,33.42488],[-118.50603,33.42488],[-118.50571686695278,33.42541819742488],[-118.50572,33.42539],[-118.50571,33.42538016393442]]],[[[-118.50636,33.4257],[-118.50604,33.4257],[-118.50636,33.42542],[-118.50636,33.4257]]],[[[-118.50637,33.42569],[-118.50701,33.42568],[-118.50638,33.4265],[-118.50637,33.42569]]],[[[-118.51799,33.42663],[-118.51896,33.42635],[-118.51929,33.42689],[-118.51994,33.42688],[-118.52027,33.42769],[-118.51963181818181,33.42769],[-118.51961242258653,33.427677449908934],[-118.5193,33.42716],[-118.51908481751825,33.42733605839416],[-118.51897,33.42726176470588],[-118.51897,33.42689],[-118.51872574879226,33.42710371980676],[-118.51855,33.42699],[-118.51854358036128,33.42699041685966],[-118.51833,33.42663],[-118.51703,33.42691],[-118.51703,33.42637],[-118.51638,33.42638],[-118.51637,33.4253],[-118.51799,33.42663]]],[[[-118.51219,33.4267],[-118.51230682170542,33.4267],[-118.51232515695068,33.426818262331835],[-118.51219,33.4267]]],[[[-118.50671,33.42731],[-118.50735,33.42703],[-118.50736,33.42758],[-118.50671,33.42731]]],[[[-118.52158,33.42821],[-118.52158,33.42875],[-118.52223,33.42875],[-118.52256,33.42956],[-118.52127,33.4293],[-118.52059897587131,33.428752225201066],[-118.52028822329657,33.42835431031878],[-118.52028,33.42768],[-118.5206,33.42822],[-118.52158,33.42821]]],[[[-118.52935,33.43001],[-118.52967,33.42973],[-118.52967,33.43001],[-118.52935,33.43001]]],[[[-118.52838,33.43002],[-118.52934,33.42974],[-118.52934,33.43001],[-118.52838,33.43002]]],[[[-118.52709,33.43031],[-118.52548,33.43033],[-118.52515,33.42979],[-118.52709,33.43004],[-118.52709,33.43031]]],[[[-118.52774,33.43003],[-118.52806,33.43003],[-118.52806,33.43002],[-118.52838,33.43002],[-118.52742,33.43058],[-118.52741,33.43003],[-118.52774,33.4303],[-118.52774,33.43003]]],[[[-118.52452,33.43061],[-118.52451,33.43007],[-118.52515,33.43006],[-118.52516,33.43061],[-118.52452,33.43061]]],[[[-118.52451,33.43061],[-118.52419,33.43061],[-118.52451,33.43034],[-118.52451,33.43061]]],[[[-118.50426,33.45359],[-118.50394,33.45331],[-118.50426,33.45331],[-118.50426,33.45359]]],[[[-118.50523,33.45357],[-118.50523,33.45385],[-118.50491,33.45357],[-118.50523,33.45357]]],[[[-118.50556,33.45411],[-118.50524,33.45384],[-118.50556,33.45384],[-118.50556,33.45411]]],[[[-118.50589,33.45438],[-118.50557,33.45438],[-118.50589,33.45411],[-118.50589,33.45438]]],[[[-118.50686,33.454286800000006],[-118.50686,33.45437],[-118.50654,33.45437],[-118.50668349775785,33.45424443946188],[-118.50686,33.454286800000006]]],[[[-118.50687,33.45436],[-118.507165,33.45436],[-118.50738778597785,33.454413468634684],[-118.50687,33.45464],[-118.50687,33.45436]]],[[[-118.50848,33.4546756],[-118.50848,33.45516],[-118.50784,33.4549],[-118.50839793357933,33.45465590405904],[-118.50848,33.4546756]]],[[[-118.50946,33.45534],[-118.5096879232694,33.45531384487072],[-118.50946,33.45541],[-118.50946,33.45534]]],[[[-118.51012,33.45595],[-118.51011,33.4554],[-118.51026360630328,33.455442756393694],[-118.51072,33.45585],[-118.51100671154163,33.45579766376621],[-118.51077,33.45621],[-118.51012,33.45595]]],[[[-118.51237,33.4562],[-118.51141,33.45593],[-118.51141,33.45572404761905],[-118.51179371471027,33.45565400445765],[-118.5120028735632,33.45565073635057],[-118.51222083333337,33.45594361979172],[-118.51237,33.4562]]],[[[-118.51466,33.45752],[-118.51207,33.45701],[-118.51238,33.45619],[-118.512415007768,33.456204541688244],[-118.51262,33.45648],[-118.51303283547259,33.456610280046675],[-118.51304,33.45699],[-118.5137486728303,33.45683617954071],[-118.51447475701097,33.4570653126633],[-118.51466,33.45752]]],[[[-118.51563,33.4575],[-118.51563,33.45778],[-118.51531,33.4575],[-118.51563,33.4575]]],[[[-118.51629226607257,33.45849355187778],[-118.5163,33.45912],[-118.51654736462095,33.45890355595668],[-118.51662,33.458921129032255],[-118.51662,33.45939],[-118.51566,33.45913],[-118.51564,33.45804],[-118.51610887640449,33.45823476404494],[-118.51625,33.45839],[-118.51629226607257,33.45849355187778]],[[-118.51598,33.45885],[-118.51598,33.45858],[-118.51597,33.45885],[-118.51598,33.45885]]],[[[-118.51825573894283,33.46041475728154],[-118.51826,33.46099],[-118.5173,33.46127],[-118.5173,33.46046],[-118.51825,33.45964],[-118.51825191480387,33.45989849852385],[-118.51818,33.46022],[-118.51825573894283,33.46041475728154]]],[[[-118.51051,33.46027],[-118.51084,33.46081],[-118.5102,33.46082],[-118.51051,33.46027]]],[[[-118.50923,33.4611],[-118.50922,33.46029],[-118.51019,33.46054],[-118.5102,33.46109],[-118.50923,33.4611]]],[[[-118.51827,33.46071],[-118.51853411764706,33.46071],[-118.518812849436,33.46087923001471],[-118.5186,33.46125],[-118.51827,33.46071]]],[[[-118.51964529411764,33.46124],[-118.51989,33.461315636363636],[-118.51989,33.46151],[-118.51925,33.46124],[-118.51964529411764,33.46124]]],[[[-118.52026,33.46143],[-118.52046591439688,33.46143980544747],[-118.52054,33.4615],[-118.52022,33.46178],[-118.51995711459193,33.461336380873874],[-118.52026,33.46143]]],[[[-118.52219,33.46392],[-118.52251,33.46364],[-118.52251,33.46392],[-118.52219,33.46392]]],[[[-118.52219,33.46419],[-118.52187,33.46392],[-118.52219,33.46392],[-118.52219,33.46419]]],[[[-118.52189,33.46473],[-118.5219,33.46582],[-118.52157,33.46473],[-118.52189,33.46473]]],[[[-118.52448,33.46551],[-118.52448,33.46579],[-118.5242077799607,33.465551807465616],[-118.52441333333333,33.46551],[-118.52448,33.46551]]],[[[-118.52288,33.46582186440678],[-118.52299644569815,33.46579818053597],[-118.52352,33.46579],[-118.52288,33.46607],[-118.52288,33.46582186440678]]],[[[-118.52284,33.46583],[-118.52287,33.46582389830508],[-118.52287,33.46608],[-118.52191,33.46608],[-118.52280647058824,33.46581852941176],[-118.52284,33.46583]]],[[[-118.52647,33.4682],[-118.52615,33.46792],[-118.52647,33.46792],[-118.52647,33.4682]]],[[[-118.5255,33.4682],[-118.52583,33.46875],[-118.52518,33.46875],[-118.52486,33.46794],[-118.52614,33.46793],[-118.5255,33.4682]]],[[[-118.52647,33.46846],[-118.52647,33.46874],[-118.52615,33.46846],[-118.52647,33.46846]]],[[[-118.52841,33.46871],[-118.52777,33.46899],[-118.5281,33.46953],[-118.52713,33.46927],[-118.5268,33.46846],[-118.52744,33.46818],[-118.52777,33.46872],[-118.52841,33.46871]]],[[[-118.52583,33.46901],[-118.52615,33.46874],[-118.52615,33.46901],[-118.52583,33.46901]]],[[[-118.52843,33.46952],[-118.52811,33.46952],[-118.52843,33.46925],[-118.52843,33.46952]]],[[[-118.52972,33.4695],[-118.53036,33.46923],[-118.53018607633588,33.469452839694654],[-118.53004,33.46951],[-118.53010353998204,33.46955858939803],[-118.52972,33.47005],[-118.52972,33.4695]]],[[[-118.48737,33.35206],[-118.4877,33.35314],[-118.48738,33.35341],[-118.48672,33.35206],[-118.48737,33.35206]]],[[[-118.4874,33.35368],[-118.48837,33.35421],[-118.48772,33.35449],[-118.4874,33.35368]]],[[[-118.4887,33.35475],[-118.48903,33.35529],[-118.48905,33.35664],[-118.4884,33.35611],[-118.48805,33.35448],[-118.4887,33.35475]]],[[[-118.48843,33.358],[-118.48811,33.35773],[-118.48843,33.35773],[-118.48843,33.358]]],[[[-118.48972,33.35852],[-118.48909,33.3588],[-118.48844,33.35826],[-118.48907,33.35772],[-118.48907,33.35826],[-118.4894,33.35799],[-118.48972,33.35852]]],[[[-118.4875,33.3599],[-118.48813,33.35881],[-118.48877,33.35908],[-118.48814,33.3599],[-118.4875,33.3599]]],[[[-118.48624,33.36208],[-118.48655,33.36072],[-118.48719,33.36072],[-118.48752,33.36126],[-118.48721,33.3618],[-118.48688,33.36153],[-118.48624,33.36208]]],[[[-118.48735,33.40834],[-118.48671,33.40834],[-118.48669,33.40753],[-118.48766,33.40752],[-118.48735,33.40834]]],[[[-118.48576,33.40889],[-118.48704,33.40861],[-118.48737,33.40942],[-118.48576,33.40971],[-118.48576,33.40889]]],[[[-118.48647,33.41376],[-118.48615,33.41376],[-118.48647,33.41322],[-118.48647,33.41376]]],[[[-118.4868,33.41348],[-118.4868,33.41376],[-118.48648,33.41376],[-118.4868,33.41348]]],[[[-118.48657442761963,33.41458093276802],[-118.48746,33.41483],[-118.4865,33.41484],[-118.4865,33.41470222222222],[-118.48657442761963,33.41458093276802]]],[[[-118.48847,33.41752],[-118.48783,33.41753],[-118.48782,33.41672],[-118.48683,33.41537],[-118.48779,33.41509],[-118.48846,33.41671],[-118.48847,33.41752]],[[-118.48748,33.41537],[-118.48747,33.41537],[-118.48748,33.41564],[-118.48748,33.41537]],[[-118.48781,33.41618],[-118.48781,33.41645],[-118.48782,33.41618],[-118.48781,33.41618]],[[-118.48815,33.41725],[-118.48815,33.41698],[-118.48814,33.41725],[-118.48815,33.41725]]],[[[-118.49078,33.41993],[-118.49014560548362,33.4201976351866],[-118.49013988653182,33.4201938727183],[-118.49013,33.41966],[-118.49078,33.41993]]],[[[-118.4911,33.42047],[-118.49078,33.42047],[-118.4911,33.41992],[-118.4911,33.42047]]],[[[-118.49175,33.42046],[-118.49175,33.42073],[-118.49111,33.42073],[-118.49111,33.42019],[-118.49175,33.42046]]],[[[-118.49181737726097,33.421269509043924],[-118.49177,33.42108],[-118.49192,33.4209],[-118.49176578475337,33.42092434977579],[-118.49176,33.42045],[-118.4937,33.42097],[-118.4937,33.42125],[-118.49181737726097,33.421269509043924]],[[-118.49208,33.42072],[-118.49208,33.42099],[-118.49209,33.42099],[-118.49208,33.42072]]],[[[-118.495,33.42096],[-118.49725,33.420936643598615],[-118.49789,33.42093],[-118.49821,33.42038],[-118.49983,33.42144],[-118.49822,33.42146],[-118.49821,33.42092],[-118.49725,33.42148],[-118.4966,33.42121],[-118.49629,33.42176],[-118.49570448275863,33.42176],[-118.4956270913884,33.42172320738136],[-118.49532,33.42123],[-118.495,33.4215],[-118.495,33.42096]]],[[[-118.49499,33.42123],[-118.49371,33.42125],[-118.49499,33.42096],[-118.49499,33.42123]]],[[[-118.50016,33.42144],[-118.50017,33.42225],[-118.49985,33.42225],[-118.50016,33.42144]]],[[[-118.5005,33.42252],[-118.50018,33.42252],[-118.5005,33.42197],[-118.5005,33.42252]]],[[[-118.49341,33.44154],[-118.49341,33.44181],[-118.49309,33.44154],[-118.49341,33.44154]]],[[[-118.49277,33.44181],[-118.49309,33.44181],[-118.49309,33.44209],[-118.49277,33.44181]]],[[[-118.49117,33.44304333333334],[-118.4912,33.443],[-118.49117,33.4429458064516],[-118.49117,33.44265],[-118.49149,33.44265],[-118.49117,33.44319],[-118.49117,33.44304333333334]]],[[[-118.49118,33.44346],[-118.49118,33.44374],[-118.49054,33.44347],[-118.49118,33.44346]]],[[[-118.48603,33.44406],[-118.4860736933408,33.444078433128155],[-118.48609,33.4441],[-118.48652861720068,33.44433220910624],[-118.48603,33.44434],[-118.48603,33.44406]]],[[[-118.48991,33.44429],[-118.48991,33.44456],[-118.48959,33.44429],[-118.48991,33.44429]]],[[[-118.48696515151515,33.44444475378788],[-118.48732,33.44441703125],[-118.48732,33.4446],[-118.48696515151515,33.44444475378788]]],[[[-118.48748416798732,33.4444599207607],[-118.48765,33.44457153846154],[-118.48765,33.44459],[-118.48733,33.44459],[-118.48748416798732,33.4444599207607]]],[[[-118.48954,33.44433],[-118.48958003212852,33.44429176706827],[-118.48959,33.44484],[-118.48894,33.44457],[-118.48951336986302,33.44431915068493],[-118.48954,33.44433]]],[[[-118.49828709677419,33.44527],[-118.4982503533569,33.44549780918727],[-118.49799,33.44527],[-118.49828709677419,33.44527]]],[[[-118.49832,33.44608],[-118.498,33.44581],[-118.4982,33.44581],[-118.49832,33.44589049689442],[-118.49832,33.44608]]],[[[-118.49996533546326,33.446882939297126],[-118.50025000000012,33.44687],[-118.50027,33.44687],[-118.50027,33.44714],[-118.49996533546326,33.446882939297126]]],[[[-118.48964,33.44781],[-118.48932,33.44781],[-118.48931,33.44727],[-118.48964,33.44781]]],[[[-118.48996,33.44753],[-118.49061,33.4478],[-118.48997,33.44807],[-118.48996,33.44753]]],[[[-118.49964,33.44769],[-118.49964,33.44796],[-118.49932,33.44769],[-118.49964,33.44769]]],[[[-118.49062,33.44833],[-118.49094,33.44833],[-118.49094,33.44861],[-118.49062,33.44833]]],[[[-118.4903,33.44862],[-118.48997,33.44862],[-118.4903,33.44834],[-118.4903,33.44862]]],[[[-118.49127,33.44915],[-118.49095,33.44915],[-118.49127,33.4486],[-118.49127,33.44915]]],[[[-118.49128,33.44887],[-118.4916,33.44887],[-118.4916,33.44914],[-118.49128,33.44887]]],[[[-118.49192,33.44886],[-118.49224,33.44886],[-118.49193,33.44941],[-118.49192,33.44886]]],[[[-118.49966455223881,33.44913873134328],[-118.49967,33.44958],[-118.50032,33.44985],[-118.49936,33.44986],[-118.49902,33.44904],[-118.49966,33.44877],[-118.49966227272728,33.44895409090906],[-118.49964,33.44911],[-118.49966455223881,33.44913873134328]],[[-118.49935,33.44904],[-118.49934,33.44904],[-118.49935,33.44931],[-118.49935,33.44904]]],[[[-118.50169,33.44963],[-118.50172318229716,33.449644857745],[-118.5013,33.44983],[-118.5013,33.44956],[-118.50139644513136,33.44955849304482],[-118.50169,33.44963]]],[[[-118.50129,33.44984],[-118.50097,33.44984],[-118.50129,33.44956],[-118.50129,33.44984]]],[[[-118.48646,33.45055],[-118.48646,33.45001],[-118.4871,33.45055],[-118.48646,33.45055]]],[[[-118.48743,33.45027],[-118.48743,33.45053],[-118.48743,33.45081],[-118.48711,33.45081],[-118.48743,33.45027]]],[[[-118.48775,33.45053],[-118.48775,33.45081],[-118.48743,33.45053],[-118.48775,33.45053]]],[[[-118.48809,33.45162],[-118.48777,33.45162],[-118.48808,33.4508],[-118.48809,33.45162]]],[[[-118.50134,33.45254],[-118.50166,33.45226],[-118.50166,33.45254],[-118.50134,33.45254]]],[[[-118.50135,33.45281],[-118.50135,33.45308],[-118.5007,33.45309],[-118.50037,33.45227],[-118.50134,33.45227],[-118.50134,33.45254],[-118.50135,33.45281]]],[[[-118.50265,33.45333],[-118.50201,33.45361],[-118.50201,33.45334],[-118.50265,33.45333]]],[[[-118.50136,33.45362],[-118.50136,33.45335],[-118.502,33.45362],[-118.50136,33.45362]]],[[[-118.49216,33.46293],[-118.49184,33.46348],[-118.4912,33.46348],[-118.49152,33.46266],[-118.49216,33.46293]]],[[[-118.4683,33.33037],[-118.46827,33.32847],[-118.46924,33.32846],[-118.46924,33.32901],[-118.46957,33.32873],[-118.47055,33.33007],[-118.47089,33.33142],[-118.4696,33.33144],[-118.4696,33.33089],[-118.46928,33.33117],[-118.4683,33.33037]],[[-118.46957,33.32981],[-118.46958,33.32954],[-118.46957,33.32954],[-118.46957,33.32981]],[[-118.46862,33.3301],[-118.46861,33.32983],[-118.46861,33.3301],[-118.46862,33.3301]],[[-118.46861,33.32901],[-118.4686,33.32928],[-118.46861,33.32928],[-118.46861,33.32901]],[[-118.46991,33.33062],[-118.46992,33.33035],[-118.46991,33.33035],[-118.46991,33.33062]],[[-118.46927,33.33036],[-118.46926,33.33009],[-118.46926,33.33036],[-118.46927,33.33036]]],[[[-118.47221,33.3333],[-118.47221,33.33276],[-118.47253,33.3333],[-118.47221,33.3333]]],[[[-118.47419,33.33598],[-118.47452,33.33571],[-118.47486,33.33733],[-118.47519,33.33732],[-118.47519,33.33787],[-118.47356,33.3368],[-118.47388,33.33626],[-118.47355,33.33545],[-118.47419,33.33598]]],[[[-118.4752,33.33759],[-118.47617,33.33785],[-118.47617,33.33894],[-118.4752,33.33841],[-118.4752,33.33759]]],[[[-118.4788,33.34161],[-118.47848,33.34161],[-118.4788,33.34107],[-118.4788,33.34161]]],[[[-118.47881,33.34161],[-118.47945,33.34133],[-118.47945,33.34188],[-118.47881,33.34161]]],[[[-118.48043,33.34213],[-118.4801,33.3424],[-118.47978,33.34187],[-118.48106,33.34185],[-118.48238,33.34319],[-118.48206,33.34401],[-118.48206,33.34346],[-118.48077,33.34321],[-118.48043,33.34213]],[[-118.48141,33.34266],[-118.4814,33.34293],[-118.48141,33.34293],[-118.48141,33.34266]],[[-118.48107,33.34239],[-118.48108,33.34266],[-118.48108,33.34239],[-118.48107,33.34239]]],[[[-118.48271,33.34373],[-118.48304,33.34454],[-118.4824,33.34454],[-118.48239,33.34373],[-118.48271,33.34373]]],[[[-118.48338,33.34507],[-118.48306,33.3448],[-118.48338,33.3448],[-118.48338,33.34507]]],[[[-118.48371,33.34588],[-118.48339,33.34561],[-118.48371,33.34561],[-118.48371,33.34588]]],[[[-118.4847,33.34723],[-118.48438,33.34723],[-118.48405,33.34669],[-118.48469,33.34641],[-118.4847,33.34723]]],[[[-118.48591,33.36155],[-118.48623,33.36127],[-118.48623,33.36155],[-118.48591,33.36155]]],[[[-118.4847,33.36589],[-118.48502,33.36562],[-118.48502,33.36589],[-118.4847,33.36589]]],[[[-118.48381,33.37104],[-118.48349,33.37104],[-118.48381,33.37077],[-118.48381,33.37104]]],[[[-118.48382,33.37104],[-118.48609,33.37237],[-118.48448,33.37212],[-118.48382,33.37104]]],[[[-118.48611,33.37345],[-118.48579,33.37318],[-118.48611,33.37318],[-118.48611,33.37345]]],[[[-118.48546,33.37318],[-118.48579,33.37291],[-118.48579,33.37318],[-118.48579,33.37373],[-118.48483,33.374],[-118.48484,33.37455],[-118.48419,33.37428],[-118.48291,33.37484],[-118.48098,33.37486],[-118.48162909472029,33.37439102056858],[-118.48201,33.37435],[-118.4821,33.37413],[-118.48271,33.37419],[-118.48288,33.37374],[-118.4830511627907,33.37374372093023],[-118.48322,33.37402],[-118.4837235038085,33.373587301414574],[-118.484,33.37347],[-118.48464,33.37353],[-118.4847331521171,33.37346099843178],[-118.48483,33.37346],[-118.4848671455458,33.37336174404015],[-118.48491,33.37333],[-118.4848943907455,33.37328967609255],[-118.48514,33.37264],[-118.48546,33.37318]],[[-118.4829,33.37457],[-118.48291,33.37457],[-118.4829,33.3743],[-118.4829,33.37457]],[[-118.48451,33.37401],[-118.48451,33.37374],[-118.4845,33.37401],[-118.48451,33.37401]],[[-118.48354,33.37402],[-118.48354,33.37429],[-118.48355,33.37402],[-118.48354,33.37402]]],[[[-118.48098,33.37486],[-118.48034,33.37514],[-118.48034,33.37487],[-118.48098,33.37486]]],[[[-118.47916,33.38138],[-118.47962836398573,33.38097111080611],[-118.47974,33.38097],[-118.47988774941994,33.380909976798144],[-118.48012,33.3811],[-118.48053755280408,33.38064599417334],[-118.4807,33.38058],[-118.48069135771854,33.38047876184572],[-118.48138,33.37973],[-118.4807,33.37703],[-118.482,33.3781],[-118.48168,33.37864],[-118.48267,33.37917],[-118.48268,33.38053],[-118.47916,33.38138]],[[-118.48075,33.38055],[-118.48076,33.38082],[-118.48076,33.38055],[-118.48075,33.38055]],[[-118.4814,33.38027],[-118.48139,33.38054],[-118.4814,33.38054],[-118.4814,33.38027]],[[-118.48203,33.38026],[-118.48204,33.37999],[-118.48203,33.37999],[-118.48203,33.38026]],[[-118.4817,33.37972],[-118.48171,33.37999],[-118.48171,33.37972],[-118.4817,33.37972]],[[-118.48203,33.37945],[-118.48202,33.37918],[-118.48202,33.37945],[-118.48203,33.37945]]],[[[-118.47915,33.38138],[-118.47787,33.38139],[-118.47786256816508,33.38098868091378],[-118.47915,33.380975870646765],[-118.47915,33.38138]]],[[[-118.47561,33.38142],[-118.47561,33.38115824561403],[-118.47563056808916,33.38115319380266],[-118.47722,33.3814],[-118.47561,33.38142]]],[[[-118.47787,33.38167],[-118.47755,33.38167],[-118.47786,33.38112],[-118.47787,33.38167]]],[[[-118.47991,33.3884],[-118.47959,33.38813],[-118.47991,33.38813],[-118.47991,33.3884]]],[[[-118.48163,33.3938],[-118.48098,33.3938],[-118.48094,33.39163],[-118.48158,33.39109],[-118.4806,33.39056],[-118.4804380943121,33.38986310160429],[-118.48044,33.38985],[-118.48043415353445,33.38984613912652],[-118.47991,33.38759],[-118.47958,33.38759340206186],[-118.47894,33.3876],[-118.47859,33.38598],[-118.47794,33.38599],[-118.47793,33.38491],[-118.47695,33.38465],[-118.47664,33.3852],[-118.47694,33.38411],[-118.47791,33.3841],[-118.47824,33.3849],[-118.47921,33.38462],[-118.47987,33.38515],[-118.48021,33.38678],[-118.48054,33.38677],[-118.48057,33.38894],[-118.4809,33.38893],[-118.4809,33.38974],[-118.48123,33.38947],[-118.48124,33.39055],[-118.48189,33.39054],[-118.48191,33.39162],[-118.48223,33.39162],[-118.48191,33.39217],[-118.48229,33.39541],[-118.48164,33.39515],[-118.48163,33.3938]],[[-118.48126,33.39163],[-118.48127,33.3919],[-118.48127,33.39163],[-118.48126,33.39163]],[[-118.48161,33.39271],[-118.4816,33.39244],[-118.4816,33.39271],[-118.48161,33.39271]],[[-118.47988,33.38651],[-118.47989,33.38624],[-118.47988,33.38624],[-118.47988,33.38651]],[[-118.47955,33.38597],[-118.47956,33.38624],[-118.47956,33.38597],[-118.47955,33.38597]],[[-118.4789,33.38571],[-118.47891,33.38598],[-118.47891,33.38571],[-118.4789,33.38571]],[[-118.4789,33.3849],[-118.47889,33.38517],[-118.4789,33.38517],[-118.4789,33.3849]],[[-118.47923,33.38516],[-118.47922,33.38543],[-118.47923,33.38543],[-118.47923,33.38516]],[[-118.48024,33.38867],[-118.48025,33.3884],[-118.48024,33.3884],[-118.48024,33.38867]],[[-118.47989,33.38705],[-118.4799,33.38678],[-118.47989,33.38678],[-118.47989,33.38705]],[[-118.47925,33.38652],[-118.47924,33.38679],[-118.47925,33.38679],[-118.47925,33.38652]],[[-118.47892,33.38652],[-118.47891,33.38625],[-118.47891,33.38652],[-118.47892,33.38652]],[[-118.48092,33.39029],[-118.48091,33.39001],[-118.48091,33.39029],[-118.48092,33.39029]]],[[[-118.48261,33.39486],[-118.48261,33.39514],[-118.48229,33.39486],[-118.48261,33.39486]]],[[[-118.48296,33.39702],[-118.48232,33.39649],[-118.4823,33.3954],[-118.48262,33.39595],[-118.48295,33.39567],[-118.48295,33.39621],[-118.48328,33.39594],[-118.48361,33.39729],[-118.48394,33.39701],[-118.48494,33.3989],[-118.48462,33.39917],[-118.48396,33.39864],[-118.48365,33.39945],[-118.48363,33.39756],[-118.4833,33.39756],[-118.48329,33.39675],[-118.48296,33.39702]],[[-118.48396,33.39782],[-118.48395,33.39809],[-118.48396,33.39809],[-118.48396,33.39782]]],[[[-118.48625,33.4005],[-118.48626,33.40105],[-118.48398,33.39972],[-118.48398,33.39917],[-118.48462,33.39971],[-118.48495,33.39943],[-118.48495,33.39997],[-118.48625,33.4005]]],[[[-118.48627,33.40131],[-118.48627,33.40186],[-118.48595,33.40186],[-118.48627,33.40131]]],[[[-118.48533,33.40294],[-118.48565,33.40294],[-118.485,33.40268],[-118.48499,33.40214],[-118.48531,33.40186],[-118.48563,33.40186],[-118.48595,33.40186],[-118.4863,33.40294],[-118.48631,33.40375],[-118.48566,33.40376],[-118.48601,33.40511],[-118.48569,33.40565],[-118.48473,33.40566],[-118.4844,33.40485],[-118.48535,33.4043],[-118.48533,33.40294]],[[-118.48569,33.40511],[-118.48568,33.40484],[-118.48568,33.40511],[-118.48569,33.40511]],[[-118.48563,33.4024],[-118.48564,33.40213],[-118.48563,33.40213],[-118.48563,33.4024]],[[-118.48598,33.40294],[-118.48597,33.40321],[-118.48598,33.40321],[-118.48598,33.40294]],[[-118.48536,33.40484],[-118.48535,33.40457],[-118.48535,33.40484],[-118.48536,33.40484]],[[-118.48504,33.40512],[-118.48505,33.40539],[-118.48505,33.40512],[-118.48504,33.40512]]],[[[-118.48637,33.40726],[-118.48637,33.40754],[-118.4854,33.40755],[-118.48637,33.40726]]],[[[-118.48514,33.41052],[-118.48578,33.41052],[-118.48579,33.41133],[-118.48514,33.41107],[-118.48514,33.41052]],[[-118.48546,33.41079],[-118.48546,33.41106],[-118.48547,33.41106],[-118.48546,33.41079]]],[[[-118.48547,33.41188],[-118.48515,33.4116],[-118.48547,33.4116],[-118.48547,33.41188]]],[[[-118.47244,33.4426],[-118.47274564613741,33.442342111071554],[-118.47276,33.4423513559322],[-118.47276,33.4426],[-118.47244,33.4426]]],[[[-118.47032584615384,33.44236],[-118.4705,33.44236],[-118.46986,33.44263],[-118.46986,33.44250215962441],[-118.47032584615384,33.44236]]],[[[-118.47343,33.4434],[-118.47343,33.443038787878784],[-118.47359398968186,33.44312326741186],[-118.47343,33.4434]]],[[[-118.47375,33.44339],[-118.47408,33.44394],[-118.47376,33.44394],[-118.47375,33.44339]]],[[[-118.47473,33.44424999999999],[-118.47473,33.44447],[-118.47409,33.44421],[-118.47466013100437,33.44420109170306],[-118.47473,33.44424999999999]]],[[[-118.47493,33.44439],[-118.47506,33.444437816091956],[-118.47506,33.44447],[-118.47474,33.44447],[-118.47487523809524,33.44435166666666],[-118.47493,33.44439]]],[[[-118.47572,33.445],[-118.47507,33.44474],[-118.4754406690455,33.444577832292595],[-118.47571404414917,33.44467838405486],[-118.47572,33.445]]],[[[-118.48444499908106,33.44542578202537],[-118.48476,33.44516],[-118.48476,33.44543],[-118.48445847826088,33.44543],[-118.48444499908106,33.44542578202537]]],[[[-118.48508,33.44543],[-118.48508,33.4457],[-118.4849361971831,33.4457],[-118.48486579281183,33.445610737315015],[-118.48508,33.44543]]],[[[-118.48541,33.44569],[-118.48541,33.44597],[-118.48509,33.44569],[-118.48541,33.44569]]],[[[-118.47605,33.44608],[-118.47573,33.44608],[-118.47590177671886,33.44563116405718],[-118.4760456223176,33.44572540772532],[-118.47605,33.44608]]],[[[-118.47639,33.44634],[-118.47639,33.44662],[-118.47607,33.44634],[-118.47639,33.44634]]],[[[-118.48526330909091,33.446374472727264],[-118.48537,33.44625],[-118.48532968791403,33.44619889003386],[-118.48542,33.44596],[-118.48574,33.4465],[-118.48607,33.44623],[-118.48607,33.44677],[-118.48543,33.44678],[-118.48544,33.44732],[-118.48447,33.44733],[-118.48447,33.446866822429904],[-118.48470820512821,33.44678],[-118.48511,33.44678],[-118.48526330909091,33.446374472727264]]],[[[-118.48318,33.44762],[-118.48351,33.44734],[-118.48351,33.44762],[-118.48318,33.44762]]],[[[-118.48286,33.44762],[-118.48318,33.44735],[-118.48318,33.44762],[-118.48286,33.44762]]],[[[-118.48229644444444,33.44768688888889],[-118.48244872340426,33.44762],[-118.48254,33.44762],[-118.48254,33.4479],[-118.48229644444444,33.44768688888889]]],[[[-118.48158,33.44818],[-118.48093,33.44791],[-118.48158,33.44791],[-118.48158,33.44818]]],[[[-118.47927617083947,33.447735331369664],[-118.47933,33.44771],[-118.47984,33.44775],[-118.47994,33.44802],[-118.4802,33.44805],[-118.48063,33.44788],[-118.48070048574445,33.44787436114044],[-118.48093,33.44791],[-118.48061,33.44846],[-118.47997,33.44847],[-118.47964,33.44793],[-118.479,33.44821],[-118.47927617083947,33.447735331369664]]],[[[-118.47706,33.44796],[-118.47706,33.44823],[-118.47674,33.44796],[-118.47706,33.44796]]],[[[-118.47836,33.44849],[-118.47803,33.44849],[-118.47836,33.44822],[-118.47836,33.44849]]],[[[-118.47759181368508,33.44830514014839],[-118.47803,33.448277051282055],[-118.47803,33.44849],[-118.47759181368508,33.44830514014839]]],[[[-118.41551,33.31475],[-118.41551,33.31502],[-118.41519,33.31475],[-118.41551,33.31475]]],[[[-118.42291,33.31412],[-118.42324,33.31439],[-118.42388,33.31384],[-118.42516,33.31383],[-118.42517,33.31437],[-118.42356,33.31439],[-118.42325,33.3152],[-118.4239,33.31546],[-118.4239,33.31601],[-118.42294,33.31629],[-118.42132,33.31522],[-118.42068,33.3155],[-118.42101,33.31631],[-118.4203699241205,33.31631795125316],[-118.42036,33.31605],[-118.42036,33.31631807453416],[-118.4194,33.31633],[-118.4194,33.31578],[-118.42036,33.31551],[-118.42001,33.31415],[-118.42227,33.31413],[-118.42228,33.31467],[-118.42291,33.31412]],[[-118.42292,33.31493],[-118.42293,33.31466],[-118.42292,33.31466],[-118.42292,33.31493]],[[-118.42229,33.31521],[-118.42228,33.31494],[-118.42228,33.31521],[-118.42229,33.31521]],[[-118.42163,33.31495],[-118.42164,33.31468],[-118.42163,33.31468],[-118.42163,33.31495]],[[-118.42068,33.31523],[-118.42067,33.31496],[-118.42067,33.31523],[-118.42068,33.31523]],[[-118.42035,33.31496],[-118.42034,33.31469],[-118.42034,33.31496],[-118.42035,33.31496]],[[-118.42099,33.31441],[-118.42098,33.31469],[-118.42099,33.31469],[-118.42099,33.31441]],[[-118.42294,33.3152],[-118.42293,33.31548],[-118.42294,33.31548],[-118.42294,33.3152]]],[[[-118.41262,33.31532],[-118.41295,33.31559],[-118.41455,33.31503],[-118.41424,33.31585],[-118.41359,33.31558],[-118.41328,33.31613],[-118.41295,33.31586],[-118.41135,33.31642],[-118.41166,33.3156],[-118.41231,33.31587],[-118.41262,33.31532]]],[[[-118.41134,33.31615],[-118.4107,33.31588],[-118.41134,33.31588],[-118.41134,33.31615]]],[[[-118.41779,33.31635],[-118.41875,33.31606],[-118.41875,33.31634],[-118.41779,33.31635]]],[[[-118.4203699241205,33.31631795125316],[-118.42037,33.31632],[-118.42036,33.31632],[-118.42036,33.31631807453416],[-118.4203699241205,33.31631795125316]]],[[[-118.41715,33.31635],[-118.41747,33.31635],[-118.41715,33.31689],[-118.41715,33.31635]]],[[[-118.41812,33.31689],[-118.41748,33.31662],[-118.41812,33.31661],[-118.41812,33.31689]]],[[[-118.42683,33.31705],[-118.42651,33.31733],[-118.42651,33.31679],[-118.42554,33.31707],[-118.42585,33.31598],[-118.42778,33.31596],[-118.42779,33.31704],[-118.42812,33.31677],[-118.42812,33.31758],[-118.42715,33.31759],[-118.42683,33.31705]],[[-118.42585,33.3168],[-118.42586,33.31652],[-118.42585,33.31652],[-118.42585,33.3168]],[[-118.4265,33.31625],[-118.42649,33.31652],[-118.4265,33.31652],[-118.4265,33.31625]],[[-118.42715,33.31678],[-118.42714,33.31651],[-118.42714,33.31678],[-118.42715,33.31678]]],[[[-118.43072,33.31809],[-118.43008,33.31865],[-118.42943,33.31838],[-118.43007,33.31783],[-118.43168,33.31808],[-118.43169,33.31863],[-118.43072,33.31809]]],[[[-118.43394,33.31832],[-118.43458,33.31804],[-118.4362,33.3183],[-118.43973,33.31744],[-118.44231,33.31769],[-118.44231,33.31823],[-118.43684,33.31829],[-118.43652,33.31884],[-118.43587,33.31857],[-118.43523,33.31913],[-118.43395,33.31914],[-118.43394,33.31832]],[[-118.43973,33.31772],[-118.43974,33.31799],[-118.43974,33.31772],[-118.43973,33.31772]],[[-118.44134,33.3177],[-118.44135,33.31797],[-118.44135,33.3177],[-118.44134,33.3177]]],[[[-118.43233,33.31862],[-118.43201,33.31834],[-118.43233,33.31834],[-118.43233,33.31862]]],[[[-118.44264,33.31877],[-118.44232,33.31877],[-118.44264,33.3185],[-118.44264,33.31877]]],[[[-118.44525,33.32036],[-118.44556,33.31981],[-118.44588,33.31981],[-118.44589,33.32035],[-118.44525,33.32036]]],[[[-118.44814,33.31952],[-118.4475,33.32006],[-118.44589,33.32008],[-118.44621,33.31953],[-118.44749,33.31952],[-118.44781,33.31897],[-118.45168,33.31893],[-118.45168,33.31947],[-118.452,33.3192],[-118.45363,33.32053],[-118.45493,33.32051],[-118.45493,33.32106],[-118.45621,33.32077],[-118.45752,33.32157],[-118.45752,33.32211],[-118.45623,33.32131],[-118.45526,33.32159],[-118.45364,33.3208],[-118.45332,33.32108],[-118.453,33.32054],[-118.45106,33.32056],[-118.45073,33.32003],[-118.44912,33.32031],[-118.44814,33.31952]],[[-118.45137,33.32001],[-118.45137,33.31975],[-118.45136,33.32001],[-118.45137,33.32001]],[[-118.45266,33.32027],[-118.45266,33.32054],[-118.45267,33.32027],[-118.45266,33.32027]],[[-118.45201,33.32001],[-118.45201,33.32028],[-118.45202,33.32001],[-118.45201,33.32001]],[[-118.45557,33.32132],[-118.45558,33.32132],[-118.45557,33.32105],[-118.45557,33.32132]],[[-118.45071,33.31948],[-118.45071,33.31976],[-118.45072,33.31948],[-118.45071,33.31948]],[[-118.45007,33.32003],[-118.45008,33.32003],[-118.45007,33.31976],[-118.45007,33.32003]],[[-118.44942,33.31977],[-118.44943,33.31977],[-118.44942,33.3195],[-118.44942,33.31977]]],[[[-118.4585,33.3221],[-118.4585,33.32236],[-118.4585,33.32264],[-118.45753,33.32211],[-118.45753,33.32183],[-118.4585,33.3221]]],[[[-118.46012,33.32344],[-118.45916,33.32344],[-118.4585,33.32236],[-118.46012,33.32344]]],[[[-118.4637,33.32528],[-118.46369,33.32447],[-118.46272,33.32475],[-118.46078,33.32343],[-118.46013,33.3237],[-118.46013,33.32316],[-118.46076,33.32288],[-118.46205,33.32287],[-118.46336,33.32367],[-118.46336,33.3242],[-118.46465,33.32419],[-118.46466,33.325],[-118.46564,33.32526],[-118.46564,33.32581],[-118.46403,33.32501],[-118.4637,33.32528]],[[-118.46206,33.32341],[-118.46206,33.32368],[-118.46207,33.32341],[-118.46206,33.32341]],[[-118.46174,33.32314],[-118.46173,33.32314],[-118.46174,33.32341],[-118.46174,33.32314]],[[-118.46433,33.32473],[-118.46434,33.32473],[-118.46433,33.32446],[-118.46433,33.32473]],[[-118.464,33.3242],[-118.464,33.32447],[-118.46401,33.3242],[-118.464,33.3242]],[[-118.46272,33.32367],[-118.46271,33.32367],[-118.46272,33.32394],[-118.46272,33.32367]]],[[[-118.46665,33.32822],[-118.46632,33.32742],[-118.466,33.32769],[-118.466,33.32714],[-118.46793,33.3274],[-118.46826,33.32821],[-118.46665,33.32822]],[[-118.46696,33.32795],[-118.46697,33.32795],[-118.46696,33.32768],[-118.46696,33.32795]]],[[[-118.41145,33.42247],[-118.41177,33.42247],[-118.41177,33.42275],[-118.41145,33.42247]]],[[[-118.41380893333333,33.42299],[-118.4139844857497,33.42321315985131],[-118.41372,33.42299],[-118.41380893333333,33.42299]]],[[[-118.41534,33.42352],[-118.41502,33.42352],[-118.41534,33.42324],[-118.41534,33.42352]]],[[[-118.41812461358313,33.42565227166276],[-118.41823,33.42576],[-118.41827,33.42576767676768],[-118.41827,33.42592],[-118.41763,33.42566],[-118.41812461358313,33.42565227166276]]],[[[-118.4186,33.42619],[-118.41828,33.42619],[-118.4186,33.42591],[-118.4186,33.42619]]],[[[-118.41861,33.42619],[-118.41861,33.42591],[-118.41957,33.42618],[-118.41861,33.42619]]],[[[-118.4199,33.42645],[-118.41958,33.42617],[-118.41974870967742,33.42617],[-118.4199,33.42623295302013],[-118.4199,33.42645]]],[[[-118.420463985258,33.42646763144963],[-118.4205513451371,33.42650398254027],[-118.42056,33.42698],[-118.41991,33.42671],[-118.420463985258,33.42646763144963]]],[[[-118.4212,33.42724],[-118.42088,33.42697],[-118.4212,33.42697],[-118.4212,33.42724]]],[[[-118.42281,33.42722],[-118.42185,33.42723],[-118.4226906932409,33.426984797804735],[-118.42281,33.427006241830064],[-118.42281,33.42722]]],[[[-118.42433481740171,33.4272803103173],[-118.42443,33.427297418300654],[-118.42443,33.42747],[-118.42411,33.42747],[-118.42433481740171,33.4272803103173]]],[[[-118.4269345357524,33.42751478121665],[-118.42702,33.42754536842105],[-118.42702,33.42772],[-118.4267,33.42772],[-118.4269345357524,33.42751478121665]]],[[[-118.43083,33.42766],[-118.43120307942583,33.42740189473685],[-118.43089,33.42794],[-118.43025,33.42794],[-118.430664401508,33.42770258246937],[-118.43083,33.42766]]],[[[-118.43542,33.42816],[-118.4351,33.42789],[-118.43530160305343,33.42789],[-118.43538,33.42802],[-118.43542,33.428041333333326],[-118.43542,33.42816]]],[[[-118.42993,33.42795],[-118.42929,33.42823],[-118.42929,33.42800752475247],[-118.42943,33.42802],[-118.4297022222222,33.42795],[-118.42993,33.42795]]],[[[-118.42875666666664,33.42796],[-118.42928,33.428006633663365],[-118.42928,33.42823],[-118.42864,33.42796],[-118.42875666666664,33.42796]]],[[[-118.43570127192983,33.42819134502924],[-118.43575,33.42821733333333],[-118.43575,33.42843],[-118.43542,33.42843],[-118.43570127192983,33.42819134502924]]],[[[-118.43575,33.42869],[-118.43607,33.42842],[-118.43607,33.42869],[-118.43575,33.42869]]],[[[-118.43704,33.42895],[-118.4364,33.42868],[-118.436734,33.42868],[-118.43704,33.42871974025974],[-118.43704,33.42895]]],[[[-118.43801,33.42903023923445],[-118.43801,33.42921],[-118.43737,33.42921],[-118.43737,33.428769333333335],[-118.43795,33.42904],[-118.43801,33.42903023923445]]],[[[-118.43931,33.42892],[-118.43931,33.4292],[-118.43899,33.4292],[-118.43931,33.42892]]],[[[-118.43811926274451,33.42901246443391],[-118.43866764648118,33.428923253682484],[-118.43898,33.42892],[-118.43867,33.42947],[-118.43811926274451,33.42901246443391]]],[[[-118.44904,33.43233],[-118.44904,33.4326],[-118.44872,33.43233],[-118.44904,33.43233]]],[[[-118.45718,33.43602],[-118.4575,33.43602],[-118.4575,33.43629],[-118.45718,33.43602]]],[[[-118.45944,33.43681],[-118.45944,33.43708],[-118.4588,33.43681],[-118.45944,33.43681]]],[[[-118.46107,33.43787],[-118.46107,33.43814],[-118.46075,33.43787],[-118.46107,33.43787]]],[[[-118.46108,33.43813],[-118.4614,33.43813],[-118.4614,33.43841],[-118.46108,33.43813]]],[[[-118.46207,33.43975],[-118.46207,33.44003],[-118.46175,33.43975],[-118.46207,33.43975]]],[[[-118.4624,33.44056],[-118.46208,33.44056],[-118.4624,33.44002],[-118.4624,33.44056]]],[[[-118.46242,33.4411],[-118.46241,33.44028],[-118.46273,33.44082],[-118.46306,33.44082],[-118.46242,33.4411]]],[[[-118.46563,33.44132],[-118.46564,33.441319210526316],[-118.46564,33.44133],[-118.46532,33.44133],[-118.46547516394945,33.441199080417654],[-118.46563,33.44132]]],[[[-118.46597,33.44133],[-118.46597,33.4416],[-118.46565,33.44133],[-118.46597,33.44133]]],[[[-118.46761,33.44239],[-118.46780922325526,33.44222190537837],[-118.46793,33.442284461538456],[-118.46793,33.44239],[-118.46761,33.44239]]],[[[-118.46889,33.44265],[-118.46872304347826,33.442509130434786],[-118.46889,33.44255488888889],[-118.46889,33.44265]]],[[[-118.32759,33.29678],[-118.32694,33.29706],[-118.32694,33.29651],[-118.3279,33.29623],[-118.32825,33.2984],[-118.32729,33.29841],[-118.32792,33.29732],[-118.32759,33.29678]]],[[[-118.32825,33.29786],[-118.32857,33.29758],[-118.32857,33.29786],[-118.32825,33.29786]]],[[[-118.32728,33.29814],[-118.32696,33.29814],[-118.32728,33.29787],[-118.32728,33.29814]]],[[[-118.34087,33.30151],[-118.3412,33.30232],[-118.34055,33.30232],[-118.34023,33.30178],[-118.34087,33.30151]]],[[[-118.34249,33.30257],[-118.34282,33.30311],[-118.34186,33.30312],[-118.34152,33.30204],[-118.34249,33.30257]],[[-118.34217,33.30285],[-118.34218,33.30257],[-118.34217,33.30257],[-118.34217,33.30285]]],[[[-118.36362,33.31425],[-118.36395,33.31451],[-118.36362,33.31479],[-118.3633,33.31425],[-118.36362,33.31425]]],[[[-118.36427,33.31451],[-118.36427,33.31479],[-118.36395,33.31451],[-118.36427,33.31451]]],[[[-118.3037,33.31516],[-118.3037,33.31598],[-118.30338,33.31516],[-118.3037,33.31516]]],[[[-118.40978,33.31915],[-118.41009,33.31805],[-118.41106,33.31886],[-118.40978,33.31915]]],[[[-118.30313,33.32058],[-118.30312,33.31949],[-118.30344,33.31949],[-118.30345,33.32058],[-118.30313,33.32058]]],[[[-118.3061,33.32487],[-118.3061,33.32515],[-118.30578,33.32487],[-118.3061,33.32487]]],[[[-118.30643,33.32569],[-118.30611,33.32541],[-118.30643,33.32541],[-118.30643,33.32569]]],[[[-118.30681,33.32974],[-118.30713,33.32946],[-118.30713,33.32974],[-118.30681,33.32974]]],[[[-118.31406,33.34022],[-118.31374,33.34022],[-118.31406,33.33994],[-118.31406,33.34022]]],[[[-118.31438,33.34076],[-118.31406,33.34048],[-118.31438,33.34048],[-118.31438,33.34076]]],[[[-118.31908668822769,33.34272710219923],[-118.31925,33.342741707317074],[-118.31925,33.34287],[-118.31908668822769,33.34272710219923]]],[[[-118.31722380091949,33.343474802737084],[-118.31669,33.3437],[-118.31669,33.34343],[-118.31717633663366,33.34343],[-118.31722380091949,33.343474802737084]]],[[[-118.32385,33.34823],[-118.32417,33.34795],[-118.32417,33.34823],[-118.32385,33.34823]]],[[[-118.32385,33.3485],[-118.32353,33.34823],[-118.32385,33.34823],[-118.32385,33.348340909090915],[-118.32381,33.34837],[-118.32385,33.348394285714285],[-118.32385,33.3485]]],[[[-118.32418,33.34877],[-118.32386,33.3485],[-118.32402411764706,33.3485],[-118.32418,33.348594642857144],[-118.32418,33.34877]]],[[[-118.32489705882352,33.34903],[-118.32516,33.34918964285715],[-118.32516,33.3493],[-118.32484,33.34903],[-118.32489705882352,33.34903]]],[[[-118.32451,33.3493],[-118.32483,33.34903],[-118.32483,33.3493],[-118.32451,33.3493]]],[[[-118.3258,33.34941],[-118.32581,33.349408260869566],[-118.32581,33.34956],[-118.32549,33.34956],[-118.32570430258974,33.349379182189914],[-118.3258,33.34941]]],[[[-118.32843029585798,33.35252597633135],[-118.32844,33.35305],[-118.32779,33.35279],[-118.32778,33.35197],[-118.32842707470746,33.35250756975698],[-118.32843029585798,33.35252597633135]]],[[[-118.32975,33.35439],[-118.33008,33.35493],[-118.32976,33.35493],[-118.32975,33.35439]]],[[[-118.33043,33.35654],[-118.33043,33.35682],[-118.33011,33.35654],[-118.33043,33.35654]]],[[[-118.33404,33.36084],[-118.33436,33.36056],[-118.33436,33.36084],[-118.33404,33.36084]]],[[[-118.34969,33.37257],[-118.34998934849416,33.37231742470805],[-118.34999,33.37235],[-118.35001,33.37237423357663],[-118.35001,33.37257],[-118.34969,33.37257]]],[[[-118.35067,33.37337],[-118.35035,33.3731],[-118.35060897590363,33.3731],[-118.35067,33.37317394160583],[-118.35067,33.37337]]],[[[-118.35101,33.37364],[-118.35101,33.37391],[-118.35069,33.37364],[-118.35101,33.37364]]],[[[-118.35101,33.37391],[-118.35127746987952,33.37391],[-118.35133,33.37397364963504],[-118.35133,33.37418],[-118.35101,33.37391]]],[[[-118.35483,33.3769],[-118.35492,33.37697325581395],[-118.35492,33.37712],[-118.3546,33.37684],[-118.35482545454546,33.37684],[-118.35483,33.3769]]],[[[-118.35508800000001,33.37711],[-118.35525,33.37724186046511],[-118.35525,33.37738],[-118.35493,33.37711],[-118.35508800000001,33.37711]]],[[[-118.35558,33.37737151898734],[-118.35558,33.37738],[-118.35556172208014,33.377364578005114],[-118.35558,33.37737151898734]]],[[[-118.35623705102716,33.37848818422797],[-118.35624,33.37873],[-118.35592,33.37873],[-118.35615703372332,33.378103007570544],[-118.35623,33.37848],[-118.35623705102716,33.37848818422797]]],[[[-118.35689484623184,33.3792516965191],[-118.3569,33.37953],[-118.35625,33.37899],[-118.35625,33.37872],[-118.35654341389727,33.37884378398791],[-118.35689484623184,33.3792516965191]]],[[[-118.35757,33.38114],[-118.35756,33.3806],[-118.35781076923077,33.3806],[-118.35783214408234,33.38068336192109],[-118.35757,33.38114]]],[[[-118.35822,33.38141],[-118.35789,33.38113],[-118.35822,33.38113],[-118.35822,33.38141]]],[[[-118.36607,33.38863],[-118.36575,33.38836],[-118.36607,33.38836],[-118.36607,33.38863]]],[[[-118.36801,33.38914],[-118.36801,33.38942],[-118.36769,33.38914],[-118.36801,33.38914]]],[[[-118.36835133167908,33.39009515301902],[-118.36828,33.39016],[-118.36835594634873,33.39059815201193],[-118.36836,33.39104],[-118.36803,33.38995],[-118.36835,33.38995],[-118.36835133167908,33.39009515301902]]],[[[-118.36938,33.39455],[-118.36906,33.39427],[-118.36938,33.39427],[-118.36938,33.39455]]],[[[-118.36939,33.39481],[-118.36939,33.394971304347834],[-118.36928398058252,33.39509],[-118.36907,33.39509],[-118.36939,33.39481]]],[[[-118.36688,33.39944],[-118.3672,33.3989],[-118.3672,33.39944],[-118.36688,33.39944]]],[[[-118.36667,33.40621],[-118.36635,33.40593],[-118.36667,33.40593],[-118.36667,33.40621]]],[[[-118.36603,33.40648],[-118.36602,33.40594],[-118.36635,33.40648],[-118.36603,33.40648]]],[[[-118.36732,33.40701],[-118.36765,33.40673],[-118.36765,33.40701],[-118.36732,33.40701]]],[[[-118.37383,33.41046],[-118.37351,33.41018],[-118.37383,33.41018],[-118.37383,33.41046]]],[[[-118.39275971931757,33.417102575674186],[-118.39295,33.41708],[-118.39297,33.417096923076926],[-118.39297,33.41728],[-118.39275971931757,33.417102575674186]]],[[[-118.41015,33.42223],[-118.40951,33.42196],[-118.41015,33.42195],[-118.41015,33.42223]]],[[[-118.41016,33.42249],[-118.41048,33.42195],[-118.41048,33.42249],[-118.41016,33.42249]]]]}}]}