{"type":"FeatureCollection","features":[{"type":"Feature","geometry":{"type":"Point","coordinates":[-118.327,33.342]},"properties":{"name":"Avalon Harbor","importance":"marquee","category":"coastal"}},{"type":"Feature","geometry":{"type":"Point","coordinates":[-118.3247,33.3458]},"properties":{"name":"Casino Point","importance":"major","category":"coastal"}},{"type":"Feature","geometry":{"type":"Point","coordinates":[-118.4995,33.443]},"properties":{"name":"Two Harbors","importance":"marquee","category":"coastal"}},{"type":"Feature","geometry":{"type":"Point","coordinates":[-118.502,33.4475]},"properties":{"name":"Isthmus Cove","importance":"major","category":"coastal"}},{"type":"Feature","geometry":{"type":"Point","coordinates":[-118.395,33.406]},"properties":{"name":"Ship Rock","importance":"major","category":"coastal"}},{"type":"Feature","geometry":{"type":"Point","coordinates":[-118.418,33.414]},"properties":{"name":"Italian Gardens","importance":"minor","category":"coastal"}},{"type":"Feature","geometry":{"type":"Point","coordinates":[-118.4815,33.4395]},"properties":{"name":"Big Geiger Cove","importance":"minor","category":"coastal"}},{"type":"Feature","geometry":{"type":"Point","coordinates":[-118.449,33.453]},"properties":{"name":"Bird Rock","importance":"minor","category":"coastal"}},{"type":"Feature","geometry":{"type":"Point","coordinates":[-118.4145,33.386]},"properties":{"name":"Long Point","importance":"minor","category":"coastal"}}]}