{"type":"FeatureCollection","features":[{"type":"Feature","geometry":{"type":"Polygon","coordinates":[[[-118.5312,33.4757],[-118.5307,33.4752],[-118.5306,33.4751],[-118.5305,33.475],[-118.5304,33.4748],[-118.5303,33.4747],[-118.5302,33.4745],[-118.53,33.4744],[-118.5299,33.4743],[-118.5297,33.4742],[-118.5296,33.4741],[-118.5294,33.4739],[-118.5293,33.4738],[-118.5292,33.4736],[-118.5292,33.4736],[-118.5292,33.4736],[-118.5291,33.4735],[-118.5291,33.4734],[-118.5291,33.4734],[-118.529,33.4733],[-118.529,33.4732],[-118.5289,33.4732],[-118.5289,33.473],[-118.5288,33.4729],[-118.5287,33.4727],[-118.5287,33.4725],[-118.5287,33.4723],[-118.5287,33.4723],[-118.5286,33.4723],[-118.5285,33.4721],[-118.5277,33.4713],[-118.5276,33.4713],[-118.5275,33.4712],[-118.5274,33.471],[-118.5273,33.4709],[-118.5272,33.4707],[-118.5271,33.4706],[-118.527,33.4704],[-118.527,33.4704],[-118.527,33.4702],[-118.5269,33.47],[-118.5269,33.4699],[-118.5269,33.4697],[-118.5269,33.4695],[-118.5269,33.4695],[-118.5269,33.4695],[-118.5269,33.4695],[-118.5269,33.4693],[-118.5269,33.4692],[-118.5269,33.4692],[-118.5268,33.4692],[-118.5267,33.4691],[-118.5265,33.4691],[-118.5264,33.4691],[-118.5262,33.4691],[-118.526,33.469],[-118.526,33.469],[-118.5258,33.469],[-118.5258,33.469],[-118.5258,33.469],[-118.5256,33.4689],[-118.5254,33.4689],[-118.5252,33.4688],[-118.525,33.4687],[-118.5249,33.4687],[-118.5248,33.4686],[-118.5248,33.4686],[-118.5247,33.4686],[-118.5245,33.4687],[-118.5243,33.4687],[-118.5241,33.4687],[-118.5238,33.4688],[-118.5237,33.4688],[-118.5232,33.4688],[-118.5232,33.4688],[-118.523,33.4688],[-118.5228,33.4688],[-118.5226,33.4688],[-118.5223,33.4687],[-118.5221,33.4687],[-118.5219,33.4686],[-118.5217,33.4686],[-118.5215,33.4685],[-118.5214,33.4684],[-118.5212,33.4683],[-118.521,33.4682],[-118.5209,33.4681],[-118.5208,33.4681],[-118.5208,33.468],[-118.5207,33.468],[-118.5206,33.4679],[-118.5204,33.4679],[-118.5202,33.4678],[-118.5201,33.4676],[-118.5199,33.4675],[-118.5197,33.4674],[-118.5197,33.4674],[-118.5197,33.4673],[-118.5196,33.4672],[-118.5195,33.4672],[-118.5193,33.467],[-118.5192,33.4669],[-118.5191,33.4668],[-118.5191,33.4667],[-118.519,33.4666],[-118.5189,33.4664],[-118.5188,33.4662],[-118.5188,33.466],[-118.5187,33.4659],[-118.5187,33.4657],[-118.5187,33.4655],[-118.5187,33.4654],[-118.5187,33.4653],[-118.5187,33.4652],[-118.5187,33.4651],[-118.5187,33.465],[-118.5187,33.4649],[-118.5187,33.4647],[-118.5187,33.4647],[-118.5188,33.4646],[-118.5188,33.4645],[-118.5188,33.4643],[-118.5188,33.4641],[-118.5188,33.4641],[-118.5189,33.464],[-118.5189,33.4639],[-118.5187,33.4638],[-118.5187,33.4638],[-118.5185,33.4637],[-118.5184,33.4637],[-118.5184,33.4637],[-118.5179,33.4635],[-118.5177,33.4635],[-118.5175,33.4634],[-118.5173,33.4633],[-118.5171,33.4632],[-118.5171,33.4632],[-118.5167,33.4629],[-118.5166,33.4629],[-118.5164,33.4628],[-118.5163,33.4626],[-118.5161,33.4625],[-118.516,33.4624],[-118.516,33.4623],[-118.5156,33.4619],[-118.5155,33.4618],[-118.5154,33.4616],[-118.5153,33.4615],[-118.5152,33.4614],[-118.5152,33.4614],[-118.515,33.4613],[-118.5148,33.4612],[-118.5146,33.4612],[-118.5145,33.461],[-118.5143,33.4609],[-118.5142,33.4608],[-118.514,33.4607],[-118.5139,33.4605],[-118.5138,33.4604],[-118.5136,33.4602],[-118.5135,33.4601],[-118.5135,33.4599],[-118.5134,33.4598],[-118.5133,33.4596],[-118.5132,33.4595],[-118.5131,33.4595],[-118.5129,33.4595],[-118.5128,33.4594],[-118.5126,33.4593],[-118.5125,33.4593],[-118.5125,33.4593],[-118.5123,33.4592],[-118.5122,33.4592],[-118.5119,33.4591],[-118.5117,33.4591],[-118.5115,33.459],[-118.5113,33.4589],[-118.5112,33.4589],[-118.511,33.4588],[-118.5108,33.4587],[-118.5108,33.4586],[-118.5107,33.4585],[-118.5105,33.4585],[-118.5105,33.4585],[-118.5102,33.4585],[-118.51,33.4585],[-118.5098,33.4584],[-118.5096,33.4584],[-118.5094,33.4583],[-118.5092,33.4582],[-118.5092,33.4582],[-118.5091,33.4582],[-118.5089,33.4582],[-118.5087,33.4582],[-118.5085,33.4582],[-118.5083,33.4582],[-118.5081,33.4581],[-118.5079,33.4581],[-118.5077,33.458],[-118.5075,33.4579],[-118.5073,33.4578],[-118.5071,33.4578],[-118.5069,33.4576],[-118.5068,33.4575],[-118.5066,33.4574],[-118.5065,33.4573],[-118.5063,33.4571],[-118.5063,33.457],[-118.5062,33.457],[-118.5061,33.457],[-118.5059,33.4569],[-118.5057,33.4568],[-118.5056,33.4568],[-118.5055,33.4568],[-118.5054,33.4568],[-118.5053,33.4567],[-118.5051,33.4567],[-118.505,33.4567],[-118.5049,33.4566],[-118.5047,33.4566],[-118.5045,33.4565],[-118.5043,33.4564],[-118.5041,33.4563],[-118.5039,33.4563],[-118.5038,33.4561],[-118.5037,33.4561],[-118.5036,33.456],[-118.5035,33.456],[-118.5035,33.4559],[-118.5033,33.456],[-118.5032,33.456],[-118.5031,33.456],[-118.5029,33.456],[-118.5027,33.456],[-118.5025,33.456],[-118.5023,33.456],[-118.5022,33.456],[-118.5019,33.456],[-118.5017,33.456],[-118.5015,33.456],[-118.5013,33.456],[-118.5011,33.4559],[-118.5009,33.4559],[-118.5007,33.4558],[-118.5006,33.4558],[-118.5005,33.4558],[-118.5004,33.4557],[-118.5002,33.4557],[-118.5,33.4556],[-118.4998,33.4555],[-118.4997,33.4554],[-118.4995,33.4553],[-118.4993,33.4551],[-118.4992,33.455],[-118.4991,33.4549],[-118.4989,33.4547],[-118.4989,33.4547],[-118.4988,33.4545],[-118.4986,33.4543],[-118.4985,33.4542],[-118.4984,33.4541],[-118.4983,33.454],[-118.5015,33.4529],[-118.5015,33.453],[-118.5015,33.453],[-118.5015,33.4531],[-118.5016,33.4531],[-118.5017,33.4531],[-118.5017,33.4531],[-118.5018,33.4531],[-118.5018,33.4531],[-118.5019,33.4531],[-118.502,33.4532],[-118.5021,33.4531],[-118.5021,33.453],[-118.5021,33.453],[-118.5021,33.453],[-118.5022,33.4529],[-118.5023,33.4529],[-118.5024,33.4529],[-118.5025,33.4529],[-118.5026,33.453],[-118.5026,33.453],[-118.5026,33.453],[-118.5026,33.4531],[-118.5026,33.4532],[-118.5027,33.4532],[-118.5027,33.4533],[-118.5028,33.4533],[-118.5029,33.4533],[-118.503,33.4532],[-118.5031,33.4532],[-118.5032,33.4532],[-118.5034,33.4531],[-118.5034,33.4531],[-118.5034,33.4531],[-118.5035,33.453],[-118.5036,33.453],[-118.5038,33.453],[-118.5039,33.453],[-118.504,33.453],[-118.5041,33.4531],[-118.5042,33.4531],[-118.5043,33.4531],[-118.5044,33.4532],[-118.5045,33.4531],[-118.5046,33.4531],[-118.5047,33.4531],[-118.5048,33.4532],[-118.5049,33.4532],[-118.5051,33.4532],[-118.5053,33.4533],[-118.5054,33.4533],[-118.5054,33.4533],[-118.5055,33.4534],[-118.5055,33.4535],[-118.5056,33.4536],[-118.5055,33.4537],[-118.5055,33.4537],[-118.5055,33.4538],[-118.5056,33.4539],[-118.5056,33.4539],[-118.5057,33.4539],[-118.5058,33.4539],[-118.5058,33.4539],[-118.506,33.4539],[-118.506,33.454],[-118.5061,33.454],[-118.5063,33.454],[-118.5064,33.454],[-118.5066,33.454],[-118.5067,33.454],[-118.5068,33.4541],[-118.5069,33.4541],[-118.5069,33.4541],[-118.507,33.4542],[-118.507,33.4542],[-118.5071,33.4542],[-118.5071,33.4543],[-118.5072,33.4543],[-118.5072,33.4544],[-118.5072,33.4544],[-118.5073,33.4544],[-118.5073,33.4543],[-118.5073,33.4543],[-118.5074,33.4542],[-118.5075,33.4541],[-118.5076,33.4542],[-118.5077,33.4543],[-118.5078,33.4543],[-118.5078,33.4544],[-118.5078,33.4544],[-118.5079,33.4545],[-118.508,33.4545],[-118.5081,33.4545],[-118.5083,33.4545],[-118.5083,33.4546],[-118.5084,33.4547],[-118.5085,33.4547],[-118.5086,33.4548],[-118.5087,33.4548],[-118.5088,33.4549],[-118.5088,33.455],[-118.5087,33.4551],[-118.5087,33.4551],[-118.5088,33.4551],[-118.5088,33.4552],[-118.5087,33.4552],[-118.5088,33.4552],[-118.5088,33.4553],[-118.5088,33.4553],[-118.5088,33.4554],[-118.5088,33.4555],[-118.5088,33.4555],[-118.5089,33.4556],[-118.5089,33.4555],[-118.5089,33.4555],[-118.5089,33.4554],[-118.5089,33.4554],[-118.509,33.4554],[-118.509,33.4555],[-118.509,33.4555],[-118.5091,33.4555],[-118.5091,33.4555],[-118.5091,33.4555],[-118.5091,33.4555],[-118.5091,33.4554],[-118.5091,33.4554],[-118.5092,33.4553],[-118.5093,33.4552],[-118.5094,33.4552],[-118.5095,33.4552],[-118.5096,33.4552],[-118.5097,33.4552],[-118.5097,33.4553],[-118.5098,33.4552],[-118.5098,33.4552],[-118.5099,33.4551],[-118.5099,33.4552],[-118.51,33.4552],[-118.5101,33.4551],[-118.5101,33.455],[-118.5102,33.455],[-118.5103,33.4551],[-118.5103,33.4552],[-118.5103,33.4552],[-118.5103,33.4553],[-118.5104,33.4554],[-118.5105,33.4554],[-118.5105,33.4554],[-118.5105,33.4555],[-118.5105,33.4556],[-118.5106,33.4556],[-118.5107,33.4555],[-118.5107,33.4555],[-118.5108,33.4555],[-118.5108,33.4555],[-118.5109,33.4556],[-118.511,33.4556],[-118.511,33.4557],[-118.5111,33.4557],[-118.5112,33.4557],[-118.5113,33.4557],[-118.5114,33.4557],[-118.5115,33.4557],[-118.5116,33.4556],[-118.5116,33.4556],[-118.5118,33.4555],[-118.5118,33.4555],[-118.5119,33.4555],[-118.512,33.4554],[-118.512,33.4554],[-118.5121,33.4554],[-118.5122,33.4554],[-118.5123,33.4554],[-118.5124,33.4554],[-118.5124,33.4555],[-118.5124,33.4556],[-118.5124,33.4557],[-118.5125,33.4557],[-118.5124,33.4558],[-118.5125,33.4559],[-118.5126,33.456],[-118.5126,33.4561],[-118.5127,33.4562],[-118.5127,33.4563],[-118.5127,33.4563],[-118.5127,33.4564],[-118.5128,33.4564],[-118.5128,33.4564],[-118.5129,33.4563],[-118.5129,33.4564],[-118.513,33.4564],[-118.513,33.4564],[-118.5131,33.4564],[-118.5132,33.4565],[-118.5133,33.4565],[-118.5134,33.4565],[-118.5135,33.4565],[-118.5136,33.4566],[-118.5137,33.4566],[-118.5138,33.4566],[-118.514,33.4567],[-118.5141,33.4567],[-118.5142,33.4567],[-118.5143,33.4568],[-118.5143,33.4569],[-118.5144,33.4569],[-118.5144,33.457],[-118.5144,33.457],[-118.5145,33.457],[-118.5145,33.457],[-118.5146,33.457],[-118.5146,33.457],[-118.5147,33.4569],[-118.5148,33.4569],[-118.5148,33.4569],[-118.5149,33.457],[-118.5149,33.4571],[-118.5149,33.4571],[-118.515,33.4571],[-118.515,33.4571],[-118.5151,33.4571],[-118.5151,33.4572],[-118.5151,33.4572],[-118.5151,33.4573],[-118.5151,33.4573],[-118.5152,33.4573],[-118.5152,33.4572],[-118.5152,33.4572],[-118.5153,33.4571],[-118.5154,33.4571],[-118.5155,33.4571],[-118.5156,33.457],[-118.5156,33.457],[-118.5158,33.4569],[-118.5159,33.457],[-118.5159,33.457],[-118.516,33.4571],[-118.516,33.4572],[-118.5161,33.4573],[-118.516,33.4573],[-118.516,33.4574],[-118.5159,33.4575],[-118.5159,33.4575],[-118.5159,33.4576],[-118.5158,33.4576],[-118.5159,33.4577],[-118.5159,33.4578],[-118.516,33.4579],[-118.5161,33.4579],[-118.5161,33.458],[-118.5161,33.4581],[-118.5162,33.4581],[-118.5163,33.4582],[-118.5164,33.4582],[-118.5165,33.4583],[-118.5165,33.4584],[-118.5166,33.4586],[-118.5166,33.4587],[-118.5166,33.4588],[-118.5166,33.4588],[-118.5167,33.4588],[-118.5169,33.4589],[-118.517,33.4589],[-118.5171,33.4589],[-118.5172,33.4589],[-118.5173,33.4589],[-118.5173,33.4589],[-118.5174,33.4589],[-118.5174,33.4589],[-118.5175,33.4589],[-118.5175,33.4589],[-118.5176,33.4589],[-118.5176,33.4588],[-118.5177,33.4588],[-118.5178,33.4587],[-118.5179,33.4587],[-118.518,33.4588],[-118.5181,33.4588],[-118.5182,33.4588],[-118.5183,33.4589],[-118.5184,33.459],[-118.5185,33.4592],[-118.5186,33.4593],[-118.5186,33.4593],[-118.5185,33.4594],[-118.5185,33.4595],[-118.5185,33.4596],[-118.5186,33.4597],[-118.5185,33.4599],[-118.5185,33.46],[-118.5184,33.4601],[-118.5183,33.4602],[-118.5183,33.4603],[-118.5183,33.4604],[-118.5183,33.4604],[-118.5183,33.4604],[-118.5184,33.4604],[-118.5185,33.4605],[-118.5185,33.4605],[-118.5187,33.4606],[-118.5188,33.4607],[-118.5189,33.4608],[-118.519,33.4608],[-118.5191,33.4609],[-118.5192,33.4609],[-118.5192,33.461],[-118.5193,33.461],[-118.5193,33.461],[-118.5193,33.4611],[-118.5193,33.4611],[-118.5194,33.4611],[-118.5194,33.461],[-118.5194,33.461],[-118.5195,33.4609],[-118.5195,33.461],[-118.5196,33.461],[-118.5197,33.461],[-118.5198,33.461],[-118.5198,33.4611],[-118.5199,33.4612],[-118.5199,33.4612],[-118.52,33.4612],[-118.5201,33.4612],[-118.5202,33.4613],[-118.5203,33.4613],[-118.5204,33.4613],[-118.5205,33.4614],[-118.5206,33.4614],[-118.5207,33.4613],[-118.5208,33.4613],[-118.5209,33.4613],[-118.5209,33.4613],[-118.5211,33.4613],[-118.5212,33.4613],[-118.5213,33.4613],[-118.5215,33.4612],[-118.5216,33.4612],[-118.5217,33.4612],[-118.5218,33.4612],[-118.5219,33.4613],[-118.5221,33.4613],[-118.5222,33.4614],[-118.5224,33.4616],[-118.5226,33.4618],[-118.5228,33.4621],[-118.5229,33.4624],[-118.523,33.4624],[-118.5231,33.4626],[-118.5232,33.4627],[-118.5232,33.4627],[-118.5232,33.4628],[-118.5232,33.4629],[-118.5232,33.4629],[-118.5233,33.4631],[-118.5233,33.4633],[-118.5233,33.4635],[-118.5233,33.4636],[-118.5232,33.4636],[-118.5232,33.4636],[-118.5231,33.4636],[-118.523,33.4635],[-118.5229,33.4636],[-118.5229,33.4636],[-118.5228,33.4637],[-118.5227,33.4638],[-118.5227,33.4639],[-118.5227,33.4639],[-118.5226,33.464],[-118.5226,33.464],[-118.5225,33.464],[-118.5224,33.4641],[-118.5223,33.4642],[-118.5222,33.4642],[-118.5222,33.4643],[-118.5222,33.4643],[-118.5222,33.4643],[-118.5222,33.4644],[-118.5222,33.4644],[-118.5221,33.4645],[-118.5221,33.4645],[-118.5222,33.4645],[-118.5222,33.4646],[-118.5222,33.4647],[-118.5222,33.4647],[-118.5222,33.4648],[-118.5222,33.4649],[-118.5222,33.465],[-118.5221,33.4651],[-118.5221,33.4652],[-118.5221,33.4653],[-118.5222,33.4654],[-118.5222,33.4654],[-118.5223,33.4655],[-118.5224,33.4655],[-118.5225,33.4655],[-118.5226,33.4655],[-118.5227,33.4655],[-118.5227,33.4655],[-118.5227,33.4656],[-118.5228,33.4657],[-118.5228,33.4657],[-118.5229,33.4657],[-118.523,33.4658],[-118.5231,33.4657],[-118.5232,33.4657],[-118.5233,33.4657],[-118.5233,33.4657],[-118.5234,33.4656],[-118.5235,33.4656],[-118.5236,33.4656],[-118.5236,33.4656],[-118.5237,33.4656],[-118.5238,33.4656],[-118.5239,33.4656],[-118.5239,33.4656],[-118.5239,33.4656],[-118.524,33.4656],[-118.5241,33.4656],[-118.5241,33.4655],[-118.5242,33.4655],[-118.5243,33.4654],[-118.5244,33.4654],[-118.5245,33.4654],[-118.5245,33.4654],[-118.5246,33.4654],[-118.5247,33.4653],[-118.5249,33.4653],[-118.525,33.4654],[-118.5251,33.4654],[-118.5251,33.4654],[-118.5252,33.4654],[-118.5252,33.4653],[-118.5252,33.4653],[-118.5253,33.4653],[-118.5254,33.4653],[-118.5255,33.4654],[-118.5256,33.4654],[-118.5257,33.4654],[-118.5257,33.4654],[-118.5258,33.4655],[-118.5258,33.4656],[-118.5257,33.4656],[-118.5258,33.4657],[-118.5258,33.4657],[-118.5259,33.4657],[-118.526,33.4657],[-118.526,33.4657],[-118.5261,33.4658],[-118.5262,33.4659],[-118.5264,33.466],[-118.5266,33.466],[-118.5268,33.4661],[-118.527,33.4661],[-118.5273,33.4662],[-118.5275,33.4662],[-118.5277,33.4662],[-118.5279,33.4662],[-118.528,33.4663],[-118.5282,33.4664],[-118.5283,33.4665],[-118.5284,33.4666],[-118.5285,33.4666],[-118.5286,33.4667],[-118.5286,33.4667],[-118.5287,33.4667],[-118.5288,33.4667],[-118.5289,33.4668],[-118.529,33.4668],[-118.5291,33.4669],[-118.5291,33.4669],[-118.5292,33.467],[-118.5293,33.467],[-118.5294,33.467],[-118.5294,33.4671],[-118.5294,33.4671],[-118.5294,33.4672],[-118.5294,33.4672],[-118.5295,33.4672],[-118.5295,33.4673],[-118.5296,33.4673],[-118.5296,33.4673],[-118.5297,33.4674],[-118.5298,33.4674],[-118.5299,33.4674],[-118.53,33.4674],[-118.5301,33.4675],[-118.5303,33.4675],[-118.5304,33.4676],[-118.5306,33.4678],[-118.5308,33.4679],[-118.5309,33.468],[-118.5309,33.4681],[-118.531,33.4682],[-118.5311,33.4684],[-118.5312,33.4685],[-118.5312,33.4687],[-118.5312,33.4689],[-118.5312,33.4691],[-118.5311,33.4693],[-118.5311,33.4693],[-118.5311,33.4694],[-118.531,33.4696],[-118.5308,33.4697],[-118.5308,33.4697],[-118.5307,33.4696],[-118.5306,33.4696],[-118.5305,33.4695],[-118.5304,33.4695],[-118.5303,33.4694],[-118.5302,33.4695],[-118.5301,33.4695],[-118.5301,33.4695],[-118.5302,33.4695],[-118.5303,33.4695],[-118.5304,33.4696],[-118.5304,33.4696],[-118.5304,33.4696],[-118.5304,33.4697],[-118.5304,33.4697],[-118.5305,33.4698],[-118.5304,33.4698],[-118.5304,33.4698],[-118.5304,33.4699],[-118.5304,33.4699],[-118.5305,33.4699],[-118.5305,33.4699],[-118.5306,33.4699],[-118.5306,33.47],[-118.5307,33.47],[-118.5307,33.47],[-118.5307,33.4701],[-118.5307,33.4701],[-118.5307,33.4701],[-118.5307,33.4701],[-118.5308,33.4702],[-118.5308,33.4702],[-118.5309,33.4702],[-118.5309,33.4703],[-118.5309,33.4703],[-118.531,33.4703],[-118.531,33.4703],[-118.531,33.4703],[-118.5311,33.4702],[-118.5311,33.4702],[-118.5311,33.4702],[-118.5311,33.4701],[-118.5311,33.4701],[-118.5312,33.4701],[-118.5313,33.4701],[-118.5315,33.4701],[-118.5316,33.4702],[-118.5316,33.4702],[-118.5315,33.4703],[-118.5315,33.4703],[-118.5315,33.4703],[-118.5315,33.4703],[-118.5315,33.4704],[-118.5315,33.4704],[-118.5316,33.4703],[-118.5316,33.4703],[-118.5317,33.4703],[-118.5317,33.4704],[-118.5317,33.4705],[-118.5317,33.4705],[-118.5317,33.4706],[-118.5318,33.4706],[-118.5319,33.4707],[-118.5319,33.4708],[-118.5319,33.4709],[-118.5318,33.471],[-118.5319,33.471],[-118.5319,33.471],[-118.5319,33.4709],[-118.532,33.471],[-118.5321,33.4711],[-118.5321,33.4712],[-118.5321,33.4713],[-118.532,33.4714],[-118.532,33.4714],[-118.5319,33.4716],[-118.5319,33.4716],[-118.5319,33.4717],[-118.5318,33.4718],[-118.5319,33.4718],[-118.5319,33.4718],[-118.532,33.4718],[-118.5321,33.4719],[-118.5322,33.472],[-118.5322,33.4721],[-118.5323,33.4721],[-118.5323,33.4722],[-118.5322,33.4722],[-118.5322,33.4722],[-118.5321,33.4723],[-118.5321,33.4723],[-118.5321,33.4723],[-118.5322,33.4724],[-118.5323,33.4724],[-118.5323,33.4724],[-118.5324,33.4724],[-118.5325,33.4725],[-118.5326,33.4726],[-118.5327,33.4726],[-118.5327,33.4726],[-118.5327,33.4727],[-118.5327,33.4728],[-118.5327,33.4728],[-118.5328,33.4729],[-118.5328,33.4729],[-118.5329,33.473],[-118.5329,33.4731],[-118.533,33.4732],[-118.533,33.4733],[-118.5331,33.4734],[-118.5332,33.4734],[-118.5332,33.4734],[-118.5333,33.4735],[-118.5335,33.4736],[-118.5336,33.4736],[-118.5337,33.4738],[-118.5338,33.4738],[-118.534,33.4739],[-118.5342,33.4739],[-118.5343,33.4739],[-118.5344,33.474],[-118.5345,33.4741],[-118.5346,33.4741],[-118.5348,33.4741],[-118.535,33.4741],[-118.5352,33.4741],[-118.5353,33.4742],[-118.5354,33.4743],[-118.5355,33.4744],[-118.5356,33.4746],[-118.5357,33.4748],[-118.5358,33.4749],[-118.5358,33.4752],[-118.5359,33.4753],[-118.536,33.4754],[-118.5361,33.4754],[-118.5361,33.4755],[-118.5362,33.4756],[-118.5363,33.4757],[-118.5363,33.4758],[-118.5364,33.4759],[-118.5366,33.476],[-118.5368,33.4762],[-118.5369,33.4763],[-118.537,33.4763],[-118.5371,33.4764],[-118.5373,33.4765],[-118.5374,33.4766],[-118.5376,33.4767],[-118.5378,33.4767],[-118.5379,33.4768],[-118.538,33.477],[-118.5381,33.4771],[-118.5383,33.4773],[-118.5384,33.4774],[-118.5385,33.4775],[-118.5385,33.4776],[-118.5385,33.4777],[-118.5385,33.4777],[-118.5385,33.4803],[-118.5381,33.4803],[-118.5378,33.4803],[-118.5375,33.4803],[-118.5373,33.4802],[-118.5372,33.4802],[-118.5371,33.4802],[-118.537,33.4801],[-118.5369,33.4801],[-118.5367,33.48],[-118.5366,33.48],[-118.5365,33.4799],[-118.5363,33.4798],[-118.5361,33.4797],[-118.536,33.4796],[-118.5358,33.4795],[-118.5357,33.4793],[-118.5356,33.4792],[-118.5354,33.479],[-118.5351,33.4788],[-118.5343,33.4782],[-118.5343,33.4782],[-118.5343,33.4781],[-118.5341,33.478],[-118.534,33.4779],[-118.5339,33.4778],[-118.5338,33.4777],[-118.5335,33.4774],[-118.5333,33.4772],[-118.5333,33.4771],[-118.5332,33.477],[-118.533,33.4768],[-118.5329,33.4767],[-118.5329,33.4767],[-118.5329,33.4766],[-118.5328,33.4765],[-118.5326,33.4765],[-118.5324,33.4764],[-118.5323,33.4763],[-118.5318,33.4761],[-118.5317,33.476],[-118.5316,33.4759],[-118.5314,33.4758],[-118.5313,33.4757],[-118.5312,33.4757]]]},"properties":{"id":"arrow-point-to-lion-head-point-state-marine-conservation-area","name":"Arrow Point to Lion Head Point State Marine Conservation Area","type":"SMCA","shortName":"Arrow Point to Lion Head Point","areaKm2":null,"ccrCitation":null}},{"type":"Feature","geometry":{"type":"Polygon","coordinates":[[[-118.45,33.4583],[-118.45,33.4327],[-118.4501,33.4326],[-118.4501,33.4326],[-118.4503,33.4326],[-118.4505,33.4327],[-118.4507,33.4327],[-118.4509,33.4327],[-118.4511,33.4327],[-118.4513,33.4327],[-118.4514,33.4328],[-118.4516,33.4328],[-118.4518,33.4329],[-118.452,33.4328],[-118.4521,33.4329],[-118.4522,33.4329],[-118.4522,33.4329],[-118.4524,33.433],[-118.4524,33.433],[-118.4525,33.433],[-118.4527,33.433],[-118.4529,33.4331],[-118.4531,33.4331],[-118.4533,33.4332],[-118.4534,33.4333],[-118.4536,33.4333],[-118.4537,33.4333],[-118.4539,33.4333],[-118.4541,33.4333],[-118.4543,33.4334],[-118.4544,33.4334],[-118.4545,33.4335],[-118.4544,33.4335],[-118.4545,33.4336],[-118.4545,33.4336],[-118.4546,33.4336],[-118.4547,33.4336],[-118.4548,33.4337],[-118.4549,33.4339],[-118.455,33.434],[-118.4551,33.4341],[-118.4552,33.4342],[-118.4553,33.4343],[-118.4553,33.4343],[-118.4553,33.4343],[-118.4554,33.4344],[-118.4554,33.4345],[-118.4554,33.4345],[-118.4554,33.4346],[-118.4554,33.4347],[-118.4554,33.4347],[-118.4554,33.4347],[-118.4554,33.4348],[-118.4554,33.4347],[-118.4554,33.4347],[-118.4555,33.4347],[-118.4556,33.4347],[-118.4556,33.4348],[-118.4557,33.4348],[-118.4557,33.4347],[-118.4558,33.4348],[-118.4559,33.4348],[-118.456,33.4349],[-118.456,33.4349],[-118.4561,33.4349],[-118.4563,33.435],[-118.4565,33.4351],[-118.4565,33.4352],[-118.4566,33.4353],[-118.4566,33.4354],[-118.4567,33.4354],[-118.4568,33.4354],[-118.457,33.4355],[-118.4571,33.4356],[-118.4573,33.4358],[-118.4574,33.4359],[-118.4576,33.4361],[-118.4577,33.4362],[-118.4578,33.4363],[-118.4579,33.4364],[-118.458,33.4365],[-118.4581,33.4366],[-118.4582,33.4366],[-118.4582,33.4366],[-118.4584,33.4366],[-118.4587,33.4366],[-118.4589,33.4367],[-118.4591,33.4367],[-118.4593,33.4368],[-118.4596,33.4369],[-118.4598,33.4369],[-118.46,33.437],[-118.4602,33.437],[-118.4604,33.4371],[-118.4606,33.4373],[-118.4608,33.4374],[-118.461,33.4375],[-118.4612,33.4377],[-118.4613,33.4379],[-118.4614,33.438],[-118.4615,33.4382],[-118.4616,33.4384],[-118.4616,33.4385],[-118.4617,33.4387],[-118.4618,33.4389],[-118.4619,33.439],[-118.462,33.4392],[-118.462,33.4394],[-118.4621,33.4395],[-118.4622,33.4397],[-118.4624,33.4399],[-118.4625,33.4401],[-118.4626,33.4402],[-118.4627,33.4403],[-118.4627,33.4403],[-118.4628,33.4404],[-118.4628,33.4404],[-118.4629,33.4405],[-118.4631,33.4405],[-118.4633,33.4404],[-118.4635,33.4404],[-118.4637,33.4404],[-118.4639,33.4404],[-118.4641,33.4404],[-118.4642,33.4404],[-118.4644,33.4404],[-118.4645,33.4404],[-118.4647,33.4404],[-118.4648,33.4405],[-118.4648,33.4405],[-118.4649,33.4405],[-118.465,33.4405],[-118.4651,33.4405],[-118.4652,33.4406],[-118.4653,33.4406],[-118.4654,33.4406],[-118.4655,33.4407],[-118.4656,33.4408],[-118.4657,33.4408],[-118.4658,33.4409],[-118.4659,33.4409],[-118.466,33.441],[-118.4661,33.4411],[-118.4661,33.4412],[-118.4662,33.4412],[-118.4663,33.4412],[-118.4663,33.4413],[-118.4664,33.4414],[-118.4665,33.4414],[-118.4666,33.4415],[-118.4667,33.4415],[-118.4668,33.4415],[-118.4669,33.4416],[-118.4669,33.4417],[-118.467,33.4417],[-118.4672,33.4417],[-118.4673,33.4417],[-118.4674,33.4417],[-118.4675,33.4418],[-118.4675,33.4419],[-118.4676,33.4419],[-118.4677,33.4419],[-118.4678,33.4419],[-118.4679,33.442],[-118.468,33.442],[-118.468,33.4421],[-118.4681,33.4422],[-118.4682,33.4422],[-118.4682,33.4421],[-118.4684,33.4421],[-118.4685,33.4421],[-118.4686,33.4422],[-118.4688,33.4423],[-118.4689,33.4423],[-118.469,33.4424],[-118.4691,33.4424],[-118.4692,33.4424],[-118.4693,33.4425],[-118.4693,33.4425],[-118.4693,33.4425],[-118.4693,33.4425],[-118.4694,33.4425],[-118.4695,33.4425],[-118.4696,33.4425],[-118.4698,33.4425],[-118.4698,33.4424],[-118.4698,33.4424],[-118.4699,33.4424],[-118.47,33.4424],[-118.4702,33.4423],[-118.4703,33.4422],[-118.4705,33.4422],[-118.4706,33.4421],[-118.4708,33.4421],[-118.4709,33.4421],[-118.4711,33.4421],[-118.4712,33.4421],[-118.4714,33.442],[-118.4714,33.442],[-118.4715,33.442],[-118.4716,33.442],[-118.4716,33.442],[-118.4716,33.442],[-118.4716,33.4421],[-118.4716,33.4421],[-118.4716,33.4422],[-118.4717,33.4421],[-118.4718,33.4421],[-118.4718,33.4421],[-118.4718,33.442],[-118.4718,33.442],[-118.4718,33.442],[-118.4718,33.4419],[-118.4719,33.4419],[-118.472,33.4419],[-118.4722,33.4419],[-118.4723,33.4419],[-118.4724,33.4419],[-118.4726,33.442],[-118.4727,33.442],[-118.4729,33.4421],[-118.4729,33.4422],[-118.473,33.4423],[-118.473,33.4424],[-118.473,33.4425],[-118.4731,33.4425],[-118.4732,33.4426],[-118.4732,33.4427],[-118.4733,33.4427],[-118.4734,33.4427],[-118.4735,33.4427],[-118.4736,33.4428],[-118.4737,33.4429],[-118.4738,33.443],[-118.4739,33.4431],[-118.4741,33.4431],[-118.4741,33.4432],[-118.4742,33.4433],[-118.4742,33.4434],[-118.4742,33.4434],[-118.4742,33.4435],[-118.4743,33.4436],[-118.4743,33.4436],[-118.4744,33.4437],[-118.4744,33.4438],[-118.4744,33.4438],[-118.4745,33.4438],[-118.4745,33.4438],[-118.4745,33.4439],[-118.4745,33.444],[-118.4745,33.444],[-118.4746,33.4441],[-118.4746,33.4441],[-118.4747,33.4441],[-118.4747,33.4442],[-118.4748,33.4442],[-118.4749,33.4442],[-118.4749,33.4443],[-118.475,33.4443],[-118.4751,33.4444],[-118.4751,33.4444],[-118.4751,33.4444],[-118.4752,33.4444],[-118.4753,33.4444],[-118.4754,33.4444],[-118.4755,33.4445],[-118.4756,33.4445],[-118.4757,33.4445],[-118.4758,33.4446],[-118.4759,33.4447],[-118.4759,33.4447],[-118.4759,33.4448],[-118.4759,33.4449],[-118.4759,33.445],[-118.4759,33.4451],[-118.4759,33.4451],[-118.4759,33.4452],[-118.4759,33.4453],[-118.4759,33.4453],[-118.476,33.4454],[-118.476,33.4455],[-118.476,33.4455],[-118.476,33.4456],[-118.476,33.4457],[-118.4761,33.4457],[-118.4761,33.4457],[-118.4762,33.4458],[-118.4762,33.4458],[-118.4763,33.4459],[-118.4763,33.4459],[-118.4763,33.446],[-118.4763,33.4461],[-118.4763,33.4461],[-118.4764,33.4462],[-118.4765,33.4462],[-118.4765,33.4462],[-118.4766,33.4463],[-118.4766,33.4464],[-118.4766,33.4465],[-118.4767,33.4466],[-118.4767,33.4466],[-118.4767,33.4467],[-118.4767,33.4467],[-118.4767,33.4467],[-118.4767,33.4467],[-118.4767,33.4468],[-118.4767,33.4468],[-118.4767,33.4469],[-118.4766,33.447],[-118.4765,33.447],[-118.4765,33.4471],[-118.4766,33.4471],[-118.4766,33.4472],[-118.4766,33.4473],[-118.4765,33.4474],[-118.4765,33.4474],[-118.4766,33.4475],[-118.4766,33.4476],[-118.4766,33.4476],[-118.4767,33.4476],[-118.4768,33.4476],[-118.4768,33.4476],[-118.4769,33.4476],[-118.477,33.4477],[-118.4771,33.4477],[-118.4771,33.4478],[-118.4771,33.4478],[-118.4772,33.4478],[-118.4772,33.4479],[-118.4772,33.448],[-118.4772,33.448],[-118.4772,33.4481],[-118.4772,33.4481],[-118.4772,33.4481],[-118.4773,33.4481],[-118.4773,33.4481],[-118.4773,33.4481],[-118.4774,33.4481],[-118.4774,33.4482],[-118.4774,33.4482],[-118.4774,33.4483],[-118.4775,33.4483],[-118.4775,33.4483],[-118.4776,33.4483],[-118.4778,33.4483],[-118.4779,33.4483],[-118.478,33.4482],[-118.4781,33.4482],[-118.4783,33.4481],[-118.4784,33.4481],[-118.4785,33.4481],[-118.4786,33.448],[-118.4788,33.448],[-118.4789,33.4478],[-118.4789,33.4478],[-118.4791,33.4477],[-118.4792,33.4477],[-118.4793,33.4477],[-118.4793,33.4477],[-118.4793,33.4476],[-118.4795,33.4477],[-118.4795,33.4477],[-118.4795,33.4477],[-118.4796,33.4477],[-118.4796,33.4477],[-118.4797,33.4477],[-118.4798,33.4477],[-118.4799,33.4476],[-118.4799,33.4477],[-118.4799,33.4477],[-118.48,33.4477],[-118.48,33.4478],[-118.48,33.4479],[-118.4801,33.4479],[-118.4801,33.448],[-118.4802,33.448],[-118.4803,33.448],[-118.4804,33.4479],[-118.4804,33.4479],[-118.4806,33.4479],[-118.4806,33.4478],[-118.4807,33.4478],[-118.4808,33.4478],[-118.4809,33.4478],[-118.4809,33.4478],[-118.481,33.4478],[-118.4811,33.4478],[-118.4812,33.4478],[-118.4812,33.4478],[-118.4812,33.4478],[-118.4813,33.4478],[-118.4814,33.4478],[-118.4815,33.4478],[-118.4815,33.4478],[-118.4816,33.4478],[-118.4816,33.4477],[-118.4817,33.4477],[-118.4818,33.4477],[-118.4818,33.4477],[-118.4818,33.4477],[-118.4819,33.4477],[-118.482,33.4477],[-118.482,33.4477],[-118.4821,33.4477],[-118.4822,33.4477],[-118.4822,33.4476],[-118.4823,33.4476],[-118.4823,33.4476],[-118.4824,33.4476],[-118.4825,33.4476],[-118.4826,33.4476],[-118.4827,33.4475],[-118.4828,33.4475],[-118.4829,33.4474],[-118.483,33.4474],[-118.4831,33.4473],[-118.4832,33.4473],[-118.4832,33.4473],[-118.4833,33.4472],[-118.4834,33.4472],[-118.4835,33.4472],[-118.4835,33.4472],[-118.4836,33.4473],[-118.4836,33.4473],[-118.4836,33.4473],[-118.4837,33.4472],[-118.4837,33.4472],[-118.4837,33.4472],[-118.4837,33.4472],[-118.4838,33.4472],[-118.4838,33.4472],[-118.4839,33.4472],[-118.4839,33.4472],[-118.4839,33.4472],[-118.484,33.4472],[-118.484,33.4472],[-118.4841,33.4472],[-118.484,33.4472],[-118.484,33.4472],[-118.4839,33.4471],[-118.4839,33.4471],[-118.484,33.447],[-118.4841,33.447],[-118.4841,33.447],[-118.4842,33.4469],[-118.4843,33.4469],[-118.4843,33.4469],[-118.4844,33.4469],[-118.4845,33.4469],[-118.4845,33.4469],[-118.4846,33.4468],[-118.4846,33.4468],[-118.4846,33.4467],[-118.4847,33.4467],[-118.4847,33.4467],[-118.4848,33.4466],[-118.4848,33.4466],[-118.4849,33.4466],[-118.485,33.4466],[-118.4851,33.4466],[-118.4851,33.4466],[-118.4851,33.4466],[-118.4851,33.4465],[-118.4852,33.4465],[-118.4852,33.4465],[-118.4852,33.4464],[-118.4852,33.4464],[-118.4853,33.4464],[-118.4853,33.4464],[-118.4853,33.4464],[-118.4853,33.4464],[-118.4853,33.4464],[-118.4853,33.4463],[-118.4853,33.4463],[-118.4854,33.4463],[-118.4853,33.4462],[-118.4853,33.4462],[-118.4853,33.4462],[-118.4852,33.4461],[-118.4852,33.4461],[-118.4852,33.446],[-118.4852,33.446],[-118.4851,33.4459],[-118.485,33.4459],[-118.485,33.4459],[-118.485,33.4458],[-118.4849,33.4458],[-118.4848,33.4457],[-118.4848,33.4457],[-118.4848,33.4456],[-118.4848,33.4456],[-118.4848,33.4456],[-118.4848,33.4455],[-118.4847,33.4454],[-118.4847,33.4454],[-118.4846,33.4454],[-118.4845,33.4454],[-118.4844,33.4454],[-118.4843,33.4454],[-118.4842,33.4454],[-118.4842,33.4453],[-118.484,33.4453],[-118.484,33.4453],[-118.4839,33.4453],[-118.4838,33.4453],[-118.4837,33.4453],[-118.4837,33.4452],[-118.4837,33.4452],[-118.4836,33.4452],[-118.4835,33.4452],[-118.4834,33.4452],[-118.4834,33.4451],[-118.4833,33.4451],[-118.4833,33.4451],[-118.4833,33.445],[-118.4833,33.445],[-118.4834,33.4449],[-118.4835,33.4449],[-118.4836,33.4449],[-118.4837,33.4449],[-118.4839,33.4449],[-118.484,33.445],[-118.4841,33.445],[-118.4841,33.445],[-118.4841,33.4449],[-118.4841,33.4449],[-118.484,33.4448],[-118.4839,33.4448],[-118.4838,33.4448],[-118.4837,33.4447],[-118.4837,33.4447],[-118.4837,33.4446],[-118.4838,33.4445],[-118.4838,33.4445],[-118.4839,33.4443],[-118.484,33.4442],[-118.4841,33.4441],[-118.4842,33.4439],[-118.4843,33.4439],[-118.4844,33.4438],[-118.4845,33.4438],[-118.4846,33.4437],[-118.4846,33.4437],[-118.4846,33.4437],[-118.4847,33.4437],[-118.4848,33.4437],[-118.4848,33.4437],[-118.4848,33.4438],[-118.4849,33.4438],[-118.485,33.4437],[-118.485,33.4436],[-118.4851,33.4435],[-118.4852,33.4435],[-118.4852,33.4435],[-118.4852,33.4435],[-118.4853,33.4435],[-118.4853,33.4436],[-118.4853,33.4436],[-118.4854,33.4436],[-118.4855,33.4436],[-118.4856,33.4436],[-118.4857,33.4436],[-118.4858,33.4435],[-118.4858,33.4435],[-118.4858,33.4435],[-118.4859,33.4435],[-118.4859,33.4436],[-118.4859,33.4436],[-118.4859,33.4436],[-118.4859,33.4437],[-118.4859,33.4437],[-118.4859,33.4438],[-118.4859,33.4438],[-118.4859,33.4439],[-118.4859,33.4439],[-118.4859,33.4439],[-118.486,33.4438],[-118.4861,33.4439],[-118.4862,33.4439],[-118.4862,33.4439],[-118.4862,33.444],[-118.4862,33.444],[-118.4863,33.4441],[-118.4863,33.444],[-118.4863,33.444],[-118.4863,33.4439],[-118.4864,33.444],[-118.4864,33.444],[-118.4865,33.4441],[-118.4866,33.4441],[-118.4866,33.4442],[-118.4867,33.4442],[-118.4868,33.4443],[-118.4869,33.4443],[-118.487,33.4443],[-118.4871,33.4443],[-118.4872,33.4443],[-118.4873,33.4443],[-118.4874,33.4443],[-118.4874,33.4443],[-118.4874,33.4443],[-118.4875,33.4442],[-118.4875,33.4442],[-118.4875,33.4443],[-118.4876,33.4443],[-118.4876,33.4444],[-118.4877,33.4445],[-118.4877,33.4445],[-118.4878,33.4446],[-118.4878,33.4446],[-118.4879,33.4447],[-118.4881,33.4447],[-118.4881,33.4447],[-118.4881,33.4447],[-118.4882,33.4446],[-118.4882,33.4446],[-118.4883,33.4445],[-118.4883,33.4444],[-118.4882,33.4443],[-118.4881,33.4442],[-118.4881,33.4442],[-118.4881,33.4441],[-118.4881,33.4441],[-118.4881,33.444],[-118.4883,33.444],[-118.4883,33.444],[-118.4883,33.444],[-118.4883,33.4583],[-118.45,33.4583]]]},"properties":{"id":"blue-cavern-onshore-state-marine-conservation-area","name":"Blue Cavern Onshore State Marine Conservation Area","type":"SMCA (No-Take)","shortName":"Blue Cavern Onshore","areaKm2":null,"ccrCitation":null}},{"type":"Feature","geometry":{"type":"Polygon","coordinates":[[[-118.45,33.4583],[-118.4883,33.4583],[-118.4883,33.5135],[-118.4875,33.5134],[-118.4864,33.5134],[-118.4854,33.5133],[-118.4844,33.5132],[-118.4833,33.5131],[-118.4823,33.5129],[-118.4813,33.5128],[-118.4802,33.5126],[-118.4792,33.5125],[-118.4782,33.5123],[-118.4772,33.5121],[-118.4762,33.5119],[-118.4752,33.5116],[-118.4742,33.5114],[-118.4732,33.5111],[-118.4722,33.5108],[-118.4712,33.5105],[-118.4702,33.5102],[-118.4693,33.5099],[-118.4683,33.5096],[-118.4673,33.5092],[-118.4664,33.5089],[-118.4664,33.5089],[-118.4654,33.5085],[-118.4645,33.5081],[-118.4636,33.5077],[-118.4626,33.5073],[-118.4617,33.5068],[-118.4616,33.5068],[-118.4616,33.5068],[-118.4607,33.5063],[-118.4598,33.5059],[-118.4589,33.5054],[-118.4581,33.5049],[-118.4572,33.5044],[-118.4564,33.5039],[-118.4555,33.5034],[-118.4547,33.5029],[-118.4539,33.5023],[-118.4531,33.5018],[-118.4523,33.5012],[-118.4515,33.5006],[-118.4507,33.5],[-118.4502,33.4996],[-118.45,33.4995],[-118.45,33.4583]]]},"properties":{"id":"blue-cavern-offshore-state-marine-conservation-area","name":"Blue Cavern Offshore State Marine Conservation Area","type":"SMCA","shortName":"Blue Cavern Offshore","areaKm2":null,"ccrCitation":null}},{"type":"Feature","geometry":{"type":"Polygon","coordinates":[[[-118.3663,33.425],[-118.3663,33.4063],[-118.3664,33.4064],[-118.3664,33.4064],[-118.3665,33.4064],[-118.3666,33.4065],[-118.3667,33.4065],[-118.3667,33.4066],[-118.3667,33.4066],[-118.3668,33.4066],[-118.3668,33.4066],[-118.3669,33.4067],[-118.367,33.4067],[-118.367,33.4067],[-118.3671,33.4066],[-118.3672,33.4066],[-118.3673,33.4066],[-118.3674,33.4066],[-118.3675,33.4066],[-118.3676,33.4065],[-118.3676,33.4065],[-118.3678,33.4066],[-118.3679,33.4067],[-118.368,33.4067],[-118.3682,33.4068],[-118.3683,33.4069],[-118.3685,33.4068],[-118.3686,33.4068],[-118.3688,33.4069],[-118.3691,33.407],[-118.3693,33.4071],[-118.3694,33.4073],[-118.3696,33.4074],[-118.3697,33.4076],[-118.3697,33.4077],[-118.3697,33.4079],[-118.3696,33.4079],[-118.3696,33.4081],[-118.3697,33.4082],[-118.3697,33.4083],[-118.3697,33.4084],[-118.3697,33.4084],[-118.3697,33.4085],[-118.3697,33.4085],[-118.3697,33.4086],[-118.3699,33.4086],[-118.37,33.4087],[-118.3701,33.4087],[-118.3701,33.4086],[-118.3702,33.4087],[-118.3702,33.4088],[-118.3702,33.4088],[-118.3702,33.4089],[-118.3702,33.4089],[-118.3703,33.4089],[-118.3704,33.409],[-118.3705,33.409],[-118.3705,33.4091],[-118.3705,33.4091],[-118.3705,33.4091],[-118.3706,33.4092],[-118.3707,33.4092],[-118.3709,33.4093],[-118.371,33.4094],[-118.371,33.4094],[-118.371,33.4094],[-118.3711,33.4094],[-118.3712,33.4094],[-118.3713,33.4095],[-118.3713,33.4095],[-118.3714,33.4095],[-118.3715,33.4096],[-118.3716,33.4095],[-118.3716,33.4096],[-118.3717,33.4096],[-118.3718,33.4096],[-118.3718,33.4096],[-118.3719,33.4096],[-118.372,33.4096],[-118.3721,33.4096],[-118.3723,33.4097],[-118.3724,33.4098],[-118.3724,33.4098],[-118.3726,33.4099],[-118.3727,33.41],[-118.3729,33.41],[-118.373,33.4099],[-118.3731,33.4099],[-118.3732,33.4099],[-118.3733,33.41],[-118.3733,33.41],[-118.3734,33.41],[-118.3735,33.41],[-118.3736,33.41],[-118.3736,33.41],[-118.3736,33.41],[-118.3737,33.41],[-118.3737,33.4101],[-118.3738,33.4101],[-118.374,33.41],[-118.3741,33.41],[-118.3743,33.41],[-118.3745,33.41],[-118.3746,33.41],[-118.3748,33.41],[-118.3749,33.4101],[-118.375,33.4101],[-118.3752,33.4102],[-118.3753,33.4102],[-118.3755,33.4103],[-118.3757,33.4103],[-118.3759,33.4103],[-118.3761,33.4102],[-118.3764,33.4102],[-118.3765,33.4101],[-118.3766,33.41],[-118.3767,33.41],[-118.3768,33.4099],[-118.377,33.4098],[-118.3772,33.4097],[-118.3774,33.4096],[-118.3776,33.4096],[-118.3778,33.4096],[-118.378,33.4096],[-118.3781,33.4097],[-118.3781,33.4097],[-118.3783,33.4097],[-118.3784,33.4096],[-118.3784,33.4096],[-118.3786,33.4096],[-118.3788,33.4096],[-118.379,33.4096],[-118.3793,33.4095],[-118.3795,33.4095],[-118.3797,33.4095],[-118.3799,33.4095],[-118.38,33.4095],[-118.3802,33.4095],[-118.3804,33.4095],[-118.3805,33.4095],[-118.3807,33.4095],[-118.3809,33.4095],[-118.3809,33.4095],[-118.381,33.4096],[-118.3811,33.4095],[-118.3812,33.4095],[-118.3814,33.4096],[-118.3816,33.4096],[-118.3818,33.4096],[-118.382,33.4097],[-118.3821,33.4097],[-118.3823,33.4098],[-118.3824,33.4099],[-118.3825,33.41],[-118.3826,33.4101],[-118.3826,33.4101],[-118.3827,33.4102],[-118.3829,33.4102],[-118.3829,33.4103],[-118.3831,33.4104],[-118.3832,33.4104],[-118.3833,33.4105],[-118.3834,33.4106],[-118.3834,33.4107],[-118.3833,33.4108],[-118.3833,33.4109],[-118.3833,33.4109],[-118.3833,33.411],[-118.3834,33.411],[-118.3835,33.4111],[-118.3835,33.4112],[-118.3836,33.4113],[-118.3837,33.4113],[-118.3837,33.4114],[-118.3838,33.4115],[-118.3838,33.4116],[-118.3838,33.4116],[-118.3838,33.4117],[-118.3839,33.4118],[-118.3839,33.4118],[-118.3839,33.4119],[-118.384,33.412],[-118.3841,33.4121],[-118.3841,33.4122],[-118.3842,33.4123],[-118.3842,33.4124],[-118.3843,33.4125],[-118.3843,33.4126],[-118.3844,33.4127],[-118.3846,33.4127],[-118.3848,33.4128],[-118.3849,33.4128],[-118.3851,33.4129],[-118.3852,33.413],[-118.3852,33.413],[-118.3854,33.4131],[-118.3855,33.4132],[-118.3857,33.4133],[-118.3858,33.4135],[-118.386,33.4137],[-118.3862,33.4138],[-118.3863,33.414],[-118.3864,33.4141],[-118.3866,33.4143],[-118.3867,33.4144],[-118.3868,33.4146],[-118.3869,33.4147],[-118.387,33.4149],[-118.3871,33.415],[-118.3872,33.4151],[-118.3872,33.4152],[-118.3873,33.4152],[-118.3874,33.4153],[-118.3874,33.4154],[-118.3875,33.4155],[-118.3875,33.4155],[-118.3876,33.4156],[-118.3877,33.4157],[-118.3878,33.4158],[-118.3879,33.4158],[-118.388,33.4159],[-118.3881,33.4161],[-118.3882,33.4162],[-118.3884,33.4162],[-118.3885,33.4163],[-118.3884,33.4164],[-118.3884,33.4165],[-118.3884,33.4166],[-118.3885,33.4166],[-118.3886,33.4166],[-118.3887,33.4166],[-118.3888,33.4167],[-118.3888,33.4168],[-118.3888,33.4169],[-118.3887,33.417],[-118.3887,33.417],[-118.3886,33.4171],[-118.3886,33.4171],[-118.3886,33.4171],[-118.3886,33.4172],[-118.3886,33.4172],[-118.3886,33.4172],[-118.3887,33.4172],[-118.3887,33.4172],[-118.3888,33.4172],[-118.3889,33.4172],[-118.389,33.4172],[-118.389,33.4173],[-118.389,33.4174],[-118.3891,33.4174],[-118.3891,33.4175],[-118.3891,33.4175],[-118.3891,33.4176],[-118.3892,33.4176],[-118.3892,33.4176],[-118.3892,33.4176],[-118.3892,33.4175],[-118.3893,33.4175],[-118.3894,33.4175],[-118.3895,33.4175],[-118.3896,33.4175],[-118.3897,33.4174],[-118.3898,33.4174],[-118.3899,33.4174],[-118.39,33.4175],[-118.39,33.4175],[-118.3901,33.4175],[-118.3902,33.4175],[-118.3902,33.4175],[-118.3903,33.4174],[-118.3904,33.4173],[-118.3905,33.4173],[-118.3907,33.4173],[-118.3909,33.4173],[-118.391,33.4172],[-118.3912,33.4172],[-118.3913,33.4172],[-118.3914,33.4172],[-118.3914,33.4172],[-118.3916,33.4171],[-118.3916,33.4172],[-118.3916,33.4172],[-118.3917,33.4173],[-118.3917,33.4173],[-118.3917,33.4174],[-118.3918,33.4174],[-118.3918,33.4173],[-118.3917,33.4173],[-118.3918,33.4172],[-118.3919,33.4171],[-118.392,33.4171],[-118.392,33.417],[-118.392,33.417],[-118.3922,33.4169],[-118.3923,33.417],[-118.3924,33.417],[-118.3924,33.4171],[-118.3924,33.4171],[-118.3926,33.4171],[-118.3927,33.417],[-118.3927,33.417],[-118.3927,33.417],[-118.3928,33.4169],[-118.3929,33.417],[-118.3929,33.417],[-118.393,33.417],[-118.3931,33.4171],[-118.3931,33.417],[-118.3932,33.417],[-118.3932,33.4169],[-118.3933,33.4169],[-118.3933,33.4169],[-118.3934,33.4169],[-118.3935,33.4169],[-118.3936,33.4168],[-118.3937,33.4168],[-118.3938,33.4167],[-118.3939,33.4168],[-118.3939,33.4168],[-118.394,33.4168],[-118.3941,33.4168],[-118.3941,33.4168],[-118.3942,33.4167],[-118.3942,33.4166],[-118.3942,33.4166],[-118.3942,33.4165],[-118.3941,33.4164],[-118.3941,33.4164],[-118.3943,33.4163],[-118.3945,33.4162],[-118.3946,33.4161],[-118.3948,33.416],[-118.395,33.416],[-118.3951,33.4159],[-118.3951,33.4159],[-118.3953,33.4159],[-118.3954,33.4159],[-118.3955,33.4159],[-118.3956,33.4159],[-118.3957,33.4158],[-118.3958,33.4159],[-118.3959,33.4159],[-118.396,33.4159],[-118.3961,33.416],[-118.3962,33.416],[-118.3963,33.416],[-118.3964,33.416],[-118.3964,33.4161],[-118.3964,33.4161],[-118.3964,33.4162],[-118.3964,33.4162],[-118.3964,33.4162],[-118.3965,33.4162],[-118.3965,33.4163],[-118.3966,33.4163],[-118.3966,33.4163],[-118.3966,33.4162],[-118.3966,33.4162],[-118.3966,33.4161],[-118.3966,33.4161],[-118.3967,33.4162],[-118.3969,33.4162],[-118.397,33.4162],[-118.3971,33.4163],[-118.3973,33.4163],[-118.3973,33.4164],[-118.3974,33.4165],[-118.3974,33.4165],[-118.3974,33.4166],[-118.3974,33.4166],[-118.3974,33.4167],[-118.3974,33.4168],[-118.3975,33.4169],[-118.3975,33.4169],[-118.3975,33.417],[-118.3975,33.4171],[-118.3975,33.4171],[-118.3976,33.4172],[-118.3976,33.4172],[-118.3976,33.4173],[-118.3977,33.4173],[-118.3978,33.4173],[-118.3979,33.4173],[-118.3979,33.4173],[-118.398,33.4173],[-118.3981,33.4174],[-118.3981,33.4174],[-118.3982,33.4174],[-118.3982,33.4175],[-118.3983,33.4175],[-118.3983,33.4176],[-118.3983,33.4176],[-118.3984,33.4177],[-118.3984,33.4178],[-118.3984,33.4178],[-118.3984,33.4179],[-118.3984,33.4179],[-118.3984,33.4179],[-118.3984,33.418],[-118.3984,33.418],[-118.3984,33.4181],[-118.3984,33.4181],[-118.3984,33.4181],[-118.3984,33.4181],[-118.3984,33.4182],[-118.3984,33.4182],[-118.3985,33.4183],[-118.3985,33.4183],[-118.3986,33.4182],[-118.3987,33.4182],[-118.3987,33.4182],[-118.3988,33.4182],[-118.3989,33.4183],[-118.3989,33.4183],[-118.399,33.4182],[-118.399,33.4182],[-118.399,33.4182],[-118.3991,33.4182],[-118.3991,33.4183],[-118.3991,33.4183],[-118.3992,33.4184],[-118.3993,33.4184],[-118.3994,33.4185],[-118.3994,33.4185],[-118.3995,33.4185],[-118.3996,33.4185],[-118.3996,33.4185],[-118.3996,33.4185],[-118.3997,33.4185],[-118.3998,33.4184],[-118.3998,33.4184],[-118.3998,33.4184],[-118.3998,33.4184],[-118.3999,33.4184],[-118.4,33.4184],[-118.4,33.4184],[-118.4,33.4185],[-118.4,33.425],[-118.3663,33.425]]]},"properties":{"id":"long-point-state-marine-reserve","name":"Long Point State Marine Reserve","type":"SMR","shortName":"Long Point","areaKm2":null,"ccrCitation":null}},{"type":"Feature","geometry":{"type":"Polygon","coordinates":[[[-118.4816,33.3438],[-118.4816,33.3438],[-118.4817,33.3438],[-118.4817,33.3437],[-118.4818,33.3437],[-118.4818,33.3437],[-118.4818,33.3436],[-118.4817,33.3435],[-118.4815,33.3436],[-118.4814,33.3436],[-118.4813,33.3437],[-118.4813,33.3437],[-118.4813,33.3438],[-118.4812,33.3438],[-118.4811,33.3438],[-118.4809,33.3438],[-118.4808,33.3437],[-118.4807,33.3436],[-118.4806,33.3435],[-118.4805,33.3433],[-118.4804,33.3433],[-118.4802,33.3432],[-118.4802,33.3431],[-118.4801,33.343],[-118.48,33.3429],[-118.4798,33.3428],[-118.4796,33.3427],[-118.4795,33.3426],[-118.4794,33.3425],[-118.4793,33.3424],[-118.4792,33.3423],[-118.4791,33.3423],[-118.479,33.3422],[-118.479,33.3422],[-118.479,33.3421],[-118.4789,33.3421],[-118.4789,33.3421],[-118.4789,33.3421],[-118.4788,33.3421],[-118.4787,33.3421],[-118.4786,33.342],[-118.4786,33.342],[-118.4786,33.342],[-118.4785,33.342],[-118.4784,33.342],[-118.4783,33.342],[-118.4782,33.342],[-118.478,33.3419],[-118.4778,33.3418],[-118.4777,33.3417],[-118.4775,33.3415],[-118.4774,33.3413],[-118.4774,33.3411],[-118.4774,33.341],[-118.4774,33.3409],[-118.4773,33.3408],[-118.4772,33.3407],[-118.4772,33.3406],[-118.4771,33.3404],[-118.477,33.3402],[-118.477,33.34],[-118.4769,33.3398],[-118.4769,33.3397],[-118.477,33.3397],[-118.4771,33.3396],[-118.4771,33.3396],[-118.4771,33.3396],[-118.477,33.3395],[-118.477,33.3394],[-118.4771,33.3394],[-118.4772,33.3393],[-118.4773,33.3393],[-118.4774,33.3392],[-118.4774,33.3391],[-118.4773,33.3391],[-118.4773,33.3391],[-118.4772,33.339],[-118.4771,33.339],[-118.4769,33.3389],[-118.4768,33.3389],[-118.4767,33.3389],[-118.4766,33.3389],[-118.4766,33.339],[-118.4765,33.3391],[-118.4765,33.3391],[-118.4765,33.3392],[-118.4763,33.3392],[-118.4762,33.3393],[-118.476,33.3393],[-118.476,33.3392],[-118.4759,33.3392],[-118.4758,33.3391],[-118.4757,33.3391],[-118.4756,33.3391],[-118.4756,33.3391],[-118.4754,33.3392],[-118.4753,33.3392],[-118.4752,33.3391],[-118.4751,33.339],[-118.4749,33.3389],[-118.4749,33.3388],[-118.4749,33.3388],[-118.4749,33.3387],[-118.4748,33.3386],[-118.4748,33.3386],[-118.4747,33.3385],[-118.4747,33.3384],[-118.4746,33.3383],[-118.4745,33.3382],[-118.4744,33.3382],[-118.4743,33.338],[-118.4742,33.338],[-118.4742,33.3379],[-118.4741,33.3378],[-118.4739,33.3377],[-118.4739,33.3377],[-118.4737,33.3376],[-118.4736,33.3375],[-118.4735,33.3374],[-118.4734,33.3374],[-118.4732,33.3372],[-118.4731,33.3371],[-118.473,33.3369],[-118.4729,33.3368],[-118.4727,33.3367],[-118.4726,33.3366],[-118.4725,33.3364],[-118.4725,33.3363],[-118.4724,33.3361],[-118.4723,33.3359],[-118.4723,33.3356],[-118.4723,33.3355],[-118.4723,33.3353],[-118.4724,33.3353],[-118.4725,33.3353],[-118.4725,33.3353],[-118.4726,33.3354],[-118.4727,33.3353],[-118.4727,33.3353],[-118.4727,33.3352],[-118.4726,33.3352],[-118.4725,33.3352],[-118.4725,33.3352],[-118.4725,33.3351],[-118.4726,33.335],[-118.4726,33.3348],[-118.4727,33.3346],[-118.4728,33.3345],[-118.4728,33.3343],[-118.4728,33.3342],[-118.4727,33.3341],[-118.4727,33.334],[-118.4727,33.334],[-118.4728,33.3339],[-118.4728,33.3339],[-118.4728,33.3338],[-118.4727,33.3337],[-118.4726,33.3337],[-118.4725,33.3336],[-118.4724,33.3336],[-118.4723,33.3336],[-118.4722,33.3336],[-118.4721,33.3335],[-118.472,33.3335],[-118.4719,33.3335],[-118.4718,33.3335],[-118.4717,33.3334],[-118.4717,33.3333],[-118.4716,33.3333],[-118.4716,33.3332],[-118.4716,33.3331],[-118.4716,33.333],[-118.4716,33.333],[-118.4717,33.3329],[-118.4717,33.3329],[-118.4718,33.3329],[-118.4719,33.3329],[-118.472,33.3328],[-118.472,33.3328],[-118.4721,33.3327],[-118.4722,33.3327],[-118.4722,33.3327],[-118.4722,33.3326],[-118.4722,33.3326],[-118.4721,33.3326],[-118.4721,33.3326],[-118.472,33.3326],[-118.472,33.3326],[-118.4719,33.3326],[-118.4719,33.3326],[-118.4719,33.3325],[-118.4718,33.3325],[-118.4717,33.3325],[-118.4716,33.3325],[-118.4716,33.3325],[-118.4715,33.3325],[-118.4714,33.3325],[-118.4713,33.3325],[-118.4711,33.3324],[-118.4711,33.3323],[-118.4711,33.3322],[-118.471,33.3321],[-118.4708,33.3321],[-118.4707,33.3321],[-118.4707,33.3321],[-118.4705,33.332],[-118.4704,33.3319],[-118.4703,33.3318],[-118.4701,33.3318],[-118.47,33.3317],[-118.4698,33.3317],[-118.4697,33.3316],[-118.4696,33.3317],[-118.4694,33.3317],[-118.4692,33.3317],[-118.4691,33.3316],[-118.469,33.3316],[-118.469,33.3315],[-118.469,33.3314],[-118.4689,33.3313],[-118.4689,33.3313],[-118.4687,33.3313],[-118.4687,33.3313],[-118.4686,33.3312],[-118.4684,33.3312],[-118.4682,33.331],[-118.468,33.3309],[-118.4679,33.3308],[-118.4678,33.3307],[-118.4676,33.3307],[-118.4674,33.3306],[-118.4673,33.3306],[-118.4672,33.3304],[-118.4671,33.3303],[-118.467,33.3302],[-118.4669,33.3301],[-118.4669,33.3299],[-118.4668,33.3298],[-118.4668,33.3297],[-118.4669,33.3295],[-118.4669,33.3293],[-118.467,33.3292],[-118.4671,33.329],[-118.4672,33.329],[-118.4673,33.3289],[-118.4673,33.3288],[-118.4673,33.3287],[-118.4671,33.3287],[-118.467,33.3286],[-118.4669,33.3286],[-118.4667,33.3286],[-118.4667,33.3286],[-118.4666,33.3285],[-118.4665,33.3285],[-118.4664,33.3285],[-118.4662,33.3285],[-118.4661,33.3284],[-118.4661,33.3284],[-118.466,33.3284],[-118.466,33.3283],[-118.466,33.3282],[-118.4659,33.3281],[-118.4658,33.328],[-118.4657,33.328],[-118.4655,33.328],[-118.4654,33.3279],[-118.4652,33.3279],[-118.4651,33.3277],[-118.4651,33.3276],[-118.4651,33.3275],[-118.4651,33.3274],[-118.4651,33.3273],[-118.465,33.3272],[-118.465,33.3271],[-118.465,33.327],[-118.465,33.3269],[-118.4651,33.3267],[-118.4652,33.3266],[-118.4652,33.3265],[-118.4652,33.3264],[-118.4652,33.3264],[-118.4652,33.3262],[-118.4651,33.3262],[-118.465,33.3261],[-118.465,33.326],[-118.465,33.3167],[-118.4833,33.3167],[-118.5,33.35],[-118.4847,33.35],[-118.4846,33.35],[-118.4846,33.35],[-118.4846,33.35],[-118.4844,33.35],[-118.4844,33.3499],[-118.4843,33.3498],[-118.4843,33.3498],[-118.4843,33.3497],[-118.4842,33.3497],[-118.4841,33.3497],[-118.484,33.3496],[-118.4839,33.3495],[-118.4839,33.3495],[-118.4839,33.3494],[-118.4838,33.3493],[-118.4837,33.3492],[-118.4837,33.3491],[-118.4837,33.3489],[-118.4837,33.3488],[-118.4837,33.3486],[-118.4837,33.3484],[-118.4838,33.3482],[-118.4838,33.3481],[-118.4839,33.348],[-118.4839,33.3479],[-118.4839,33.3478],[-118.4838,33.3476],[-118.4838,33.3475],[-118.4836,33.3475],[-118.4834,33.3474],[-118.4833,33.3473],[-118.4831,33.3472],[-118.483,33.3471],[-118.4829,33.347],[-118.4827,33.3468],[-118.4825,33.3467],[-118.4825,33.3465],[-118.4824,33.3464],[-118.4825,33.3463],[-118.4824,33.3462],[-118.4823,33.3461],[-118.4822,33.346],[-118.4821,33.3458],[-118.4821,33.3456],[-118.482,33.3454],[-118.482,33.3452],[-118.482,33.345],[-118.4819,33.3449],[-118.4818,33.3449],[-118.4817,33.3448],[-118.4817,33.3446],[-118.4817,33.3445],[-118.4817,33.3444],[-118.4816,33.3444],[-118.4815,33.3443],[-118.4814,33.3442],[-118.4813,33.3441],[-118.4813,33.344],[-118.4814,33.3439],[-118.4815,33.3439],[-118.4815,33.3439],[-118.4816,33.3438]]]},"properties":{"id":"farnsworth-onshore-state-marine-conservation-area","name":"Farnsworth Onshore State Marine Conservation Area","type":"SMCA","shortName":"Farnsworth Onshore","areaKm2":null,"ccrCitation":null}},{"type":"Feature","geometry":{"type":"Polygon","coordinates":[[[-118.4833,33.3167],[-118.533,33.3167],[-118.5333,33.3171],[-118.5339,33.3178],[-118.5344,33.3186],[-118.5349,33.3193],[-118.5354,33.3201],[-118.5359,33.3208],[-118.5361,33.3211],[-118.5366,33.3218],[-118.5371,33.3226],[-118.5376,33.3234],[-118.5381,33.3241],[-118.5386,33.3249],[-118.539,33.3257],[-118.5395,33.3265],[-118.5399,33.3273],[-118.5403,33.3281],[-118.5407,33.3289],[-118.541,33.3298],[-118.5414,33.3306],[-118.5417,33.3314],[-118.542,33.3322],[-118.5423,33.3331],[-118.5426,33.3339],[-118.5429,33.3348],[-118.5431,33.3355],[-118.5431,33.3356],[-118.5435,33.3364],[-118.5438,33.3372],[-118.5439,33.3375],[-118.5439,33.3375],[-118.5443,33.3383],[-118.5447,33.3392],[-118.545,33.34],[-118.5454,33.3408],[-118.5457,33.3417],[-118.546,33.3425],[-118.5463,33.3433],[-118.5465,33.344],[-118.5465,33.3442],[-118.5468,33.345],[-118.547,33.3459],[-118.5473,33.3467],[-118.5475,33.3476],[-118.5475,33.3478],[-118.5476,33.3482],[-118.5478,33.349],[-118.548,33.3499],[-118.548,33.35],[-118.5333,33.35],[-118.5083,33.35],[-118.5,33.35],[-118.4833,33.3167]]]},"properties":{"id":"farnsworth-offshore-state-marine-conservation-area","name":"Farnsworth Offshore State Marine Conservation Area","type":"SMCA","shortName":"Farnsworth Offshore","areaKm2":null,"ccrCitation":null}},{"type":"Feature","geometry":{"type":"Polygon","coordinates":[[[-118.5026,33.4323],[-118.5026,33.4321],[-118.5027,33.432],[-118.5028,33.4319],[-118.5029,33.4318],[-118.503,33.4317],[-118.5031,33.4317],[-118.5033,33.4316],[-118.5034,33.4315],[-118.5034,33.4315],[-118.5036,33.4314],[-118.5037,33.4314],[-118.5038,33.4313],[-118.504,33.4313],[-118.5041,33.4312],[-118.5043,33.4311],[-118.5044,33.431],[-118.5044,33.4308],[-118.5044,33.4307],[-118.5044,33.4306],[-118.5044,33.4305],[-118.5045,33.4304],[-118.5045,33.4304],[-118.5045,33.4303],[-118.5045,33.4302],[-118.5045,33.43],[-118.5046,33.4299],[-118.5047,33.4298],[-118.5048,33.4297],[-118.5049,33.4297],[-118.505,33.4296],[-118.505,33.4296],[-118.505,33.4296],[-118.505,33.4294],[-118.505,33.4293],[-118.505,33.4293],[-118.5051,33.4292],[-118.5051,33.4292],[-118.5051,33.4292],[-118.5052,33.4291],[-118.5053,33.4291],[-118.5054,33.4291],[-118.5055,33.4291],[-118.5055,33.4292],[-118.5056,33.4293],[-118.5056,33.4295],[-118.5057,33.4295],[-118.5057,33.4296],[-118.5057,33.4298],[-118.5058,33.4299],[-118.5058,33.4299],[-118.5058,33.43],[-118.5058,33.4301],[-118.5058,33.4302],[-118.5058,33.4303],[-118.5057,33.4304],[-118.5057,33.4305],[-118.5056,33.4306],[-118.5055,33.4307],[-118.5055,33.4307],[-118.5054,33.4307],[-118.5053,33.4307],[-118.5053,33.4307],[-118.5052,33.4308],[-118.5052,33.4308],[-118.5052,33.4308],[-118.5052,33.4309],[-118.5052,33.4309],[-118.5052,33.431],[-118.5052,33.431],[-118.5052,33.431],[-118.5052,33.431],[-118.5052,33.4311],[-118.5052,33.4311],[-118.5053,33.4311],[-118.5054,33.4311],[-118.5055,33.4311],[-118.5056,33.431],[-118.5057,33.4308],[-118.5058,33.4307],[-118.5058,33.4306],[-118.5059,33.4305],[-118.5059,33.4303],[-118.5059,33.4302],[-118.5059,33.4301],[-118.5059,33.43],[-118.5059,33.4298],[-118.5058,33.4297],[-118.5058,33.4296],[-118.5057,33.4294],[-118.5057,33.4293],[-118.5057,33.4291],[-118.5057,33.429],[-118.5057,33.4289],[-118.5058,33.4287],[-118.5059,33.4286],[-118.506,33.4286],[-118.5061,33.4285],[-118.5063,33.4284],[-118.5064,33.4283],[-118.5064,33.4282],[-118.5065,33.4282],[-118.5066,33.4281],[-118.5066,33.4281],[-118.5067,33.428],[-118.5068,33.428],[-118.5069,33.4279],[-118.5068,33.4279],[-118.5068,33.4278],[-118.5067,33.4277],[-118.5066,33.4275],[-118.5065,33.4274],[-118.5065,33.4273],[-118.5064,33.4272],[-118.5064,33.4271],[-118.5063,33.427],[-118.5063,33.4268],[-118.5063,33.4267],[-118.5062,33.4267],[-118.5061,33.4266],[-118.506,33.4265],[-118.506,33.4265],[-118.506,33.4264],[-118.5059,33.4263],[-118.5057,33.4263],[-118.5056,33.4262],[-118.5056,33.4261],[-118.5056,33.4261],[-118.5055,33.426],[-118.5055,33.4259],[-118.5055,33.4258],[-118.5055,33.4257],[-118.5055,33.4256],[-118.5056,33.4256],[-118.5056,33.4255],[-118.5056,33.4254],[-118.5055,33.4253],[-118.5054,33.4253],[-118.5053,33.4252],[-118.5053,33.4252],[-118.5052,33.4251],[-118.5052,33.425],[-118.5051,33.4249],[-118.5049,33.4248],[-118.5126,33.422],[-118.5125,33.4221],[-118.5125,33.4221],[-118.5125,33.4222],[-118.5124,33.4222],[-118.5124,33.4222],[-118.5123,33.4223],[-118.5123,33.4224],[-118.5122,33.4224],[-118.5122,33.4225],[-118.5122,33.4225],[-118.5122,33.4226],[-118.5122,33.4226],[-118.5122,33.4227],[-118.5122,33.4227],[-118.5122,33.4228],[-118.5122,33.4228],[-118.5123,33.423],[-118.5124,33.4231],[-118.5125,33.4231],[-118.5126,33.4232],[-118.5127,33.4233],[-118.5127,33.4234],[-118.5126,33.4234],[-118.5126,33.4235],[-118.5127,33.4235],[-118.5127,33.4236],[-118.5127,33.4237],[-118.5127,33.4238],[-118.5127,33.4239],[-118.5127,33.424],[-118.5127,33.4241],[-118.5127,33.4242],[-118.5126,33.4242],[-118.5125,33.4243],[-118.5125,33.4243],[-118.5124,33.4242],[-118.5123,33.4242],[-118.5123,33.4243],[-118.5123,33.4244],[-118.5123,33.4244],[-118.5123,33.4244],[-118.5123,33.4245],[-118.5123,33.4246],[-118.5123,33.4247],[-118.5122,33.4247],[-118.5122,33.4247],[-118.5122,33.4247],[-118.5121,33.4247],[-118.5121,33.4247],[-118.5121,33.4248],[-118.5121,33.4248],[-118.5121,33.4248],[-118.5121,33.4248],[-118.5121,33.4249],[-118.5121,33.4249],[-118.5121,33.425],[-118.5121,33.4251],[-118.512,33.4251],[-118.512,33.4251],[-118.512,33.4251],[-118.5119,33.4251],[-118.5119,33.4251],[-118.512,33.4251],[-118.512,33.4251],[-118.512,33.4251],[-118.5121,33.4252],[-118.5122,33.4252],[-118.5122,33.4253],[-118.5123,33.4253],[-118.5123,33.4254],[-118.5124,33.4255],[-118.5124,33.4256],[-118.5124,33.4256],[-118.5124,33.4257],[-118.5124,33.4257],[-118.5124,33.4257],[-118.5124,33.4258],[-118.5124,33.4258],[-118.5124,33.4259],[-118.5123,33.4259],[-118.5123,33.426],[-118.5123,33.4261],[-118.5123,33.4261],[-118.5124,33.4261],[-118.5124,33.4262],[-118.5125,33.4263],[-118.5126,33.4264],[-118.5125,33.4265],[-118.5125,33.4265],[-118.5125,33.4266],[-118.5126,33.4268],[-118.5126,33.4269],[-118.5126,33.427],[-118.5127,33.4272],[-118.5126,33.4273],[-118.5126,33.4274],[-118.5126,33.4274],[-118.5125,33.4275],[-118.5125,33.4275],[-118.5124,33.4275],[-118.5124,33.4276],[-118.5123,33.4276],[-118.5123,33.4277],[-118.5123,33.4277],[-118.5123,33.4277],[-118.5122,33.4277],[-118.5122,33.4277],[-118.5121,33.4277],[-118.5121,33.4277],[-118.512,33.4277],[-118.512,33.4278],[-118.512,33.4278],[-118.512,33.4278],[-118.512,33.4279],[-118.5119,33.428],[-118.5119,33.428],[-118.5119,33.428],[-118.5118,33.4281],[-118.5118,33.4281],[-118.5117,33.4282],[-118.5117,33.4283],[-118.5116,33.4283],[-118.5115,33.4284],[-118.5114,33.4285],[-118.5113,33.4285],[-118.5112,33.4286],[-118.5111,33.4286],[-118.511,33.4287],[-118.511,33.4288],[-118.5109,33.4289],[-118.5108,33.4289],[-118.5107,33.4291],[-118.5106,33.4292],[-118.5106,33.4293],[-118.5106,33.4295],[-118.5105,33.4295],[-118.5104,33.4295],[-118.5104,33.4296],[-118.5103,33.4296],[-118.5103,33.4297],[-118.5102,33.4297],[-118.5101,33.4297],[-118.5101,33.4298],[-118.51,33.4298],[-118.5099,33.4299],[-118.51,33.4299],[-118.51,33.4299],[-118.5099,33.43],[-118.5099,33.43],[-118.5099,33.43],[-118.5098,33.4301],[-118.5097,33.4301],[-118.5097,33.4302],[-118.5097,33.4302],[-118.5097,33.4303],[-118.5097,33.4304],[-118.5097,33.4304],[-118.5097,33.4305],[-118.5097,33.4305],[-118.5097,33.4306],[-118.5097,33.4306],[-118.5098,33.4307],[-118.5098,33.4308],[-118.5098,33.4309],[-118.5098,33.431],[-118.5098,33.4311],[-118.5098,33.4313],[-118.5098,33.4314],[-118.5098,33.4315],[-118.5099,33.4316],[-118.5099,33.4317],[-118.5098,33.4319],[-118.5097,33.4319],[-118.5096,33.432],[-118.5095,33.4321],[-118.5094,33.4321],[-118.5092,33.4322],[-118.509,33.4322],[-118.5089,33.4323],[-118.5085,33.4322],[-118.5082,33.4322],[-118.5079,33.4322],[-118.5077,33.4322],[-118.5076,33.4322],[-118.5075,33.4322],[-118.5075,33.4322],[-118.5075,33.4322],[-118.5074,33.4322],[-118.5073,33.4322],[-118.5072,33.4322],[-118.5071,33.4322],[-118.5069,33.4322],[-118.5068,33.4322],[-118.5067,33.4322],[-118.5067,33.4322],[-118.5066,33.4323],[-118.5066,33.4323],[-118.5065,33.4324],[-118.5065,33.4324],[-118.5064,33.4324],[-118.5064,33.4325],[-118.5063,33.4325],[-118.5063,33.4325],[-118.5064,33.4326],[-118.5063,33.4326],[-118.5064,33.4326],[-118.5064,33.4327],[-118.5064,33.4327],[-118.5063,33.4328],[-118.5063,33.4328],[-118.5062,33.4329],[-118.5061,33.433],[-118.5061,33.4331],[-118.506,33.4332],[-118.5059,33.4332],[-118.5059,33.4333],[-118.5058,33.4334],[-118.5057,33.4335],[-118.5056,33.4335],[-118.5056,33.4336],[-118.5055,33.4337],[-118.5054,33.4338],[-118.5054,33.4339],[-118.5053,33.434],[-118.5053,33.4341],[-118.5052,33.4342],[-118.5051,33.4343],[-118.505,33.4344],[-118.5049,33.4345],[-118.5049,33.4345],[-118.5048,33.4345],[-118.5047,33.4345],[-118.5046,33.4345],[-118.5045,33.4345],[-118.5044,33.4345],[-118.5042,33.4346],[-118.5041,33.4347],[-118.504,33.4348],[-118.5038,33.4348],[-118.5037,33.4349],[-118.5035,33.4349],[-118.5034,33.435],[-118.5032,33.435],[-118.5032,33.435],[-118.503,33.4351],[-118.5029,33.4351],[-118.5028,33.4352],[-118.5028,33.4353],[-118.5026,33.4353],[-118.5026,33.4353],[-118.5025,33.4354],[-118.5025,33.4355],[-118.5025,33.4355],[-118.5025,33.4356],[-118.5024,33.4356],[-118.5024,33.4357],[-118.5023,33.4358],[-118.5023,33.4359],[-118.5022,33.436],[-118.5022,33.4361],[-118.5021,33.4361],[-118.502,33.4362],[-118.5019,33.4362],[-118.5018,33.4362],[-118.5018,33.4362],[-118.5016,33.4361],[-118.5015,33.4361],[-118.5014,33.4361],[-118.5013,33.436],[-118.5012,33.436],[-118.501,33.4359],[-118.501,33.4358],[-118.501,33.4357],[-118.501,33.4356],[-118.501,33.4354],[-118.5011,33.4353],[-118.5011,33.4352],[-118.5012,33.4351],[-118.5014,33.435],[-118.5015,33.4348],[-118.5016,33.4347],[-118.5016,33.4346],[-118.5017,33.4345],[-118.5018,33.4344],[-118.5018,33.4343],[-118.5019,33.4343],[-118.502,33.4343],[-118.5021,33.4341],[-118.5022,33.4341],[-118.5022,33.434],[-118.5022,33.4339],[-118.5023,33.4338],[-118.5024,33.4337],[-118.5024,33.4337],[-118.5025,33.4335],[-118.5026,33.4334],[-118.5026,33.4333],[-118.5027,33.4332],[-118.5027,33.4331],[-118.5027,33.433],[-118.5027,33.4328],[-118.5027,33.4327],[-118.5026,33.4326],[-118.5026,33.4324],[-118.5026,33.4323]]]},"properties":{"id":"cat-harbor-state-marine-conservation-area","name":"Cat Harbor State Marine Conservation Area","type":"SMCA","shortName":"Cat Harbor","areaKm2":null,"ccrCitation":null}}]}