{"type":"FeatureCollection","features":[{"type":"Feature","geometry":{"type":"Point","coordinates":[-118.62264,33.53314]},"properties":{"depth_ft":1526,"depth_m":465.0}},{"type":"Feature","geometry":{"type":"Point","coordinates":[-118.60763,33.53314]},"properties":{"depth_ft":1582,"depth_m":482.1}},{"type":"Feature","geometry":{"type":"Point","coordinates":[-118.59261,33.53314]},"properties":{"depth_ft":1697,"depth_m":517.4}},{"type":"Feature","geometry":{"type":"Point","coordinates":[-118.5776,33.53314]},"properties":{"depth_ft":1922,"depth_m":585.7}},{"type":"Feature","geometry":{"type":"Point","coordinates":[-118.56259,33.53314]},"properties":{"depth_ft":2120,"depth_m":646.1}},{"type":"Feature","geometry":{"type":"Point","coordinates":[-118.54758,33.53314]},"properties":{"depth_ft":2444,"depth_m":745.0}},{"type":"Feature","geometry":{"type":"Point","coordinates":[-118.53257,33.53314]},"properties":{"depth_ft":2641,"depth_m":805.0}},{"type":"Feature","geometry":{"type":"Point","coordinates":[-118.51755,33.53314]},"properties":{"depth_ft":2833,"depth_m":863.4}},{"type":"Feature","geometry":{"type":"Point","coordinates":[-118.50254,33.53314]},"properties":{"depth_ft":2924,"depth_m":891.2}},{"type":"Feature","geometry":{"type":"Point","coordinates":[-118.48753,33.53314]},"properties":{"depth_ft":2919,"depth_m":889.8}},{"type":"Feature","geometry":{"type":"Point","coordinates":[-118.47252,33.53314]},"properties":{"depth_ft":2947,"depth_m":898.2}},{"type":"Feature","geometry":{"type":"Point","coordinates":[-118.45751,33.53314]},"properties":{"depth_ft":2919,"depth_m":889.8}},{"type":"Feature","geometry":{"type":"Point","coordinates":[-118.44249,33.53314]},"properties":{"depth_ft":2924,"depth_m":891.3}},{"type":"Feature","geometry":{"type":"Point","coordinates":[-118.42748,33.53314]},"properties":{"depth_ft":2932,"depth_m":893.6}},{"type":"Feature","geometry":{"type":"Point","coordinates":[-118.41247,33.53314]},"properties":{"depth_ft":2960,"depth_m":902.3}},{"type":"Feature","geometry":{"type":"Point","coordinates":[-118.39746,33.53314]},"properties":{"depth_ft":2941,"depth_m":896.4}},{"type":"Feature","geometry":{"type":"Point","coordinates":[-118.38245,33.53314]},"properties":{"depth_ft":2938,"depth_m":895.6}},{"type":"Feature","geometry":{"type":"Point","coordinates":[-118.36743,33.53314]},"properties":{"depth_ft":2934,"depth_m":894.4}},{"type":"Feature","geometry":{"type":"Point","coordinates":[-118.35242,33.53314]},"properties":{"depth_ft":2987,"depth_m":910.5}},{"type":"Feature","geometry":{"type":"Point","coordinates":[-118.33741,33.53314]},"properties":{"depth_ft":2958,"depth_m":901.7}},{"type":"Feature","geometry":{"type":"Point","coordinates":[-118.3224,33.53314]},"properties":{"depth_ft":2865,"depth_m":873.4}},{"type":"Feature","geometry":{"type":"Point","coordinates":[-118.30739,33.53314]},"properties":{"depth_ft":2838,"depth_m":865.0}},{"type":"Feature","geometry":{"type":"Point","coordinates":[-118.29237,33.53314]},"properties":{"depth_ft":2754,"depth_m":839.4}},{"type":"Feature","geometry":{"type":"Point","coordinates":[-118.27736,33.53314]},"properties":{"depth_ft":2649,"depth_m":807.3}},{"type":"Feature","geometry":{"type":"Point","coordinates":[-118.62264,33.52061]},"properties":{"depth_ft":1297,"depth_m":395.2}},{"type":"Feature","geometry":{"type":"Point","coordinates":[-118.60763,33.52061]},"properties":{"depth_ft":1312,"depth_m":399.9}},{"type":"Feature","geometry":{"type":"Point","coordinates":[-118.59261,33.52061]},"properties":{"depth_ft":1322,"depth_m":402.9}},{"type":"Feature","geometry":{"type":"Point","coordinates":[-118.5776,33.52061]},"properties":{"depth_ft":1398,"depth_m":426.2}},{"type":"Feature","geometry":{"type":"Point","coordinates":[-118.56259,33.52061]},"properties":{"depth_ft":1626,"depth_m":495.7}},{"type":"Feature","geometry":{"type":"Point","coordinates":[-118.54758,33.52061]},"properties":{"depth_ft":1717,"depth_m":523.3}},{"type":"Feature","geometry":{"type":"Point","coordinates":[-118.53257,33.52061]},"properties":{"depth_ft":1866,"depth_m":568.8}},{"type":"Feature","geometry":{"type":"Point","coordinates":[-118.51755,33.52061]},"properties":{"depth_ft":2185,"depth_m":666.0}},{"type":"Feature","geometry":{"type":"Point","coordinates":[-118.50254,33.52061]},"properties":{"depth_ft":2714,"depth_m":827.2}},{"type":"Feature","geometry":{"type":"Point","coordinates":[-118.48753,33.52061]},"properties":{"depth_ft":2934,"depth_m":894.3}},{"type":"Feature","geometry":{"type":"Point","coordinates":[-118.47252,33.52061]},"properties":{"depth_ft":2936,"depth_m":894.9}},{"type":"Feature","geometry":{"type":"Point","coordinates":[-118.45751,33.52061]},"properties":{"depth_ft":2953,"depth_m":899.9}},{"type":"Feature","geometry":{"type":"Point","coordinates":[-118.44249,33.52061]},"properties":{"depth_ft":2940,"depth_m":896.0}},{"type":"Feature","geometry":{"type":"Point","coordinates":[-118.42748,33.52061]},"properties":{"depth_ft":2933,"depth_m":893.9}},{"type":"Feature","geometry":{"type":"Point","coordinates":[-118.41247,33.52061]},"properties":{"depth_ft":2941,"depth_m":896.4}},{"type":"Feature","geometry":{"type":"Point","coordinates":[-118.39746,33.52061]},"properties":{"depth_ft":2969,"depth_m":905.1}},{"type":"Feature","geometry":{"type":"Point","coordinates":[-118.38245,33.52061]},"properties":{"depth_ft":2943,"depth_m":897.0}},{"type":"Feature","geometry":{"type":"Point","coordinates":[-118.36743,33.52061]},"properties":{"depth_ft":2943,"depth_m":897.1}},{"type":"Feature","geometry":{"type":"Point","coordinates":[-118.35242,33.52061]},"properties":{"depth_ft":2921,"depth_m":890.3}},{"type":"Feature","geometry":{"type":"Point","coordinates":[-118.33741,33.52061]},"properties":{"depth_ft":2936,"depth_m":894.9}},{"type":"Feature","geometry":{"type":"Point","coordinates":[-118.3224,33.52061]},"properties":{"depth_ft":2956,"depth_m":900.9}},{"type":"Feature","geometry":{"type":"Point","coordinates":[-118.30739,33.52061]},"properties":{"depth_ft":2839,"depth_m":865.4}},{"type":"Feature","geometry":{"type":"Point","coordinates":[-118.29237,33.52061]},"properties":{"depth_ft":2797,"depth_m":852.6}},{"type":"Feature","geometry":{"type":"Point","coordinates":[-118.27736,33.52061]},"properties":{"depth_ft":2560,"depth_m":780.4}},{"type":"Feature","geometry":{"type":"Point","coordinates":[-118.62264,33.50808]},"properties":{"depth_ft":960,"depth_m":292.6}},{"type":"Feature","geometry":{"type":"Point","coordinates":[-118.60763,33.50808]},"properties":{"depth_ft":878,"depth_m":267.5}},{"type":"Feature","geometry":{"type":"Point","coordinates":[-118.59261,33.50808]},"properties":{"depth_ft":873,"depth_m":266.1}},{"type":"Feature","geometry":{"type":"Point","coordinates":[-118.5776,33.50808]},"properties":{"depth_ft":887,"depth_m":270.2}},{"type":"Feature","geometry":{"type":"Point","coordinates":[-118.56259,33.50808]},"properties":{"depth_ft":983,"depth_m":299.5}},{"type":"Feature","geometry":{"type":"Point","coordinates":[-118.54758,33.50808]},"properties":{"depth_ft":1077,"depth_m":328.4}},{"type":"Feature","geometry":{"type":"Point","coordinates":[-118.53257,33.50808]},"properties":{"depth_ft":1163,"depth_m":354.6}},{"type":"Feature","geometry":{"type":"Point","coordinates":[-118.51755,33.50808]},"properties":{"depth_ft":1476,"depth_m":450.0}},{"type":"Feature","geometry":{"type":"Point","coordinates":[-118.50254,33.50808]},"properties":{"depth_ft":2006,"depth_m":611.6}},{"type":"Feature","geometry":{"type":"Point","coordinates":[-118.48753,33.50808]},"properties":{"depth_ft":2475,"depth_m":754.3}},{"type":"Feature","geometry":{"type":"Point","coordinates":[-118.47252,33.50808]},"properties":{"depth_ft":2765,"depth_m":842.7}},{"type":"Feature","geometry":{"type":"Point","coordinates":[-118.45751,33.50808]},"properties":{"depth_ft":2942,"depth_m":896.8}},{"type":"Feature","geometry":{"type":"Point","coordinates":[-118.44249,33.50808]},"properties":{"depth_ft":2962,"depth_m":902.8}},{"type":"Feature","geometry":{"type":"Point","coordinates":[-118.42748,33.50808]},"properties":{"depth_ft":2947,"depth_m":898.2}},{"type":"Feature","geometry":{"type":"Point","coordinates":[-118.41247,33.50808]},"properties":{"depth_ft":2936,"depth_m":894.8}},{"type":"Feature","geometry":{"type":"Point","coordinates":[-118.39746,33.50808]},"properties":{"depth_ft":2943,"depth_m":897.1}},{"type":"Feature","geometry":{"type":"Point","coordinates":[-118.38245,33.50808]},"properties":{"depth_ft":2955,"depth_m":900.7}},{"type":"Feature","geometry":{"type":"Point","coordinates":[-118.36743,33.50808]},"properties":{"depth_ft":2949,"depth_m":898.9}},{"type":"Feature","geometry":{"type":"Point","coordinates":[-118.35242,33.50808]},"properties":{"depth_ft":2945,"depth_m":897.6}},{"type":"Feature","geometry":{"type":"Point","coordinates":[-118.33741,33.50808]},"properties":{"depth_ft":2854,"depth_m":870.0}},{"type":"Feature","geometry":{"type":"Point","coordinates":[-118.3224,33.50808]},"properties":{"depth_ft":2868,"depth_m":874.2}},{"type":"Feature","geometry":{"type":"Point","coordinates":[-118.30739,33.50808]},"properties":{"depth_ft":2878,"depth_m":877.3}},{"type":"Feature","geometry":{"type":"Point","coordinates":[-118.29237,33.50808]},"properties":{"depth_ft":2790,"depth_m":850.3}},{"type":"Feature","geometry":{"type":"Point","coordinates":[-118.27736,33.50808]},"properties":{"depth_ft":2708,"depth_m":825.3}},{"type":"Feature","geometry":{"type":"Point","coordinates":[-118.62264,33.49554]},"properties":{"depth_ft":790,"depth_m":240.8}},{"type":"Feature","geometry":{"type":"Point","coordinates":[-118.60763,33.49554]},"properties":{"depth_ft":700,"depth_m":213.5}},{"type":"Feature","geometry":{"type":"Point","coordinates":[-118.59261,33.49554]},"properties":{"depth_ft":669,"depth_m":203.9}},{"type":"Feature","geometry":{"type":"Point","coordinates":[-118.5776,33.49554]},"properties":{"depth_ft":778,"depth_m":237.0}},{"type":"Feature","geometry":{"type":"Point","coordinates":[-118.56259,33.49554]},"properties":{"depth_ft":815,"depth_m":248.6}},{"type":"Feature","geometry":{"type":"Point","coordinates":[-118.54758,33.49554]},"properties":{"depth_ft":839,"depth_m":255.8}},{"type":"Feature","geometry":{"type":"Point","coordinates":[-118.53257,33.49554]},"properties":{"depth_ft":845,"depth_m":257.7}},{"type":"Feature","geometry":{"type":"Point","coordinates":[-118.51755,33.49554]},"properties":{"depth_ft":907,"depth_m":276.6}},{"type":"Feature","geometry":{"type":"Point","coordinates":[-118.50254,33.49554]},"properties":{"depth_ft":1042,"depth_m":317.5}},{"type":"Feature","geometry":{"type":"Point","coordinates":[-118.48753,33.49554]},"properties":{"depth_ft":1621,"depth_m":494.2}},{"type":"Feature","geometry":{"type":"Point","coordinates":[-118.47252,33.49554]},"properties":{"depth_ft":2097,"depth_m":639.1}},{"type":"Feature","geometry":{"type":"Point","coordinates":[-118.45751,33.49554]},"properties":{"depth_ft":2422,"depth_m":738.1}},{"type":"Feature","geometry":{"type":"Point","coordinates":[-118.44249,33.49554]},"properties":{"depth_ft":2856,"depth_m":870.6}},{"type":"Feature","geometry":{"type":"Point","coordinates":[-118.42748,33.49554]},"properties":{"depth_ft":2965,"depth_m":903.8}},{"type":"Feature","geometry":{"type":"Point","coordinates":[-118.41247,33.49554]},"properties":{"depth_ft":2936,"depth_m":894.8}},{"type":"Feature","geometry":{"type":"Point","coordinates":[-118.39746,33.49554]},"properties":{"depth_ft":2934,"depth_m":894.2}},{"type":"Feature","geometry":{"type":"Point","coordinates":[-118.38245,33.49554]},"properties":{"depth_ft":2951,"depth_m":899.5}},{"type":"Feature","geometry":{"type":"Point","coordinates":[-118.36743,33.49554]},"properties":{"depth_ft":2934,"depth_m":894.3}},{"type":"Feature","geometry":{"type":"Point","coordinates":[-118.35242,33.49554]},"properties":{"depth_ft":2936,"depth_m":894.9}},{"type":"Feature","geometry":{"type":"Point","coordinates":[-118.33741,33.49554]},"properties":{"depth_ft":2925,"depth_m":891.5}},{"type":"Feature","geometry":{"type":"Point","coordinates":[-118.3224,33.49554]},"properties":{"depth_ft":2862,"depth_m":872.4}},{"type":"Feature","geometry":{"type":"Point","coordinates":[-118.30739,33.49554]},"properties":{"depth_ft":2822,"depth_m":860.2}},{"type":"Feature","geometry":{"type":"Point","coordinates":[-118.29237,33.49554]},"properties":{"depth_ft":2804,"depth_m":854.7}},{"type":"Feature","geometry":{"type":"Point","coordinates":[-118.27736,33.49554]},"properties":{"depth_ft":2707,"depth_m":825.0}},{"type":"Feature","geometry":{"type":"Point","coordinates":[-118.62264,33.48301]},"properties":{"depth_ft":598,"depth_m":182.2}},{"type":"Feature","geometry":{"type":"Point","coordinates":[-118.60763,33.48301]},"properties":{"depth_ft":334,"depth_m":101.9}},{"type":"Feature","geometry":{"type":"Point","coordinates":[-118.59261,33.48301]},"properties":{"depth_ft":296,"depth_m":90.2}},{"type":"Feature","geometry":{"type":"Point","coordinates":[-118.5776,33.48301]},"properties":{"depth_ft":313,"depth_m":95.3}},{"type":"Feature","geometry":{"type":"Point","coordinates":[-118.56259,33.48301]},"properties":{"depth_ft":297,"depth_m":90.4}},{"type":"Feature","geometry":{"type":"Point","coordinates":[-118.54758,33.48301]},"properties":{"depth_ft":294,"depth_m":89.6}},{"type":"Feature","geometry":{"type":"Point","coordinates":[-118.53257,33.48301]},"properties":{"depth_ft":523,"depth_m":159.3}},{"type":"Feature","geometry":{"type":"Point","coordinates":[-118.51755,33.48301]},"properties":{"depth_ft":401,"depth_m":122.1}},{"type":"Feature","geometry":{"type":"Point","coordinates":[-118.50254,33.48301]},"properties":{"depth_ft":752,"depth_m":229.1}},{"type":"Feature","geometry":{"type":"Point","coordinates":[-118.48753,33.48301]},"properties":{"depth_ft":965,"depth_m":294.2}},{"type":"Feature","geometry":{"type":"Point","coordinates":[-118.47252,33.48301]},"properties":{"depth_ft":1492,"depth_m":454.7}},{"type":"Feature","geometry":{"type":"Point","coordinates":[-118.45751,33.48301]},"properties":{"depth_ft":1790,"depth_m":545.7}},{"type":"Feature","geometry":{"type":"Point","coordinates":[-118.44249,33.48301]},"properties":{"depth_ft":2172,"depth_m":662.2}},{"type":"Feature","geometry":{"type":"Point","coordinates":[-118.42748,33.48301]},"properties":{"depth_ft":2593,"depth_m":790.4}},{"type":"Feature","geometry":{"type":"Point","coordinates":[-118.41247,33.48301]},"properties":{"depth_ft":2939,"depth_m":895.8}},{"type":"Feature","geometry":{"type":"Point","coordinates":[-118.39746,33.48301]},"properties":{"depth_ft":2940,"depth_m":896.2}},{"type":"Feature","geometry":{"type":"Point","coordinates":[-118.38245,33.48301]},"properties":{"depth_ft":2939,"depth_m":895.9}},{"type":"Feature","geometry":{"type":"Point","coordinates":[-118.36743,33.48301]},"properties":{"depth_ft":2948,"depth_m":898.6}},{"type":"Feature","geometry":{"type":"Point","coordinates":[-118.35242,33.48301]},"properties":{"depth_ft":2933,"depth_m":894.0}},{"type":"Feature","geometry":{"type":"Point","coordinates":[-118.33741,33.48301]},"properties":{"depth_ft":2930,"depth_m":893.0}},{"type":"Feature","geometry":{"type":"Point","coordinates":[-118.3224,33.48301]},"properties":{"depth_ft":2874,"depth_m":876.1}},{"type":"Feature","geometry":{"type":"Point","coordinates":[-118.30739,33.48301]},"properties":{"depth_ft":2797,"depth_m":852.4}},{"type":"Feature","geometry":{"type":"Point","coordinates":[-118.29237,33.48301]},"properties":{"depth_ft":2796,"depth_m":852.1}},{"type":"Feature","geometry":{"type":"Point","coordinates":[-118.27736,33.48301]},"properties":{"depth_ft":2804,"depth_m":854.6}},{"type":"Feature","geometry":{"type":"Point","coordinates":[-118.62264,33.47047]},"properties":{"depth_ft":315,"depth_m":96.0}},{"type":"Feature","geometry":{"type":"Point","coordinates":[-118.60763,33.47047]},"properties":{"depth_ft":104,"depth_m":31.7}},{"type":"Feature","geometry":{"type":"Point","coordinates":[-118.51755,33.47047]},"properties":{"depth_ft":259,"depth_m":79.0}},{"type":"Feature","geometry":{"type":"Point","coordinates":[-118.50254,33.47047]},"properties":{"depth_ft":456,"depth_m":139.1}},{"type":"Feature","geometry":{"type":"Point","coordinates":[-118.48753,33.47047]},"properties":{"depth_ft":682,"depth_m":207.7}},{"type":"Feature","geometry":{"type":"Point","coordinates":[-118.47252,33.47047]},"properties":{"depth_ft":891,"depth_m":271.7}},{"type":"Feature","geometry":{"type":"Point","coordinates":[-118.45751,33.47047]},"properties":{"depth_ft":1258,"depth_m":383.5}},{"type":"Feature","geometry":{"type":"Point","coordinates":[-118.44249,33.47047]},"properties":{"depth_ft":1513,"depth_m":461.2}},{"type":"Feature","geometry":{"type":"Point","coordinates":[-118.42748,33.47047]},"properties":{"depth_ft":1901,"depth_m":579.3}},{"type":"Feature","geometry":{"type":"Point","coordinates":[-118.41247,33.47047]},"properties":{"depth_ft":2093,"depth_m":638.0}},{"type":"Feature","geometry":{"type":"Point","coordinates":[-118.39746,33.47047]},"properties":{"depth_ft":2315,"depth_m":705.6}},{"type":"Feature","geometry":{"type":"Point","coordinates":[-118.38245,33.47047]},"properties":{"depth_ft":2661,"depth_m":811.2}},{"type":"Feature","geometry":{"type":"Point","coordinates":[-118.36743,33.47047]},"properties":{"depth_ft":2943,"depth_m":897.0}},{"type":"Feature","geometry":{"type":"Point","coordinates":[-118.35242,33.47047]},"properties":{"depth_ft":2943,"depth_m":897.1}},{"type":"Feature","geometry":{"type":"Point","coordinates":[-118.33741,33.47047]},"properties":{"depth_ft":2931,"depth_m":893.5}},{"type":"Feature","geometry":{"type":"Point","coordinates":[-118.3224,33.47047]},"properties":{"depth_ft":2896,"depth_m":882.7}},{"type":"Feature","geometry":{"type":"Point","coordinates":[-118.30739,33.47047]},"properties":{"depth_ft":2856,"depth_m":870.5}},{"type":"Feature","geometry":{"type":"Point","coordinates":[-118.29237,33.47047]},"properties":{"depth_ft":2781,"depth_m":847.6}},{"type":"Feature","geometry":{"type":"Point","coordinates":[-118.27736,33.47047]},"properties":{"depth_ft":2747,"depth_m":837.3}},{"type":"Feature","geometry":{"type":"Point","coordinates":[-118.62264,33.45794]},"properties":{"depth_ft":335,"depth_m":102.3}},{"type":"Feature","geometry":{"type":"Point","coordinates":[-118.60763,33.45794]},"properties":{"depth_ft":305,"depth_m":92.9}},{"type":"Feature","geometry":{"type":"Point","coordinates":[-118.59261,33.45794]},"properties":{"depth_ft":84,"depth_m":25.7}},{"type":"Feature","geometry":{"type":"Point","coordinates":[-118.50254,33.45794]},"properties":{"depth_ft":218,"depth_m":66.4}},{"type":"Feature","geometry":{"type":"Point","coordinates":[-118.48753,33.45794]},"properties":{"depth_ft":258,"depth_m":78.6}},{"type":"Feature","geometry":{"type":"Point","coordinates":[-118.47252,33.45794]},"properties":{"depth_ft":712,"depth_m":217.1}},{"type":"Feature","geometry":{"type":"Point","coordinates":[-118.45751,33.45794]},"properties":{"depth_ft":829,"depth_m":252.7}},{"type":"Feature","geometry":{"type":"Point","coordinates":[-118.44249,33.45794]},"properties":{"depth_ft":987,"depth_m":300.9}},{"type":"Feature","geometry":{"type":"Point","coordinates":[-118.42748,33.45794]},"properties":{"depth_ft":1169,"depth_m":356.4}},{"type":"Feature","geometry":{"type":"Point","coordinates":[-118.41247,33.45794]},"properties":{"depth_ft":1348,"depth_m":410.8}},{"type":"Feature","geometry":{"type":"Point","coordinates":[-118.39746,33.45794]},"properties":{"depth_ft":1563,"depth_m":476.4}},{"type":"Feature","geometry":{"type":"Point","coordinates":[-118.38245,33.45794]},"properties":{"depth_ft":1830,"depth_m":557.9}},{"type":"Feature","geometry":{"type":"Point","coordinates":[-118.36743,33.45794]},"properties":{"depth_ft":2236,"depth_m":681.7}},{"type":"Feature","geometry":{"type":"Point","coordinates":[-118.35242,33.45794]},"properties":{"depth_ft":2909,"depth_m":886.8}},{"type":"Feature","geometry":{"type":"Point","coordinates":[-118.33741,33.45794]},"properties":{"depth_ft":2917,"depth_m":889.0}},{"type":"Feature","geometry":{"type":"Point","coordinates":[-118.3224,33.45794]},"properties":{"depth_ft":2895,"depth_m":882.4}},{"type":"Feature","geometry":{"type":"Point","coordinates":[-118.30739,33.45794]},"properties":{"depth_ft":2874,"depth_m":876.1}},{"type":"Feature","geometry":{"type":"Point","coordinates":[-118.29237,33.45794]},"properties":{"depth_ft":2815,"depth_m":858.1}},{"type":"Feature","geometry":{"type":"Point","coordinates":[-118.27736,33.45794]},"properties":{"depth_ft":2756,"depth_m":840.1}},{"type":"Feature","geometry":{"type":"Point","coordinates":[-118.62264,33.4454]},"properties":{"depth_ft":800,"depth_m":243.9}},{"type":"Feature","geometry":{"type":"Point","coordinates":[-118.60763,33.4454]},"properties":{"depth_ft":526,"depth_m":160.4}},{"type":"Feature","geometry":{"type":"Point","coordinates":[-118.59261,33.4454]},"properties":{"depth_ft":306,"depth_m":93.4}},{"type":"Feature","geometry":{"type":"Point","coordinates":[-118.5776,33.4454]},"properties":{"depth_ft":167,"depth_m":50.8}},{"type":"Feature","geometry":{"type":"Point","coordinates":[-118.48753,33.4454]},"properties":{"depth_ft":50,"depth_m":15.4}},{"type":"Feature","geometry":{"type":"Point","coordinates":[-118.47252,33.4454]},"properties":{"depth_ft":249,"depth_m":75.9}},{"type":"Feature","geometry":{"type":"Point","coordinates":[-118.45751,33.4454]},"properties":{"depth_ft":400,"depth_m":122.0}},{"type":"Feature","geometry":{"type":"Point","coordinates":[-118.44249,33.4454]},"properties":{"depth_ft":562,"depth_m":171.3}},{"type":"Feature","geometry":{"type":"Point","coordinates":[-118.42748,33.4454]},"properties":{"depth_ft":721,"depth_m":219.7}},{"type":"Feature","geometry":{"type":"Point","coordinates":[-118.41247,33.4454]},"properties":{"depth_ft":800,"depth_m":243.9}},{"type":"Feature","geometry":{"type":"Point","coordinates":[-118.39746,33.4454]},"properties":{"depth_ft":977,"depth_m":297.9}},{"type":"Feature","geometry":{"type":"Point","coordinates":[-118.38245,33.4454]},"properties":{"depth_ft":1258,"depth_m":383.4}},{"type":"Feature","geometry":{"type":"Point","coordinates":[-118.36743,33.4454]},"properties":{"depth_ft":1548,"depth_m":471.9}},{"type":"Feature","geometry":{"type":"Point","coordinates":[-118.35242,33.4454]},"properties":{"depth_ft":1930,"depth_m":588.4}},{"type":"Feature","geometry":{"type":"Point","coordinates":[-118.33741,33.4454]},"properties":{"depth_ft":2636,"depth_m":803.5}},{"type":"Feature","geometry":{"type":"Point","coordinates":[-118.3224,33.4454]},"properties":{"depth_ft":2887,"depth_m":880.0}},{"type":"Feature","geometry":{"type":"Point","coordinates":[-118.30739,33.4454]},"properties":{"depth_ft":2876,"depth_m":876.5}},{"type":"Feature","geometry":{"type":"Point","coordinates":[-118.29237,33.4454]},"properties":{"depth_ft":2800,"depth_m":853.4}},{"type":"Feature","geometry":{"type":"Point","coordinates":[-118.27736,33.4454]},"properties":{"depth_ft":2743,"depth_m":836.1}},{"type":"Feature","geometry":{"type":"Point","coordinates":[-118.62264,33.43287]},"properties":{"depth_ft":2096,"depth_m":638.8}},{"type":"Feature","geometry":{"type":"Point","coordinates":[-118.60763,33.43287]},"properties":{"depth_ft":1459,"depth_m":444.7}},{"type":"Feature","geometry":{"type":"Point","coordinates":[-118.59261,33.43287]},"properties":{"depth_ft":510,"depth_m":155.4}},{"type":"Feature","geometry":{"type":"Point","coordinates":[-118.5776,33.43287]},"properties":{"depth_ft":303,"depth_m":92.5}},{"type":"Feature","geometry":{"type":"Point","coordinates":[-118.56259,33.43287]},"properties":{"depth_ft":112,"depth_m":34.2}},{"type":"Feature","geometry":{"type":"Point","coordinates":[-118.54758,33.43287]},"properties":{"depth_ft":164,"depth_m":50.1}},{"type":"Feature","geometry":{"type":"Point","coordinates":[-118.44249,33.43287]},"properties":{"depth_ft":152,"depth_m":46.4}},{"type":"Feature","geometry":{"type":"Point","coordinates":[-118.42748,33.43287]},"properties":{"depth_ft":239,"depth_m":72.9}},{"type":"Feature","geometry":{"type":"Point","coordinates":[-118.41247,33.43287]},"properties":{"depth_ft":295,"depth_m":89.8}},{"type":"Feature","geometry":{"type":"Point","coordinates":[-118.39746,33.43287]},"properties":{"depth_ft":678,"depth_m":206.6}},{"type":"Feature","geometry":{"type":"Point","coordinates":[-118.38245,33.43287]},"properties":{"depth_ft":792,"depth_m":241.3}},{"type":"Feature","geometry":{"type":"Point","coordinates":[-118.36743,33.43287]},"properties":{"depth_ft":959,"depth_m":292.2}},{"type":"Feature","geometry":{"type":"Point","coordinates":[-118.35242,33.43287]},"properties":{"depth_ft":1426,"depth_m":434.8}},{"type":"Feature","geometry":{"type":"Point","coordinates":[-118.33741,33.43287]},"properties":{"depth_ft":1581,"depth_m":481.9}},{"type":"Feature","geometry":{"type":"Point","coordinates":[-118.3224,33.43287]},"properties":{"depth_ft":2234,"depth_m":681.1}},{"type":"Feature","geometry":{"type":"Point","coordinates":[-118.30739,33.43287]},"properties":{"depth_ft":2737,"depth_m":834.1}},{"type":"Feature","geometry":{"type":"Point","coordinates":[-118.29237,33.43287]},"properties":{"depth_ft":2765,"depth_m":842.7}},{"type":"Feature","geometry":{"type":"Point","coordinates":[-118.27736,33.43287]},"properties":{"depth_ft":2722,"depth_m":829.6}},{"type":"Feature","geometry":{"type":"Point","coordinates":[-118.62264,33.42034]},"properties":{"depth_ft":2441,"depth_m":744.1}},{"type":"Feature","geometry":{"type":"Point","coordinates":[-118.60763,33.42034]},"properties":{"depth_ft":2153,"depth_m":656.1}},{"type":"Feature","geometry":{"type":"Point","coordinates":[-118.59261,33.42034]},"properties":{"depth_ft":1580,"depth_m":481.7}},{"type":"Feature","geometry":{"type":"Point","coordinates":[-118.5776,33.42034]},"properties":{"depth_ft":1126,"depth_m":343.1}},{"type":"Feature","geometry":{"type":"Point","coordinates":[-118.56259,33.42034]},"properties":{"depth_ft":432,"depth_m":131.6}},{"type":"Feature","geometry":{"type":"Point","coordinates":[-118.54758,33.42034]},"properties":{"depth_ft":330,"depth_m":100.5}},{"type":"Feature","geometry":{"type":"Point","coordinates":[-118.53257,33.42034]},"properties":{"depth_ft":297,"depth_m":90.5}},{"type":"Feature","geometry":{"type":"Point","coordinates":[-118.51755,33.42034]},"properties":{"depth_ft":254,"depth_m":77.4}},{"type":"Feature","geometry":{"type":"Point","coordinates":[-118.50254,33.42034]},"properties":{"depth_ft":80,"depth_m":24.5}},{"type":"Feature","geometry":{"type":"Point","coordinates":[-118.39746,33.42034]},"properties":{"depth_ft":224,"depth_m":68.3}},{"type":"Feature","geometry":{"type":"Point","coordinates":[-118.38245,33.42034]},"properties":{"depth_ft":306,"depth_m":93.4}},{"type":"Feature","geometry":{"type":"Point","coordinates":[-118.36743,33.42034]},"properties":{"depth_ft":664,"depth_m":202.3}},{"type":"Feature","geometry":{"type":"Point","coordinates":[-118.35242,33.42034]},"properties":{"depth_ft":785,"depth_m":239.4}},{"type":"Feature","geometry":{"type":"Point","coordinates":[-118.33741,33.42034]},"properties":{"depth_ft":1166,"depth_m":355.5}},{"type":"Feature","geometry":{"type":"Point","coordinates":[-118.3224,33.42034]},"properties":{"depth_ft":1475,"depth_m":449.6}},{"type":"Feature","geometry":{"type":"Point","coordinates":[-118.30739,33.42034]},"properties":{"depth_ft":1857,"depth_m":566.0}},{"type":"Feature","geometry":{"type":"Point","coordinates":[-118.29237,33.42034]},"properties":{"depth_ft":2602,"depth_m":793.0}},{"type":"Feature","geometry":{"type":"Point","coordinates":[-118.27736,33.42034]},"properties":{"depth_ft":2760,"depth_m":841.4}},{"type":"Feature","geometry":{"type":"Point","coordinates":[-118.62264,33.4078]},"properties":{"depth_ft":2557,"depth_m":779.4}},{"type":"Feature","geometry":{"type":"Point","coordinates":[-118.60763,33.4078]},"properties":{"depth_ft":2281,"depth_m":695.4}},{"type":"Feature","geometry":{"type":"Point","coordinates":[-118.59261,33.4078]},"properties":{"depth_ft":1993,"depth_m":607.6}},{"type":"Feature","geometry":{"type":"Point","coordinates":[-118.5776,33.4078]},"properties":{"depth_ft":1650,"depth_m":502.8}},{"type":"Feature","geometry":{"type":"Point","coordinates":[-118.56259,33.4078]},"properties":{"depth_ft":1334,"depth_m":406.5}},{"type":"Feature","geometry":{"type":"Point","coordinates":[-118.54758,33.4078]},"properties":{"depth_ft":1083,"depth_m":330.1}},{"type":"Feature","geometry":{"type":"Point","coordinates":[-118.53257,33.4078]},"properties":{"depth_ft":562,"depth_m":171.2}},{"type":"Feature","geometry":{"type":"Point","coordinates":[-118.51755,33.4078]},"properties":{"depth_ft":328,"depth_m":100.0}},{"type":"Feature","geometry":{"type":"Point","coordinates":[-118.50254,33.4078]},"properties":{"depth_ft":273,"depth_m":83.1}},{"type":"Feature","geometry":{"type":"Point","coordinates":[-118.48753,33.4078]},"properties":{"depth_ft":61,"depth_m":18.5}},{"type":"Feature","geometry":{"type":"Point","coordinates":[-118.36743,33.4078]},"properties":{"depth_ft":144,"depth_m":44.0}},{"type":"Feature","geometry":{"type":"Point","coordinates":[-118.35242,33.4078]},"properties":{"depth_ft":558,"depth_m":170.0}},{"type":"Feature","geometry":{"type":"Point","coordinates":[-118.33741,33.4078]},"properties":{"depth_ft":728,"depth_m":221.9}},{"type":"Feature","geometry":{"type":"Point","coordinates":[-118.3224,33.4078]},"properties":{"depth_ft":1114,"depth_m":339.4}},{"type":"Feature","geometry":{"type":"Point","coordinates":[-118.30739,33.4078]},"properties":{"depth_ft":1597,"depth_m":486.8}},{"type":"Feature","geometry":{"type":"Point","coordinates":[-118.29237,33.4078]},"properties":{"depth_ft":1995,"depth_m":608.0}},{"type":"Feature","geometry":{"type":"Point","coordinates":[-118.27736,33.4078]},"properties":{"depth_ft":2460,"depth_m":749.8}},{"type":"Feature","geometry":{"type":"Point","coordinates":[-118.62264,33.39527]},"properties":{"depth_ft":2683,"depth_m":817.6}},{"type":"Feature","geometry":{"type":"Point","coordinates":[-118.60763,33.39527]},"properties":{"depth_ft":2415,"depth_m":736.0}},{"type":"Feature","geometry":{"type":"Point","coordinates":[-118.59261,33.39527]},"properties":{"depth_ft":2215,"depth_m":675.1}},{"type":"Feature","geometry":{"type":"Point","coordinates":[-118.5776,33.39527]},"properties":{"depth_ft":1949,"depth_m":594.1}},{"type":"Feature","geometry":{"type":"Point","coordinates":[-118.56259,33.39527]},"properties":{"depth_ft":1712,"depth_m":521.8}},{"type":"Feature","geometry":{"type":"Point","coordinates":[-118.54758,33.39527]},"properties":{"depth_ft":1153,"depth_m":351.5}},{"type":"Feature","geometry":{"type":"Point","coordinates":[-118.53257,33.39527]},"properties":{"depth_ft":892,"depth_m":272.0}},{"type":"Feature","geometry":{"type":"Point","coordinates":[-118.51755,33.39527]},"properties":{"depth_ft":590,"depth_m":179.8}},{"type":"Feature","geometry":{"type":"Point","coordinates":[-118.50254,33.39527]},"properties":{"depth_ft":298,"depth_m":90.9}},{"type":"Feature","geometry":{"type":"Point","coordinates":[-118.48753,33.39527]},"properties":{"depth_ft":110,"depth_m":33.5}},{"type":"Feature","geometry":{"type":"Point","coordinates":[-118.36743,33.39527]},"properties":{"depth_ft":61,"depth_m":18.7}},{"type":"Feature","geometry":{"type":"Point","coordinates":[-118.35242,33.39527]},"properties":{"depth_ft":207,"depth_m":63.0}},{"type":"Feature","geometry":{"type":"Point","coordinates":[-118.33741,33.39527]},"properties":{"depth_ft":537,"depth_m":163.8}},{"type":"Feature","geometry":{"type":"Point","coordinates":[-118.3224,33.39527]},"properties":{"depth_ft":684,"depth_m":208.4}},{"type":"Feature","geometry":{"type":"Point","coordinates":[-118.30739,33.39527]},"properties":{"depth_ft":1185,"depth_m":361.0}},{"type":"Feature","geometry":{"type":"Point","coordinates":[-118.29237,33.39527]},"properties":{"depth_ft":1620,"depth_m":493.8}},{"type":"Feature","geometry":{"type":"Point","coordinates":[-118.27736,33.39527]},"properties":{"depth_ft":2225,"depth_m":678.1}},{"type":"Feature","geometry":{"type":"Point","coordinates":[-118.62264,33.38273]},"properties":{"depth_ft":2804,"depth_m":854.7}},{"type":"Feature","geometry":{"type":"Point","coordinates":[-118.60763,33.38273]},"properties":{"depth_ft":2633,"depth_m":802.4}},{"type":"Feature","geometry":{"type":"Point","coordinates":[-118.59261,33.38273]},"properties":{"depth_ft":2330,"depth_m":710.2}},{"type":"Feature","geometry":{"type":"Point","coordinates":[-118.5776,33.38273]},"properties":{"depth_ft":2419,"depth_m":737.4}},{"type":"Feature","geometry":{"type":"Point","coordinates":[-118.56259,33.38273]},"properties":{"depth_ft":1848,"depth_m":563.2}},{"type":"Feature","geometry":{"type":"Point","coordinates":[-118.54758,33.38273]},"properties":{"depth_ft":1532,"depth_m":467.1}},{"type":"Feature","geometry":{"type":"Point","coordinates":[-118.53257,33.38273]},"properties":{"depth_ft":1183,"depth_m":360.5}},{"type":"Feature","geometry":{"type":"Point","coordinates":[-118.51755,33.38273]},"properties":{"depth_ft":961,"depth_m":292.9}},{"type":"Feature","geometry":{"type":"Point","coordinates":[-118.50254,33.38273]},"properties":{"depth_ft":362,"depth_m":110.2}},{"type":"Feature","geometry":{"type":"Point","coordinates":[-118.48753,33.38273]},"properties":{"depth_ft":147,"depth_m":44.9}},{"type":"Feature","geometry":{"type":"Point","coordinates":[-118.35242,33.38273]},"properties":{"depth_ft":194,"depth_m":59.1}},{"type":"Feature","geometry":{"type":"Point","coordinates":[-118.33741,33.38273]},"properties":{"depth_ft":263,"depth_m":80.1}},{"type":"Feature","geometry":{"type":"Point","coordinates":[-118.3224,33.38273]},"properties":{"depth_ft":446,"depth_m":136.1}},{"type":"Feature","geometry":{"type":"Point","coordinates":[-118.30739,33.38273]},"properties":{"depth_ft":858,"depth_m":261.5}},{"type":"Feature","geometry":{"type":"Point","coordinates":[-118.29237,33.38273]},"properties":{"depth_ft":1376,"depth_m":419.3}},{"type":"Feature","geometry":{"type":"Point","coordinates":[-118.27736,33.38273]},"properties":{"depth_ft":1877,"depth_m":572.0}},{"type":"Feature","geometry":{"type":"Point","coordinates":[-118.62264,33.3702]},"properties":{"depth_ft":3317,"depth_m":1011.1}},{"type":"Feature","geometry":{"type":"Point","coordinates":[-118.60763,33.3702]},"properties":{"depth_ft":2647,"depth_m":806.7}},{"type":"Feature","geometry":{"type":"Point","coordinates":[-118.59261,33.3702]},"properties":{"depth_ft":2490,"depth_m":759.0}},{"type":"Feature","geometry":{"type":"Point","coordinates":[-118.5776,33.3702]},"properties":{"depth_ft":1962,"depth_m":598.1}},{"type":"Feature","geometry":{"type":"Point","coordinates":[-118.56259,33.3702]},"properties":{"depth_ft":1622,"depth_m":494.4}},{"type":"Feature","geometry":{"type":"Point","coordinates":[-118.54758,33.3702]},"properties":{"depth_ft":1112,"depth_m":339.1}},{"type":"Feature","geometry":{"type":"Point","coordinates":[-118.53257,33.3702]},"properties":{"depth_ft":702,"depth_m":213.9}},{"type":"Feature","geometry":{"type":"Point","coordinates":[-118.51755,33.3702]},"properties":{"depth_ft":318,"depth_m":97.0}},{"type":"Feature","geometry":{"type":"Point","coordinates":[-118.50254,33.3702]},"properties":{"depth_ft":239,"depth_m":72.8}},{"type":"Feature","geometry":{"type":"Point","coordinates":[-118.48753,33.3702]},"properties":{"depth_ft":68,"depth_m":20.7}},{"type":"Feature","geometry":{"type":"Point","coordinates":[-118.33741,33.3702]},"properties":{"depth_ft":247,"depth_m":75.4}},{"type":"Feature","geometry":{"type":"Point","coordinates":[-118.3224,33.3702]},"properties":{"depth_ft":280,"depth_m":85.3}},{"type":"Feature","geometry":{"type":"Point","coordinates":[-118.30739,33.3702]},"properties":{"depth_ft":392,"depth_m":119.6}},{"type":"Feature","geometry":{"type":"Point","coordinates":[-118.29237,33.3702]},"properties":{"depth_ft":966,"depth_m":294.5}},{"type":"Feature","geometry":{"type":"Point","coordinates":[-118.27736,33.3702]},"properties":{"depth_ft":1452,"depth_m":442.5}},{"type":"Feature","geometry":{"type":"Point","coordinates":[-118.62264,33.35766]},"properties":{"depth_ft":3588,"depth_m":1093.5}},{"type":"Feature","geometry":{"type":"Point","coordinates":[-118.60763,33.35766]},"properties":{"depth_ft":3050,"depth_m":929.5}},{"type":"Feature","geometry":{"type":"Point","coordinates":[-118.59261,33.35766]},"properties":{"depth_ft":2421,"depth_m":737.9}},{"type":"Feature","geometry":{"type":"Point","coordinates":[-118.5776,33.35766]},"properties":{"depth_ft":1833,"depth_m":558.6}},{"type":"Feature","geometry":{"type":"Point","coordinates":[-118.56259,33.35766]},"properties":{"depth_ft":1215,"depth_m":370.3}},{"type":"Feature","geometry":{"type":"Point","coordinates":[-118.54758,33.35766]},"properties":{"depth_ft":453,"depth_m":138.0}},{"type":"Feature","geometry":{"type":"Point","coordinates":[-118.53257,33.35766]},"properties":{"depth_ft":351,"depth_m":107.1}},{"type":"Feature","geometry":{"type":"Point","coordinates":[-118.51755,33.35766]},"properties":{"depth_ft":298,"depth_m":91.0}},{"type":"Feature","geometry":{"type":"Point","coordinates":[-118.50254,33.35766]},"properties":{"depth_ft":212,"depth_m":64.7}},{"type":"Feature","geometry":{"type":"Point","coordinates":[-118.3224,33.35766]},"properties":{"depth_ft":266,"depth_m":80.9}},{"type":"Feature","geometry":{"type":"Point","coordinates":[-118.30739,33.35766]},"properties":{"depth_ft":305,"depth_m":93.1}},{"type":"Feature","geometry":{"type":"Point","coordinates":[-118.29237,33.35766]},"properties":{"depth_ft":569,"depth_m":173.5}},{"type":"Feature","geometry":{"type":"Point","coordinates":[-118.27736,33.35766]},"properties":{"depth_ft":1105,"depth_m":336.7}},{"type":"Feature","geometry":{"type":"Point","coordinates":[-118.62264,33.34513]},"properties":{"depth_ft":3967,"depth_m":1209.3}},{"type":"Feature","geometry":{"type":"Point","coordinates":[-118.60763,33.34513]},"properties":{"depth_ft":3593,"depth_m":1095.3}},{"type":"Feature","geometry":{"type":"Point","coordinates":[-118.59261,33.34513]},"properties":{"depth_ft":2849,"depth_m":868.4}},{"type":"Feature","geometry":{"type":"Point","coordinates":[-118.5776,33.34513]},"properties":{"depth_ft":1905,"depth_m":580.6}},{"type":"Feature","geometry":{"type":"Point","coordinates":[-118.56259,33.34513]},"properties":{"depth_ft":760,"depth_m":231.6}},{"type":"Feature","geometry":{"type":"Point","coordinates":[-118.54758,33.34513]},"properties":{"depth_ft":385,"depth_m":117.2}},{"type":"Feature","geometry":{"type":"Point","coordinates":[-118.53257,33.34513]},"properties":{"depth_ft":327,"depth_m":99.6}},{"type":"Feature","geometry":{"type":"Point","coordinates":[-118.51755,33.34513]},"properties":{"depth_ft":202,"depth_m":61.7}},{"type":"Feature","geometry":{"type":"Point","coordinates":[-118.50254,33.34513]},"properties":{"depth_ft":231,"depth_m":70.5}},{"type":"Feature","geometry":{"type":"Point","coordinates":[-118.48753,33.34513]},"properties":{"depth_ft":81,"depth_m":24.8}},{"type":"Feature","geometry":{"type":"Point","coordinates":[-118.3224,33.34513]},"properties":{"depth_ft":63,"depth_m":19.3}},{"type":"Feature","geometry":{"type":"Point","coordinates":[-118.30739,33.34513]},"properties":{"depth_ft":278,"depth_m":84.7}},{"type":"Feature","geometry":{"type":"Point","coordinates":[-118.29237,33.34513]},"properties":{"depth_ft":439,"depth_m":133.8}},{"type":"Feature","geometry":{"type":"Point","coordinates":[-118.27736,33.34513]},"properties":{"depth_ft":655,"depth_m":199.8}},{"type":"Feature","geometry":{"type":"Point","coordinates":[-118.62264,33.3326]},"properties":{"depth_ft":4103,"depth_m":1250.6}},{"type":"Feature","geometry":{"type":"Point","coordinates":[-118.60763,33.3326]},"properties":{"depth_ft":4113,"depth_m":1253.8}},{"type":"Feature","geometry":{"type":"Point","coordinates":[-118.59261,33.3326]},"properties":{"depth_ft":4105,"depth_m":1251.1}},{"type":"Feature","geometry":{"type":"Point","coordinates":[-118.5776,33.3326]},"properties":{"depth_ft":3319,"depth_m":1011.7}},{"type":"Feature","geometry":{"type":"Point","coordinates":[-118.56259,33.3326]},"properties":{"depth_ft":1403,"depth_m":427.5}},{"type":"Feature","geometry":{"type":"Point","coordinates":[-118.54758,33.3326]},"properties":{"depth_ft":492,"depth_m":149.9}},{"type":"Feature","geometry":{"type":"Point","coordinates":[-118.53257,33.3326]},"properties":{"depth_ft":324,"depth_m":98.8}},{"type":"Feature","geometry":{"type":"Point","coordinates":[-118.51755,33.3326]},"properties":{"depth_ft":302,"depth_m":92.0}},{"type":"Feature","geometry":{"type":"Point","coordinates":[-118.50254,33.3326]},"properties":{"depth_ft":262,"depth_m":79.8}},{"type":"Feature","geometry":{"type":"Point","coordinates":[-118.48753,33.3326]},"properties":{"depth_ft":218,"depth_m":66.3}},{"type":"Feature","geometry":{"type":"Point","coordinates":[-118.47252,33.3326]},"properties":{"depth_ft":49,"depth_m":15.0}},{"type":"Feature","geometry":{"type":"Point","coordinates":[-118.30739,33.3326]},"properties":{"depth_ft":60,"depth_m":18.3}},{"type":"Feature","geometry":{"type":"Point","coordinates":[-118.29237,33.3326]},"properties":{"depth_ft":286,"depth_m":87.2}},{"type":"Feature","geometry":{"type":"Point","coordinates":[-118.27736,33.3326]},"properties":{"depth_ft":581,"depth_m":177.2}},{"type":"Feature","geometry":{"type":"Point","coordinates":[-118.62264,33.32006]},"properties":{"depth_ft":4258,"depth_m":1297.8}},{"type":"Feature","geometry":{"type":"Point","coordinates":[-118.60763,33.32006]},"properties":{"depth_ft":4220,"depth_m":1286.4}},{"type":"Feature","geometry":{"type":"Point","coordinates":[-118.59261,33.32006]},"properties":{"depth_ft":4210,"depth_m":1283.1}},{"type":"Feature","geometry":{"type":"Point","coordinates":[-118.5776,33.32006]},"properties":{"depth_ft":4089,"depth_m":1246.3}},{"type":"Feature","geometry":{"type":"Point","coordinates":[-118.56259,33.32006]},"properties":{"depth_ft":3671,"depth_m":1118.9}},{"type":"Feature","geometry":{"type":"Point","coordinates":[-118.54758,33.32006]},"properties":{"depth_ft":2745,"depth_m":836.5}},{"type":"Feature","geometry":{"type":"Point","coordinates":[-118.53257,33.32006]},"properties":{"depth_ft":1503,"depth_m":458.2}},{"type":"Feature","geometry":{"type":"Point","coordinates":[-118.51755,33.32006]},"properties":{"depth_ft":558,"depth_m":170.2}},{"type":"Feature","geometry":{"type":"Point","coordinates":[-118.50254,33.32006]},"properties":{"depth_ft":327,"depth_m":99.8}},{"type":"Feature","geometry":{"type":"Point","coordinates":[-118.48753,33.32006]},"properties":{"depth_ft":295,"depth_m":90.1}},{"type":"Feature","geometry":{"type":"Point","coordinates":[-118.47252,33.32006]},"properties":{"depth_ft":229,"depth_m":69.7}},{"type":"Feature","geometry":{"type":"Point","coordinates":[-118.45751,33.32006]},"properties":{"depth_ft":61,"depth_m":18.6}},{"type":"Feature","geometry":{"type":"Point","coordinates":[-118.38245,33.32006]},"properties":{"depth_ft":18,"depth_m":5.5}},{"type":"Feature","geometry":{"type":"Point","coordinates":[-118.29237,33.32006]},"properties":{"depth_ft":294,"depth_m":89.7}},{"type":"Feature","geometry":{"type":"Point","coordinates":[-118.27736,33.32006]},"properties":{"depth_ft":521,"depth_m":158.9}},{"type":"Feature","geometry":{"type":"Point","coordinates":[-118.62264,33.30753]},"properties":{"depth_ft":4386,"depth_m":1336.7}},{"type":"Feature","geometry":{"type":"Point","coordinates":[-118.60763,33.30753]},"properties":{"depth_ft":4308,"depth_m":1312.9}},{"type":"Feature","geometry":{"type":"Point","coordinates":[-118.59261,33.30753]},"properties":{"depth_ft":4265,"depth_m":1300.1}},{"type":"Feature","geometry":{"type":"Point","coordinates":[-118.5776,33.30753]},"properties":{"depth_ft":4280,"depth_m":1304.6}},{"type":"Feature","geometry":{"type":"Point","coordinates":[-118.56259,33.30753]},"properties":{"depth_ft":4132,"depth_m":1259.4}},{"type":"Feature","geometry":{"type":"Point","coordinates":[-118.54758,33.30753]},"properties":{"depth_ft":3721,"depth_m":1134.3}},{"type":"Feature","geometry":{"type":"Point","coordinates":[-118.53257,33.30753]},"properties":{"depth_ft":3209,"depth_m":978.2}},{"type":"Feature","geometry":{"type":"Point","coordinates":[-118.51755,33.30753]},"properties":{"depth_ft":2506,"depth_m":763.9}},{"type":"Feature","geometry":{"type":"Point","coordinates":[-118.50254,33.30753]},"properties":{"depth_ft":1340,"depth_m":408.4}},{"type":"Feature","geometry":{"type":"Point","coordinates":[-118.48753,33.30753]},"properties":{"depth_ft":630,"depth_m":191.9}},{"type":"Feature","geometry":{"type":"Point","coordinates":[-118.47252,33.30753]},"properties":{"depth_ft":385,"depth_m":117.4}},{"type":"Feature","geometry":{"type":"Point","coordinates":[-118.45751,33.30753]},"properties":{"depth_ft":300,"depth_m":91.4}},{"type":"Feature","geometry":{"type":"Point","coordinates":[-118.44249,33.30753]},"properties":{"depth_ft":267,"depth_m":81.3}},{"type":"Feature","geometry":{"type":"Point","coordinates":[-118.42748,33.30753]},"properties":{"depth_ft":253,"depth_m":77.1}},{"type":"Feature","geometry":{"type":"Point","coordinates":[-118.41247,33.30753]},"properties":{"depth_ft":226,"depth_m":69.0}},{"type":"Feature","geometry":{"type":"Point","coordinates":[-118.39746,33.30753]},"properties":{"depth_ft":189,"depth_m":57.6}},{"type":"Feature","geometry":{"type":"Point","coordinates":[-118.38245,33.30753]},"properties":{"depth_ft":189,"depth_m":57.5}},{"type":"Feature","geometry":{"type":"Point","coordinates":[-118.36743,33.30753]},"properties":{"depth_ft":129,"depth_m":39.3}},{"type":"Feature","geometry":{"type":"Point","coordinates":[-118.35242,33.30753]},"properties":{"depth_ft":41,"depth_m":12.4}},{"type":"Feature","geometry":{"type":"Point","coordinates":[-118.29237,33.30753]},"properties":{"depth_ft":300,"depth_m":91.6}},{"type":"Feature","geometry":{"type":"Point","coordinates":[-118.27736,33.30753]},"properties":{"depth_ft":433,"depth_m":132.1}},{"type":"Feature","geometry":{"type":"Point","coordinates":[-118.62264,33.29499]},"properties":{"depth_ft":4349,"depth_m":1325.6}},{"type":"Feature","geometry":{"type":"Point","coordinates":[-118.60763,33.29499]},"properties":{"depth_ft":4331,"depth_m":1320.2}},{"type":"Feature","geometry":{"type":"Point","coordinates":[-118.59261,33.29499]},"properties":{"depth_ft":4331,"depth_m":1320.1}},{"type":"Feature","geometry":{"type":"Point","coordinates":[-118.5776,33.29499]},"properties":{"depth_ft":4301,"depth_m":1310.9}},{"type":"Feature","geometry":{"type":"Point","coordinates":[-118.56259,33.29499]},"properties":{"depth_ft":4269,"depth_m":1301.1}},{"type":"Feature","geometry":{"type":"Point","coordinates":[-118.54758,33.29499]},"properties":{"depth_ft":4112,"depth_m":1253.2}},{"type":"Feature","geometry":{"type":"Point","coordinates":[-118.53257,33.29499]},"properties":{"depth_ft":3797,"depth_m":1157.4}},{"type":"Feature","geometry":{"type":"Point","coordinates":[-118.51755,33.29499]},"properties":{"depth_ft":3414,"depth_m":1040.6}},{"type":"Feature","geometry":{"type":"Point","coordinates":[-118.50254,33.29499]},"properties":{"depth_ft":3053,"depth_m":930.5}},{"type":"Feature","geometry":{"type":"Point","coordinates":[-118.48753,33.29499]},"properties":{"depth_ft":2466,"depth_m":751.6}},{"type":"Feature","geometry":{"type":"Point","coordinates":[-118.47252,33.29499]},"properties":{"depth_ft":1858,"depth_m":566.3}},{"type":"Feature","geometry":{"type":"Point","coordinates":[-118.45751,33.29499]},"properties":{"depth_ft":1377,"depth_m":419.7}},{"type":"Feature","geometry":{"type":"Point","coordinates":[-118.44249,33.29499]},"properties":{"depth_ft":985,"depth_m":300.2}},{"type":"Feature","geometry":{"type":"Point","coordinates":[-118.42748,33.29499]},"properties":{"depth_ft":429,"depth_m":130.9}},{"type":"Feature","geometry":{"type":"Point","coordinates":[-118.41247,33.29499]},"properties":{"depth_ft":316,"depth_m":96.3}},{"type":"Feature","geometry":{"type":"Point","coordinates":[-118.39746,33.29499]},"properties":{"depth_ft":306,"depth_m":93.4}},{"type":"Feature","geometry":{"type":"Point","coordinates":[-118.38245,33.29499]},"properties":{"depth_ft":297,"depth_m":90.4}},{"type":"Feature","geometry":{"type":"Point","coordinates":[-118.36743,33.29499]},"properties":{"depth_ft":262,"depth_m":79.9}},{"type":"Feature","geometry":{"type":"Point","coordinates":[-118.35242,33.29499]},"properties":{"depth_ft":234,"depth_m":71.4}},{"type":"Feature","geometry":{"type":"Point","coordinates":[-118.33741,33.29499]},"properties":{"depth_ft":180,"depth_m":54.9}},{"type":"Feature","geometry":{"type":"Point","coordinates":[-118.3224,33.29499]},"properties":{"depth_ft":168,"depth_m":51.3}},{"type":"Feature","geometry":{"type":"Point","coordinates":[-118.30739,33.29499]},"properties":{"depth_ft":273,"depth_m":83.2}},{"type":"Feature","geometry":{"type":"Point","coordinates":[-118.29237,33.29499]},"properties":{"depth_ft":305,"depth_m":93.0}},{"type":"Feature","geometry":{"type":"Point","coordinates":[-118.27736,33.29499]},"properties":{"depth_ft":373,"depth_m":113.8}},{"type":"Feature","geometry":{"type":"Point","coordinates":[-118.62264,33.28246]},"properties":{"depth_ft":4332,"depth_m":1320.3}},{"type":"Feature","geometry":{"type":"Point","coordinates":[-118.60763,33.28246]},"properties":{"depth_ft":4345,"depth_m":1324.2}},{"type":"Feature","geometry":{"type":"Point","coordinates":[-118.59261,33.28246]},"properties":{"depth_ft":4329,"depth_m":1319.4}},{"type":"Feature","geometry":{"type":"Point","coordinates":[-118.5776,33.28246]},"properties":{"depth_ft":4294,"depth_m":1309.0}},{"type":"Feature","geometry":{"type":"Point","coordinates":[-118.56259,33.28246]},"properties":{"depth_ft":4287,"depth_m":1306.7}},{"type":"Feature","geometry":{"type":"Point","coordinates":[-118.54758,33.28246]},"properties":{"depth_ft":4278,"depth_m":1304.0}},{"type":"Feature","geometry":{"type":"Point","coordinates":[-118.53257,33.28246]},"properties":{"depth_ft":4113,"depth_m":1253.6}},{"type":"Feature","geometry":{"type":"Point","coordinates":[-118.51755,33.28246]},"properties":{"depth_ft":3883,"depth_m":1183.6}},{"type":"Feature","geometry":{"type":"Point","coordinates":[-118.50254,33.28246]},"properties":{"depth_ft":3629,"depth_m":1106.1}},{"type":"Feature","geometry":{"type":"Point","coordinates":[-118.48753,33.28246]},"properties":{"depth_ft":3379,"depth_m":1029.8}},{"type":"Feature","geometry":{"type":"Point","coordinates":[-118.47252,33.28246]},"properties":{"depth_ft":3174,"depth_m":967.3}},{"type":"Feature","geometry":{"type":"Point","coordinates":[-118.45751,33.28246]},"properties":{"depth_ft":3027,"depth_m":922.6}},{"type":"Feature","geometry":{"type":"Point","coordinates":[-118.44249,33.28246]},"properties":{"depth_ft":2862,"depth_m":872.4}},{"type":"Feature","geometry":{"type":"Point","coordinates":[-118.42748,33.28246]},"properties":{"depth_ft":2559,"depth_m":780.0}},{"type":"Feature","geometry":{"type":"Point","coordinates":[-118.41247,33.28246]},"properties":{"depth_ft":1938,"depth_m":590.7}},{"type":"Feature","geometry":{"type":"Point","coordinates":[-118.39746,33.28246]},"properties":{"depth_ft":1546,"depth_m":471.2}},{"type":"Feature","geometry":{"type":"Point","coordinates":[-118.38245,33.28246]},"properties":{"depth_ft":859,"depth_m":261.9}},{"type":"Feature","geometry":{"type":"Point","coordinates":[-118.36743,33.28246]},"properties":{"depth_ft":886,"depth_m":269.9}},{"type":"Feature","geometry":{"type":"Point","coordinates":[-118.35242,33.28246]},"properties":{"depth_ft":840,"depth_m":256.0}},{"type":"Feature","geometry":{"type":"Point","coordinates":[-118.33741,33.28246]},"properties":{"depth_ft":679,"depth_m":207.1}},{"type":"Feature","geometry":{"type":"Point","coordinates":[-118.3224,33.28246]},"properties":{"depth_ft":473,"depth_m":144.2}},{"type":"Feature","geometry":{"type":"Point","coordinates":[-118.30739,33.28246]},"properties":{"depth_ft":321,"depth_m":97.8}},{"type":"Feature","geometry":{"type":"Point","coordinates":[-118.29237,33.28246]},"properties":{"depth_ft":332,"depth_m":101.1}},{"type":"Feature","geometry":{"type":"Point","coordinates":[-118.27736,33.28246]},"properties":{"depth_ft":399,"depth_m":121.6}},{"type":"Feature","geometry":{"type":"Point","coordinates":[-118.62264,33.26992]},"properties":{"depth_ft":4334,"depth_m":1321.1}},{"type":"Feature","geometry":{"type":"Point","coordinates":[-118.60763,33.26992]},"properties":{"depth_ft":4340,"depth_m":1322.7}},{"type":"Feature","geometry":{"type":"Point","coordinates":[-118.59261,33.26992]},"properties":{"depth_ft":4311,"depth_m":1314.1}},{"type":"Feature","geometry":{"type":"Point","coordinates":[-118.5776,33.26992]},"properties":{"depth_ft":4296,"depth_m":1309.4}},{"type":"Feature","geometry":{"type":"Point","coordinates":[-118.56259,33.26992]},"properties":{"depth_ft":4305,"depth_m":1312.3}},{"type":"Feature","geometry":{"type":"Point","coordinates":[-118.54758,33.26992]},"properties":{"depth_ft":4264,"depth_m":1299.6}},{"type":"Feature","geometry":{"type":"Point","coordinates":[-118.53257,33.26992]},"properties":{"depth_ft":4206,"depth_m":1282.0}},{"type":"Feature","geometry":{"type":"Point","coordinates":[-118.51755,33.26992]},"properties":{"depth_ft":4178,"depth_m":1273.3}},{"type":"Feature","geometry":{"type":"Point","coordinates":[-118.50254,33.26992]},"properties":{"depth_ft":4032,"depth_m":1229.0}},{"type":"Feature","geometry":{"type":"Point","coordinates":[-118.48753,33.26992]},"properties":{"depth_ft":3884,"depth_m":1183.9}},{"type":"Feature","geometry":{"type":"Point","coordinates":[-118.47252,33.26992]},"properties":{"depth_ft":3739,"depth_m":1139.8}},{"type":"Feature","geometry":{"type":"Point","coordinates":[-118.45751,33.26992]},"properties":{"depth_ft":3619,"depth_m":1103.2}},{"type":"Feature","geometry":{"type":"Point","coordinates":[-118.44249,33.26992]},"properties":{"depth_ft":3449,"depth_m":1051.1}},{"type":"Feature","geometry":{"type":"Point","coordinates":[-118.42748,33.26992]},"properties":{"depth_ft":3277,"depth_m":998.9}},{"type":"Feature","geometry":{"type":"Point","coordinates":[-118.41247,33.26992]},"properties":{"depth_ft":3049,"depth_m":929.3}},{"type":"Feature","geometry":{"type":"Point","coordinates":[-118.39746,33.26992]},"properties":{"depth_ft":2951,"depth_m":899.5}},{"type":"Feature","geometry":{"type":"Point","coordinates":[-118.38245,33.26992]},"properties":{"depth_ft":2996,"depth_m":913.1}},{"type":"Feature","geometry":{"type":"Point","coordinates":[-118.36743,33.26992]},"properties":{"depth_ft":2795,"depth_m":851.8}},{"type":"Feature","geometry":{"type":"Point","coordinates":[-118.35242,33.26992]},"properties":{"depth_ft":2379,"depth_m":725.3}},{"type":"Feature","geometry":{"type":"Point","coordinates":[-118.33741,33.26992]},"properties":{"depth_ft":1963,"depth_m":598.3}},{"type":"Feature","geometry":{"type":"Point","coordinates":[-118.3224,33.26992]},"properties":{"depth_ft":1567,"depth_m":477.7}},{"type":"Feature","geometry":{"type":"Point","coordinates":[-118.30739,33.26992]},"properties":{"depth_ft":1193,"depth_m":363.6}},{"type":"Feature","geometry":{"type":"Point","coordinates":[-118.29237,33.26992]},"properties":{"depth_ft":847,"depth_m":258.1}},{"type":"Feature","geometry":{"type":"Point","coordinates":[-118.27736,33.26992]},"properties":{"depth_ft":592,"depth_m":180.4}},{"type":"Feature","geometry":{"type":"Point","coordinates":[-118.62264,33.25739]},"properties":{"depth_ft":4360,"depth_m":1328.8}},{"type":"Feature","geometry":{"type":"Point","coordinates":[-118.60763,33.25739]},"properties":{"depth_ft":4315,"depth_m":1315.3}},{"type":"Feature","geometry":{"type":"Point","coordinates":[-118.59261,33.25739]},"properties":{"depth_ft":4295,"depth_m":1309.2}},{"type":"Feature","geometry":{"type":"Point","coordinates":[-118.5776,33.25739]},"properties":{"depth_ft":4314,"depth_m":1314.9}},{"type":"Feature","geometry":{"type":"Point","coordinates":[-118.56259,33.25739]},"properties":{"depth_ft":4234,"depth_m":1290.6}},{"type":"Feature","geometry":{"type":"Point","coordinates":[-118.54758,33.25739]},"properties":{"depth_ft":4185,"depth_m":1275.5}},{"type":"Feature","geometry":{"type":"Point","coordinates":[-118.53257,33.25739]},"properties":{"depth_ft":4166,"depth_m":1269.8}},{"type":"Feature","geometry":{"type":"Point","coordinates":[-118.51755,33.25739]},"properties":{"depth_ft":4199,"depth_m":1279.8}},{"type":"Feature","geometry":{"type":"Point","coordinates":[-118.50254,33.25739]},"properties":{"depth_ft":4162,"depth_m":1268.5}},{"type":"Feature","geometry":{"type":"Point","coordinates":[-118.48753,33.25739]},"properties":{"depth_ft":4118,"depth_m":1255.2}},{"type":"Feature","geometry":{"type":"Point","coordinates":[-118.47252,33.25739]},"properties":{"depth_ft":4048,"depth_m":1233.9}},{"type":"Feature","geometry":{"type":"Point","coordinates":[-118.45751,33.25739]},"properties":{"depth_ft":3988,"depth_m":1215.7}},{"type":"Feature","geometry":{"type":"Point","coordinates":[-118.44249,33.25739]},"properties":{"depth_ft":3866,"depth_m":1178.2}},{"type":"Feature","geometry":{"type":"Point","coordinates":[-118.42748,33.25739]},"properties":{"depth_ft":3761,"depth_m":1146.2}},{"type":"Feature","geometry":{"type":"Point","coordinates":[-118.41247,33.25739]},"properties":{"depth_ft":3691,"depth_m":1124.9}},{"type":"Feature","geometry":{"type":"Point","coordinates":[-118.39746,33.25739]},"properties":{"depth_ft":3628,"depth_m":1106.0}},{"type":"Feature","geometry":{"type":"Point","coordinates":[-118.38245,33.25739]},"properties":{"depth_ft":3561,"depth_m":1085.3}},{"type":"Feature","geometry":{"type":"Point","coordinates":[-118.36743,33.25739]},"properties":{"depth_ft":3463,"depth_m":1055.6}},{"type":"Feature","geometry":{"type":"Point","coordinates":[-118.35242,33.25739]},"properties":{"depth_ft":3347,"depth_m":1020.2}},{"type":"Feature","geometry":{"type":"Point","coordinates":[-118.33741,33.25739]},"properties":{"depth_ft":3275,"depth_m":998.4}},{"type":"Feature","geometry":{"type":"Point","coordinates":[-118.3224,33.25739]},"properties":{"depth_ft":2820,"depth_m":859.6}},{"type":"Feature","geometry":{"type":"Point","coordinates":[-118.30739,33.25739]},"properties":{"depth_ft":2221,"depth_m":676.9}},{"type":"Feature","geometry":{"type":"Point","coordinates":[-118.29237,33.25739]},"properties":{"depth_ft":1740,"depth_m":530.2}},{"type":"Feature","geometry":{"type":"Point","coordinates":[-118.27736,33.25739]},"properties":{"depth_ft":1198,"depth_m":365.3}},{"type":"Feature","geometry":{"type":"Point","coordinates":[-118.62264,33.24486]},"properties":{"depth_ft":4337,"depth_m":1321.8}},{"type":"Feature","geometry":{"type":"Point","coordinates":[-118.60763,33.24486]},"properties":{"depth_ft":4323,"depth_m":1317.8}},{"type":"Feature","geometry":{"type":"Point","coordinates":[-118.59261,33.24486]},"properties":{"depth_ft":4297,"depth_m":1309.7}},{"type":"Feature","geometry":{"type":"Point","coordinates":[-118.5776,33.24486]},"properties":{"depth_ft":4260,"depth_m":1298.4}},{"type":"Feature","geometry":{"type":"Point","coordinates":[-118.56259,33.24486]},"properties":{"depth_ft":4189,"depth_m":1277.0}},{"type":"Feature","geometry":{"type":"Point","coordinates":[-118.54758,33.24486]},"properties":{"depth_ft":4193,"depth_m":1277.9}},{"type":"Feature","geometry":{"type":"Point","coordinates":[-118.53257,33.24486]},"properties":{"depth_ft":4143,"depth_m":1262.8}},{"type":"Feature","geometry":{"type":"Point","coordinates":[-118.51755,33.24486]},"properties":{"depth_ft":4147,"depth_m":1263.9}},{"type":"Feature","geometry":{"type":"Point","coordinates":[-118.50254,33.24486]},"properties":{"depth_ft":4134,"depth_m":1260.0}},{"type":"Feature","geometry":{"type":"Point","coordinates":[-118.48753,33.24486]},"properties":{"depth_ft":4116,"depth_m":1254.7}},{"type":"Feature","geometry":{"type":"Point","coordinates":[-118.47252,33.24486]},"properties":{"depth_ft":4096,"depth_m":1248.4}},{"type":"Feature","geometry":{"type":"Point","coordinates":[-118.45751,33.24486]},"properties":{"depth_ft":4079,"depth_m":1243.2}},{"type":"Feature","geometry":{"type":"Point","coordinates":[-118.44249,33.24486]},"properties":{"depth_ft":4023,"depth_m":1226.1}},{"type":"Feature","geometry":{"type":"Point","coordinates":[-118.42748,33.24486]},"properties":{"depth_ft":4016,"depth_m":1224.2}},{"type":"Feature","geometry":{"type":"Point","coordinates":[-118.41247,33.24486]},"properties":{"depth_ft":3925,"depth_m":1196.3}},{"type":"Feature","geometry":{"type":"Point","coordinates":[-118.39746,33.24486]},"properties":{"depth_ft":3925,"depth_m":1196.3}},{"type":"Feature","geometry":{"type":"Point","coordinates":[-118.38245,33.24486]},"properties":{"depth_ft":3862,"depth_m":1177.2}},{"type":"Feature","geometry":{"type":"Point","coordinates":[-118.36743,33.24486]},"properties":{"depth_ft":3819,"depth_m":1164.1}},{"type":"Feature","geometry":{"type":"Point","coordinates":[-118.35242,33.24486]},"properties":{"depth_ft":3716,"depth_m":1132.6}},{"type":"Feature","geometry":{"type":"Point","coordinates":[-118.33741,33.24486]},"properties":{"depth_ft":3660,"depth_m":1115.6}},{"type":"Feature","geometry":{"type":"Point","coordinates":[-118.3224,33.24486]},"properties":{"depth_ft":3662,"depth_m":1116.1}},{"type":"Feature","geometry":{"type":"Point","coordinates":[-118.30739,33.24486]},"properties":{"depth_ft":3605,"depth_m":1098.7}},{"type":"Feature","geometry":{"type":"Point","coordinates":[-118.29237,33.24486]},"properties":{"depth_ft":3362,"depth_m":1024.8}},{"type":"Feature","geometry":{"type":"Point","coordinates":[-118.27736,33.24486]},"properties":{"depth_ft":2801,"depth_m":853.8}}]}