{"type":"FeatureCollection","features":[{"type":"Feature","geometry":{"type":"Polygon","coordinates":[[[-116.75479,31.92663],[-116.75529,31.92819],[-116.75616,31.92941],[-116.75649,31.93043],[-116.75678,31.93078],[-116.7568,31.93272],[-116.75577,31.93472],[-116.75546,31.9368],[-116.75584,31.94049],[-116.75554,31.9414],[-116.75604,31.94322],[-116.75607,31.94357],[-116.75577,31.9438],[-116.75602,31.94459],[-116.75618,31.9464],[-116.75643,31.94718],[-116.75705,31.94757],[-116.75704,31.94834],[-116.75776,31.95114],[-116.75826,31.95189],[-116.75873,31.95188],[-116.75909,31.95216],[-116.75925,31.95266],[-116.75875,31.95292],[-116.75865,31.95321],[-116.75919,31.95501],[-116.75987,31.95537],[-116.76004,31.9558],[-116.75985,31.95644],[-116.76249,31.96331],[-116.76338,31.96495],[-116.76479,31.96686],[-116.76551,31.96736],[-116.76651,31.96843],[-116.76694,31.96853],[-116.76775,31.96917],[-116.76771,31.96959],[-116.76889,31.97099],[-116.77575,31.97492],[-116.77663,31.97574],[-116.78226,31.97842],[-116.78455,31.97844],[-116.78642,31.97749],[-116.79065,31.9769],[-116.79107,31.97719],[-116.79096,31.97778],[-116.79328,31.97912],[-116.79414,31.97923],[-116.79455,31.97986],[-116.79731,31.9816],[-116.79889,31.982],[-116.80092,31.9822],[-116.80285,31.98157],[-116.80604,31.98159],[-116.80838,31.9805],[-116.81377,31.97899],[-116.81808,31.97952],[-116.82103,31.97845],[-116.82244,31.9783],[-116.82365,31.97739],[-116.82576,31.97823],[-116.8278,31.97828],[-116.83002,31.97822],[-116.83105,31.97734],[-116.83379,31.97865],[-116.84152,31.98593],[-116.84255,31.9852],[-116.84310109259194,31.9852],[-116.84310109259194,32.02204504504505],[-116.73089890740808,32.02204504504505],[-116.73089890740808,31.925954954954953],[-116.7547674984985,31.925954954954953],[-116.75479,31.92663]]]},"properties":{"name":"baja-north-pacific"}}]}