{"type":"FeatureCollection","features":[{"type":"Feature","properties":{"id":"salsipuedes-kelp-extent","name":"Salsipuedes surveyed kelp extent","className":"Kelp Subsurface"},"geometry":{"type":"MultiPolygon","coordinates":[[[[-116.83747100830078,31.97742462158203],[-116.8377914428711,31.97742462158203],[-116.8377914428711,31.977697372436523],[-116.8381118774414,31.977697372436523],[-116.8381118774414,31.977968215942383],[-116.83747100830078,31.97796630859375],[-116.83747100830078,31.97742462158203]]],[[[-116.84001922607422,31.977699279785156],[-116.84001159667969,31.981489181518555],[-116.83969116210938,31.981489181518555],[-116.83969116210938,31.981216430664062],[-116.83937072753906,31.981216430664062],[-116.83937072753906,31.980945587158203],[-116.83905792236328,31.980945587158203],[-116.83905792236328,31.980674743652344],[-116.8387451171875,31.980674743652344],[-116.8387451171875,31.981216430664062],[-116.83842468261719,31.981216430664062],[-116.83842468261719,31.98175621032715],[-116.83873748779297,31.98175621032715],[-116.83873748779297,31.98202896118164],[-116.83905792236328,31.98202896118164],[-116.83905792236328,31.98175811767578],[-116.84001159667969,31.98175811767578],[-116.84001159667969,31.98284149169922],[-116.83969116210938,31.98284149169922],[-116.83969116210938,31.98257064819336],[-116.83937072753906,31.98257064819336],[-116.83937072753906,31.9822998046875],[-116.83905792236328,31.9822998046875],[-116.83905792236328,31.983110427856445],[-116.8385261411168,31.983110427856445],[-116.83841705322266,31.983007690486538],[-116.83841705322266,31.982839584350586],[-116.83823855591072,31.982839584350586],[-116.83746337890625,31.982109534079886],[-116.83746337890625,31.982027053833008],[-116.83737580029246,31.982027053833008],[-116.83715057373047,31.981814938778502],[-116.83715057373047,31.98175621032715],[-116.83708821508638,31.98175621032715],[-116.83683013916016,31.981513158225866],[-116.83683013916016,31.981483459472656],[-116.83679860463236,31.981483459472656],[-116.83651733398438,31.981218562924486],[-116.83651733398438,31.981212615966797],[-116.83651101942628,31.981212615966797],[-116.83588409423828,31.980622187070466],[-116.83588409423828,31.98040008544922],[-116.83564826380803,31.98040008544922],[-116.83525085449219,31.98002581121645],[-116.83525085449219,31.97958755493164],[-116.83493041992188,31.97958755493164],[-116.83493041992188,31.97931671142578],[-116.83449792298369,31.97931671142578],[-116.83429718017578,31.979127654809794],[-116.83429718017578,31.979045867919922],[-116.8342103377776,31.979045867919922],[-116.83397674560547,31.97882587425716],[-116.83397674560547,31.97877311706543],[-116.83392072732359,31.97877311706543],[-116.83379,31.97865],[-116.83239217644957,31.97798169749962],[-116.8323974609375,31.977418899536133],[-116.83207702636719,31.977418899536133],[-116.83207702636719,31.977689743041992],[-116.83178152361455,31.977689743041992],[-116.8314437866211,31.977528270245852],[-116.8314437866211,31.975793838500977],[-116.83113098144531,31.975793838500977],[-116.83113098144531,31.97471046447754],[-116.8314437866211,31.97471046447754],[-116.83145141601562,31.973358154296875],[-116.8317642211914,31.973358154296875],[-116.8317642211914,31.972545623779297],[-116.83240509033203,31.97254753112793],[-116.83240509033203,31.97227668762207],[-116.83335876464844,31.97227668762207],[-116.83335876464844,31.97254753112793],[-116.83367919921875,31.97254753112793],[-116.83367919921875,31.972820281982422],[-116.83399200439453,31.972820281982422],[-116.83399200439453,31.97336196899414],[-116.83431243896484,31.97336196899414],[-116.83430480957031,31.974172592163086],[-116.83399200439453,31.974172592163086],[-116.83399200439453,31.974714279174805],[-116.83430480957031,31.974714279174805],[-116.83430480957031,31.974985122680664],[-116.83462524414062,31.974985122680664],[-116.83462524414062,31.975255966186523],[-116.8349380493164,31.975255966186523],[-116.8349380493164,31.975797653198242],[-116.83525848388672,31.975797653198242],[-116.83525848388672,31.977693557739258],[-116.8355712890625,31.977693557739258],[-116.8355712890625,31.9774227142334],[-116.8362045288086,31.9774227142334],[-116.8362045288086,31.977693557739258],[-116.8365249633789,31.977693557739258],[-116.8365249633789,31.97796630859375],[-116.83683776855469,31.97796630859375],[-116.83683776855469,31.978778839111328],[-116.83747100830078,31.978778839111328],[-116.83747100830078,31.97823715209961],[-116.8381118774414,31.97823715209961],[-116.8381118774414,31.97850799560547],[-116.83842468261719,31.97850799560547],[-116.83842468261719,31.978239059448242],[-116.83905792236328,31.978239059448242],[-116.83905792236328,31.977968215942383],[-116.8393783569336,31.977968215942383],[-116.8393783569336,31.977699279785156],[-116.84001922607422,31.977699279785156]],[[-116.83747100830078,31.979320526123047],[-116.83747100830078,31.979049682617188],[-116.837158203125,31.979049682617188],[-116.837158203125,31.979318618774414],[-116.83747100830078,31.979320526123047]],[[-116.83842468261719,31.980133056640625],[-116.83873748779297,31.980133056640625],[-116.83873748779297,31.979862213134766],[-116.83842468261719,31.979862213134766],[-116.83842468261719,31.980133056640625]],[[-116.8381118774414,31.980133056640625],[-116.83810424804688,31.980403900146484],[-116.83842468261719,31.980403900146484],[-116.83842468261719,31.980133056640625],[-116.8381118774414,31.980133056640625]],[[-116.83842468261719,31.980674743652344],[-116.83873748779297,31.980674743652344],[-116.83873748779297,31.980403900146484],[-116.83842468261719,31.980403900146484],[-116.83842468261719,31.980674743652344]]],[[[-116.83905029296875,31.983381271362305],[-116.83937072753906,31.983381271362305],[-116.83937072753906,31.983652114868164],[-116.83910131152898,31.983652114868164],[-116.83905029296875,31.983604066340554],[-116.83905029296875,31.983381271362305]]],[[[-116.8235092163086,31.9749698638916],[-116.82319641113281,31.9749698638916],[-116.82319641113281,31.97551155090332],[-116.82414245605469,31.975513458251953],[-116.82414245605469,31.975784301757812],[-116.824462890625,31.975784301757812],[-116.824462890625,31.976055145263672],[-116.82477569580078,31.976055145263672],[-116.82477569580078,31.97632598876953],[-116.8254165649414,31.97632598876953],[-116.82540893554688,31.97713851928711],[-116.8235092163086,31.977136611938477],[-116.8235092163086,31.977407455444336],[-116.82318878173828,31.977407455444336],[-116.82318878173828,31.977676391601562],[-116.82286834716797,31.977676391601562],[-116.82286834716797,31.977947235107422],[-116.82255554199219,31.977947235107422],[-116.82255554199219,31.978213104782736],[-116.82254894597834,31.978218065421252],[-116.82064819335938,31.978214263916016],[-116.82064819335938,31.978485107421875],[-116.82001495361328,31.978485107421875],[-116.82001495361328,31.9787540435791],[-116.81937408447266,31.9787540435791],[-116.81937408447266,31.97902488708496],[-116.81874084472656,31.97902488708496],[-116.81874084472656,31.979280303777145],[-116.81870369395307,31.979293778803463],[-116.81714630126953,31.979291915893555],[-116.81714630126953,31.979021072387695],[-116.81399702149804,31.979017916796742],[-116.81377,31.97899],[-116.81367151421577,31.97901759063714],[-116.81333923339844,31.97901725769043],[-116.81333923339844,31.97874641418457],[-116.81365966796875,31.97874641418457],[-116.81365966796875,31.97847557067871],[-116.81397247314453,31.97847557067871],[-116.81397247314453,31.97820472717285],[-116.81683349609375,31.978208541870117],[-116.81683349609375,31.978479385375977],[-116.81715393066406,31.978479385375977],[-116.81715393066406,31.978750228881836],[-116.81809997558594,31.97875213623047],[-116.81809997558594,31.97848129272461],[-116.81969451904297,31.978483200073242],[-116.81969451904297,31.977943420410156],[-116.82000732421875,31.977943420410156],[-116.82000732421875,31.977672576904297],[-116.82032775878906,31.977672576904297],[-116.82032775878906,31.977401733398438],[-116.82096099853516,31.97740364074707],[-116.82096099853516,31.976591110229492],[-116.82128143310547,31.976591110229492],[-116.82128143310547,31.97686195373535],[-116.82255554199219,31.976863861083984],[-116.82255554199219,31.97578239440918],[-116.82286834716797,31.97578239440918],[-116.82286834716797,31.97551155090332],[-116.82255554199219,31.97551155090332],[-116.82255554199219,31.9749698638916],[-116.82223510742188,31.9749698638916],[-116.8222427368164,31.973886489868164],[-116.82255554199219,31.973886489868164],[-116.82255554199219,31.973615646362305],[-116.8228759765625,31.973615646362305],[-116.8228759765625,31.973886489868164],[-116.82319641113281,31.973886489868164],[-116.82319641113281,31.974159240722656],[-116.8238296508789,31.974159240722656],[-116.8238296508789,31.974700927734375],[-116.8235092163086,31.974700927734375],[-116.8235092163086,31.9749698638916]]],[[[-116.8292236328125,31.977954864501953],[-116.82890319824219,31.977954864501953],[-116.82890319824219,31.977144241333008],[-116.82921600341797,31.977144241333008],[-116.82921600341797,31.97687339782715],[-116.82953643798828,31.97687339782715],[-116.82953643798828,31.977144241333008],[-116.8298568725586,31.977144241333008],[-116.8298568725586,31.977415084838867],[-116.82953643798828,31.977415084838867],[-116.82953643798828,31.977685928344727],[-116.8292236328125,31.977685928344727],[-116.8292236328125,31.977954864501953]]],[[[-116.82223510742188,31.976593017578125],[-116.82128143310547,31.976591110229492],[-116.82128143310547,31.976320266723633],[-116.82160186767578,31.976320266723633],[-116.82160186767578,31.976051330566406],[-116.8219223022461,31.976051330566406],[-116.8219223022461,31.976322174072266],[-116.82223510742188,31.976322174072266],[-116.82223510742188,31.976593017578125]]],[[[-116.80349731445312,31.976835250854492],[-116.80318450927734,31.976835250854492],[-116.80318450927734,31.976564407348633],[-116.80349731445312,31.976564407348633],[-116.80349731445312,31.976295471191406],[-116.80381774902344,31.976295471191406],[-116.80381774902344,31.976566314697266],[-116.80413818359375,31.976566314697266],[-116.80413818359375,31.976837158203125],[-116.80445861816406,31.976837158203125],[-116.80445861816406,31.977108001708984],[-116.80349731445312,31.97710609436035],[-116.80349731445312,31.976835250854492]]],[[[-116.81238555908203,31.978744506835938],[-116.81302642822266,31.978744506835938],[-116.81302642822266,31.979015350341797],[-116.81238555908203,31.979015350341797],[-116.81238555908203,31.978744506835938]]],[[[-116.81143188476562,31.979284286499023],[-116.81143188476562,31.979013442993164],[-116.81175231933594,31.979013442993164],[-116.81175231933594,31.979284286499023],[-116.81143188476562,31.979284286499023]]],[[[-116.80667114257812,31.98008918762207],[-116.80667114257812,31.98036003112793],[-116.80730438232422,31.98036003112793],[-116.80730438232422,31.98063087463379],[-116.8069839477539,31.98063087463379],[-116.8069839477539,31.98090171813965],[-116.80635070800781,31.980899810791016],[-116.80635070800781,31.980628967285156],[-116.8060302734375,31.980628967285156],[-116.8060302734375,31.980358123779297],[-116.80571746826172,31.980358123779297],[-116.80571746826172,31.980087280273438],[-116.8053970336914,31.980087280273438],[-116.8053970336914,31.97954559326172],[-116.80603790283203,31.97954559326172],[-116.80603790283203,31.979276657104492],[-116.80762481689453,31.979278564453125],[-116.80762481689453,31.979820251464844],[-116.80730438232422,31.979820251464844],[-116.80730438232422,31.98008918762207],[-116.80667114257812,31.98008918762207]]],[[[-116.80413055419922,31.980627059936523],[-116.80413055419922,31.98089599609375],[-116.80349731445312,31.98089599609375],[-116.80349731445312,31.98116683959961],[-116.80254364013672,31.981164932250977],[-116.80254364013672,31.981435775756836],[-116.8019027709961,31.981435775756836],[-116.8019027709961,31.981163024902344],[-116.80158233642578,31.981163024902344],[-116.80158233642578,31.980892181396484],[-116.80126953125,31.980892181396484],[-116.80126953125,31.981163024902344],[-116.8006362915039,31.981163024902344],[-116.8006362915039,31.98143196105957],[-116.8003158569336,31.98143196105957],[-116.8003158569336,31.98116111755371],[-116.8006362915039,31.98116111755371],[-116.8006362915039,31.980892181396484],[-116.80094909667969,31.980892181396484],[-116.80094909667969,31.980621337890625],[-116.8006362915039,31.980621337890625],[-116.8006362915039,31.980350494384766],[-116.79936218261719,31.980348587036133],[-116.79936218261719,31.980077743530273],[-116.7987289428711,31.98007583618164],[-116.7987289428711,31.97980499267578],[-116.7990493774414,31.97980499267578],[-116.7990493774414,31.979265213012695],[-116.79778289794922,31.979263305664062],[-116.79778289794922,31.978721618652344],[-116.7971420288086,31.978721618652344],[-116.79714965820312,31.978179931640625],[-116.79619598388672,31.978178024291992],[-116.79619598388672,31.977636337280273],[-116.7958755493164,31.977636337280273],[-116.7958755493164,31.977094650268555],[-116.79524993896484,31.977094650268555],[-116.79524230957031,31.97763442993164],[-116.79460906982422,31.97763442993164],[-116.79460906982422,31.9779052734375],[-116.79397583007812,31.977903366088867],[-116.79397583007812,31.97736167907715],[-116.79365539550781,31.97736167907715],[-116.79365539550781,31.977632522583008],[-116.79302215576172,31.977632522583008],[-116.79302215576172,31.977359771728516],[-116.7927017211914,31.977359771728516],[-116.7927017211914,31.977088928222656],[-116.79302215576172,31.977088928222656],[-116.79302215576172,31.97681999206543],[-116.79334259033203,31.97681999206543],[-116.79334259033203,31.97654914855957],[-116.79365539550781,31.97654914855957],[-116.79365539550781,31.97627830505371],[-116.79397583007812,31.97627830505371],[-116.79397583007812,31.975738525390625],[-116.79366302490234,31.975738525390625],[-116.79366302490234,31.974925994873047],[-116.79334259033203,31.974925994873047],[-116.79334259033203,31.974655151367188],[-116.79302978515625,31.974655151367188],[-116.79302978515625,31.974924087524414],[-116.79238891601562,31.974924087524414],[-116.79238891601562,31.974382400512695],[-116.79270935058594,31.974382400512695],[-116.79270935058594,31.974111557006836],[-116.79302978515625,31.974111557006836],[-116.79335021972656,31.97411346435547],[-116.79335021972656,31.974384307861328],[-116.79398345947266,31.974384307861328],[-116.79398345947266,31.974655151367188],[-116.79429626464844,31.974655151367188],[-116.79429626464844,31.975196838378906],[-116.79398345947266,31.975196838378906],[-116.79398345947266,31.975467681884766],[-116.79429626464844,31.975467681884766],[-116.79429626464844,31.975738525390625],[-116.79461669921875,31.975738525390625],[-116.79461669921875,31.976009368896484],[-116.79492950439453,31.976009368896484],[-116.79492950439453,31.976282119750977],[-116.79524230957031,31.976282119750977],[-116.79524230957031,31.976011276245117],[-116.79651641845703,31.97601318359375],[-116.79651641845703,31.97574234008789],[-116.79747009277344,31.975744247436523],[-116.79747009277344,31.976015090942383],[-116.79779052734375,31.976015090942383],[-116.79779052734375,31.977096557617188],[-116.79747009277344,31.977096557617188],[-116.79747009277344,31.977367401123047],[-116.79778289794922,31.977367401123047],[-116.79778289794922,31.977638244628906],[-116.79873657226562,31.97764015197754],[-116.79873657226562,31.9779109954834],[-116.79936981201172,31.9779109954834],[-116.79936981201172,31.97818374633789],[-116.79969024658203,31.97818374633789],[-116.79969024658203,31.97845458984375],[-116.80000305175781,31.97845458984375],[-116.80000305175781,31.97872543334961],[-116.8006362915039,31.97872543334961],[-116.8006362915039,31.978456497192383],[-116.80095672607422,31.978456497192383],[-116.80095672607422,31.978185653686523],[-116.8006362915039,31.978185653686523],[-116.8006362915039,31.977914810180664],[-116.80032348632812,31.977914810180664],[-116.80032348632812,31.977643966674805],[-116.80127716064453,31.977643966674805],[-116.80127716064453,31.977914810180664],[-116.80159759521484,31.977914810180664],[-116.80159759521484,31.978185653686523],[-116.80191040039062,31.978185653686523],[-116.80191040039062,31.978727340698242],[-116.80286407470703,31.978729248046875],[-116.80286407470703,31.979000091552734],[-116.80317687988281,31.979000091552734],[-116.80317687988281,31.979270935058594],[-116.80349731445312,31.979270935058594],[-116.80349731445312,31.979541778564453],[-116.80413055419922,31.979543685913086],[-116.80413055419922,31.979814529418945],[-116.804443359375,31.979814529418945],[-116.804443359375,31.979543685913086],[-116.80476379394531,31.979543685913086],[-116.80476379394531,31.979814529418945],[-116.80445098876953,31.979814529418945],[-116.80445098876953,31.980085372924805],[-116.80476379394531,31.980085372924805],[-116.80476379394531,31.980627059936523],[-116.80413055419922,31.980627059936523]],[[-116.80349731445312,31.98035430908203],[-116.8038101196289,31.98035430908203],[-116.8038101196289,31.980083465576172],[-116.80349731445312,31.980083465576172],[-116.80349731445312,31.98035430908203]],[[-116.8019027709961,31.98008155822754],[-116.8019027709961,31.97981071472168],[-116.80127716064453,31.97981071472168],[-116.80127716064453,31.980079650878906],[-116.8019027709961,31.98008155822754]],[[-116.8034896850586,31.98062515258789],[-116.8034896850586,31.98035430908203],[-116.80254364013672,31.9803524017334],[-116.80254364013672,31.980623245239258],[-116.8034896850586,31.98062515258789]],[[-116.8019027709961,31.980892181396484],[-116.8019027709961,31.980623245239258],[-116.80158996582031,31.980623245239258],[-116.80158996582031,31.980892181396484],[-116.8019027709961,31.980892181396484]]],[[[-116.80952453613281,31.979551315307617],[-116.80984497070312,31.979551315307617],[-116.80984497070312,31.979822158813477],[-116.80952453613281,31.979822158813477],[-116.80952453613281,31.979551315307617]]],[[[-116.80065155029297,31.97574806213379],[-116.80001068115234,31.97574806213379],[-116.80001068115234,31.97520637512207],[-116.80065155029297,31.97520637512207],[-116.80065155029297,31.97574806213379]]],[[[-116.78318786621094,31.97517967224121],[-116.78350067138672,31.97517967224121],[-116.78350067138672,31.97545051574707],[-116.78413391113281,31.97545051574707],[-116.78413391113281,31.97572135925293],[-116.78254699707031,31.975719451904297],[-116.78254699707031,31.975990295410156],[-116.7822265625,31.975990295410156],[-116.7822265625,31.976259231567383],[-116.78254699707031,31.976259231567383],[-116.78254699707031,31.976531982421875],[-116.78286743164062,31.976531982421875],[-116.78286743164062,31.976802825927734],[-116.7822265625,31.9768009185791],[-116.7822265625,31.97707176208496],[-116.7831802368164,31.977073669433594],[-116.7831802368164,31.976802825927734],[-116.78413391113281,31.976804733276367],[-116.78413391113281,31.977346420288086],[-116.7831802368164,31.977344512939453],[-116.7831802368164,31.977615356445312],[-116.7828598022461,31.977615356445312],[-116.7828598022461,31.97734260559082],[-116.78190612792969,31.97734260559082],[-116.78190612792969,31.97761344909668],[-116.7812728881836,31.977611541748047],[-116.7812728881836,31.977069854736328],[-116.7806396484375,31.977069854736328],[-116.7806396484375,31.97679901123047],[-116.78031921386719,31.97679901123047],[-116.78031921386719,31.97652816772461],[-116.78096008300781,31.97652816772461],[-116.78096008300781,31.97625732421875],[-116.7806396484375,31.97625732421875],[-116.7806396484375,31.97598648071289],[-116.7800064086914,31.97598648071289],[-116.7800064086914,31.9757137298584],[-116.77937316894531,31.9757137298584],[-116.77937316894531,31.97544288635254],[-116.7796859741211,31.97544288635254],[-116.7796859741211,31.97517204284668],[-116.77937316894531,31.97517204284668],[-116.77937316894531,31.97490119934082],[-116.7784194946289,31.97490119934082],[-116.7784194946289,31.974628448486328],[-116.77810668945312,31.974628448486328],[-116.77810668945312,31.975170135498047],[-116.77778625488281,31.975170135498047],[-116.77778625488281,31.97435760498047],[-116.77715301513672,31.97435760498047],[-116.77715301513672,31.974626541137695],[-116.77747344970703,31.974626541137695],[-116.77747344970703,31.975168228149414],[-116.7774658203125,31.975439071655273],[-116.77714538574219,31.975439071655273],[-116.77714538574219,31.975168228149414],[-116.7768325805664,31.975168228149414],[-116.7768325805664,31.974897384643555],[-116.7765121459961,31.974897384643555],[-116.7765121459961,31.974626541137695],[-116.77619934082031,31.974626541137695],[-116.77619934082031,31.974353790283203],[-116.77587890625,31.974353790283203],[-116.77587890625,31.974082946777344],[-116.77651977539062,31.974084854125977],[-116.77651977539062,31.973814010620117],[-116.77619934082031,31.973814010620117],[-116.77619934082031,31.973543167114258],[-116.77588653564453,31.973543167114258],[-116.77588653564453,31.9732723236084],[-116.77556610107422,31.9732723236084],[-116.77556610107422,31.973541259765625],[-116.77525329589844,31.973541259765625],[-116.77525329589844,31.973812103271484],[-116.77461242675781,31.97381019592285],[-116.77461242675781,31.973539352416992],[-116.77429962158203,31.973539352416992],[-116.77429962158203,31.973268508911133],[-116.77461242675781,31.973268508911133],[-116.77461242675781,31.972457885742188],[-116.77429962158203,31.972457885742188],[-116.77429962158203,31.97191619873047],[-116.77366638183594,31.971914291381836],[-116.77366638183594,31.972185134887695],[-116.77334594726562,31.972185134887695],[-116.77334594726562,31.972455978393555],[-116.77303314208984,31.972455978393555],[-116.77303314208984,31.97272491455078],[-116.77239227294922,31.97272491455078],[-116.77239227294922,31.972183227539062],[-116.77175903320312,31.97218132019043],[-116.77175903320312,31.97191047668457],[-116.77143859863281,31.97191047668457],[-116.77143859863281,31.97163963317871],[-116.77080535888672,31.97163963317871],[-116.77080535888672,31.97136878967285],[-116.77049255371094,31.97136878967285],[-116.77049255371094,31.971097946166992],[-116.77081298828125,31.971097946166992],[-116.77081298828125,31.970827102661133],[-116.77049255371094,31.970827102661133],[-116.77049255371094,31.970014572143555],[-116.77081298828125,31.970014572143555],[-116.77081298828125,31.969743728637695],[-116.77017974853516,31.969743728637695],[-116.77017974853516,31.970012664794922],[-116.76922607421875,31.970012664794922],[-116.76922607421875,31.969741821289062],[-116.76859283447266,31.96973991394043],[-116.76859283447266,31.96919822692871],[-116.76827239990234,31.96919822692871],[-116.76827239990234,31.968385696411133],[-116.76795959472656,31.968385696411133],[-116.76795959472656,31.968114852905273],[-116.76732635498047,31.968114852905273],[-116.76732635498047,31.96784210205078],[-116.76669311523438,31.96784210205078],[-116.76669311523438,31.967300415039062],[-116.76637268066406,31.967300415039062],[-116.76637268066406,31.967029571533203],[-116.76605987548828,31.967029571533203],[-116.76605987548828,31.966758728027344],[-116.76573944091797,31.966758728027344],[-116.76573944091797,31.96648597717285],[-116.76542663574219,31.96648597717285],[-116.76542663574219,31.966215133666992],[-116.76573944091797,31.966215133666992],[-116.76573944091797,31.965946197509766],[-116.7663803100586,31.965946197509766],[-116.7663803100586,31.966217041015625],[-116.76669311523438,31.966217041015625],[-116.76669311523438,31.966758728027344],[-116.7663803100586,31.966758728027344],[-116.7663803100586,31.967029571533203],[-116.76764678955078,31.967031478881836],[-116.76764678955078,31.966760635375977],[-116.76732635498047,31.966760635375977],[-116.76732635498047,31.966489791870117],[-116.76764678955078,31.966489791870117],[-116.76764678955078,31.966218948364258],[-116.76732635498047,31.966218948364258],[-116.76732635498047,31.9659481048584],[-116.76764678955078,31.9659481048584],[-116.76764678955078,31.965679168701172],[-116.767333984375,31.965679168701172],[-116.767333984375,31.965137481689453],[-116.76764678955078,31.965137481689453],[-116.76764678955078,31.964866638183594],[-116.7679672241211,31.964866638183594],[-116.7679672241211,31.964595794677734],[-116.76764678955078,31.964595794677734],[-116.76764678955078,31.964324951171875],[-116.7667007446289,31.964323043823242],[-116.7667007446289,31.964052200317383],[-116.7663803100586,31.964052200317383],[-116.7663803100586,31.963781356811523],[-116.76702117919922,31.963783264160156],[-116.76702117919922,31.963512420654297],[-116.76765441894531,31.963512420654297],[-116.76765441894531,31.963241577148438],[-116.767333984375,31.963241577148438],[-116.76734161376953,31.96242904663086],[-116.76638793945312,31.96242904663086],[-116.76638793945312,31.962158203125],[-116.76606750488281,31.962158203125],[-116.76606750488281,31.96161651611328],[-116.76670837402344,31.96161651611328],[-116.76670837402344,31.961074829101562],[-116.76638793945312,31.961074829101562],[-116.76638793945312,31.960803985595703],[-116.76702880859375,31.960805892944336],[-116.76702880859375,31.961076736450195],[-116.76766204833984,31.961076736450195],[-116.76766204833984,31.961347579956055],[-116.76734161376953,31.961347579956055],[-116.76734161376953,31.961618423461914],[-116.76766204833984,31.961618423461914],[-116.76766204833984,31.961889266967773],[-116.76797485351562,31.961889266967773],[-116.76797485351562,31.962160110473633],[-116.76829528808594,31.962160110473633],[-116.76829528808594,31.961349487304688],[-116.76861572265625,31.961349487304688],[-116.76861572265625,31.961620330810547],[-116.76892852783203,31.961620330810547],[-116.76892852783203,31.962432861328125],[-116.76860809326172,31.962432861328125],[-116.76860809326172,31.962162017822266],[-116.76829528808594,31.962162017822266],[-116.76829528808594,31.96270179748535],[-116.76797485351562,31.96270179748535],[-116.76797485351562,31.96297264099121],[-116.76860809326172,31.96297264099121],[-116.76860809326172,31.963245391845703],[-116.76924133300781,31.963245391845703],[-116.76924133300781,31.963516235351562],[-116.77019500732422,31.963518142700195],[-116.77019500732422,31.963788986206055],[-116.77082824707031,31.963788986206055],[-116.77082824707031,31.963520050048828],[-116.77114868164062,31.963520050048828],[-116.77114868164062,31.963790893554688],[-116.7714614868164,31.963790893554688],[-116.7714614868164,31.964332580566406],[-116.77178192138672,31.964332580566406],[-116.77178192138672,31.964874267578125],[-116.7714614868164,31.964874267578125],[-116.7714614868164,31.96595573425293],[-116.77177429199219,31.96595573425293],[-116.77177429199219,31.96649742126465],[-116.7720947265625,31.96649742126465],[-116.7720947265625,31.967041015625],[-116.77240753173828,31.967041015625],[-116.77240753173828,31.96731185913086],[-116.7727279663086,31.96731185913086],[-116.7727279663086,31.967853546142578],[-116.77304077148438,31.967853546142578],[-116.77304077148438,31.968124389648438],[-116.77367401123047,31.968124389648438],[-116.77367401123047,31.968936920166016],[-116.77399444580078,31.968936920166016],[-116.77399444580078,31.969478607177734],[-116.77494049072266,31.969480514526367],[-116.77494049072266,31.969209671020508],[-116.77526092529297,31.969209671020508],[-116.77526092529297,31.96894073486328],[-116.77557373046875,31.96894073486328],[-116.77557373046875,31.968669891357422],[-116.77589416503906,31.968669891357422],[-116.77589416503906,31.968130111694336],[-116.77684783935547,31.968130111694336],[-116.77684783935547,31.968400955200195],[-116.77716827392578,31.968400955200195],[-116.77716827392578,31.968942642211914],[-116.77684783935547,31.968942642211914],[-116.77684783935547,31.969213485717773],[-116.77653503417969,31.969213485717773],[-116.77652740478516,31.96975326538086],[-116.77621459960938,31.96975326538086],[-116.77621459960938,31.970565795898438],[-116.77589416503906,31.970565795898438],[-116.77588653564453,31.9719181060791],[-116.77620697021484,31.9719181060791],[-116.77620697021484,31.97218894958496],[-116.77588653564453,31.97218894958496],[-116.77588653564453,31.97245979309082],[-116.77557373046875,31.97245979309082],[-116.77557373046875,31.97273063659668],[-116.77588653564453,31.97273063659668],[-116.77588653564453,31.97300148010254],[-116.77619934082031,31.97300148010254],[-116.77619934082031,31.97273063659668],[-116.77651977539062,31.97273063659668],[-116.77651977539062,31.972190856933594],[-116.77684020996094,31.972190856933594],[-116.77684020996094,31.971920013427734],[-116.77716064453125,31.971920013427734],[-116.77716064453125,31.972190856933594],[-116.77747344970703,31.972190856933594],[-116.77747344970703,31.972732543945312],[-116.77810668945312,31.972734451293945],[-116.77810668945312,31.973005294799805],[-116.77842712402344,31.973005294799805],[-116.77842712402344,31.973546981811523],[-116.77906036376953,31.973546981811523],[-116.77906036376953,31.974088668823242],[-116.77938079833984,31.974088668823242],[-116.77937316894531,31.974361419677734],[-116.77969360351562,31.974361419677734],[-116.77969360351562,31.974632263183594],[-116.78064727783203,31.974632263183594],[-116.78064727783203,31.974363327026367],[-116.78096771240234,31.974363327026367],[-116.78096771240234,31.974634170532227],[-116.78128051757812,31.974634170532227],[-116.78128051757812,31.974363327026367],[-116.78160095214844,31.974363327026367],[-116.78160095214844,31.974634170532227],[-116.78191375732422,31.974634170532227],[-116.78191375732422,31.97490692138672],[-116.78318786621094,31.97490882873535],[-116.78318786621094,31.97517967224121]],[[-116.77398681640625,31.970020294189453],[-116.77367401123047,31.970020294189453],[-116.77366638183594,31.97083282470703],[-116.77398681640625,31.97083282470703],[-116.77398681640625,31.970020294189453]],[[-116.77684020996094,31.97300148010254],[-116.77684020996094,31.972732543945312],[-116.77651977539062,31.972732543945312],[-116.77651977539062,31.97300148010254],[-116.77684020996094,31.97300148010254]],[[-116.77145385742188,31.96866226196289],[-116.77145385742188,31.96920394897461],[-116.77113342285156,31.96920394897461],[-116.77113342285156,31.970285415649414],[-116.77144622802734,31.970285415649414],[-116.77144622802734,31.970558166503906],[-116.77176666259766,31.970558166503906],[-116.77176666259766,31.970829010009766],[-116.77303314208984,31.9708309173584],[-116.77303314208984,31.97056007385254],[-116.77271270751953,31.97056007385254],[-116.77271270751953,31.97028923034668],[-116.77239990234375,31.97028923034668],[-116.77239990234375,31.96974754333496],[-116.77208709716797,31.96974754333496],[-116.77208709716797,31.970016479492188],[-116.77176666259766,31.970016479492188],[-116.77176666259766,31.969745635986328],[-116.77207946777344,31.969745635986328],[-116.77207946777344,31.96947479248047],[-116.77176666259766,31.96947479248047],[-116.77176666259766,31.96920394897461],[-116.77208709716797,31.96920394897461],[-116.77208709716797,31.968935012817383],[-116.77176666259766,31.968935012817383],[-116.77176666259766,31.968664169311523],[-116.77145385742188,31.96866226196289]],[[-116.77145385742188,31.967309951782227],[-116.77113342285156,31.967309951782227],[-116.77113342285156,31.967037200927734],[-116.77082061767578,31.967037200927734],[-116.77082061767578,31.967849731445312],[-116.77145385742188,31.967849731445312],[-116.77145385742188,31.967309951782227]],[[-116.76986694335938,31.965953826904297],[-116.7695541381836,31.965953826904297],[-116.7695541381836,31.966222763061523],[-116.76923370361328,31.966222763061523],[-116.76923370361328,31.966764450073242],[-116.76954650878906,31.966764450073242],[-116.76954650878906,31.966493606567383],[-116.76986694335938,31.966493606567383],[-116.76986694335938,31.965953826904297]],[[-116.77082824707031,31.964872360229492],[-116.77082824707031,31.964601516723633],[-116.7705078125,31.964601516723633],[-116.7705078125,31.964872360229492],[-116.77082824707031,31.964872360229492]],[[-116.76986694335938,31.966766357421875],[-116.76986694335938,31.9670352935791],[-116.77018737792969,31.9670352935791],[-116.77018737792969,31.966766357421875],[-116.76986694335938,31.966766357421875]]],[[[-116.79270935058594,31.97600746154785],[-116.79270935058594,31.976276397705078],[-116.79143524169922,31.976276397705078],[-116.79143524169922,31.976545333862305],[-116.79112243652344,31.976545333862305],[-116.79112243652344,31.976816177368164],[-116.79080200195312,31.976816177368164],[-116.79080200195312,31.976274490356445],[-116.79016876220703,31.976274490356445],[-116.79016876220703,31.976543426513672],[-116.78921508789062,31.976543426513672],[-116.78921508789062,31.9768123626709],[-116.78858184814453,31.9768123626709],[-116.78858184814453,31.977083206176758],[-116.78667449951172,31.977079391479492],[-116.78667449951172,31.97735023498535],[-116.7863540649414,31.97735023498535],[-116.7863540649414,31.977079391479492],[-116.78572082519531,31.97707748413086],[-116.78572082519531,31.97653579711914],[-116.7860336303711,31.97653579711914],[-116.7860336303711,31.976266860961914],[-116.78667449951172,31.976266860961914],[-116.78667449951172,31.975997924804688],[-116.7869873046875,31.975997924804688],[-116.7869873046875,31.975727081298828],[-116.78889465332031,31.97572898864746],[-116.78889465332031,31.975460052490234],[-116.79238891601562,31.9754638671875],[-116.79238891601562,31.975194931030273],[-116.79270935058594,31.975194931030273],[-116.79270935058594,31.975465774536133],[-116.79334259033203,31.975465774536133],[-116.79334259033203,31.97600746154785],[-116.79270935058594,31.97600746154785]]],[[[-116.78382110595703,31.976533889770508],[-116.7831802368164,31.976531982421875],[-116.7831802368164,31.976261138916016],[-116.78382110595703,31.97626304626465],[-116.78382110595703,31.976533889770508]]],[[[-116.77842712402344,31.971651077270508],[-116.77842712402344,31.971921920776367],[-116.77779388427734,31.971921920776367],[-116.77779388427734,31.97138023376465],[-116.77811431884766,31.97138023376465],[-116.77811431884766,31.971651077270508],[-116.77842712402344,31.971651077270508]]],[[[-116.77873992919922,31.97517204284668],[-116.77906036376953,31.97517204284668],[-116.77906036376953,31.97544288635254],[-116.77873992919922,31.97544288635254],[-116.77873992919922,31.97517204284668]]],[[[-116.7780990600586,31.975440979003906],[-116.7784194946289,31.975440979003906],[-116.7784194946289,31.975711822509766],[-116.7780990600586,31.975711822509766],[-116.7780990600586,31.975440979003906]]],[[[-116.77777862548828,31.976253509521484],[-116.77777862548828,31.975982666015625],[-116.7780990600586,31.975982666015625],[-116.7780990600586,31.976253509521484],[-116.77777862548828,31.976253509521484]]],[[[-116.75662994384766,31.929119110107422],[-116.75695037841797,31.929119110107422],[-116.75695037841797,31.92938995361328],[-116.75662994384766,31.92938995361328],[-116.75662994384766,31.929119110107422]]],[[[-116.75885009765625,31.930477142333984],[-116.75917053222656,31.930477142333984],[-116.75917053222656,31.930747985839844],[-116.75885009765625,31.930747985839844],[-116.75885009765625,31.931560516357422],[-116.75917053222656,31.931560516357422],[-116.75916290283203,31.933183670043945],[-116.75884246826172,31.933183670043945],[-116.75884246826172,31.933454513549805],[-116.75820922851562,31.933452606201172],[-116.75820922851562,31.93182945251465],[-116.75789642333984,31.93182945251465],[-116.75789642333984,31.931556701660156],[-116.75757598876953,31.931556701660156],[-116.75758361816406,31.929933547973633],[-116.75726318359375,31.929933547973633],[-116.75726318359375,31.929662704467773],[-116.75789642333984,31.929662704467773],[-116.75789642333984,31.929391860961914],[-116.75758361816406,31.929391860961914],[-116.75758361816406,31.929121017456055],[-116.75822448730469,31.929122924804688],[-116.75822448730469,31.929393768310547],[-116.75853729248047,31.929393768310547],[-116.75853729248047,31.929935455322266],[-116.75885009765625,31.929935455322266],[-116.75885009765625,31.930477142333984]]],[[[-116.75943756103516,31.94725799560547],[-116.75975799560547,31.94725799560547],[-116.75975799560547,31.947528839111328],[-116.75943756103516,31.947528839111328],[-116.75943756103516,31.94725799560547]]],[[[-116.76607513427734,31.961074829101562],[-116.76607513427734,31.961345672607422],[-116.76575469970703,31.961345672607422],[-116.76575469970703,31.96161460876465],[-116.76543426513672,31.96161460876465],[-116.76543426513672,31.96107292175293],[-116.76607513427734,31.961074829101562]]],[[[-116.76637268066406,31.96784210205078],[-116.76669311523438,31.96784210205078],[-116.76669311523438,31.96811294555664],[-116.76637268066406,31.96811294555664],[-116.76637268066406,31.96784210205078]]]]}},{"type":"Feature","properties":{"id":"salsipuedes-kelp-canopy","name":"Salsipuedes recent kelp canopy","className":"Kelp Canopy"},"geometry":{"type":"MultiPolygon","coordinates":[[[[-116.79270935058594,31.976276397705078],[-116.79238891601562,31.976276397705078],[-116.79238891601562,31.97600555419922],[-116.79270935058594,31.97600555419922],[-116.79270935058594,31.975736618041992],[-116.79302978515625,31.975736618041992],[-116.79302978515625,31.97600746154785],[-116.79270935058594,31.97600746154785],[-116.79270935058594,31.976276397705078]]],[[[-116.79397583007812,31.977092742919922],[-116.79397583007812,31.97681999206543],[-116.79365539550781,31.97681999206543],[-116.79365539550781,31.97654914855957],[-116.79460906982422,31.976551055908203],[-116.79460906982422,31.977092742919922],[-116.79397583007812,31.977092742919922]]],[[[-116.82414245605469,31.976865768432617],[-116.824462890625,31.976865768432617],[-116.824462890625,31.977136611938477],[-116.82414245605469,31.977136611938477],[-116.82414245605469,31.976865768432617]]],[[[-116.7942886352539,31.97736358642578],[-116.79460906982422,31.97736358642578],[-116.79460906982422,31.97763442993164],[-116.7942886352539,31.97763442993164],[-116.7942886352539,31.97736358642578]]],[[[-116.82255554199219,31.977947235107422],[-116.82255554199219,31.978213104782736],[-116.82254894597834,31.978218065421252],[-116.82064819335938,31.978214263916016],[-116.82064819335938,31.977672576904297],[-116.82160186767578,31.97767448425293],[-116.82160186767578,31.97794532775879],[-116.82255554199219,31.977947235107422]]],[[[-116.82032775878906,31.978214263916016],[-116.82064819335938,31.978214263916016],[-116.82064819335938,31.978485107421875],[-116.82032775878906,31.978485107421875],[-116.82032775878906,31.978214263916016]]],[[[-116.81587982177734,31.978477478027344],[-116.81587982177734,31.978748321533203],[-116.81620025634766,31.978748321533203],[-116.81620025634766,31.979019165039062],[-116.81429290771484,31.97901725769043],[-116.81429290771484,31.97847557067871],[-116.81587982177734,31.978477478027344]]],[[[-116.81969451904297,31.978483200073242],[-116.82001495361328,31.978483200073242],[-116.82001495361328,31.9787540435791],[-116.81969451904297,31.9787540435791],[-116.81969451904297,31.978483200073242]]],[[[-116.81333923339844,31.97874641418457],[-116.81398010253906,31.97874641418457],[-116.81398010253906,31.979015836275103],[-116.81377,31.97899],[-116.81367270268119,31.97901725769043],[-116.81333923339844,31.97901725769043],[-116.81333923339844,31.97874641418457]]],[[[-116.81905364990234,31.9787540435791],[-116.81937408447266,31.9787540435791],[-116.81937408447266,31.97902488708496],[-116.81905364990234,31.97902488708496],[-116.81905364990234,31.9787540435791]]],[[[-116.81874084472656,31.979022979736328],[-116.81874084472656,31.979280303777145],[-116.81870357143508,31.979293823242188],[-116.81842041015625,31.979293823242188],[-116.81842041015625,31.979022979736328],[-116.81874084472656,31.979022979736328]]],[[[-116.80254364013672,31.981164932250977],[-116.80254364013672,31.981435775756836],[-116.8022232055664,31.981435775756836],[-116.8022232055664,31.981164932250977],[-116.80254364013672,31.981164932250977]]],[[[-116.83651733398438,31.981212615966797],[-116.83683776855469,31.981212615966797],[-116.83683776855469,31.981483459472656],[-116.83679860463236,31.981483459472656],[-116.83651733398438,31.981218562924486],[-116.83651733398438,31.981212615966797]]],[[[-116.79143524169922,31.976003646850586],[-116.79143524169922,31.976274490356445],[-116.79112243652344,31.976274490356445],[-116.79112243652344,31.976816177368164],[-116.79080200195312,31.976816177368164],[-116.79080200195312,31.976274490356445],[-116.79016876220703,31.976274490356445],[-116.79016876220703,31.976543426513672],[-116.78921508789062,31.976543426513672],[-116.78921508789062,31.9768123626709],[-116.78858184814453,31.9768123626709],[-116.78858184814453,31.977083206176758],[-116.78667449951172,31.977079391479492],[-116.78667449951172,31.97735023498535],[-116.7863540649414,31.97735023498535],[-116.7863540649414,31.976808547973633],[-116.7869873046875,31.976808547973633],[-116.7869873046875,31.976539611816406],[-116.78730773925781,31.976539611816406],[-116.78730773925781,31.976268768310547],[-116.7879409790039,31.976268768310547],[-116.7879409790039,31.97599983215332],[-116.78826141357422,31.97599983215332],[-116.78826141357422,31.97627067565918],[-116.78857421875,31.97627067565918],[-116.78857421875,31.97599983215332],[-116.79143524169922,31.976003646850586]]],[[[-116.77557373046875,31.97002410888672],[-116.77589416503906,31.97002410888672],[-116.77589416503906,31.970294952392578],[-116.77557373046875,31.970294952392578],[-116.77557373046875,31.97002410888672]]],[[[-116.77239990234375,31.971641540527344],[-116.77335357666016,31.971643447875977],[-116.77334594726562,31.972455978393555],[-116.77303314208984,31.972455978393555],[-116.77303314208984,31.97272491455078],[-116.77239227294922,31.97272491455078],[-116.77239227294922,31.972183227539062],[-116.77175903320312,31.97218132019043],[-116.77175903320312,31.97191047668457],[-116.77143859863281,31.97191047668457],[-116.77143859863281,31.97163963317871],[-116.77080535888672,31.97163963317871],[-116.77080535888672,31.97136878967285],[-116.77049255371094,31.97136878967285],[-116.77049255371094,31.971097946166992],[-116.77081298828125,31.971097946166992],[-116.77081298828125,31.970827102661133],[-116.77176666259766,31.970829010009766],[-116.77176666259766,31.971099853515625],[-116.77239990234375,31.971099853515625],[-116.77239990234375,31.971641540527344]]],[[[-116.77525329589844,31.973541259765625],[-116.77525329589844,31.973812103271484],[-116.77461242675781,31.97381019592285],[-116.77461242675781,31.973539352416992],[-116.77429962158203,31.973539352416992],[-116.77429962158203,31.973268508911133],[-116.77493286132812,31.973270416259766],[-116.77493286132812,31.973541259765625],[-116.77525329589844,31.973541259765625]]],[[[-116.77619934082031,31.974626541137695],[-116.77619934082031,31.974353790283203],[-116.77587890625,31.974353790283203],[-116.77587890625,31.974082946777344],[-116.77684020996094,31.974084854125977],[-116.7768325805664,31.974626541137695],[-116.77619934082031,31.974626541137695]]],[[[-116.77777862548828,31.975982666015625],[-116.7780990600586,31.975982666015625],[-116.7780990600586,31.976253509521484],[-116.77777862548828,31.976253509521484],[-116.77777862548828,31.975982666015625]]],[[[-116.78604125976562,31.976806640625],[-116.78604125976562,31.97707748413086],[-116.78572082519531,31.97707748413086],[-116.78572082519531,31.976806640625],[-116.78604125976562,31.976806640625]]],[[[-116.7812728881836,31.977611541748047],[-116.7812728881836,31.977340698242188],[-116.78190612792969,31.97734260559082],[-116.78190612792969,31.97761344909668],[-116.7812728881836,31.977611541748047]]],[[[-116.76700592041016,31.96784210205078],[-116.76700592041016,31.967302322387695],[-116.76732635498047,31.967302322387695],[-116.76732635498047,31.967573165893555],[-116.76764678955078,31.967573165893555],[-116.76764678955078,31.967844009399414],[-116.76700592041016,31.96784210205078]]],[[[-116.76637268066406,31.96784210205078],[-116.76669311523438,31.96784210205078],[-116.76669311523438,31.96811294555664],[-116.76637268066406,31.96811294555664],[-116.76637268066406,31.96784210205078]]],[[[-116.76891326904297,31.968658447265625],[-116.76923370361328,31.968658447265625],[-116.76923370361328,31.968929290771484],[-116.76986694335938,31.968929290771484],[-116.76985931396484,31.969741821289062],[-116.76859283447266,31.96973991394043],[-116.76859283447266,31.96919822692871],[-116.76827239990234,31.96919822692871],[-116.76827239990234,31.968385696411133],[-116.76795959472656,31.968385696411133],[-116.76795959472656,31.968114852905273],[-116.76828002929688,31.968114852905273],[-116.76828002929688,31.967845916748047],[-116.76860046386719,31.967845916748047],[-116.76859283447266,31.968387603759766],[-116.76891326904297,31.968387603759766],[-116.76891326904297,31.968658447265625]]]]}}]}