{"type":"FeatureCollection","features":[{"type":"Feature","geometry":{"type":"Point","coordinates":[-116.81879,31.97843]},"properties":{"depth_ft":13,"depth_m":3.9}},{"type":"Feature","geometry":{"type":"Point","coordinates":[-116.8151,31.97843]},"properties":{"depth_ft":80,"depth_m":24.5}},{"type":"Feature","geometry":{"type":"Point","coordinates":[-116.8114,31.97843]},"properties":{"depth_ft":192,"depth_m":58.4}},{"type":"Feature","geometry":{"type":"Point","coordinates":[-116.80771,31.97843]},"properties":{"depth_ft":226,"depth_m":68.7}},{"type":"Feature","geometry":{"type":"Point","coordinates":[-116.80401,31.97843]},"properties":{"depth_ft":45,"depth_m":13.6}},{"type":"Feature","geometry":{"type":"Point","coordinates":[-116.79662,31.97843]},"properties":{"depth_ft":11,"depth_m":3.2}},{"type":"Feature","geometry":{"type":"Point","coordinates":[-116.79293,31.97843]},"properties":{"depth_ft":30,"depth_m":9.1}},{"type":"Feature","geometry":{"type":"Point","coordinates":[-116.82248,31.9753]},"properties":{"depth_ft":202,"depth_m":61.4}},{"type":"Feature","geometry":{"type":"Point","coordinates":[-116.81879,31.9753]},"properties":{"depth_ft":243,"depth_m":74.2}},{"type":"Feature","geometry":{"type":"Point","coordinates":[-116.8151,31.9753]},"properties":{"depth_ft":272,"depth_m":83.0}},{"type":"Feature","geometry":{"type":"Point","coordinates":[-116.8114,31.9753]},"properties":{"depth_ft":287,"depth_m":87.6}},{"type":"Feature","geometry":{"type":"Point","coordinates":[-116.80771,31.9753]},"properties":{"depth_ft":236,"depth_m":71.9}},{"type":"Feature","geometry":{"type":"Point","coordinates":[-116.80401,31.9753]},"properties":{"depth_ft":118,"depth_m":35.8}},{"type":"Feature","geometry":{"type":"Point","coordinates":[-116.80032,31.9753]},"properties":{"depth_ft":57,"depth_m":17.2}},{"type":"Feature","geometry":{"type":"Point","coordinates":[-116.79662,31.9753]},"properties":{"depth_ft":78,"depth_m":23.8}},{"type":"Feature","geometry":{"type":"Point","coordinates":[-116.79293,31.9753]},"properties":{"depth_ft":125,"depth_m":38.3}},{"type":"Feature","geometry":{"type":"Point","coordinates":[-116.78924,31.9753]},"properties":{"depth_ft":154,"depth_m":46.9}},{"type":"Feature","geometry":{"type":"Point","coordinates":[-116.78554,31.9753]},"properties":{"depth_ft":121,"depth_m":36.9}},{"type":"Feature","geometry":{"type":"Point","coordinates":[-116.78185,31.9753]},"properties":{"depth_ft":44,"depth_m":13.5}},{"type":"Feature","geometry":{"type":"Point","coordinates":[-116.82248,31.97217]},"properties":{"depth_ft":237,"depth_m":72.3}},{"type":"Feature","geometry":{"type":"Point","coordinates":[-116.81879,31.97217]},"properties":{"depth_ft":277,"depth_m":84.5}},{"type":"Feature","geometry":{"type":"Point","coordinates":[-116.8151,31.97217]},"properties":{"depth_ft":291,"depth_m":88.8}},{"type":"Feature","geometry":{"type":"Point","coordinates":[-116.8114,31.97217]},"properties":{"depth_ft":286,"depth_m":87.1}},{"type":"Feature","geometry":{"type":"Point","coordinates":[-116.80771,31.97217]},"properties":{"depth_ft":247,"depth_m":75.4}},{"type":"Feature","geometry":{"type":"Point","coordinates":[-116.80401,31.97217]},"properties":{"depth_ft":185,"depth_m":56.4}},{"type":"Feature","geometry":{"type":"Point","coordinates":[-116.80032,31.97217]},"properties":{"depth_ft":143,"depth_m":43.5}},{"type":"Feature","geometry":{"type":"Point","coordinates":[-116.79662,31.97217]},"properties":{"depth_ft":137,"depth_m":41.8}},{"type":"Feature","geometry":{"type":"Point","coordinates":[-116.79293,31.97217]},"properties":{"depth_ft":150,"depth_m":45.7}},{"type":"Feature","geometry":{"type":"Point","coordinates":[-116.78924,31.97217]},"properties":{"depth_ft":159,"depth_m":48.5}},{"type":"Feature","geometry":{"type":"Point","coordinates":[-116.78554,31.97217]},"properties":{"depth_ft":143,"depth_m":43.7}},{"type":"Feature","geometry":{"type":"Point","coordinates":[-116.78185,31.97217]},"properties":{"depth_ft":98,"depth_m":30.0}},{"type":"Feature","geometry":{"type":"Point","coordinates":[-116.77815,31.97217]},"properties":{"depth_ft":48,"depth_m":14.7}},{"type":"Feature","geometry":{"type":"Point","coordinates":[-116.77446,31.97217]},"properties":{"depth_ft":11,"depth_m":3.3}},{"type":"Feature","geometry":{"type":"Point","coordinates":[-116.82248,31.96903]},"properties":{"depth_ft":260,"depth_m":79.1}},{"type":"Feature","geometry":{"type":"Point","coordinates":[-116.81879,31.96903]},"properties":{"depth_ft":290,"depth_m":88.4}},{"type":"Feature","geometry":{"type":"Point","coordinates":[-116.8151,31.96903]},"properties":{"depth_ft":299,"depth_m":91.2}},{"type":"Feature","geometry":{"type":"Point","coordinates":[-116.8114,31.96903]},"properties":{"depth_ft":292,"depth_m":89.0}},{"type":"Feature","geometry":{"type":"Point","coordinates":[-116.80771,31.96903]},"properties":{"depth_ft":266,"depth_m":81.1}},{"type":"Feature","geometry":{"type":"Point","coordinates":[-116.80401,31.96903]},"properties":{"depth_ft":229,"depth_m":69.9}},{"type":"Feature","geometry":{"type":"Point","coordinates":[-116.80032,31.96903]},"properties":{"depth_ft":200,"depth_m":60.9}},{"type":"Feature","geometry":{"type":"Point","coordinates":[-116.79662,31.96903]},"properties":{"depth_ft":188,"depth_m":57.2}},{"type":"Feature","geometry":{"type":"Point","coordinates":[-116.79293,31.96903]},"properties":{"depth_ft":186,"depth_m":56.7}},{"type":"Feature","geometry":{"type":"Point","coordinates":[-116.78924,31.96903]},"properties":{"depth_ft":184,"depth_m":56.2}},{"type":"Feature","geometry":{"type":"Point","coordinates":[-116.78554,31.96903]},"properties":{"depth_ft":170,"depth_m":52.0}},{"type":"Feature","geometry":{"type":"Point","coordinates":[-116.78185,31.96903]},"properties":{"depth_ft":137,"depth_m":41.8}},{"type":"Feature","geometry":{"type":"Point","coordinates":[-116.77815,31.96903]},"properties":{"depth_ft":89,"depth_m":27.1}},{"type":"Feature","geometry":{"type":"Point","coordinates":[-116.77446,31.96903]},"properties":{"depth_ft":35,"depth_m":10.7}},{"type":"Feature","geometry":{"type":"Point","coordinates":[-116.77076,31.96903]},"properties":{"depth_ft":6,"depth_m":1.7}},{"type":"Feature","geometry":{"type":"Point","coordinates":[-116.82248,31.9659]},"properties":{"depth_ft":268,"depth_m":81.8}},{"type":"Feature","geometry":{"type":"Point","coordinates":[-116.81879,31.9659]},"properties":{"depth_ft":292,"depth_m":89.1}},{"type":"Feature","geometry":{"type":"Point","coordinates":[-116.8151,31.9659]},"properties":{"depth_ft":302,"depth_m":91.9}},{"type":"Feature","geometry":{"type":"Point","coordinates":[-116.8114,31.9659]},"properties":{"depth_ft":298,"depth_m":90.8}},{"type":"Feature","geometry":{"type":"Point","coordinates":[-116.80771,31.9659]},"properties":{"depth_ft":282,"depth_m":86.0}},{"type":"Feature","geometry":{"type":"Point","coordinates":[-116.80401,31.9659]},"properties":{"depth_ft":260,"depth_m":79.4}},{"type":"Feature","geometry":{"type":"Point","coordinates":[-116.80032,31.9659]},"properties":{"depth_ft":242,"depth_m":73.6}},{"type":"Feature","geometry":{"type":"Point","coordinates":[-116.79662,31.9659]},"properties":{"depth_ft":231,"depth_m":70.3}},{"type":"Feature","geometry":{"type":"Point","coordinates":[-116.79293,31.9659]},"properties":{"depth_ft":224,"depth_m":68.3}},{"type":"Feature","geometry":{"type":"Point","coordinates":[-116.78924,31.9659]},"properties":{"depth_ft":216,"depth_m":65.9}},{"type":"Feature","geometry":{"type":"Point","coordinates":[-116.78554,31.9659]},"properties":{"depth_ft":199,"depth_m":60.7}},{"type":"Feature","geometry":{"type":"Point","coordinates":[-116.78185,31.9659]},"properties":{"depth_ft":168,"depth_m":51.1}},{"type":"Feature","geometry":{"type":"Point","coordinates":[-116.77815,31.9659]},"properties":{"depth_ft":122,"depth_m":37.0}},{"type":"Feature","geometry":{"type":"Point","coordinates":[-116.77446,31.9659]},"properties":{"depth_ft":65,"depth_m":19.8}},{"type":"Feature","geometry":{"type":"Point","coordinates":[-116.77076,31.9659]},"properties":{"depth_ft":10,"depth_m":3.1}},{"type":"Feature","geometry":{"type":"Point","coordinates":[-116.76707,31.9659]},"properties":{"depth_ft":20,"depth_m":6.2}},{"type":"Feature","geometry":{"type":"Point","coordinates":[-116.82248,31.96277]},"properties":{"depth_ft":270,"depth_m":82.3}},{"type":"Feature","geometry":{"type":"Point","coordinates":[-116.81879,31.96277]},"properties":{"depth_ft":290,"depth_m":88.4}},{"type":"Feature","geometry":{"type":"Point","coordinates":[-116.8151,31.96277]},"properties":{"depth_ft":300,"depth_m":91.4}},{"type":"Feature","geometry":{"type":"Point","coordinates":[-116.8114,31.96277]},"properties":{"depth_ft":300,"depth_m":91.6}},{"type":"Feature","geometry":{"type":"Point","coordinates":[-116.80771,31.96277]},"properties":{"depth_ft":293,"depth_m":89.3}},{"type":"Feature","geometry":{"type":"Point","coordinates":[-116.80401,31.96277]},"properties":{"depth_ft":281,"depth_m":85.6}},{"type":"Feature","geometry":{"type":"Point","coordinates":[-116.80032,31.96277]},"properties":{"depth_ft":269,"depth_m":82.1}},{"type":"Feature","geometry":{"type":"Point","coordinates":[-116.79662,31.96277]},"properties":{"depth_ft":260,"depth_m":79.3}},{"type":"Feature","geometry":{"type":"Point","coordinates":[-116.79293,31.96277]},"properties":{"depth_ft":252,"depth_m":76.8}},{"type":"Feature","geometry":{"type":"Point","coordinates":[-116.78924,31.96277]},"properties":{"depth_ft":241,"depth_m":73.4}},{"type":"Feature","geometry":{"type":"Point","coordinates":[-116.78554,31.96277]},"properties":{"depth_ft":221,"depth_m":67.5}},{"type":"Feature","geometry":{"type":"Point","coordinates":[-116.78185,31.96277]},"properties":{"depth_ft":191,"depth_m":58.1}},{"type":"Feature","geometry":{"type":"Point","coordinates":[-116.77815,31.96277]},"properties":{"depth_ft":148,"depth_m":45.0}},{"type":"Feature","geometry":{"type":"Point","coordinates":[-116.77446,31.96277]},"properties":{"depth_ft":95,"depth_m":29.0}},{"type":"Feature","geometry":{"type":"Point","coordinates":[-116.77076,31.96277]},"properties":{"depth_ft":39,"depth_m":11.9}},{"type":"Feature","geometry":{"type":"Point","coordinates":[-116.76707,31.96277]},"properties":{"depth_ft":1,"depth_m":0.3}},{"type":"Feature","geometry":{"type":"Point","coordinates":[-116.76338,31.96277]},"properties":{"depth_ft":21,"depth_m":6.5}},{"type":"Feature","geometry":{"type":"Point","coordinates":[-116.82248,31.95963]},"properties":{"depth_ft":271,"depth_m":82.5}},{"type":"Feature","geometry":{"type":"Point","coordinates":[-116.81879,31.95963]},"properties":{"depth_ft":288,"depth_m":87.8}},{"type":"Feature","geometry":{"type":"Point","coordinates":[-116.8151,31.95963]},"properties":{"depth_ft":299,"depth_m":91.0}},{"type":"Feature","geometry":{"type":"Point","coordinates":[-116.8114,31.95963]},"properties":{"depth_ft":302,"depth_m":92.1}},{"type":"Feature","geometry":{"type":"Point","coordinates":[-116.80771,31.95963]},"properties":{"depth_ft":300,"depth_m":91.5}},{"type":"Feature","geometry":{"type":"Point","coordinates":[-116.80401,31.95963]},"properties":{"depth_ft":294,"depth_m":89.7}},{"type":"Feature","geometry":{"type":"Point","coordinates":[-116.80032,31.95963]},"properties":{"depth_ft":287,"depth_m":87.5}},{"type":"Feature","geometry":{"type":"Point","coordinates":[-116.79662,31.95963]},"properties":{"depth_ft":279,"depth_m":85.2}},{"type":"Feature","geometry":{"type":"Point","coordinates":[-116.79293,31.95963]},"properties":{"depth_ft":271,"depth_m":82.5}},{"type":"Feature","geometry":{"type":"Point","coordinates":[-116.78924,31.95963]},"properties":{"depth_ft":259,"depth_m":78.8}},{"type":"Feature","geometry":{"type":"Point","coordinates":[-116.78554,31.95963]},"properties":{"depth_ft":239,"depth_m":72.9}},{"type":"Feature","geometry":{"type":"Point","coordinates":[-116.78185,31.95963]},"properties":{"depth_ft":211,"depth_m":64.2}},{"type":"Feature","geometry":{"type":"Point","coordinates":[-116.77815,31.95963]},"properties":{"depth_ft":172,"depth_m":52.6}},{"type":"Feature","geometry":{"type":"Point","coordinates":[-116.77446,31.95963]},"properties":{"depth_ft":127,"depth_m":38.6}},{"type":"Feature","geometry":{"type":"Point","coordinates":[-116.77076,31.95963]},"properties":{"depth_ft":77,"depth_m":23.5}},{"type":"Feature","geometry":{"type":"Point","coordinates":[-116.76707,31.95963]},"properties":{"depth_ft":30,"depth_m":9.0}},{"type":"Feature","geometry":{"type":"Point","coordinates":[-116.76338,31.95963]},"properties":{"depth_ft":1,"depth_m":0.4}},{"type":"Feature","geometry":{"type":"Point","coordinates":[-116.82248,31.9565]},"properties":{"depth_ft":270,"depth_m":82.2}},{"type":"Feature","geometry":{"type":"Point","coordinates":[-116.81879,31.9565]},"properties":{"depth_ft":286,"depth_m":87.1}},{"type":"Feature","geometry":{"type":"Point","coordinates":[-116.8151,31.9565]},"properties":{"depth_ft":297,"depth_m":90.5}},{"type":"Feature","geometry":{"type":"Point","coordinates":[-116.8114,31.9565]},"properties":{"depth_ft":303,"depth_m":92.2}},{"type":"Feature","geometry":{"type":"Point","coordinates":[-116.80771,31.9565]},"properties":{"depth_ft":304,"depth_m":92.6}},{"type":"Feature","geometry":{"type":"Point","coordinates":[-116.80401,31.9565]},"properties":{"depth_ft":301,"depth_m":91.9}},{"type":"Feature","geometry":{"type":"Point","coordinates":[-116.80032,31.9565]},"properties":{"depth_ft":297,"depth_m":90.5}},{"type":"Feature","geometry":{"type":"Point","coordinates":[-116.79662,31.9565]},"properties":{"depth_ft":291,"depth_m":88.6}},{"type":"Feature","geometry":{"type":"Point","coordinates":[-116.79293,31.9565]},"properties":{"depth_ft":282,"depth_m":86.0}},{"type":"Feature","geometry":{"type":"Point","coordinates":[-116.78924,31.9565]},"properties":{"depth_ft":271,"depth_m":82.6}},{"type":"Feature","geometry":{"type":"Point","coordinates":[-116.78554,31.9565]},"properties":{"depth_ft":254,"depth_m":77.3}},{"type":"Feature","geometry":{"type":"Point","coordinates":[-116.78185,31.9565]},"properties":{"depth_ft":229,"depth_m":69.9}},{"type":"Feature","geometry":{"type":"Point","coordinates":[-116.77815,31.9565]},"properties":{"depth_ft":197,"depth_m":60.1}},{"type":"Feature","geometry":{"type":"Point","coordinates":[-116.77446,31.9565]},"properties":{"depth_ft":159,"depth_m":48.5}},{"type":"Feature","geometry":{"type":"Point","coordinates":[-116.77076,31.9565]},"properties":{"depth_ft":119,"depth_m":36.1}},{"type":"Feature","geometry":{"type":"Point","coordinates":[-116.76707,31.9565]},"properties":{"depth_ft":78,"depth_m":23.8}},{"type":"Feature","geometry":{"type":"Point","coordinates":[-116.76338,31.9565]},"properties":{"depth_ft":33,"depth_m":10.0}},{"type":"Feature","geometry":{"type":"Point","coordinates":[-116.82248,31.95336]},"properties":{"depth_ft":266,"depth_m":81.0}},{"type":"Feature","geometry":{"type":"Point","coordinates":[-116.81879,31.95336]},"properties":{"depth_ft":282,"depth_m":85.8}},{"type":"Feature","geometry":{"type":"Point","coordinates":[-116.8151,31.95336]},"properties":{"depth_ft":293,"depth_m":89.4}},{"type":"Feature","geometry":{"type":"Point","coordinates":[-116.8114,31.95336]},"properties":{"depth_ft":300,"depth_m":91.5}},{"type":"Feature","geometry":{"type":"Point","coordinates":[-116.80771,31.95336]},"properties":{"depth_ft":304,"depth_m":92.6}},{"type":"Feature","geometry":{"type":"Point","coordinates":[-116.80401,31.95336]},"properties":{"depth_ft":304,"depth_m":92.5}},{"type":"Feature","geometry":{"type":"Point","coordinates":[-116.80032,31.95336]},"properties":{"depth_ft":301,"depth_m":91.7}},{"type":"Feature","geometry":{"type":"Point","coordinates":[-116.79662,31.95336]},"properties":{"depth_ft":296,"depth_m":90.3}},{"type":"Feature","geometry":{"type":"Point","coordinates":[-116.79293,31.95336]},"properties":{"depth_ft":289,"depth_m":88.1}},{"type":"Feature","geometry":{"type":"Point","coordinates":[-116.78924,31.95336]},"properties":{"depth_ft":279,"depth_m":85.1}},{"type":"Feature","geometry":{"type":"Point","coordinates":[-116.78554,31.95336]},"properties":{"depth_ft":265,"depth_m":80.6}},{"type":"Feature","geometry":{"type":"Point","coordinates":[-116.78185,31.95336]},"properties":{"depth_ft":245,"depth_m":74.6}},{"type":"Feature","geometry":{"type":"Point","coordinates":[-116.77815,31.95336]},"properties":{"depth_ft":220,"depth_m":66.9}},{"type":"Feature","geometry":{"type":"Point","coordinates":[-116.77446,31.95336]},"properties":{"depth_ft":190,"depth_m":57.9}},{"type":"Feature","geometry":{"type":"Point","coordinates":[-116.77076,31.95336]},"properties":{"depth_ft":158,"depth_m":48.3}},{"type":"Feature","geometry":{"type":"Point","coordinates":[-116.76707,31.95336]},"properties":{"depth_ft":128,"depth_m":38.9}},{"type":"Feature","geometry":{"type":"Point","coordinates":[-116.76338,31.95336]},"properties":{"depth_ft":92,"depth_m":28.1}},{"type":"Feature","geometry":{"type":"Point","coordinates":[-116.75968,31.95336]},"properties":{"depth_ft":46,"depth_m":13.9}},{"type":"Feature","geometry":{"type":"Point","coordinates":[-116.82248,31.95023]},"properties":{"depth_ft":259,"depth_m":79.0}},{"type":"Feature","geometry":{"type":"Point","coordinates":[-116.81879,31.95023]},"properties":{"depth_ft":275,"depth_m":83.8}},{"type":"Feature","geometry":{"type":"Point","coordinates":[-116.8151,31.95023]},"properties":{"depth_ft":287,"depth_m":87.6}},{"type":"Feature","geometry":{"type":"Point","coordinates":[-116.8114,31.95023]},"properties":{"depth_ft":296,"depth_m":90.1}},{"type":"Feature","geometry":{"type":"Point","coordinates":[-116.80771,31.95023]},"properties":{"depth_ft":301,"depth_m":91.6}},{"type":"Feature","geometry":{"type":"Point","coordinates":[-116.80401,31.95023]},"properties":{"depth_ft":302,"depth_m":92.1}},{"type":"Feature","geometry":{"type":"Point","coordinates":[-116.80032,31.95023]},"properties":{"depth_ft":301,"depth_m":91.8}},{"type":"Feature","geometry":{"type":"Point","coordinates":[-116.79662,31.95023]},"properties":{"depth_ft":298,"depth_m":90.8}},{"type":"Feature","geometry":{"type":"Point","coordinates":[-116.79293,31.95023]},"properties":{"depth_ft":292,"depth_m":89.0}},{"type":"Feature","geometry":{"type":"Point","coordinates":[-116.78924,31.95023]},"properties":{"depth_ft":284,"depth_m":86.5}},{"type":"Feature","geometry":{"type":"Point","coordinates":[-116.78554,31.95023]},"properties":{"depth_ft":272,"depth_m":82.9}},{"type":"Feature","geometry":{"type":"Point","coordinates":[-116.78185,31.95023]},"properties":{"depth_ft":257,"depth_m":78.2}},{"type":"Feature","geometry":{"type":"Point","coordinates":[-116.77815,31.95023]},"properties":{"depth_ft":237,"depth_m":72.2}},{"type":"Feature","geometry":{"type":"Point","coordinates":[-116.77446,31.95023]},"properties":{"depth_ft":214,"depth_m":65.3}},{"type":"Feature","geometry":{"type":"Point","coordinates":[-116.77076,31.95023]},"properties":{"depth_ft":191,"depth_m":58.1}},{"type":"Feature","geometry":{"type":"Point","coordinates":[-116.76707,31.95023]},"properties":{"depth_ft":168,"depth_m":51.2}},{"type":"Feature","geometry":{"type":"Point","coordinates":[-116.76338,31.95023]},"properties":{"depth_ft":147,"depth_m":44.8}},{"type":"Feature","geometry":{"type":"Point","coordinates":[-116.75968,31.95023]},"properties":{"depth_ft":140,"depth_m":42.7}},{"type":"Feature","geometry":{"type":"Point","coordinates":[-116.82248,31.9471]},"properties":{"depth_ft":250,"depth_m":76.1}},{"type":"Feature","geometry":{"type":"Point","coordinates":[-116.81879,31.9471]},"properties":{"depth_ft":266,"depth_m":81.0}},{"type":"Feature","geometry":{"type":"Point","coordinates":[-116.8151,31.9471]},"properties":{"depth_ft":279,"depth_m":85.0}},{"type":"Feature","geometry":{"type":"Point","coordinates":[-116.8114,31.9471]},"properties":{"depth_ft":288,"depth_m":87.9}},{"type":"Feature","geometry":{"type":"Point","coordinates":[-116.80771,31.9471]},"properties":{"depth_ft":295,"depth_m":89.9}},{"type":"Feature","geometry":{"type":"Point","coordinates":[-116.80401,31.9471]},"properties":{"depth_ft":298,"depth_m":90.9}},{"type":"Feature","geometry":{"type":"Point","coordinates":[-116.80032,31.9471]},"properties":{"depth_ft":299,"depth_m":91.1}},{"type":"Feature","geometry":{"type":"Point","coordinates":[-116.79662,31.9471]},"properties":{"depth_ft":297,"depth_m":90.5}},{"type":"Feature","geometry":{"type":"Point","coordinates":[-116.79293,31.9471]},"properties":{"depth_ft":293,"depth_m":89.2}},{"type":"Feature","geometry":{"type":"Point","coordinates":[-116.78924,31.9471]},"properties":{"depth_ft":286,"depth_m":87.2}},{"type":"Feature","geometry":{"type":"Point","coordinates":[-116.78554,31.9471]},"properties":{"depth_ft":277,"depth_m":84.5}},{"type":"Feature","geometry":{"type":"Point","coordinates":[-116.78185,31.9471]},"properties":{"depth_ft":265,"depth_m":80.9}},{"type":"Feature","geometry":{"type":"Point","coordinates":[-116.77815,31.9471]},"properties":{"depth_ft":250,"depth_m":76.4}},{"type":"Feature","geometry":{"type":"Point","coordinates":[-116.77446,31.9471]},"properties":{"depth_ft":233,"depth_m":71.0}},{"type":"Feature","geometry":{"type":"Point","coordinates":[-116.77076,31.9471]},"properties":{"depth_ft":214,"depth_m":65.3}},{"type":"Feature","geometry":{"type":"Point","coordinates":[-116.76707,31.9471]},"properties":{"depth_ft":196,"depth_m":59.7}},{"type":"Feature","geometry":{"type":"Point","coordinates":[-116.76338,31.9471]},"properties":{"depth_ft":177,"depth_m":53.9}},{"type":"Feature","geometry":{"type":"Point","coordinates":[-116.75968,31.9471]},"properties":{"depth_ft":160,"depth_m":48.7}},{"type":"Feature","geometry":{"type":"Point","coordinates":[-116.82248,31.94396]},"properties":{"depth_ft":239,"depth_m":72.7}},{"type":"Feature","geometry":{"type":"Point","coordinates":[-116.81879,31.94396]},"properties":{"depth_ft":255,"depth_m":77.7}},{"type":"Feature","geometry":{"type":"Point","coordinates":[-116.8151,31.94396]},"properties":{"depth_ft":269,"depth_m":81.9}},{"type":"Feature","geometry":{"type":"Point","coordinates":[-116.8114,31.94396]},"properties":{"depth_ft":279,"depth_m":85.1}},{"type":"Feature","geometry":{"type":"Point","coordinates":[-116.80771,31.94396]},"properties":{"depth_ft":287,"depth_m":87.5}},{"type":"Feature","geometry":{"type":"Point","coordinates":[-116.80401,31.94396]},"properties":{"depth_ft":292,"depth_m":89.0}},{"type":"Feature","geometry":{"type":"Point","coordinates":[-116.80032,31.94396]},"properties":{"depth_ft":294,"depth_m":89.6}},{"type":"Feature","geometry":{"type":"Point","coordinates":[-116.79662,31.94396]},"properties":{"depth_ft":294,"depth_m":89.5}},{"type":"Feature","geometry":{"type":"Point","coordinates":[-116.79293,31.94396]},"properties":{"depth_ft":291,"depth_m":88.7}},{"type":"Feature","geometry":{"type":"Point","coordinates":[-116.78924,31.94396]},"properties":{"depth_ft":286,"depth_m":87.3}},{"type":"Feature","geometry":{"type":"Point","coordinates":[-116.78554,31.94396]},"properties":{"depth_ft":279,"depth_m":85.2}},{"type":"Feature","geometry":{"type":"Point","coordinates":[-116.78185,31.94396]},"properties":{"depth_ft":270,"depth_m":82.4}},{"type":"Feature","geometry":{"type":"Point","coordinates":[-116.77815,31.94396]},"properties":{"depth_ft":259,"depth_m":78.8}},{"type":"Feature","geometry":{"type":"Point","coordinates":[-116.77446,31.94396]},"properties":{"depth_ft":244,"depth_m":74.4}},{"type":"Feature","geometry":{"type":"Point","coordinates":[-116.77076,31.94396]},"properties":{"depth_ft":227,"depth_m":69.1}},{"type":"Feature","geometry":{"type":"Point","coordinates":[-116.76707,31.94396]},"properties":{"depth_ft":207,"depth_m":63.1}},{"type":"Feature","geometry":{"type":"Point","coordinates":[-116.76338,31.94396]},"properties":{"depth_ft":181,"depth_m":55.1}},{"type":"Feature","geometry":{"type":"Point","coordinates":[-116.75968,31.94396]},"properties":{"depth_ft":147,"depth_m":44.7}},{"type":"Feature","geometry":{"type":"Point","coordinates":[-116.75599,31.94396]},"properties":{"depth_ft":37,"depth_m":11.4}}]}