{"type":"FeatureCollection","features":[{"type":"Feature","geometry":{"type":"Polygon","coordinates":[[[-121.46634,35.90837],[-121.46655,35.90886],[-121.4677,35.91008],[-121.46759,35.91021],[-121.46787,35.91075],[-121.46826,35.91109],[-121.47009,35.91153],[-121.47027,35.91174],[-121.47032,35.91214],[-121.47001,35.91273],[-121.47047,35.91324],[-121.47032,35.91344],[-121.47041,35.9141],[-121.47293,35.91486],[-121.47289,35.91514],[-121.47314,35.91542],[-121.47255,35.91579],[-121.47286,35.9163],[-121.47283,35.91676],[-121.47209,35.9174],[-121.47235,35.91732],[-121.47243,35.91749],[-121.47197,35.91745],[-121.47159,35.91793],[-121.47205,35.91813],[-121.47229,35.91879],[-121.47305,35.91863],[-121.47297,35.91886],[-121.47247,35.91888],[-121.47254,35.91908],[-121.47291,35.91904],[-121.47277,35.9191],[-121.47288,35.91922],[-121.47304,35.91903],[-121.4732,35.91908],[-121.47323,35.91927],[-121.47404,35.91944],[-121.474,35.9197],[-121.47428,35.9198],[-121.47434,35.91962],[-121.47487,35.91965],[-121.47464,35.9199],[-121.47497,35.92004],[-121.47478,35.92027],[-121.47442,35.9202],[-121.47414,35.92033],[-121.47283,35.9199],[-121.47256,35.91998],[-121.47217,35.92026],[-121.47211,35.92051],[-121.47009,35.92149],[-121.46913,35.92242],[-121.46885,35.92303],[-121.46837,35.92473],[-121.46843,35.92548],[-121.46909,35.92719],[-121.46946,35.92754],[-121.4695,35.92777],[-121.4703,35.92828],[-121.47073,35.929],[-121.47122,35.92919],[-121.47219,35.92904],[-121.47358,35.92997],[-121.47443,35.93004],[-121.47655,35.93104],[-121.47667,35.93155],[-121.47652,35.93196],[-121.4758,35.93236],[-121.47516,35.93238],[-121.47504,35.9327],[-121.47509,35.93374],[-121.47632,35.93523],[-121.47641,35.9356],[-121.47568,35.93605],[-121.47514,35.93671],[-121.47547,35.9372],[-121.47591,35.93742],[-121.47653,35.93727],[-121.47662,35.93757],[-121.47638,35.93811],[-121.47641,35.93857],[-121.47591,35.93907],[-121.47589,35.93963],[-121.47697,35.9408],[-121.47664,35.94115],[-121.47678,35.94155],[-121.47749,35.94172],[-121.47797,35.94264],[-121.47841,35.94298],[-121.4791,35.94322],[-121.47952,35.9438],[-121.47994,35.94404],[-121.47886,35.94426],[-121.47865,35.94454],[-121.47889,35.94505],[-121.47867,35.94546],[-121.47867,35.9459],[-121.47961,35.94684],[-121.47978,35.94722],[-121.47947,35.94797],[-121.47954,35.94877],[-121.48023,35.94931],[-121.48079,35.94951],[-121.48098,35.94946],[-121.48103,35.9492],[-121.4819,35.94968],[-121.48263,35.94944],[-121.4828,35.94958],[-121.48271,35.94985],[-121.48233,35.94998],[-121.48232328185328,35.950027027027026],[-121.46562658031237,35.950027027027026],[-121.46562658031237,35.90800968702645],[-121.46634,35.90837]]]},"properties":{"name":"ca-mainland"}}]}