{"type":"FeatureCollection","features":[{"type":"Feature","geometry":{"type":"Point","coordinates":[-121.51216,35.94703]},"properties":{"depth_ft":318,"depth_m":97.0}},{"type":"Feature","geometry":{"type":"Point","coordinates":[-121.50926,35.94703]},"properties":{"depth_ft":291,"depth_m":88.6}},{"type":"Feature","geometry":{"type":"Point","coordinates":[-121.50635,35.94703]},"properties":{"depth_ft":238,"depth_m":72.7}},{"type":"Feature","geometry":{"type":"Point","coordinates":[-121.50345,35.94703]},"properties":{"depth_ft":212,"depth_m":64.7}},{"type":"Feature","geometry":{"type":"Point","coordinates":[-121.50055,35.94703]},"properties":{"depth_ft":183,"depth_m":55.8}},{"type":"Feature","geometry":{"type":"Point","coordinates":[-121.49765,35.94703]},"properties":{"depth_ft":154,"depth_m":46.8}},{"type":"Feature","geometry":{"type":"Point","coordinates":[-121.49474,35.94703]},"properties":{"depth_ft":129,"depth_m":39.3}},{"type":"Feature","geometry":{"type":"Point","coordinates":[-121.49184,35.94703]},"properties":{"depth_ft":110,"depth_m":33.7}},{"type":"Feature","geometry":{"type":"Point","coordinates":[-121.48894,35.94703]},"properties":{"depth_ft":85,"depth_m":25.9}},{"type":"Feature","geometry":{"type":"Point","coordinates":[-121.48604,35.94703]},"properties":{"depth_ft":60,"depth_m":18.2}},{"type":"Feature","geometry":{"type":"Point","coordinates":[-121.48314,35.94703]},"properties":{"depth_ft":33,"depth_m":10.1}},{"type":"Feature","geometry":{"type":"Point","coordinates":[-121.48023,35.94703]},"properties":{"depth_ft":5,"depth_m":1.5}},{"type":"Feature","geometry":{"type":"Point","coordinates":[-121.51216,35.94468]},"properties":{"depth_ft":311,"depth_m":94.8}},{"type":"Feature","geometry":{"type":"Point","coordinates":[-121.50926,35.94468]},"properties":{"depth_ft":288,"depth_m":87.7}},{"type":"Feature","geometry":{"type":"Point","coordinates":[-121.50635,35.94468]},"properties":{"depth_ft":247,"depth_m":75.4}},{"type":"Feature","geometry":{"type":"Point","coordinates":[-121.50345,35.94468]},"properties":{"depth_ft":216,"depth_m":65.8}},{"type":"Feature","geometry":{"type":"Point","coordinates":[-121.50055,35.94468]},"properties":{"depth_ft":187,"depth_m":57.1}},{"type":"Feature","geometry":{"type":"Point","coordinates":[-121.49765,35.94468]},"properties":{"depth_ft":162,"depth_m":49.5}},{"type":"Feature","geometry":{"type":"Point","coordinates":[-121.49474,35.94468]},"properties":{"depth_ft":135,"depth_m":41.1}},{"type":"Feature","geometry":{"type":"Point","coordinates":[-121.49184,35.94468]},"properties":{"depth_ft":109,"depth_m":33.2}},{"type":"Feature","geometry":{"type":"Point","coordinates":[-121.48894,35.94468]},"properties":{"depth_ft":90,"depth_m":27.3}},{"type":"Feature","geometry":{"type":"Point","coordinates":[-121.48604,35.94468]},"properties":{"depth_ft":64,"depth_m":19.5}},{"type":"Feature","geometry":{"type":"Point","coordinates":[-121.48314,35.94468]},"properties":{"depth_ft":33,"depth_m":10.0}},{"type":"Feature","geometry":{"type":"Point","coordinates":[-121.48023,35.94468]},"properties":{"depth_ft":6,"depth_m":1.7}},{"type":"Feature","geometry":{"type":"Point","coordinates":[-121.51216,35.94233]},"properties":{"depth_ft":303,"depth_m":92.5}},{"type":"Feature","geometry":{"type":"Point","coordinates":[-121.50926,35.94233]},"properties":{"depth_ft":277,"depth_m":84.3}},{"type":"Feature","geometry":{"type":"Point","coordinates":[-121.50635,35.94233]},"properties":{"depth_ft":244,"depth_m":74.4}},{"type":"Feature","geometry":{"type":"Point","coordinates":[-121.50345,35.94233]},"properties":{"depth_ft":220,"depth_m":67.0}},{"type":"Feature","geometry":{"type":"Point","coordinates":[-121.50055,35.94233]},"properties":{"depth_ft":197,"depth_m":59.9}},{"type":"Feature","geometry":{"type":"Point","coordinates":[-121.49765,35.94233]},"properties":{"depth_ft":161,"depth_m":49.2}},{"type":"Feature","geometry":{"type":"Point","coordinates":[-121.49474,35.94233]},"properties":{"depth_ft":127,"depth_m":38.7}},{"type":"Feature","geometry":{"type":"Point","coordinates":[-121.49184,35.94233]},"properties":{"depth_ft":110,"depth_m":33.6}},{"type":"Feature","geometry":{"type":"Point","coordinates":[-121.48894,35.94233]},"properties":{"depth_ft":101,"depth_m":30.8}},{"type":"Feature","geometry":{"type":"Point","coordinates":[-121.48604,35.94233]},"properties":{"depth_ft":79,"depth_m":24.2}},{"type":"Feature","geometry":{"type":"Point","coordinates":[-121.48314,35.94233]},"properties":{"depth_ft":52,"depth_m":15.7}},{"type":"Feature","geometry":{"type":"Point","coordinates":[-121.48023,35.94233]},"properties":{"depth_ft":26,"depth_m":8.0}},{"type":"Feature","geometry":{"type":"Point","coordinates":[-121.51506,35.93998]},"properties":{"depth_ft":321,"depth_m":97.9}},{"type":"Feature","geometry":{"type":"Point","coordinates":[-121.51216,35.93998]},"properties":{"depth_ft":289,"depth_m":88.0}},{"type":"Feature","geometry":{"type":"Point","coordinates":[-121.50926,35.93998]},"properties":{"depth_ft":263,"depth_m":80.0}},{"type":"Feature","geometry":{"type":"Point","coordinates":[-121.50635,35.93998]},"properties":{"depth_ft":242,"depth_m":73.7}},{"type":"Feature","geometry":{"type":"Point","coordinates":[-121.50345,35.93998]},"properties":{"depth_ft":219,"depth_m":66.7}},{"type":"Feature","geometry":{"type":"Point","coordinates":[-121.50055,35.93998]},"properties":{"depth_ft":210,"depth_m":64.1}},{"type":"Feature","geometry":{"type":"Point","coordinates":[-121.49765,35.93998]},"properties":{"depth_ft":183,"depth_m":55.8}},{"type":"Feature","geometry":{"type":"Point","coordinates":[-121.49474,35.93998]},"properties":{"depth_ft":148,"depth_m":45.2}},{"type":"Feature","geometry":{"type":"Point","coordinates":[-121.49184,35.93998]},"properties":{"depth_ft":122,"depth_m":37.3}},{"type":"Feature","geometry":{"type":"Point","coordinates":[-121.48894,35.93998]},"properties":{"depth_ft":107,"depth_m":32.7}},{"type":"Feature","geometry":{"type":"Point","coordinates":[-121.48604,35.93998]},"properties":{"depth_ft":92,"depth_m":28.0}},{"type":"Feature","geometry":{"type":"Point","coordinates":[-121.48314,35.93998]},"properties":{"depth_ft":63,"depth_m":19.2}},{"type":"Feature","geometry":{"type":"Point","coordinates":[-121.48023,35.93998]},"properties":{"depth_ft":38,"depth_m":11.7}},{"type":"Feature","geometry":{"type":"Point","coordinates":[-121.47733,35.93998]},"properties":{"depth_ft":7,"depth_m":2.3}},{"type":"Feature","geometry":{"type":"Point","coordinates":[-121.51506,35.93763]},"properties":{"depth_ft":316,"depth_m":96.3}},{"type":"Feature","geometry":{"type":"Point","coordinates":[-121.51216,35.93763]},"properties":{"depth_ft":277,"depth_m":84.5}},{"type":"Feature","geometry":{"type":"Point","coordinates":[-121.50926,35.93763]},"properties":{"depth_ft":252,"depth_m":76.7}},{"type":"Feature","geometry":{"type":"Point","coordinates":[-121.50635,35.93763]},"properties":{"depth_ft":235,"depth_m":71.5}},{"type":"Feature","geometry":{"type":"Point","coordinates":[-121.50345,35.93763]},"properties":{"depth_ft":216,"depth_m":65.9}},{"type":"Feature","geometry":{"type":"Point","coordinates":[-121.50055,35.93763]},"properties":{"depth_ft":201,"depth_m":61.2}},{"type":"Feature","geometry":{"type":"Point","coordinates":[-121.49765,35.93763]},"properties":{"depth_ft":179,"depth_m":54.5}},{"type":"Feature","geometry":{"type":"Point","coordinates":[-121.49474,35.93763]},"properties":{"depth_ft":154,"depth_m":47.0}},{"type":"Feature","geometry":{"type":"Point","coordinates":[-121.49184,35.93763]},"properties":{"depth_ft":133,"depth_m":40.5}},{"type":"Feature","geometry":{"type":"Point","coordinates":[-121.48894,35.93763]},"properties":{"depth_ft":113,"depth_m":34.3}},{"type":"Feature","geometry":{"type":"Point","coordinates":[-121.48604,35.93763]},"properties":{"depth_ft":86,"depth_m":26.2}},{"type":"Feature","geometry":{"type":"Point","coordinates":[-121.48314,35.93763]},"properties":{"depth_ft":61,"depth_m":18.6}},{"type":"Feature","geometry":{"type":"Point","coordinates":[-121.48023,35.93763]},"properties":{"depth_ft":38,"depth_m":11.7}},{"type":"Feature","geometry":{"type":"Point","coordinates":[-121.47733,35.93763]},"properties":{"depth_ft":7,"depth_m":2.0}},{"type":"Feature","geometry":{"type":"Point","coordinates":[-121.51796,35.93528]},"properties":{"depth_ft":313,"depth_m":95.5}},{"type":"Feature","geometry":{"type":"Point","coordinates":[-121.51506,35.93528]},"properties":{"depth_ft":299,"depth_m":91.2}},{"type":"Feature","geometry":{"type":"Point","coordinates":[-121.51216,35.93528]},"properties":{"depth_ft":266,"depth_m":81.2}},{"type":"Feature","geometry":{"type":"Point","coordinates":[-121.50926,35.93528]},"properties":{"depth_ft":238,"depth_m":72.6}},{"type":"Feature","geometry":{"type":"Point","coordinates":[-121.50635,35.93528]},"properties":{"depth_ft":218,"depth_m":66.5}},{"type":"Feature","geometry":{"type":"Point","coordinates":[-121.50345,35.93528]},"properties":{"depth_ft":210,"depth_m":64.0}},{"type":"Feature","geometry":{"type":"Point","coordinates":[-121.50055,35.93528]},"properties":{"depth_ft":192,"depth_m":58.4}},{"type":"Feature","geometry":{"type":"Point","coordinates":[-121.49765,35.93528]},"properties":{"depth_ft":170,"depth_m":51.9}},{"type":"Feature","geometry":{"type":"Point","coordinates":[-121.49474,35.93528]},"properties":{"depth_ft":146,"depth_m":44.4}},{"type":"Feature","geometry":{"type":"Point","coordinates":[-121.49184,35.93528]},"properties":{"depth_ft":125,"depth_m":38.1}},{"type":"Feature","geometry":{"type":"Point","coordinates":[-121.48894,35.93528]},"properties":{"depth_ft":111,"depth_m":33.9}},{"type":"Feature","geometry":{"type":"Point","coordinates":[-121.48604,35.93528]},"properties":{"depth_ft":89,"depth_m":27.3}},{"type":"Feature","geometry":{"type":"Point","coordinates":[-121.48314,35.93528]},"properties":{"depth_ft":68,"depth_m":20.7}},{"type":"Feature","geometry":{"type":"Point","coordinates":[-121.48023,35.93528]},"properties":{"depth_ft":40,"depth_m":12.3}},{"type":"Feature","geometry":{"type":"Point","coordinates":[-121.47733,35.93528]},"properties":{"depth_ft":5,"depth_m":1.5}},{"type":"Feature","geometry":{"type":"Point","coordinates":[-121.51796,35.93293]},"properties":{"depth_ft":315,"depth_m":96.1}},{"type":"Feature","geometry":{"type":"Point","coordinates":[-121.51506,35.93293]},"properties":{"depth_ft":278,"depth_m":84.6}},{"type":"Feature","geometry":{"type":"Point","coordinates":[-121.51216,35.93293]},"properties":{"depth_ft":258,"depth_m":78.6}},{"type":"Feature","geometry":{"type":"Point","coordinates":[-121.50926,35.93293]},"properties":{"depth_ft":234,"depth_m":71.3}},{"type":"Feature","geometry":{"type":"Point","coordinates":[-121.50635,35.93293]},"properties":{"depth_ft":215,"depth_m":65.7}},{"type":"Feature","geometry":{"type":"Point","coordinates":[-121.50345,35.93293]},"properties":{"depth_ft":205,"depth_m":62.6}},{"type":"Feature","geometry":{"type":"Point","coordinates":[-121.50055,35.93293]},"properties":{"depth_ft":181,"depth_m":55.3}},{"type":"Feature","geometry":{"type":"Point","coordinates":[-121.49765,35.93293]},"properties":{"depth_ft":168,"depth_m":51.1}},{"type":"Feature","geometry":{"type":"Point","coordinates":[-121.49474,35.93293]},"properties":{"depth_ft":148,"depth_m":45.1}},{"type":"Feature","geometry":{"type":"Point","coordinates":[-121.49184,35.93293]},"properties":{"depth_ft":128,"depth_m":39.1}},{"type":"Feature","geometry":{"type":"Point","coordinates":[-121.48894,35.93293]},"properties":{"depth_ft":115,"depth_m":34.9}},{"type":"Feature","geometry":{"type":"Point","coordinates":[-121.48604,35.93293]},"properties":{"depth_ft":98,"depth_m":29.8}},{"type":"Feature","geometry":{"type":"Point","coordinates":[-121.48314,35.93293]},"properties":{"depth_ft":78,"depth_m":23.8}},{"type":"Feature","geometry":{"type":"Point","coordinates":[-121.48023,35.93293]},"properties":{"depth_ft":45,"depth_m":13.7}},{"type":"Feature","geometry":{"type":"Point","coordinates":[-121.47733,35.93293]},"properties":{"depth_ft":19,"depth_m":5.7}},{"type":"Feature","geometry":{"type":"Point","coordinates":[-121.51796,35.93058]},"properties":{"depth_ft":311,"depth_m":94.8}},{"type":"Feature","geometry":{"type":"Point","coordinates":[-121.51506,35.93058]},"properties":{"depth_ft":270,"depth_m":82.3}},{"type":"Feature","geometry":{"type":"Point","coordinates":[-121.51216,35.93058]},"properties":{"depth_ft":249,"depth_m":76.0}},{"type":"Feature","geometry":{"type":"Point","coordinates":[-121.50926,35.93058]},"properties":{"depth_ft":232,"depth_m":70.6}},{"type":"Feature","geometry":{"type":"Point","coordinates":[-121.50635,35.93058]},"properties":{"depth_ft":212,"depth_m":64.5}},{"type":"Feature","geometry":{"type":"Point","coordinates":[-121.50345,35.93058]},"properties":{"depth_ft":203,"depth_m":61.9}},{"type":"Feature","geometry":{"type":"Point","coordinates":[-121.50055,35.93058]},"properties":{"depth_ft":178,"depth_m":54.2}},{"type":"Feature","geometry":{"type":"Point","coordinates":[-121.49765,35.93058]},"properties":{"depth_ft":166,"depth_m":50.6}},{"type":"Feature","geometry":{"type":"Point","coordinates":[-121.49474,35.93058]},"properties":{"depth_ft":147,"depth_m":44.9}},{"type":"Feature","geometry":{"type":"Point","coordinates":[-121.49184,35.93058]},"properties":{"depth_ft":132,"depth_m":40.1}},{"type":"Feature","geometry":{"type":"Point","coordinates":[-121.48894,35.93058]},"properties":{"depth_ft":116,"depth_m":35.3}},{"type":"Feature","geometry":{"type":"Point","coordinates":[-121.48604,35.93058]},"properties":{"depth_ft":104,"depth_m":31.6}},{"type":"Feature","geometry":{"type":"Point","coordinates":[-121.48314,35.93058]},"properties":{"depth_ft":89,"depth_m":27.1}},{"type":"Feature","geometry":{"type":"Point","coordinates":[-121.48023,35.93058]},"properties":{"depth_ft":57,"depth_m":17.5}},{"type":"Feature","geometry":{"type":"Point","coordinates":[-121.47733,35.93058]},"properties":{"depth_ft":27,"depth_m":8.2}},{"type":"Feature","geometry":{"type":"Point","coordinates":[-121.51796,35.92823]},"properties":{"depth_ft":309,"depth_m":94.1}},{"type":"Feature","geometry":{"type":"Point","coordinates":[-121.51506,35.92823]},"properties":{"depth_ft":269,"depth_m":81.9}},{"type":"Feature","geometry":{"type":"Point","coordinates":[-121.51216,35.92823]},"properties":{"depth_ft":243,"depth_m":74.2}},{"type":"Feature","geometry":{"type":"Point","coordinates":[-121.50926,35.92823]},"properties":{"depth_ft":225,"depth_m":68.7}},{"type":"Feature","geometry":{"type":"Point","coordinates":[-121.50635,35.92823]},"properties":{"depth_ft":212,"depth_m":64.6}},{"type":"Feature","geometry":{"type":"Point","coordinates":[-121.50345,35.92823]},"properties":{"depth_ft":196,"depth_m":59.8}},{"type":"Feature","geometry":{"type":"Point","coordinates":[-121.50055,35.92823]},"properties":{"depth_ft":180,"depth_m":54.9}},{"type":"Feature","geometry":{"type":"Point","coordinates":[-121.49765,35.92823]},"properties":{"depth_ft":167,"depth_m":51.0}},{"type":"Feature","geometry":{"type":"Point","coordinates":[-121.49474,35.92823]},"properties":{"depth_ft":145,"depth_m":44.1}},{"type":"Feature","geometry":{"type":"Point","coordinates":[-121.49184,35.92823]},"properties":{"depth_ft":133,"depth_m":40.6}},{"type":"Feature","geometry":{"type":"Point","coordinates":[-121.48894,35.92823]},"properties":{"depth_ft":118,"depth_m":35.8}},{"type":"Feature","geometry":{"type":"Point","coordinates":[-121.48604,35.92823]},"properties":{"depth_ft":101,"depth_m":30.9}},{"type":"Feature","geometry":{"type":"Point","coordinates":[-121.48314,35.92823]},"properties":{"depth_ft":87,"depth_m":26.4}},{"type":"Feature","geometry":{"type":"Point","coordinates":[-121.48023,35.92823]},"properties":{"depth_ft":68,"depth_m":20.6}},{"type":"Feature","geometry":{"type":"Point","coordinates":[-121.47733,35.92823]},"properties":{"depth_ft":48,"depth_m":14.5}},{"type":"Feature","geometry":{"type":"Point","coordinates":[-121.47443,35.92823]},"properties":{"depth_ft":25,"depth_m":7.6}},{"type":"Feature","geometry":{"type":"Point","coordinates":[-121.47153,35.92823]},"properties":{"depth_ft":9,"depth_m":2.8}},{"type":"Feature","geometry":{"type":"Point","coordinates":[-121.51506,35.92588]},"properties":{"depth_ft":276,"depth_m":84.1}},{"type":"Feature","geometry":{"type":"Point","coordinates":[-121.51216,35.92588]},"properties":{"depth_ft":245,"depth_m":74.7}},{"type":"Feature","geometry":{"type":"Point","coordinates":[-121.50926,35.92588]},"properties":{"depth_ft":225,"depth_m":68.5}},{"type":"Feature","geometry":{"type":"Point","coordinates":[-121.50635,35.92588]},"properties":{"depth_ft":215,"depth_m":65.4}},{"type":"Feature","geometry":{"type":"Point","coordinates":[-121.50345,35.92588]},"properties":{"depth_ft":196,"depth_m":59.7}},{"type":"Feature","geometry":{"type":"Point","coordinates":[-121.50055,35.92588]},"properties":{"depth_ft":183,"depth_m":55.9}},{"type":"Feature","geometry":{"type":"Point","coordinates":[-121.49765,35.92588]},"properties":{"depth_ft":166,"depth_m":50.5}},{"type":"Feature","geometry":{"type":"Point","coordinates":[-121.49474,35.92588]},"properties":{"depth_ft":149,"depth_m":45.3}},{"type":"Feature","geometry":{"type":"Point","coordinates":[-121.49184,35.92588]},"properties":{"depth_ft":137,"depth_m":41.6}},{"type":"Feature","geometry":{"type":"Point","coordinates":[-121.48894,35.92588]},"properties":{"depth_ft":120,"depth_m":36.6}},{"type":"Feature","geometry":{"type":"Point","coordinates":[-121.48604,35.92588]},"properties":{"depth_ft":108,"depth_m":32.8}},{"type":"Feature","geometry":{"type":"Point","coordinates":[-121.48314,35.92588]},"properties":{"depth_ft":89,"depth_m":27.1}},{"type":"Feature","geometry":{"type":"Point","coordinates":[-121.48023,35.92588]},"properties":{"depth_ft":68,"depth_m":20.9}},{"type":"Feature","geometry":{"type":"Point","coordinates":[-121.47733,35.92588]},"properties":{"depth_ft":48,"depth_m":14.7}},{"type":"Feature","geometry":{"type":"Point","coordinates":[-121.47443,35.92588]},"properties":{"depth_ft":31,"depth_m":9.5}},{"type":"Feature","geometry":{"type":"Point","coordinates":[-121.47153,35.92588]},"properties":{"depth_ft":14,"depth_m":4.2}},{"type":"Feature","geometry":{"type":"Point","coordinates":[-121.46863,35.92588]},"properties":{"depth_ft":5,"depth_m":1.6}},{"type":"Feature","geometry":{"type":"Point","coordinates":[-121.51506,35.92353]},"properties":{"depth_ft":311,"depth_m":94.7}},{"type":"Feature","geometry":{"type":"Point","coordinates":[-121.51216,35.92353]},"properties":{"depth_ft":259,"depth_m":79.0}},{"type":"Feature","geometry":{"type":"Point","coordinates":[-121.50926,35.92353]},"properties":{"depth_ft":233,"depth_m":71.0}},{"type":"Feature","geometry":{"type":"Point","coordinates":[-121.50635,35.92353]},"properties":{"depth_ft":215,"depth_m":65.7}},{"type":"Feature","geometry":{"type":"Point","coordinates":[-121.50345,35.92353]},"properties":{"depth_ft":199,"depth_m":60.6}},{"type":"Feature","geometry":{"type":"Point","coordinates":[-121.50055,35.92353]},"properties":{"depth_ft":186,"depth_m":56.6}},{"type":"Feature","geometry":{"type":"Point","coordinates":[-121.49765,35.92353]},"properties":{"depth_ft":172,"depth_m":52.4}},{"type":"Feature","geometry":{"type":"Point","coordinates":[-121.49474,35.92353]},"properties":{"depth_ft":152,"depth_m":46.4}},{"type":"Feature","geometry":{"type":"Point","coordinates":[-121.49184,35.92353]},"properties":{"depth_ft":142,"depth_m":43.4}},{"type":"Feature","geometry":{"type":"Point","coordinates":[-121.48894,35.92353]},"properties":{"depth_ft":125,"depth_m":38.1}},{"type":"Feature","geometry":{"type":"Point","coordinates":[-121.48604,35.92353]},"properties":{"depth_ft":112,"depth_m":34.0}},{"type":"Feature","geometry":{"type":"Point","coordinates":[-121.48314,35.92353]},"properties":{"depth_ft":94,"depth_m":28.6}},{"type":"Feature","geometry":{"type":"Point","coordinates":[-121.48023,35.92353]},"properties":{"depth_ft":73,"depth_m":22.2}},{"type":"Feature","geometry":{"type":"Point","coordinates":[-121.47733,35.92353]},"properties":{"depth_ft":49,"depth_m":15.0}},{"type":"Feature","geometry":{"type":"Point","coordinates":[-121.47443,35.92353]},"properties":{"depth_ft":28,"depth_m":8.5}},{"type":"Feature","geometry":{"type":"Point","coordinates":[-121.47153,35.92353]},"properties":{"depth_ft":11,"depth_m":3.5}},{"type":"Feature","geometry":{"type":"Point","coordinates":[-121.51216,35.92118]},"properties":{"depth_ft":283,"depth_m":86.4}},{"type":"Feature","geometry":{"type":"Point","coordinates":[-121.50926,35.92118]},"properties":{"depth_ft":241,"depth_m":73.5}},{"type":"Feature","geometry":{"type":"Point","coordinates":[-121.50635,35.92118]},"properties":{"depth_ft":220,"depth_m":67.2}},{"type":"Feature","geometry":{"type":"Point","coordinates":[-121.50345,35.92118]},"properties":{"depth_ft":202,"depth_m":61.7}},{"type":"Feature","geometry":{"type":"Point","coordinates":[-121.50055,35.92118]},"properties":{"depth_ft":192,"depth_m":58.5}},{"type":"Feature","geometry":{"type":"Point","coordinates":[-121.49765,35.92118]},"properties":{"depth_ft":172,"depth_m":52.5}},{"type":"Feature","geometry":{"type":"Point","coordinates":[-121.49474,35.92118]},"properties":{"depth_ft":156,"depth_m":47.5}},{"type":"Feature","geometry":{"type":"Point","coordinates":[-121.49184,35.92118]},"properties":{"depth_ft":141,"depth_m":43.1}},{"type":"Feature","geometry":{"type":"Point","coordinates":[-121.48894,35.92118]},"properties":{"depth_ft":129,"depth_m":39.3}},{"type":"Feature","geometry":{"type":"Point","coordinates":[-121.48604,35.92118]},"properties":{"depth_ft":118,"depth_m":36.1}},{"type":"Feature","geometry":{"type":"Point","coordinates":[-121.48314,35.92118]},"properties":{"depth_ft":103,"depth_m":31.3}},{"type":"Feature","geometry":{"type":"Point","coordinates":[-121.48023,35.92118]},"properties":{"depth_ft":82,"depth_m":24.9}},{"type":"Feature","geometry":{"type":"Point","coordinates":[-121.47733,35.92118]},"properties":{"depth_ft":40,"depth_m":12.1}},{"type":"Feature","geometry":{"type":"Point","coordinates":[-121.47443,35.92118]},"properties":{"depth_ft":16,"depth_m":5.0}},{"type":"Feature","geometry":{"type":"Point","coordinates":[-121.47153,35.92118]},"properties":{"depth_ft":5,"depth_m":1.5}},{"type":"Feature","geometry":{"type":"Point","coordinates":[-121.51216,35.91882]},"properties":{"depth_ft":286,"depth_m":87.2}},{"type":"Feature","geometry":{"type":"Point","coordinates":[-121.50926,35.91882]},"properties":{"depth_ft":248,"depth_m":75.5}},{"type":"Feature","geometry":{"type":"Point","coordinates":[-121.50635,35.91882]},"properties":{"depth_ft":228,"depth_m":69.4}},{"type":"Feature","geometry":{"type":"Point","coordinates":[-121.50345,35.91882]},"properties":{"depth_ft":203,"depth_m":61.9}},{"type":"Feature","geometry":{"type":"Point","coordinates":[-121.50055,35.91882]},"properties":{"depth_ft":189,"depth_m":57.5}},{"type":"Feature","geometry":{"type":"Point","coordinates":[-121.49765,35.91882]},"properties":{"depth_ft":173,"depth_m":52.7}},{"type":"Feature","geometry":{"type":"Point","coordinates":[-121.49474,35.91882]},"properties":{"depth_ft":162,"depth_m":49.5}},{"type":"Feature","geometry":{"type":"Point","coordinates":[-121.49184,35.91882]},"properties":{"depth_ft":148,"depth_m":45.2}},{"type":"Feature","geometry":{"type":"Point","coordinates":[-121.48894,35.91882]},"properties":{"depth_ft":133,"depth_m":40.6}},{"type":"Feature","geometry":{"type":"Point","coordinates":[-121.48604,35.91882]},"properties":{"depth_ft":125,"depth_m":38.0}},{"type":"Feature","geometry":{"type":"Point","coordinates":[-121.48314,35.91882]},"properties":{"depth_ft":113,"depth_m":34.5}},{"type":"Feature","geometry":{"type":"Point","coordinates":[-121.48023,35.91882]},"properties":{"depth_ft":98,"depth_m":29.8}},{"type":"Feature","geometry":{"type":"Point","coordinates":[-121.47733,35.91882]},"properties":{"depth_ft":70,"depth_m":21.4}},{"type":"Feature","geometry":{"type":"Point","coordinates":[-121.47443,35.91882]},"properties":{"depth_ft":27,"depth_m":8.1}},{"type":"Feature","geometry":{"type":"Point","coordinates":[-121.51506,35.91647]},"properties":{"depth_ft":321,"depth_m":97.9}},{"type":"Feature","geometry":{"type":"Point","coordinates":[-121.51216,35.91647]},"properties":{"depth_ft":283,"depth_m":86.3}},{"type":"Feature","geometry":{"type":"Point","coordinates":[-121.50926,35.91647]},"properties":{"depth_ft":254,"depth_m":77.3}},{"type":"Feature","geometry":{"type":"Point","coordinates":[-121.50635,35.91647]},"properties":{"depth_ft":227,"depth_m":69.3}},{"type":"Feature","geometry":{"type":"Point","coordinates":[-121.50345,35.91647]},"properties":{"depth_ft":209,"depth_m":63.6}},{"type":"Feature","geometry":{"type":"Point","coordinates":[-121.50055,35.91647]},"properties":{"depth_ft":191,"depth_m":58.2}},{"type":"Feature","geometry":{"type":"Point","coordinates":[-121.49765,35.91647]},"properties":{"depth_ft":177,"depth_m":53.8}},{"type":"Feature","geometry":{"type":"Point","coordinates":[-121.49474,35.91647]},"properties":{"depth_ft":160,"depth_m":48.8}},{"type":"Feature","geometry":{"type":"Point","coordinates":[-121.49184,35.91647]},"properties":{"depth_ft":146,"depth_m":44.5}},{"type":"Feature","geometry":{"type":"Point","coordinates":[-121.48894,35.91647]},"properties":{"depth_ft":136,"depth_m":41.5}},{"type":"Feature","geometry":{"type":"Point","coordinates":[-121.48604,35.91647]},"properties":{"depth_ft":121,"depth_m":37.0}},{"type":"Feature","geometry":{"type":"Point","coordinates":[-121.48314,35.91647]},"properties":{"depth_ft":114,"depth_m":34.8}},{"type":"Feature","geometry":{"type":"Point","coordinates":[-121.48023,35.91647]},"properties":{"depth_ft":94,"depth_m":28.5}},{"type":"Feature","geometry":{"type":"Point","coordinates":[-121.47733,35.91647]},"properties":{"depth_ft":63,"depth_m":19.2}},{"type":"Feature","geometry":{"type":"Point","coordinates":[-121.47443,35.91647]},"properties":{"depth_ft":31,"depth_m":9.6}},{"type":"Feature","geometry":{"type":"Point","coordinates":[-121.51216,35.91412]},"properties":{"depth_ft":288,"depth_m":87.8}},{"type":"Feature","geometry":{"type":"Point","coordinates":[-121.50926,35.91412]},"properties":{"depth_ft":256,"depth_m":78.0}},{"type":"Feature","geometry":{"type":"Point","coordinates":[-121.50635,35.91412]},"properties":{"depth_ft":229,"depth_m":69.7}},{"type":"Feature","geometry":{"type":"Point","coordinates":[-121.50345,35.91412]},"properties":{"depth_ft":216,"depth_m":65.9}},{"type":"Feature","geometry":{"type":"Point","coordinates":[-121.50055,35.91412]},"properties":{"depth_ft":195,"depth_m":59.3}},{"type":"Feature","geometry":{"type":"Point","coordinates":[-121.49765,35.91412]},"properties":{"depth_ft":180,"depth_m":54.9}},{"type":"Feature","geometry":{"type":"Point","coordinates":[-121.49474,35.91412]},"properties":{"depth_ft":164,"depth_m":49.8}},{"type":"Feature","geometry":{"type":"Point","coordinates":[-121.49184,35.91412]},"properties":{"depth_ft":143,"depth_m":43.7}},{"type":"Feature","geometry":{"type":"Point","coordinates":[-121.48894,35.91412]},"properties":{"depth_ft":121,"depth_m":36.8}},{"type":"Feature","geometry":{"type":"Point","coordinates":[-121.48604,35.91412]},"properties":{"depth_ft":102,"depth_m":31.1}},{"type":"Feature","geometry":{"type":"Point","coordinates":[-121.48314,35.91412]},"properties":{"depth_ft":96,"depth_m":29.2}},{"type":"Feature","geometry":{"type":"Point","coordinates":[-121.48023,35.91412]},"properties":{"depth_ft":89,"depth_m":27.1}},{"type":"Feature","geometry":{"type":"Point","coordinates":[-121.47733,35.91412]},"properties":{"depth_ft":65,"depth_m":19.8}},{"type":"Feature","geometry":{"type":"Point","coordinates":[-121.47443,35.91412]},"properties":{"depth_ft":31,"depth_m":9.6}},{"type":"Feature","geometry":{"type":"Point","coordinates":[-121.47153,35.91412]},"properties":{"depth_ft":6,"depth_m":2.0}},{"type":"Feature","geometry":{"type":"Point","coordinates":[-121.51216,35.91177]},"properties":{"depth_ft":298,"depth_m":90.7}},{"type":"Feature","geometry":{"type":"Point","coordinates":[-121.50926,35.91177]},"properties":{"depth_ft":260,"depth_m":79.3}},{"type":"Feature","geometry":{"type":"Point","coordinates":[-121.50635,35.91177]},"properties":{"depth_ft":232,"depth_m":70.8}},{"type":"Feature","geometry":{"type":"Point","coordinates":[-121.50345,35.91177]},"properties":{"depth_ft":215,"depth_m":65.6}},{"type":"Feature","geometry":{"type":"Point","coordinates":[-121.50055,35.91177]},"properties":{"depth_ft":200,"depth_m":60.9}},{"type":"Feature","geometry":{"type":"Point","coordinates":[-121.49765,35.91177]},"properties":{"depth_ft":187,"depth_m":56.9}},{"type":"Feature","geometry":{"type":"Point","coordinates":[-121.49474,35.91177]},"properties":{"depth_ft":176,"depth_m":53.8}},{"type":"Feature","geometry":{"type":"Point","coordinates":[-121.49184,35.91177]},"properties":{"depth_ft":149,"depth_m":45.3}},{"type":"Feature","geometry":{"type":"Point","coordinates":[-121.48894,35.91177]},"properties":{"depth_ft":132,"depth_m":40.1}},{"type":"Feature","geometry":{"type":"Point","coordinates":[-121.48604,35.91177]},"properties":{"depth_ft":103,"depth_m":31.4}},{"type":"Feature","geometry":{"type":"Point","coordinates":[-121.48314,35.91177]},"properties":{"depth_ft":86,"depth_m":26.2}},{"type":"Feature","geometry":{"type":"Point","coordinates":[-121.48023,35.91177]},"properties":{"depth_ft":94,"depth_m":28.7}},{"type":"Feature","geometry":{"type":"Point","coordinates":[-121.47733,35.91177]},"properties":{"depth_ft":64,"depth_m":19.5}},{"type":"Feature","geometry":{"type":"Point","coordinates":[-121.47443,35.91177]},"properties":{"depth_ft":48,"depth_m":14.7}},{"type":"Feature","geometry":{"type":"Point","coordinates":[-121.47153,35.91177]},"properties":{"depth_ft":23,"depth_m":7.0}},{"type":"Feature","geometry":{"type":"Point","coordinates":[-121.51216,35.90942]},"properties":{"depth_ft":310,"depth_m":94.4}},{"type":"Feature","geometry":{"type":"Point","coordinates":[-121.50926,35.90942]},"properties":{"depth_ft":268,"depth_m":81.7}},{"type":"Feature","geometry":{"type":"Point","coordinates":[-121.50635,35.90942]},"properties":{"depth_ft":236,"depth_m":72.0}},{"type":"Feature","geometry":{"type":"Point","coordinates":[-121.50345,35.90942]},"properties":{"depth_ft":211,"depth_m":64.5}},{"type":"Feature","geometry":{"type":"Point","coordinates":[-121.50055,35.90942]},"properties":{"depth_ft":198,"depth_m":60.3}},{"type":"Feature","geometry":{"type":"Point","coordinates":[-121.49765,35.90942]},"properties":{"depth_ft":185,"depth_m":56.3}},{"type":"Feature","geometry":{"type":"Point","coordinates":[-121.49474,35.90942]},"properties":{"depth_ft":176,"depth_m":53.8}},{"type":"Feature","geometry":{"type":"Point","coordinates":[-121.49184,35.90942]},"properties":{"depth_ft":159,"depth_m":48.3}},{"type":"Feature","geometry":{"type":"Point","coordinates":[-121.48894,35.90942]},"properties":{"depth_ft":136,"depth_m":41.4}},{"type":"Feature","geometry":{"type":"Point","coordinates":[-121.48604,35.90942]},"properties":{"depth_ft":114,"depth_m":34.8}},{"type":"Feature","geometry":{"type":"Point","coordinates":[-121.48314,35.90942]},"properties":{"depth_ft":95,"depth_m":29.0}},{"type":"Feature","geometry":{"type":"Point","coordinates":[-121.48023,35.90942]},"properties":{"depth_ft":97,"depth_m":29.6}},{"type":"Feature","geometry":{"type":"Point","coordinates":[-121.47733,35.90942]},"properties":{"depth_ft":90,"depth_m":27.5}},{"type":"Feature","geometry":{"type":"Point","coordinates":[-121.47443,35.90942]},"properties":{"depth_ft":76,"depth_m":23.3}},{"type":"Feature","geometry":{"type":"Point","coordinates":[-121.47153,35.90942]},"properties":{"depth_ft":55,"depth_m":16.9}},{"type":"Feature","geometry":{"type":"Point","coordinates":[-121.46863,35.90942]},"properties":{"depth_ft":27,"depth_m":8.2}},{"type":"Feature","geometry":{"type":"Point","coordinates":[-121.51216,35.90707]},"properties":{"depth_ft":327,"depth_m":99.5}},{"type":"Feature","geometry":{"type":"Point","coordinates":[-121.50926,35.90707]},"properties":{"depth_ft":282,"depth_m":85.9}},{"type":"Feature","geometry":{"type":"Point","coordinates":[-121.50635,35.90707]},"properties":{"depth_ft":239,"depth_m":72.8}},{"type":"Feature","geometry":{"type":"Point","coordinates":[-121.50345,35.90707]},"properties":{"depth_ft":213,"depth_m":65.0}},{"type":"Feature","geometry":{"type":"Point","coordinates":[-121.50055,35.90707]},"properties":{"depth_ft":205,"depth_m":62.4}},{"type":"Feature","geometry":{"type":"Point","coordinates":[-121.49765,35.90707]},"properties":{"depth_ft":185,"depth_m":56.5}},{"type":"Feature","geometry":{"type":"Point","coordinates":[-121.49474,35.90707]},"properties":{"depth_ft":173,"depth_m":52.7}},{"type":"Feature","geometry":{"type":"Point","coordinates":[-121.49184,35.90707]},"properties":{"depth_ft":149,"depth_m":45.4}},{"type":"Feature","geometry":{"type":"Point","coordinates":[-121.48894,35.90707]},"properties":{"depth_ft":122,"depth_m":37.2}},{"type":"Feature","geometry":{"type":"Point","coordinates":[-121.48604,35.90707]},"properties":{"depth_ft":103,"depth_m":31.4}},{"type":"Feature","geometry":{"type":"Point","coordinates":[-121.48314,35.90707]},"properties":{"depth_ft":94,"depth_m":28.6}},{"type":"Feature","geometry":{"type":"Point","coordinates":[-121.48023,35.90707]},"properties":{"depth_ft":94,"depth_m":28.6}},{"type":"Feature","geometry":{"type":"Point","coordinates":[-121.47733,35.90707]},"properties":{"depth_ft":92,"depth_m":28.0}},{"type":"Feature","geometry":{"type":"Point","coordinates":[-121.47443,35.90707]},"properties":{"depth_ft":86,"depth_m":26.3}},{"type":"Feature","geometry":{"type":"Point","coordinates":[-121.47153,35.90707]},"properties":{"depth_ft":70,"depth_m":21.2}},{"type":"Feature","geometry":{"type":"Point","coordinates":[-121.46863,35.90707]},"properties":{"depth_ft":48,"depth_m":14.7}},{"type":"Feature","geometry":{"type":"Point","coordinates":[-121.50926,35.90472]},"properties":{"depth_ft":316,"depth_m":96.4}},{"type":"Feature","geometry":{"type":"Point","coordinates":[-121.50635,35.90472]},"properties":{"depth_ft":246,"depth_m":75.1}},{"type":"Feature","geometry":{"type":"Point","coordinates":[-121.50345,35.90472]},"properties":{"depth_ft":218,"depth_m":66.3}},{"type":"Feature","geometry":{"type":"Point","coordinates":[-121.50055,35.90472]},"properties":{"depth_ft":206,"depth_m":62.8}},{"type":"Feature","geometry":{"type":"Point","coordinates":[-121.49765,35.90472]},"properties":{"depth_ft":190,"depth_m":57.8}},{"type":"Feature","geometry":{"type":"Point","coordinates":[-121.49474,35.90472]},"properties":{"depth_ft":170,"depth_m":51.9}},{"type":"Feature","geometry":{"type":"Point","coordinates":[-121.49184,35.90472]},"properties":{"depth_ft":153,"depth_m":46.8}},{"type":"Feature","geometry":{"type":"Point","coordinates":[-121.48894,35.90472]},"properties":{"depth_ft":132,"depth_m":40.2}},{"type":"Feature","geometry":{"type":"Point","coordinates":[-121.48604,35.90472]},"properties":{"depth_ft":118,"depth_m":35.9}},{"type":"Feature","geometry":{"type":"Point","coordinates":[-121.48314,35.90472]},"properties":{"depth_ft":109,"depth_m":33.3}},{"type":"Feature","geometry":{"type":"Point","coordinates":[-121.48023,35.90472]},"properties":{"depth_ft":88,"depth_m":26.8}},{"type":"Feature","geometry":{"type":"Point","coordinates":[-121.47733,35.90472]},"properties":{"depth_ft":88,"depth_m":27.0}},{"type":"Feature","geometry":{"type":"Point","coordinates":[-121.47443,35.90472]},"properties":{"depth_ft":89,"depth_m":27.1}},{"type":"Feature","geometry":{"type":"Point","coordinates":[-121.47153,35.90472]},"properties":{"depth_ft":70,"depth_m":21.5}},{"type":"Feature","geometry":{"type":"Point","coordinates":[-121.46863,35.90472]},"properties":{"depth_ft":54,"depth_m":16.6}},{"type":"Feature","geometry":{"type":"Point","coordinates":[-121.50635,35.90237]},"properties":{"depth_ft":287,"depth_m":87.4}},{"type":"Feature","geometry":{"type":"Point","coordinates":[-121.50345,35.90237]},"properties":{"depth_ft":232,"depth_m":70.8}},{"type":"Feature","geometry":{"type":"Point","coordinates":[-121.50055,35.90237]},"properties":{"depth_ft":210,"depth_m":63.9}},{"type":"Feature","geometry":{"type":"Point","coordinates":[-121.49765,35.90237]},"properties":{"depth_ft":189,"depth_m":57.7}},{"type":"Feature","geometry":{"type":"Point","coordinates":[-121.49474,35.90237]},"properties":{"depth_ft":171,"depth_m":52.2}},{"type":"Feature","geometry":{"type":"Point","coordinates":[-121.49184,35.90237]},"properties":{"depth_ft":157,"depth_m":47.9}},{"type":"Feature","geometry":{"type":"Point","coordinates":[-121.48894,35.90237]},"properties":{"depth_ft":144,"depth_m":43.8}},{"type":"Feature","geometry":{"type":"Point","coordinates":[-121.48604,35.90237]},"properties":{"depth_ft":137,"depth_m":41.7}},{"type":"Feature","geometry":{"type":"Point","coordinates":[-121.48314,35.90237]},"properties":{"depth_ft":123,"depth_m":37.6}},{"type":"Feature","geometry":{"type":"Point","coordinates":[-121.48023,35.90237]},"properties":{"depth_ft":112,"depth_m":34.1}},{"type":"Feature","geometry":{"type":"Point","coordinates":[-121.47733,35.90237]},"properties":{"depth_ft":98,"depth_m":29.9}},{"type":"Feature","geometry":{"type":"Point","coordinates":[-121.47443,35.90237]},"properties":{"depth_ft":85,"depth_m":25.8}},{"type":"Feature","geometry":{"type":"Point","coordinates":[-121.47153,35.90237]},"properties":{"depth_ft":75,"depth_m":22.9}},{"type":"Feature","geometry":{"type":"Point","coordinates":[-121.46863,35.90237]},"properties":{"depth_ft":53,"depth_m":16.1}},{"type":"Feature","geometry":{"type":"Point","coordinates":[-121.50635,35.90002]},"properties":{"depth_ft":329,"depth_m":100.2}},{"type":"Feature","geometry":{"type":"Point","coordinates":[-121.50345,35.90002]},"properties":{"depth_ft":272,"depth_m":82.9}},{"type":"Feature","geometry":{"type":"Point","coordinates":[-121.50055,35.90002]},"properties":{"depth_ft":237,"depth_m":72.3}},{"type":"Feature","geometry":{"type":"Point","coordinates":[-121.49765,35.90002]},"properties":{"depth_ft":206,"depth_m":62.8}},{"type":"Feature","geometry":{"type":"Point","coordinates":[-121.49474,35.90002]},"properties":{"depth_ft":184,"depth_m":56.1}},{"type":"Feature","geometry":{"type":"Point","coordinates":[-121.49184,35.90002]},"properties":{"depth_ft":159,"depth_m":48.5}},{"type":"Feature","geometry":{"type":"Point","coordinates":[-121.48894,35.90002]},"properties":{"depth_ft":144,"depth_m":43.8}},{"type":"Feature","geometry":{"type":"Point","coordinates":[-121.48604,35.90002]},"properties":{"depth_ft":135,"depth_m":41.3}},{"type":"Feature","geometry":{"type":"Point","coordinates":[-121.48314,35.90002]},"properties":{"depth_ft":127,"depth_m":38.8}},{"type":"Feature","geometry":{"type":"Point","coordinates":[-121.48023,35.90002]},"properties":{"depth_ft":114,"depth_m":34.8}},{"type":"Feature","geometry":{"type":"Point","coordinates":[-121.47733,35.90002]},"properties":{"depth_ft":100,"depth_m":30.5}},{"type":"Feature","geometry":{"type":"Point","coordinates":[-121.47443,35.90002]},"properties":{"depth_ft":89,"depth_m":27.0}},{"type":"Feature","geometry":{"type":"Point","coordinates":[-121.47153,35.90002]},"properties":{"depth_ft":69,"depth_m":21.1}},{"type":"Feature","geometry":{"type":"Point","coordinates":[-121.46863,35.90002]},"properties":{"depth_ft":47,"depth_m":14.3}},{"type":"Feature","geometry":{"type":"Point","coordinates":[-121.50345,35.89767]},"properties":{"depth_ft":293,"depth_m":89.2}},{"type":"Feature","geometry":{"type":"Point","coordinates":[-121.50055,35.89767]},"properties":{"depth_ft":261,"depth_m":79.4}},{"type":"Feature","geometry":{"type":"Point","coordinates":[-121.49765,35.89767]},"properties":{"depth_ft":234,"depth_m":71.3}},{"type":"Feature","geometry":{"type":"Point","coordinates":[-121.49474,35.89767]},"properties":{"depth_ft":196,"depth_m":59.6}},{"type":"Feature","geometry":{"type":"Point","coordinates":[-121.49184,35.89767]},"properties":{"depth_ft":164,"depth_m":50.0}},{"type":"Feature","geometry":{"type":"Point","coordinates":[-121.48894,35.89767]},"properties":{"depth_ft":146,"depth_m":44.5}},{"type":"Feature","geometry":{"type":"Point","coordinates":[-121.48604,35.89767]},"properties":{"depth_ft":139,"depth_m":42.4}},{"type":"Feature","geometry":{"type":"Point","coordinates":[-121.48314,35.89767]},"properties":{"depth_ft":125,"depth_m":38.0}},{"type":"Feature","geometry":{"type":"Point","coordinates":[-121.48023,35.89767]},"properties":{"depth_ft":116,"depth_m":35.4}},{"type":"Feature","geometry":{"type":"Point","coordinates":[-121.47733,35.89767]},"properties":{"depth_ft":109,"depth_m":33.1}},{"type":"Feature","geometry":{"type":"Point","coordinates":[-121.47443,35.89767]},"properties":{"depth_ft":87,"depth_m":26.5}},{"type":"Feature","geometry":{"type":"Point","coordinates":[-121.47153,35.89767]},"properties":{"depth_ft":60,"depth_m":18.2}},{"type":"Feature","geometry":{"type":"Point","coordinates":[-121.46863,35.89767]},"properties":{"depth_ft":45,"depth_m":13.8}},{"type":"Feature","geometry":{"type":"Point","coordinates":[-121.50345,35.89532]},"properties":{"depth_ft":321,"depth_m":97.7}},{"type":"Feature","geometry":{"type":"Point","coordinates":[-121.50055,35.89532]},"properties":{"depth_ft":291,"depth_m":88.6}},{"type":"Feature","geometry":{"type":"Point","coordinates":[-121.49765,35.89532]},"properties":{"depth_ft":259,"depth_m":79.1}},{"type":"Feature","geometry":{"type":"Point","coordinates":[-121.49474,35.89532]},"properties":{"depth_ft":213,"depth_m":64.9}},{"type":"Feature","geometry":{"type":"Point","coordinates":[-121.49184,35.89532]},"properties":{"depth_ft":177,"depth_m":53.9}},{"type":"Feature","geometry":{"type":"Point","coordinates":[-121.48894,35.89532]},"properties":{"depth_ft":155,"depth_m":47.2}},{"type":"Feature","geometry":{"type":"Point","coordinates":[-121.48604,35.89532]},"properties":{"depth_ft":142,"depth_m":43.3}},{"type":"Feature","geometry":{"type":"Point","coordinates":[-121.48314,35.89532]},"properties":{"depth_ft":126,"depth_m":38.3}},{"type":"Feature","geometry":{"type":"Point","coordinates":[-121.48023,35.89532]},"properties":{"depth_ft":122,"depth_m":37.1}},{"type":"Feature","geometry":{"type":"Point","coordinates":[-121.47733,35.89532]},"properties":{"depth_ft":108,"depth_m":32.9}},{"type":"Feature","geometry":{"type":"Point","coordinates":[-121.47443,35.89532]},"properties":{"depth_ft":79,"depth_m":24.0}},{"type":"Feature","geometry":{"type":"Point","coordinates":[-121.47153,35.89532]},"properties":{"depth_ft":58,"depth_m":17.6}},{"type":"Feature","geometry":{"type":"Point","coordinates":[-121.46863,35.89532]},"properties":{"depth_ft":49,"depth_m":14.8}},{"type":"Feature","geometry":{"type":"Point","coordinates":[-121.50055,35.89297]},"properties":{"depth_ft":313,"depth_m":95.4}},{"type":"Feature","geometry":{"type":"Point","coordinates":[-121.49765,35.89297]},"properties":{"depth_ft":283,"depth_m":86.4}},{"type":"Feature","geometry":{"type":"Point","coordinates":[-121.49474,35.89297]},"properties":{"depth_ft":236,"depth_m":72.1}},{"type":"Feature","geometry":{"type":"Point","coordinates":[-121.49184,35.89297]},"properties":{"depth_ft":193,"depth_m":59.0}},{"type":"Feature","geometry":{"type":"Point","coordinates":[-121.48894,35.89297]},"properties":{"depth_ft":165,"depth_m":50.2}},{"type":"Feature","geometry":{"type":"Point","coordinates":[-121.48604,35.89297]},"properties":{"depth_ft":146,"depth_m":44.6}},{"type":"Feature","geometry":{"type":"Point","coordinates":[-121.48314,35.89297]},"properties":{"depth_ft":131,"depth_m":39.8}},{"type":"Feature","geometry":{"type":"Point","coordinates":[-121.48023,35.89297]},"properties":{"depth_ft":125,"depth_m":38.1}},{"type":"Feature","geometry":{"type":"Point","coordinates":[-121.47733,35.89297]},"properties":{"depth_ft":117,"depth_m":35.8}},{"type":"Feature","geometry":{"type":"Point","coordinates":[-121.47443,35.89297]},"properties":{"depth_ft":99,"depth_m":30.2}},{"type":"Feature","geometry":{"type":"Point","coordinates":[-121.47153,35.89297]},"properties":{"depth_ft":72,"depth_m":22.0}},{"type":"Feature","geometry":{"type":"Point","coordinates":[-121.46863,35.89297]},"properties":{"depth_ft":52,"depth_m":16.0}}]}