{"type":"FeatureCollection","features":[{"type":"Feature","geometry":{"type":"MultiPolygon","coordinates":[[[[-111.37687,26.20271],[-111.37712,26.20133],[-111.3776,26.20007],[-111.37753,26.19898],[-111.37808,26.19862],[-111.37835,26.19789],[-111.37823,26.19673],[-111.37869,26.19583],[-111.37879,26.19472],[-111.37841,26.19234],[-111.37857,26.19165],[-111.37828,26.18924],[-111.3779,26.18834],[-111.37793,26.18771],[-111.37707,26.18575],[-111.37639,26.18504],[-111.37494,26.18264],[-111.37439,26.18211],[-111.37338,26.17993],[-111.37235,26.17889],[-111.37127,26.17744],[-111.36944,26.1764],[-111.36621,26.17511],[-111.36537,26.17518],[-111.36455,26.1749],[-111.36435,26.17465],[-111.36448,26.17377],[-111.36392,26.17269],[-111.3637,26.17183],[-111.36298,26.17084],[-111.36186,26.16819],[-111.36103,26.16772],[-111.36103,26.16703],[-111.36128,26.16657],[-111.36102,26.16601],[-111.36099,26.16541],[-111.36043,26.16447],[-111.36032,26.16301],[-111.36063,26.16217],[-111.36114,26.16196],[-111.36133,26.16163],[-111.36146,26.16075],[-111.36106,26.15961],[-111.36101,26.15893],[-111.36038,26.15738],[-111.35986,26.15507],[-111.35971,26.15478],[-111.35867,26.15414],[-111.35817,26.15358],[-111.35816,26.15276],[-111.35844,26.15204],[-111.35837,26.1495],[-111.35888,26.14798],[-111.35881,26.14653],[-111.35775,26.14219],[-111.35604,26.13909],[-111.35611,26.13847],[-111.35517,26.137],[-111.35529,26.13654],[-111.35481,26.1357],[-111.35472,26.13508],[-111.35442,26.13452],[-111.35448,26.13394],[-111.35408,26.13271],[-111.35403,26.13118],[-111.3543,26.12979],[-111.35385,26.12851],[-111.35218,26.12723],[-111.35131,26.12691],[-111.35081,26.12692],[-111.35018,26.12614],[-111.34978,26.12587],[-111.34969,26.1254],[-111.34919,26.12474],[-111.34927,26.12342],[-111.34837,26.12282],[-111.34847,26.12225],[-111.34805,26.11974],[-111.34742,26.11846],[-111.34619,26.11729],[-111.34504,26.11564],[-111.3449,26.11526],[-111.34518,26.1139],[-111.34452,26.11196],[-111.34344,26.11101],[-111.34187,26.11033],[-111.34136,26.10951],[-111.34032,26.10901],[-111.34003,26.1085],[-111.33872,26.10747],[-111.33734,26.10693],[-111.3371,26.10656],[-111.33718,26.10624],[-111.33704,26.10592],[-111.33623,26.10547],[-111.33582,26.10492],[-111.33521,26.10449],[-111.33297,26.1039],[-111.33019,26.10344],[-111.32973,26.10304],[-111.32902,26.10187],[-111.32617,26.10098],[-111.32528,26.10085],[-111.32501,26.10116],[-111.32484,26.10036],[-111.32393,26.10006],[-111.32374,26.10032],[-111.32383,26.09976],[-111.3249,26.09796],[-111.325,26.09605],[-111.32526,26.09522],[-111.32491,26.09387],[-111.32494,26.09316],[-111.324,26.09108],[-111.32514,26.08979],[-111.3247,26.08619],[-111.32413,26.08619],[-111.32384,26.0849],[-111.32441,26.0849],[-111.32298,26.0813],[-111.32084,26.08002],[-111.32026,26.07847],[-111.31926,26.07796],[-111.31855,26.07693],[-111.31825,26.07076],[-111.3198,26.06638],[-111.32066,26.06612],[-111.32128,26.06449],[-111.32293,26.06264],[-111.32521,26.06251],[-111.32689,26.06013],[-111.32776,26.05967],[-111.32875,26.05742],[-111.32842,26.04892],[-111.32963,26.04773],[-111.33027,26.04593],[-111.33224,26.04389],[-111.33296,26.04373],[-111.33451,26.04226],[-111.33883,26.03889],[-111.34033,26.03719],[-111.34086,26.03715],[-111.34204,26.0358],[-111.34326,26.03392],[-111.34453,26.03139],[-111.34476,26.03027],[-111.34504,26.03003],[-111.3454,26.02925],[-111.34568,26.0279],[-111.34564,26.02651],[-111.34518,26.02463],[-111.34522,26.02381],[-111.34417,26.02119],[-111.34174,26.01718],[-111.34017,26.01525],[-111.33999,26.01513],[-111.33896,26.01573],[-111.33832,26.0149],[-111.33831,26.01436],[-111.33847,26.01431],[-111.33845,26.01485],[-111.33898,26.01556],[-111.34007,26.01494],[-111.33961,26.01425],[-111.33883,26.01468],[-111.33952,26.0142],[-111.33955,26.01378],[-111.33931,26.01317],[-111.33884,26.00924],[-111.33906,26.00755],[-111.33888,26.00713],[-111.33809,26.00639],[-111.33644,26.00541],[-111.33641,26.00518],[-111.33648,26.00496],[-111.33766,26.00498],[-111.33837,26.00455],[-111.33992,26.00453],[-111.34024,26.00431],[-111.33867,26.00409],[-111.33869,26.00372],[-111.3393,26.00344],[-111.33792,26.0033],[-111.33753,26.00298],[-111.33688,26.00304],[-111.33686,26.00278],[-111.33724,26.00296],[-111.33729,26.00294],[-111.33693,26.00274],[-111.33698,26.00261],[-111.33754,26.00273],[-111.33742,26.0026],[-111.33754,26.00255],[-111.3373,26.00261],[-111.33707,26.00243],[-111.33743,26.00254],[-111.33712,26.00235],[-111.33752,26.00231],[-111.33728,26.00217],[-111.33751,26.0022],[-111.33768,26.00202],[-111.33771,26.00244],[-111.33777,26.00208],[-111.33766,26.00193],[-111.33757,26.00211],[-111.33725,26.00216],[-111.33665,26.00263],[-111.33678,26.00276],[-111.33677,26.00322],[-111.33638,26.00316],[-111.33588,26.00336],[-111.33529,26.00304],[-111.33583,26.00264],[-111.33651,26.0024],[-111.33741,26.00159],[-111.33775,26.0002],[-111.33772,25.99959],[-111.33758,25.99958],[-111.33787,25.99954],[-111.33801,25.99927],[-111.33796,25.99809],[-111.33837,25.99544],[-111.33795,25.99003],[-111.33829,25.98782],[-111.33869,25.98661],[-111.33941,25.98527],[-111.341,25.98279],[-111.34352,25.98037],[-111.35024,25.97526],[-111.35252,25.97306],[-111.35365,25.97145],[-111.35435,25.97093],[-111.35507,25.97009],[-111.35655,25.96763],[-111.35711,25.9663],[-111.35853,25.9618],[-111.35808,25.95769],[-111.35636,25.95255],[-111.35436,25.94921],[-111.3542,25.94586],[-111.35559,25.94532],[-111.35363,25.94522],[-111.35348,25.94303],[-111.35291,25.94072],[-111.35219,25.94046],[-111.35219,25.9402],[-111.35305,25.93995],[-111.35262,25.93917],[-111.35304,25.93789],[-111.35475,25.93711],[-111.35474,25.93634],[-111.35531,25.93634],[-111.35573,25.93402],[-111.35486,25.92836],[-111.35429,25.92733],[-111.35186,25.92451],[-111.3483,25.9222],[-111.34662,25.92147],[-111.3456,25.92146],[-111.34531,25.92164],[-111.34541,25.92232],[-111.3453,25.92289],[-111.34475,25.92304],[-111.34375,25.92221],[-111.3436,25.92144],[-111.34415,25.92107],[-111.34393,25.92079],[-111.34406,25.92069],[-111.34465,25.92105],[-111.34531,25.92063],[-111.34535,25.92031],[-111.34522,25.92007],[-111.34469,25.91994],[-111.34394,25.92016],[-111.34362,25.92009],[-111.34345,25.91922],[-111.34355,25.9188],[-111.34329,25.91837],[-111.34307,25.91837],[-111.34298,25.91745],[-111.34197,25.91556],[-111.34208,25.91521],[-111.34201,25.91461],[-111.34068,25.91341],[-111.34059,25.91173],[-111.33984,25.91072],[-111.33853,25.90984],[-111.33791,25.90881],[-111.33717,25.90851],[-111.33686,25.90794],[-111.33662,25.90663],[-111.33687,25.90573],[-111.33671,25.90471],[-111.3371,25.90454],[-111.33746,25.90409],[-111.33777,25.90354],[-111.33781,25.90311],[-111.33752,25.90204],[-111.33686,25.90069],[-111.33861,25.89798],[-111.33871,25.89759],[-111.33631,25.89412],[-111.33616,25.89344],[-111.33635,25.89318],[-111.33596,25.89299],[-111.33566,25.89237],[-111.33595,25.89152],[-111.33672,25.89032],[-111.33651,25.88943],[-111.33643,25.88755],[-111.33604,25.88649],[-111.33642,25.88556],[-111.33856,25.88351],[-111.33867,25.8827],[-111.33889,25.88231],[-111.34,25.8812],[-111.34126,25.88071],[-111.34178,25.88008],[-111.34214,25.8786],[-111.34215,25.8777],[-111.3416,25.87568],[-111.34242,25.87536],[-111.34154,25.87543],[-111.34131,25.87388],[-111.34078,25.87255],[-111.34091,25.87227],[-111.34055,25.8721],[-111.34056,25.87173],[-111.34,25.87167],[-111.33802,25.86944],[-111.3374,25.86809],[-111.33677,25.86717],[-111.33496,25.86556],[-111.33477,25.86469],[-111.33387,25.863],[-111.33378,25.85912],[-111.33429,25.8572],[-111.33423,25.85665],[-111.33398,25.85607],[-111.33238,25.85393],[-111.33232,25.85329],[-111.33174,25.85227],[-111.33183,25.85137],[-111.33157,25.85094],[-111.3317,25.85019],[-111.33155,25.84814],[-111.33165,25.8472],[-111.33124,25.84439],[-111.33196,25.84363],[-111.33193,25.84314],[-111.3324,25.84259],[-111.33123,25.83952],[-111.33164,25.83894],[-111.33225,25.83844],[-111.33326,25.83794],[-111.3334,25.83729],[-111.33331184121622,25.83681981981982],[-111.38350296610683,25.83681981981982],[-111.38350296610683,26.20318018018018],[-111.37689431966449,26.20318018018018],[-111.37687,26.20271]]],[[[-111.31595,25.83708],[-111.31568981981982,25.83681981981982],[-111.31627399796022,25.83681981981982],[-111.31595,25.83708]]]]},"properties":{"name":"baja-north-pacific"}},{"type":"Feature","geometry":{"type":"Polygon","coordinates":[[[-111.08208,26.05879],[-111.08106,26.05843],[-111.08069,26.05886],[-111.08049,26.05874],[-111.08021,26.05884],[-111.08024,26.05928],[-111.08001,26.05943],[-111.07996,26.06008],[-111.07979,26.0599],[-111.07886,26.05999],[-111.07818,26.05954],[-111.07758,26.05966],[-111.07657,26.06124],[-111.07651,26.06193],[-111.07624,26.06202],[-111.07555,26.06182],[-111.07502,26.06195],[-111.07457,26.06257],[-111.07368,26.06325],[-111.07349,26.06385],[-111.07373,26.06423],[-111.07371,26.06494],[-111.07349,26.06545],[-111.07315,26.06536],[-111.07329,26.06614],[-111.07301,26.06661],[-111.0727,26.06671],[-111.07277,26.06715],[-111.07259,26.06731],[-111.0707,26.06787],[-111.0706,26.06751],[-111.07018,26.06762],[-111.07013,26.06699],[-111.06984,26.06685],[-111.07004,26.06624],[-111.06978,26.06618],[-111.06908,26.06529],[-111.06852,26.06537],[-111.06814,26.06523],[-111.06753,26.06585],[-111.06725,26.06725],[-111.06681,26.06742],[-111.06662,26.068],[-111.06581,26.06801],[-111.06536,26.0687],[-111.06396,26.06984],[-111.06355,26.06948],[-111.06319,26.06941],[-111.06204,26.07004],[-111.06172,26.07033],[-111.06188,26.07103],[-111.06145,26.07119],[-111.05975,26.07285],[-111.05963,26.07189],[-111.06023,26.07063],[-111.06007,26.0699],[-111.06045,26.06955],[-111.06108,26.06971],[-111.06172,26.06928],[-111.0623,26.06947],[-111.06283,26.0692],[-111.06271,26.06778],[-111.06298,26.0678],[-111.06331,26.06752],[-111.0659,26.06361],[-111.06607,26.06312],[-111.06653,26.06298],[-111.0672,26.06185],[-111.0682,26.06102],[-111.06849,26.06053],[-111.06929,26.05977],[-111.06956,26.0587],[-111.06921,26.05831],[-111.06964,26.05785],[-111.06939,26.05724],[-111.06971,26.05671],[-111.0707,26.05575],[-111.07088,26.05513],[-111.07125,26.05483],[-111.0718,26.05398],[-111.07182,26.05329],[-111.07239,26.05254],[-111.07246,26.05178],[-111.07161,26.05153],[-111.07162,26.05124],[-111.07204,26.05091],[-111.07234,26.05114],[-111.07269,26.05106],[-111.07312,26.05071],[-111.07403,26.04898],[-111.07395,26.04865],[-111.07451,26.04723],[-111.07441,26.0465],[-111.07484,26.04625],[-111.07505,26.04583],[-111.07494,26.04525],[-111.0752,26.04505],[-111.07554,26.04516],[-111.07595,26.04484],[-111.07597,26.04439],[-111.07758,26.04241],[-111.07727,26.04113],[-111.07739,26.04082],[-111.07766,26.04071],[-111.07777,26.03997],[-111.07827,26.03961],[-111.07835,26.0375],[-111.07923,26.03603],[-111.07925,26.0353],[-111.07994,26.03496],[-111.0806,26.03406],[-111.08031,26.03307],[-111.08109,26.03244],[-111.08225,26.02938],[-111.08221,26.02875],[-111.08162,26.02856],[-111.0819,26.02811],[-111.08161,26.02795],[-111.08188,26.02763],[-111.08183,26.02715],[-111.08128,26.02708],[-111.08122,26.02683],[-111.08211,26.02593],[-111.08247,26.02454],[-111.08343,26.02227],[-111.08341,26.02141],[-111.08274,26.021],[-111.0827,26.02072],[-111.08292,26.02042],[-111.08338,26.0205],[-111.08365,26.01989],[-111.08366,26.01955],[-111.08332,26.01942],[-111.08318,26.01911],[-111.08352,26.01896],[-111.08377,26.01829],[-111.0842,26.01631],[-111.08425,26.01543],[-111.0845,26.01474],[-111.08442,26.01436],[-111.08401,26.01418],[-111.0841,26.01376],[-111.08394,26.01343],[-111.08349,26.01325],[-111.08309,26.01072],[-111.08287,26.01035],[-111.08229,26.00993],[-111.08211,26.00955],[-111.0822,26.00843],[-111.08299,26.00749],[-111.08298,26.00449],[-111.08239,26.00403],[-111.08205,26.00187],[-111.08077,25.99905],[-111.08013,25.99799],[-111.07933,25.99732],[-111.07894,25.99729],[-111.07832,25.99664],[-111.07657,25.99589],[-111.07595,25.99604],[-111.07595,25.99576],[-111.0753,25.9953],[-111.07318,25.99472],[-111.07272,25.99502],[-111.07179,25.99675],[-111.0708,25.99777],[-111.0703,25.99779],[-111.07019,25.99812],[-111.0701,25.99784],[-111.06982,25.99791],[-111.06925,25.99728],[-111.06925,25.99703],[-111.07089,25.99639],[-111.07118,25.99581],[-111.07117,25.99475],[-111.07025,25.99449],[-111.06999,25.9939],[-111.07057,25.99343],[-111.07063,25.99311],[-111.0704,25.99295],[-111.07097,25.99268],[-111.0715,25.99005],[-111.07217,25.98803],[-111.0722,25.98682],[-111.07199,25.98651],[-111.07239,25.98568],[-111.07203,25.98456],[-111.07246,25.98412],[-111.07254,25.98353],[-111.07229,25.9828],[-111.07162,25.98189],[-111.07037,25.98109],[-111.06883,25.9804],[-111.06808,25.9805],[-111.06739,25.98117],[-111.06659,25.98164],[-111.06603,25.98174],[-111.06509,25.98162],[-111.06488,25.98138],[-111.06497,25.98101],[-111.0661,25.98007],[-111.0663,25.97938],[-111.06718,25.97854],[-111.06761,25.97683],[-111.06645,25.97412],[-111.06628,25.97325],[-111.06592,25.97295],[-111.06591,25.97207],[-111.06612,25.97139],[-111.06533,25.97117],[-111.06529,25.97081],[-111.06514,25.97071],[-111.06455,25.97075],[-111.06457,25.9705],[-111.06492,25.97004],[-111.06573,25.96996],[-111.06593,25.96952],[-111.06645,25.9691],[-111.06655,25.96864],[-111.06617,25.96779],[-111.06635,25.96764],[-111.06677,25.96766],[-111.06698,25.96746],[-111.06681,25.96673],[-111.06718,25.96629],[-111.06684,25.96621],[-111.06694,25.96588],[-111.0682,25.96564],[-111.06917,25.96774],[-111.06987,25.96813],[-111.07067,25.96832],[-111.07092,25.96863],[-111.07087,25.96944],[-111.07148,25.97009],[-111.07158,25.97059],[-111.07294,25.97284],[-111.07412,25.97321],[-111.07603,25.97334],[-111.07814,25.97299],[-111.07889,25.97212],[-111.07916,25.97213],[-111.0795,25.97268],[-111.07973,25.97411],[-111.08013,25.97504],[-111.08085,25.97564],[-111.08141,25.97638],[-111.08183,25.97756],[-111.08314,25.979],[-111.08541,25.9808],[-111.08652,25.98196],[-111.08714,25.98315],[-111.08818,25.98371],[-111.09062,25.98409],[-111.09244,25.98456],[-111.09391,25.98526],[-111.09436,25.98747],[-111.09557,25.98851],[-111.09761,25.99304],[-111.09884,25.99535],[-111.10034,25.99709],[-111.10211,25.9981],[-111.10451,25.99868],[-111.10713,25.99878],[-111.10928,25.99845],[-111.11233,25.99753],[-111.11602,25.99616],[-111.11866,25.99486],[-111.11998,25.99395],[-111.12022,25.99259],[-111.12071,25.99163],[-111.1205,25.98848],[-111.12074,25.98589],[-111.12102,25.98477],[-111.12205,25.98223],[-111.12217,25.98113],[-111.122,25.97917],[-111.12215,25.97853],[-111.12406,25.97546],[-111.12526,25.97266],[-111.12805,25.96906],[-111.12817,25.96801],[-111.12918,25.96694],[-111.13012,25.96563],[-111.13271,25.96101],[-111.13349,25.96014],[-111.13452,25.95937],[-111.13591,25.9587],[-111.13726,25.95776],[-111.13884,25.95584],[-111.14032,25.9552],[-111.14171,25.95407],[-111.14312,25.95185],[-111.14423,25.95077],[-111.14413,25.9496],[-111.14442,25.94898],[-111.14519,25.94808],[-111.14619,25.9463],[-111.14854,25.94287],[-111.14903,25.94166],[-111.1501,25.94055],[-111.15102,25.9388],[-111.15169,25.93834],[-111.15286,25.93794],[-111.15391,25.93697],[-111.15468,25.93478],[-111.15527,25.93151],[-111.15592,25.93063],[-111.15743,25.9294],[-111.15783,25.92794],[-111.15892,25.92775],[-111.16003,25.92698],[-111.16135,25.92644],[-111.16333,25.9244],[-111.16393,25.92284],[-111.16636,25.92049],[-111.16861,25.91856],[-111.17132,25.91686],[-111.17217,25.91609],[-111.17404,25.91381],[-111.17423,25.91332],[-111.17422,25.91275],[-111.17482,25.91242],[-111.17524,25.91145],[-111.17565,25.91111],[-111.17784,25.9082],[-111.1798,25.90501],[-111.18107,25.90106],[-111.18114,25.89983],[-111.1808,25.8991],[-111.17926,25.89723],[-111.17837,25.89673],[-111.17826,25.89611],[-111.17895,25.89533],[-111.18059,25.89435],[-111.18056,25.89411],[-111.18031,25.89396],[-111.18118,25.89344],[-111.18149,25.89304],[-111.18129,25.89238],[-111.18165,25.89154],[-111.18256,25.89119],[-111.18335,25.89128],[-111.18295,25.89052],[-111.18147,25.88956],[-111.18158,25.88928],[-111.18149,25.88872],[-111.18158,25.88839],[-111.18241,25.88836],[-111.18241,25.88819],[-111.18197,25.88788],[-111.18186,25.88747],[-111.18247,25.88697],[-111.1825,25.88617],[-111.18341,25.88493],[-111.18333,25.88436],[-111.18424,25.88385],[-111.18485,25.88267],[-111.1837,25.88056],[-111.18412,25.88035],[-111.18428,25.88001],[-111.18417,25.87856],[-111.1835,25.87582],[-111.18387,25.87416],[-111.18385,25.87328],[-111.18304,25.86986],[-111.18211,25.86832],[-111.1818,25.86715],[-111.1832,25.8658],[-111.1833,25.86517],[-111.18378,25.86465],[-111.18383,25.86372],[-111.18448,25.86332],[-111.18457,25.86276],[-111.18534,25.86165],[-111.18629,25.86122],[-111.1875,25.85926],[-111.1882,25.85777],[-111.18854,25.8575],[-111.18957,25.85717],[-111.19074,25.85795],[-111.19267,25.85761],[-111.19313,25.85784],[-111.19372,25.85849],[-111.19478,25.85828],[-111.19544,25.85772],[-111.1959,25.85643],[-111.19711,25.85577],[-111.19862,25.85422],[-111.20038,25.85208],[-111.201,25.85205],[-111.20174,25.85149],[-111.20233,25.85035],[-111.20304,25.8496],[-111.20371,25.84801],[-111.20369,25.84771],[-111.20326,25.84748],[-111.20373,25.84598],[-111.2036,25.84368],[-111.2029,25.84227],[-111.20352,25.84017],[-111.20325,25.83895],[-111.20358,25.83856],[-111.20323,25.83726],[-111.20343541741742,25.83681981981982],[-111.23111150986429,25.83681981981982],[-111.23115,25.83758],[-111.23188,25.83959],[-111.23203,25.84133],[-111.23261,25.84238],[-111.23226,25.84481],[-111.23246,25.84539],[-111.23242,25.84653],[-111.23313,25.84731],[-111.23321,25.84841],[-111.23256,25.84942],[-111.23129,25.84942],[-111.23087,25.84967],[-111.23074,25.84997],[-111.23103,25.85051],[-111.23052,25.85129],[-111.23062,25.85191],[-111.2299,25.85366],[-111.22947,25.8536],[-111.2285,25.854],[-111.22829,25.85443],[-111.22728,25.85529],[-111.22723,25.85683],[-111.22746,25.85802],[-111.22722,25.85892],[-111.22669,25.85936],[-111.22635,25.86007],[-111.2261,25.86095],[-111.22607,25.86187],[-111.22507,25.86243],[-111.22491,25.86279],[-111.2243,25.86337],[-111.22394,25.86489],[-111.22321,25.86533],[-111.2227,25.86538],[-111.22177,25.8644],[-111.22135,25.86424],[-111.21977,25.86463],[-111.21749,25.86555],[-111.21747,25.86588],[-111.21588,25.8668],[-111.21595,25.86747],[-111.21612,25.86775],[-111.21436,25.86993],[-111.21464,25.87144],[-111.21528,25.87221],[-111.21487,25.87392],[-111.21498,25.87471],[-111.21537,25.87524],[-111.21675,25.87642],[-111.21693,25.87684],[-111.21702,25.87822],[-111.21725,25.87876],[-111.21712,25.87935],[-111.21732,25.88025],[-111.21727,25.88118],[-111.21762,25.88167],[-111.21897,25.88214],[-111.21957,25.88344],[-111.2196,25.8845],[-111.2187,25.88614],[-111.21783,25.88632],[-111.21734,25.88673],[-111.21728,25.88729],[-111.21695,25.8881],[-111.21696,25.8897],[-111.21675,25.89004],[-111.21613,25.89264],[-111.2155,25.89368],[-111.21547,25.89454],[-111.2152,25.89481],[-111.21457,25.89491],[-111.21273,25.89591],[-111.21238,25.89651],[-111.2126,25.89757],[-111.21251,25.89835],[-111.21263,25.8989],[-111.21342,25.90004],[-111.21275,25.90088],[-111.2127,25.90124],[-111.21336,25.90269],[-111.21347,25.90413],[-111.21338,25.90573],[-111.21305,25.90693],[-111.21308,25.90762],[-111.21253,25.90775],[-111.21217,25.90817],[-111.21242,25.91011],[-111.21206,25.91063],[-111.21131,25.91072],[-111.20993,25.91133],[-111.20932,25.91199],[-111.20767,25.91321],[-111.20716,25.91384],[-111.20697,25.91432],[-111.20699,25.91478],[-111.20758,25.91593],[-111.20763,25.91698],[-111.20819,25.91796],[-111.20774,25.9197],[-111.2079,25.92005],[-111.20774,25.92156],[-111.2081,25.92262],[-111.20775,25.92368],[-111.20777,25.92505],[-111.20833,25.92594],[-111.20953,25.92618],[-111.20983,25.92658],[-111.20946,25.92779],[-111.2091,25.92821],[-111.20892,25.92912],[-111.20886,25.92956],[-111.20925,25.92982],[-111.209,25.93019],[-111.20759,25.93061],[-111.20739,25.93128],[-111.20687,25.93161],[-111.20634,25.93249],[-111.20536,25.93364],[-111.20493,25.93391],[-111.2049,25.93425],[-111.20457,25.93406],[-111.20445,25.93437],[-111.20399,25.93431],[-111.20354,25.93464],[-111.2033,25.93687],[-111.20269,25.9378],[-111.20174,25.93834],[-111.20158,25.93872],[-111.20166,25.93953],[-111.2014,25.94],[-111.20032,25.94064],[-111.19983,25.9413],[-111.19977,25.94193],[-111.19902,25.94338],[-111.19919,25.94467],[-111.19907,25.94507],[-111.19913,25.94728],[-111.19931,25.94826],[-111.19868,25.95033],[-111.19874,25.95061],[-111.19858,25.95074],[-111.19859,25.95139],[-111.19881,25.95177],[-111.19856,25.95244],[-111.19864,25.95303],[-111.19737,25.95603],[-111.19706,25.95633],[-111.19628,25.95665],[-111.19595,25.95705],[-111.19493,25.95744],[-111.19443,25.95823],[-111.19392,25.95864],[-111.19357,25.95936],[-111.19354,25.95981],[-111.19309,25.96051],[-111.19217,25.96045],[-111.1921,25.96086],[-111.19167,25.96074],[-111.1913,25.96091],[-111.19085,25.96066],[-111.19016,25.96084],[-111.18997,25.96145],[-111.18918,25.9619],[-111.18927,25.96223],[-111.18868,25.96254],[-111.18802,25.96336],[-111.18793,25.96383],[-111.18826,25.96431],[-111.18795,25.9645],[-111.18749,25.96519],[-111.18733,25.96859],[-111.18598,25.96978],[-111.18479,25.97139],[-111.18451,25.97217],[-111.18408,25.97236],[-111.18333,25.97225],[-111.18271,25.97259],[-111.18262,25.97354],[-111.18209,25.97394],[-111.18155,25.97494],[-111.18047,25.97586],[-111.17956,25.97592],[-111.17914,25.97658],[-111.17878,25.97666],[-111.17821,25.97719],[-111.17715,25.97724],[-111.1761,25.97752],[-111.17396,25.9785],[-111.17313,25.97926],[-111.17225,25.98045],[-111.1707,25.98151],[-111.17044,25.98271],[-111.16978,25.98321],[-111.16963,25.98364],[-111.16951,25.98453],[-111.17,25.98518],[-111.16994,25.98596],[-111.16974,25.98646],[-111.169,25.98737],[-111.16876,25.98835],[-111.16796,25.98931],[-111.16797,25.98986],[-111.16828,25.99032],[-111.16804,25.9909],[-111.16795,25.99195],[-111.1681,25.99296],[-111.16834,25.99352],[-111.16975,25.9963],[-111.17027,25.99693],[-111.17065,25.99854],[-111.17118,25.99955],[-111.17105,26.00035],[-111.1714,26.00192],[-111.17206,26.00277],[-111.17257,26.0043],[-111.17199,26.00581],[-111.17131,26.00593],[-111.17049,26.00642],[-111.16981,26.00712],[-111.16948,26.0078],[-111.16962,26.00839],[-111.17021,26.00851],[-111.17037,26.00877],[-111.17034,26.00992],[-111.16987,26.01011],[-111.16992,26.01072],[-111.16971,26.01095],[-111.16924,26.01099],[-111.16907,26.01142],[-111.16923,26.0119],[-111.16888,26.01288],[-111.16891,26.01447],[-111.16834,26.01545],[-111.16874,26.016],[-111.16875,26.01631],[-111.16803,26.01627],[-111.16765,26.01652],[-111.16776,26.01601],[-111.16754,26.01574],[-111.16694,26.01566],[-111.16621,26.01589],[-111.16578,26.01573],[-111.16577,26.01532],[-111.16499,26.01525],[-111.1642,26.01577],[-111.16298,26.01783],[-111.16263,26.01815],[-111.16248,26.01952],[-111.16289,26.02104],[-111.16345,26.02186],[-111.16418,26.02231],[-111.16502,26.02214],[-111.16579,26.0217],[-111.16644,26.02039],[-111.16706,26.01981],[-111.16867,26.02054],[-111.16873,26.02096],[-111.16832,26.02115],[-111.16809,26.02164],[-111.16832,26.02222],[-111.16804,26.02443],[-111.16879,26.02546],[-111.16908,26.02623],[-111.17127,26.02819],[-111.17266,26.03138],[-111.1735,26.03282],[-111.17373,26.0336],[-111.17454,26.03497],[-111.1748,26.03667],[-111.17542,26.03815],[-111.17537,26.04171],[-111.17453,26.04192],[-111.17178,26.04182],[-111.16791,26.04277],[-111.16508,26.0423],[-111.16343,26.04308],[-111.16154,26.04317],[-111.15983,26.04349],[-111.1593,26.0437],[-111.15884,26.04412],[-111.15708,26.04478],[-111.15542,26.04582],[-111.15419,26.04607],[-111.15345,26.04604],[-111.15245,26.04701],[-111.15178,26.04723],[-111.15147,26.04715],[-111.15048,26.04757],[-111.15034,26.04731],[-111.14962,26.04748],[-111.14777,26.04683],[-111.14639,26.04768],[-111.14626,26.04827],[-111.14565,26.04858],[-111.14545,26.04831],[-111.14435,26.04807],[-111.14234,26.04831],[-111.14221,26.04846],[-111.14225,26.04889],[-111.14186,26.04948],[-111.14121,26.04912],[-111.14085,26.04928],[-111.14068,26.04956],[-111.13918,26.04984],[-111.13477,26.05199],[-111.13347,26.05293],[-111.13286,26.05303],[-111.13224,26.0539],[-111.13222,26.05548],[-111.13296,26.05769],[-111.13271,26.05847],[-111.13345,26.0595],[-111.1341,26.06108],[-111.13376,26.06141],[-111.13316,26.06264],[-111.13304,26.06327],[-111.13277,26.0636],[-111.13243,26.06366],[-111.13174,26.06341],[-111.13045,26.06388],[-111.12974,26.06492],[-111.12934,26.06604],[-111.12841,26.0674],[-111.12802,26.06668],[-111.12805,26.06605],[-111.12675,26.06657],[-111.12676,26.06585],[-111.12622,26.06582],[-111.1252,26.06474],[-111.1248,26.0647],[-111.12427,26.0634],[-111.12424,26.06214],[-111.124,26.06147],[-111.1231,26.06078],[-111.12202,26.06076],[-111.12159,26.05954],[-111.12108,26.05955],[-111.1206,26.05983],[-111.12018,26.05916],[-111.1195,26.05906],[-111.11851,26.05845],[-111.11654,26.05851],[-111.11537,26.05764],[-111.1145,26.05739],[-111.11344,26.05742],[-111.113,26.05724],[-111.1125,26.05693],[-111.11217,26.05635],[-111.11038,26.05641],[-111.11012,26.05658],[-111.10945,26.05629],[-111.10872,26.05652],[-111.10785,26.0563],[-111.10621,26.05665],[-111.10594,26.05659],[-111.10566,26.05575],[-111.10555,26.05308],[-111.10491,26.05204],[-111.10419,26.05155],[-111.10373,26.05158],[-111.10372,26.05208],[-111.10324,26.05242],[-111.10257,26.05169],[-111.10218,26.05165],[-111.10234,26.05233],[-111.10215,26.05263],[-111.10227,26.05309],[-111.10184,26.05349],[-111.10174,26.05395],[-111.10128,26.05417],[-111.10067,26.0542],[-111.10003,26.05333],[-111.09937,26.05331],[-111.09912,26.053],[-111.09844,26.05291],[-111.09779,26.05313],[-111.09783,26.05344],[-111.09721,26.05458],[-111.09717,26.05494],[-111.09585,26.05522],[-111.09543,26.05549],[-111.09483,26.05549],[-111.09444,26.05587],[-111.09426,26.05671],[-111.09342,26.0571],[-111.09291,26.05806],[-111.09251,26.05828],[-111.09175,26.05798],[-111.09088,26.05864],[-111.08988,26.05861],[-111.08946,26.05832],[-111.08864,26.05854],[-111.08777,26.05837],[-111.08686,26.0593],[-111.08654,26.0599],[-111.08559,26.05889],[-111.08587,26.05799],[-111.08629,26.0575],[-111.08633,26.05708],[-111.08672,26.05678],[-111.08658,26.05664],[-111.08673,26.05633],[-111.08653,26.05633],[-111.08636,26.05591],[-111.08586,26.05592],[-111.08571,26.05645],[-111.08487,26.0566],[-111.08463,26.05703],[-111.08208,26.05879]]]},"properties":{"name":"unnamed-land"}},{"type":"Feature","geometry":{"type":"Polygon","coordinates":[[[-111.28021,26.11389],[-111.28041,26.11443],[-111.28172,26.11452],[-111.28241,26.11507],[-111.28297,26.11588],[-111.28385,26.11642],[-111.28582,26.11726],[-111.28615,26.11782],[-111.28625,26.11888],[-111.28651,26.11903],[-111.2873,26.11903],[-111.28754,26.11879],[-111.28743,26.11841],[-111.28767,26.11836],[-111.2879,26.11863],[-111.28794,26.11897],[-111.28747,26.12049],[-111.28772,26.12228],[-111.28755,26.12274],[-111.28709,26.12318],[-111.2865,26.12418],[-111.28595,26.12557],[-111.28297,26.12835],[-111.28122,26.13113],[-111.27958,26.13235],[-111.27907,26.13342],[-111.27883,26.1349],[-111.27859,26.13508],[-111.27825,26.13497],[-111.27737,26.1343],[-111.27653,26.13439],[-111.27512,26.13504],[-111.27467,26.13543],[-111.27408,26.13644],[-111.27378,26.13662],[-111.27282,26.13622],[-111.27228,26.13651],[-111.27147,26.13656],[-111.27011,26.13648],[-111.26934,26.13608],[-111.26802,26.13631],[-111.26768,26.13592],[-111.26728,26.13589],[-111.26681,26.13615],[-111.26645,26.13702],[-111.26556,26.13739],[-111.26538,26.13704],[-111.26581,26.13575],[-111.26565,26.13539],[-111.26521,26.13534],[-111.26392,26.13603],[-111.26335,26.13587],[-111.26313,26.13562],[-111.26353,26.13521],[-111.26348,26.13459],[-111.26318,26.1345],[-111.26185,26.13483],[-111.26185,26.13459],[-111.26346,26.13352],[-111.26315,26.13245],[-111.26316,26.13124],[-111.26251,26.13114],[-111.26318,26.1304],[-111.26299,26.12935],[-111.26277,26.12899],[-111.26224,26.12916],[-111.2625,26.12871],[-111.26234,26.12828],[-111.26139,26.12851],[-111.26113,26.12837],[-111.26111,26.12812],[-111.26167,26.12771],[-111.2617,26.12733],[-111.26146,26.12696],[-111.26075,26.12691],[-111.25993,26.12648],[-111.25929,26.12651],[-111.25915,26.12634],[-111.26038,26.12573],[-111.26074,26.12506],[-111.26174,26.12432],[-111.26192,26.12382],[-111.26213,26.12268],[-111.2621,26.12174],[-111.26194,26.1207],[-111.26144,26.12021],[-111.26172,26.11953],[-111.26151,26.11882],[-111.26078,26.1182],[-111.26076,26.11803],[-111.26103,26.11779],[-111.26201,26.11769],[-111.26257,26.11721],[-111.26446,26.11671],[-111.26481,26.1163],[-111.2649,26.11514],[-111.26406,26.11396],[-111.26318,26.11197],[-111.26257,26.1091],[-111.26266,26.10732],[-111.26323,26.106],[-111.2636,26.10575],[-111.26414,26.10578],[-111.26645,26.10655],[-111.26753,26.10667],[-111.26956,26.10621],[-111.2716,26.10624],[-111.27376,26.10657],[-111.27501,26.10652],[-111.27652,26.10684],[-111.27793,26.10635],[-111.2794,26.10645],[-111.28107,26.10549],[-111.28487,26.10391],[-111.28772,26.10213],[-111.28968,26.10112],[-111.29198,26.10046],[-111.29261,26.10045],[-111.29382,26.09994],[-111.29466,26.09979],[-111.29661,26.09863],[-111.29717,26.09849],[-111.29685,26.09918],[-111.29708,26.09972],[-111.29612,26.10009],[-111.29596,26.10029],[-111.29609,26.10071],[-111.29638,26.10088],[-111.29661,26.10081],[-111.29666,26.10042],[-111.29683,26.10045],[-111.29691,26.10079],[-111.29666,26.10172],[-111.2957,26.10294],[-111.29486,26.10355],[-111.2943,26.10361],[-111.2941,26.10335],[-111.29511,26.10286],[-111.29546,26.10224],[-111.29547,26.10172],[-111.29463,26.10099],[-111.29358,26.1005],[-111.29327,26.10044],[-111.29247,26.10072],[-111.29223,26.10116],[-111.29148,26.10115],[-111.28983,26.10163],[-111.28953,26.10233],[-111.28891,26.10259],[-111.2887,26.10347],[-111.28798,26.10453],[-111.28715,26.10535],[-111.28581,26.10654],[-111.28425,26.10696],[-111.28351,26.10744],[-111.28292,26.10823],[-111.28244,26.10962],[-111.2815,26.1101],[-111.28043,26.11033],[-111.27988,26.11092],[-111.27935,26.11185],[-111.2794,26.11224],[-111.27982,26.11281],[-111.27959,26.11357],[-111.27992,26.11385],[-111.28021,26.11389]]]},"properties":{"name":"unnamed-land"}},{"type":"Feature","geometry":{"type":"Polygon","coordinates":[[[-111.30358,26.1049],[-111.30386,26.10468],[-111.30473,26.10522],[-111.30552,26.1051],[-111.30635,26.10459],[-111.30642,26.10467],[-111.30631,26.10578],[-111.30603,26.10616],[-111.30562,26.1063],[-111.30525,26.10637],[-111.30427,26.10611],[-111.3039,26.10587],[-111.30356,26.10526],[-111.30358,26.1049]]]},"properties":{"name":"unnamed-land"}},{"type":"Feature","geometry":{"type":"Polygon","coordinates":[[[-111.07204,26.06809],[-111.07209,26.06832],[-111.07155,26.0691],[-111.07087,26.06969],[-111.0706,26.06877],[-111.07127,26.06806],[-111.07179,26.06818],[-111.07204,26.06809]]]},"properties":{"name":"unnamed-land"}},{"type":"Feature","geometry":{"type":"Polygon","coordinates":[[[-111.31747,25.84118],[-111.31648,25.84172],[-111.31649,25.84226],[-111.31635,25.84237],[-111.31612,25.84171],[-111.31636,25.84156],[-111.31678,25.84048],[-111.31708,25.84021],[-111.31749,25.84017],[-111.31747,25.84118]]]},"properties":{"name":"unnamed-land"}}]}