{"type":"FeatureCollection","features":[{"type":"Feature","geometry":{"type":"Point","coordinates":[-111.34563,26.13751]},"properties":{"depth_ft":81,"depth_m":24.6}},{"type":"Feature","geometry":{"type":"Point","coordinates":[-111.25846,26.13751]},"properties":{"depth_ft":206,"depth_m":62.8}},{"type":"Feature","geometry":{"type":"Point","coordinates":[-111.3282,26.12184]},"properties":{"depth_ft":113,"depth_m":34.5}},{"type":"Feature","geometry":{"type":"Point","coordinates":[-111.31076,26.12184]},"properties":{"depth_ft":179,"depth_m":54.5}},{"type":"Feature","geometry":{"type":"Point","coordinates":[-111.29333,26.12184]},"properties":{"depth_ft":226,"depth_m":68.9}},{"type":"Feature","geometry":{"type":"Point","coordinates":[-111.25846,26.12184]},"properties":{"depth_ft":24,"depth_m":7.3}},{"type":"Feature","geometry":{"type":"Point","coordinates":[-111.24102,26.12184]},"properties":{"depth_ft":317,"depth_m":96.7}},{"type":"Feature","geometry":{"type":"Point","coordinates":[-111.15385,26.12184]},"properties":{"depth_ft":297,"depth_m":90.4}},{"type":"Feature","geometry":{"type":"Point","coordinates":[-111.11898,26.12184]},"properties":{"depth_ft":36,"depth_m":11.0}},{"type":"Feature","geometry":{"type":"Point","coordinates":[-111.08411,26.12184]},"properties":{"depth_ft":207,"depth_m":63.1}},{"type":"Feature","geometry":{"type":"Point","coordinates":[-111.06667,26.12184]},"properties":{"depth_ft":294,"depth_m":89.6}},{"type":"Feature","geometry":{"type":"Point","coordinates":[-111.31076,26.10617]},"properties":{"depth_ft":36,"depth_m":10.9}},{"type":"Feature","geometry":{"type":"Point","coordinates":[-111.29333,26.10617]},"properties":{"depth_ft":79,"depth_m":24.2}},{"type":"Feature","geometry":{"type":"Point","coordinates":[-111.25846,26.10617]},"properties":{"depth_ft":163,"depth_m":49.6}},{"type":"Feature","geometry":{"type":"Point","coordinates":[-111.24102,26.10617]},"properties":{"depth_ft":293,"depth_m":89.3}},{"type":"Feature","geometry":{"type":"Point","coordinates":[-111.15385,26.10617]},"properties":{"depth_ft":310,"depth_m":94.6}},{"type":"Feature","geometry":{"type":"Point","coordinates":[-111.13641,26.10617]},"properties":{"depth_ft":45,"depth_m":13.7}},{"type":"Feature","geometry":{"type":"Point","coordinates":[-111.11898,26.10617]},"properties":{"depth_ft":139,"depth_m":42.3}},{"type":"Feature","geometry":{"type":"Point","coordinates":[-111.08411,26.10617]},"properties":{"depth_ft":295,"depth_m":89.8}},{"type":"Feature","geometry":{"type":"Point","coordinates":[-111.31076,26.09051]},"properties":{"depth_ft":23,"depth_m":6.9}},{"type":"Feature","geometry":{"type":"Point","coordinates":[-111.29333,26.09051]},"properties":{"depth_ft":167,"depth_m":51.0}},{"type":"Feature","geometry":{"type":"Point","coordinates":[-111.27589,26.09051]},"properties":{"depth_ft":254,"depth_m":77.4}},{"type":"Feature","geometry":{"type":"Point","coordinates":[-111.25846,26.09051]},"properties":{"depth_ft":283,"depth_m":86.3}},{"type":"Feature","geometry":{"type":"Point","coordinates":[-111.13641,26.09051]},"properties":{"depth_ft":202,"depth_m":61.5}},{"type":"Feature","geometry":{"type":"Point","coordinates":[-111.11898,26.09051]},"properties":{"depth_ft":278,"depth_m":84.6}},{"type":"Feature","geometry":{"type":"Point","coordinates":[-111.08411,26.09051]},"properties":{"depth_ft":184,"depth_m":56.1}},{"type":"Feature","geometry":{"type":"Point","coordinates":[-111.06667,26.09051]},"properties":{"depth_ft":309,"depth_m":94.3}},{"type":"Feature","geometry":{"type":"Point","coordinates":[-111.04924,26.09051]},"properties":{"depth_ft":269,"depth_m":81.9}},{"type":"Feature","geometry":{"type":"Point","coordinates":[-111.31076,26.07484]},"properties":{"depth_ft":51,"depth_m":15.6}},{"type":"Feature","geometry":{"type":"Point","coordinates":[-111.18872,26.07484]},"properties":{"depth_ft":270,"depth_m":82.4}},{"type":"Feature","geometry":{"type":"Point","coordinates":[-111.13641,26.07484]},"properties":{"depth_ft":176,"depth_m":53.8}},{"type":"Feature","geometry":{"type":"Point","coordinates":[-111.11898,26.07484]},"properties":{"depth_ft":170,"depth_m":51.9}},{"type":"Feature","geometry":{"type":"Point","coordinates":[-111.10154,26.07484]},"properties":{"depth_ft":214,"depth_m":65.4}},{"type":"Feature","geometry":{"type":"Point","coordinates":[-111.08411,26.07484]},"properties":{"depth_ft":32,"depth_m":9.8}},{"type":"Feature","geometry":{"type":"Point","coordinates":[-111.06667,26.07484]},"properties":{"depth_ft":68,"depth_m":20.7}},{"type":"Feature","geometry":{"type":"Point","coordinates":[-111.04924,26.07484]},"properties":{"depth_ft":18,"depth_m":5.5}},{"type":"Feature","geometry":{"type":"Point","coordinates":[-111.31076,26.05917]},"properties":{"depth_ft":75,"depth_m":22.9}},{"type":"Feature","geometry":{"type":"Point","coordinates":[-111.18872,26.05917]},"properties":{"depth_ft":90,"depth_m":27.4}},{"type":"Feature","geometry":{"type":"Point","coordinates":[-111.17128,26.05917]},"properties":{"depth_ft":307,"depth_m":93.5}},{"type":"Feature","geometry":{"type":"Point","coordinates":[-111.15385,26.05917]},"properties":{"depth_ft":243,"depth_m":74.2}},{"type":"Feature","geometry":{"type":"Point","coordinates":[-111.10154,26.05917]},"properties":{"depth_ft":77,"depth_m":23.6}},{"type":"Feature","geometry":{"type":"Point","coordinates":[-111.04924,26.05917]},"properties":{"depth_ft":29,"depth_m":8.8}},{"type":"Feature","geometry":{"type":"Point","coordinates":[-111.31076,26.0435]},"properties":{"depth_ft":224,"depth_m":68.3}},{"type":"Feature","geometry":{"type":"Point","coordinates":[-111.17128,26.0435]},"properties":{"depth_ft":79,"depth_m":24.1}},{"type":"Feature","geometry":{"type":"Point","coordinates":[-111.06667,26.0435]},"properties":{"depth_ft":71,"depth_m":21.7}},{"type":"Feature","geometry":{"type":"Point","coordinates":[-111.04924,26.0435]},"properties":{"depth_ft":8,"depth_m":2.6}},{"type":"Feature","geometry":{"type":"Point","coordinates":[-111.3282,26.02783]},"properties":{"depth_ft":61,"depth_m":18.5}},{"type":"Feature","geometry":{"type":"Point","coordinates":[-111.18872,26.02783]},"properties":{"depth_ft":40,"depth_m":12.3}},{"type":"Feature","geometry":{"type":"Point","coordinates":[-111.06667,26.02783]},"properties":{"depth_ft":228,"depth_m":69.5}},{"type":"Feature","geometry":{"type":"Point","coordinates":[-111.3282,26.01217]},"properties":{"depth_ft":30,"depth_m":9.0}},{"type":"Feature","geometry":{"type":"Point","coordinates":[-111.18872,26.01217]},"properties":{"depth_ft":150,"depth_m":45.7}},{"type":"Feature","geometry":{"type":"Point","coordinates":[-111.04924,26.01217]},"properties":{"depth_ft":300,"depth_m":91.5}},{"type":"Feature","geometry":{"type":"Point","coordinates":[-111.3282,25.9965]},"properties":{"depth_ft":83,"depth_m":25.4}},{"type":"Feature","geometry":{"type":"Point","coordinates":[-111.31076,25.9965]},"properties":{"depth_ft":285,"depth_m":87.0}},{"type":"Feature","geometry":{"type":"Point","coordinates":[-111.20615,25.9965]},"properties":{"depth_ft":316,"depth_m":96.5}},{"type":"Feature","geometry":{"type":"Point","coordinates":[-111.18872,25.9965]},"properties":{"depth_ft":154,"depth_m":46.8}},{"type":"Feature","geometry":{"type":"Point","coordinates":[-111.06667,25.9965]},"properties":{"depth_ft":296,"depth_m":90.3}},{"type":"Feature","geometry":{"type":"Point","coordinates":[-111.3282,25.98083]},"properties":{"depth_ft":119,"depth_m":36.2}},{"type":"Feature","geometry":{"type":"Point","coordinates":[-111.20615,25.98083]},"properties":{"depth_ft":173,"depth_m":52.6}},{"type":"Feature","geometry":{"type":"Point","coordinates":[-111.18872,25.98083]},"properties":{"depth_ft":70,"depth_m":21.3}},{"type":"Feature","geometry":{"type":"Point","coordinates":[-111.11898,25.98083]},"properties":{"depth_ft":59,"depth_m":18.0}},{"type":"Feature","geometry":{"type":"Point","coordinates":[-111.10154,25.98083]},"properties":{"depth_ft":51,"depth_m":15.4}},{"type":"Feature","geometry":{"type":"Point","coordinates":[-111.34563,25.96516]},"properties":{"depth_ft":50,"depth_m":15.3}},{"type":"Feature","geometry":{"type":"Point","coordinates":[-111.3282,25.96516]},"properties":{"depth_ft":224,"depth_m":68.2}},{"type":"Feature","geometry":{"type":"Point","coordinates":[-111.20615,25.96516]},"properties":{"depth_ft":94,"depth_m":28.7}},{"type":"Feature","geometry":{"type":"Point","coordinates":[-111.11898,25.96516]},"properties":{"depth_ft":237,"depth_m":72.4}},{"type":"Feature","geometry":{"type":"Point","coordinates":[-111.10154,25.96516]},"properties":{"depth_ft":231,"depth_m":70.5}},{"type":"Feature","geometry":{"type":"Point","coordinates":[-111.08411,25.96516]},"properties":{"depth_ft":51,"depth_m":15.4}},{"type":"Feature","geometry":{"type":"Point","coordinates":[-111.34563,25.94949]},"properties":{"depth_ft":112,"depth_m":34.0}},{"type":"Feature","geometry":{"type":"Point","coordinates":[-111.20615,25.94949]},"properties":{"depth_ft":86,"depth_m":26.3}},{"type":"Feature","geometry":{"type":"Point","coordinates":[-111.13641,25.94949]},"properties":{"depth_ft":236,"depth_m":71.9}},{"type":"Feature","geometry":{"type":"Point","coordinates":[-111.10154,25.94949]},"properties":{"depth_ft":310,"depth_m":94.4}},{"type":"Feature","geometry":{"type":"Point","coordinates":[-111.08411,25.94949]},"properties":{"depth_ft":68,"depth_m":20.8}},{"type":"Feature","geometry":{"type":"Point","coordinates":[-111.34563,25.93383]},"properties":{"depth_ft":83,"depth_m":25.3}},{"type":"Feature","geometry":{"type":"Point","coordinates":[-111.06667,25.93383]},"properties":{"depth_ft":300,"depth_m":91.4}},{"type":"Feature","geometry":{"type":"Point","coordinates":[-111.3282,25.91816]},"properties":{"depth_ft":292,"depth_m":88.9}},{"type":"Feature","geometry":{"type":"Point","coordinates":[-111.15385,25.91816]},"properties":{"depth_ft":132,"depth_m":40.3}},{"type":"Feature","geometry":{"type":"Point","coordinates":[-111.06667,25.91816]},"properties":{"depth_ft":266,"depth_m":81.1}},{"type":"Feature","geometry":{"type":"Point","coordinates":[-111.3282,25.90249]},"properties":{"depth_ft":209,"depth_m":63.8}},{"type":"Feature","geometry":{"type":"Point","coordinates":[-111.22359,25.90249]},"properties":{"depth_ft":84,"depth_m":25.5}},{"type":"Feature","geometry":{"type":"Point","coordinates":[-111.17128,25.90249]},"properties":{"depth_ft":281,"depth_m":85.6}},{"type":"Feature","geometry":{"type":"Point","coordinates":[-111.3282,25.88682]},"properties":{"depth_ft":162,"depth_m":49.5}},{"type":"Feature","geometry":{"type":"Point","coordinates":[-111.3282,25.87116]},"properties":{"depth_ft":97,"depth_m":29.4}},{"type":"Feature","geometry":{"type":"Point","coordinates":[-111.31076,25.87116]},"properties":{"depth_ft":209,"depth_m":63.8}},{"type":"Feature","geometry":{"type":"Point","coordinates":[-111.3282,25.85549]},"properties":{"depth_ft":2,"depth_m":0.5}},{"type":"Feature","geometry":{"type":"Point","coordinates":[-111.31076,25.85549]},"properties":{"depth_ft":227,"depth_m":69.1}},{"type":"Feature","geometry":{"type":"Point","coordinates":[-111.24102,25.85549]},"properties":{"depth_ft":135,"depth_m":41.1}},{"type":"Feature","geometry":{"type":"Point","coordinates":[-111.18872,25.85549]},"properties":{"depth_ft":81,"depth_m":24.7}},{"type":"Feature","geometry":{"type":"Point","coordinates":[-111.31076,25.83982]},"properties":{"depth_ft":244,"depth_m":74.5}},{"type":"Feature","geometry":{"type":"Point","coordinates":[-111.29333,25.83982]},"properties":{"depth_ft":279,"depth_m":85.1}}]}