{"type":"FeatureCollection","features":[{"type":"Feature","geometry":{"type":"Polygon","coordinates":[[[-115.60209,28.30655],[-115.60179,28.30691],[-115.60199,28.3071],[-115.60184,28.30725],[-115.602,28.30733],[-115.60181,28.30758],[-115.60207,28.30753],[-115.60212,28.30785],[-115.60257,28.30807],[-115.60252,28.30831],[-115.60289,28.30837],[-115.60316,28.30882],[-115.60309,28.30922],[-115.6034,28.30951],[-115.60277,28.30987],[-115.60234,28.30972],[-115.60202,28.3099],[-115.60193,28.31041],[-115.60225,28.3111],[-115.60157,28.31127],[-115.60139,28.31168],[-115.6014,28.312],[-115.60171,28.31242],[-115.60134,28.3126],[-115.60132,28.31323],[-115.60115,28.31343],[-115.60124,28.31405],[-115.60087,28.31424],[-115.60133,28.31446],[-115.60098,28.31487],[-115.60122,28.31526],[-115.60102,28.31566],[-115.60037,28.31496],[-115.60011,28.31518],[-115.59996,28.31501],[-115.59984,28.3152],[-115.5995,28.31502],[-115.59902,28.31501],[-115.59835,28.31434],[-115.59826,28.31401],[-115.59812,28.31408],[-115.59822,28.31449],[-115.598,28.31465],[-115.59791,28.31447],[-115.59803,28.31408],[-115.59757,28.314],[-115.59766,28.31439],[-115.59737,28.31418],[-115.59727,28.31489],[-115.59756,28.3153],[-115.59722,28.31517],[-115.59709,28.31552],[-115.5969,28.3156],[-115.59656,28.315],[-115.59627,28.31539],[-115.59639,28.31578],[-115.59621,28.31582],[-115.59614,28.31611],[-115.5959,28.31602],[-115.59565,28.31551],[-115.59544,28.316],[-115.59515,28.31527],[-115.59488,28.31552],[-115.5947,28.31534],[-115.59459,28.31571],[-115.59421,28.31572],[-115.59404,28.31606],[-115.5939,28.31585],[-115.59375,28.31606],[-115.59353,28.31535],[-115.59347,28.31615],[-115.59322,28.31624],[-115.5929,28.31587],[-115.59278,28.3164],[-115.59258,28.3165],[-115.59244,28.31596],[-115.59226,28.316],[-115.59215,28.31633],[-115.59203,28.31595],[-115.59188,28.31626],[-115.59184,28.31581],[-115.59152,28.31582],[-115.59138,28.31567],[-115.5913,28.31593],[-115.59118,28.3159],[-115.59122,28.315],[-115.59143,28.31471],[-115.5913,28.31463],[-115.59106,28.31482],[-115.5909,28.31471],[-115.59064,28.31377],[-115.59045,28.31403],[-115.59037,28.31469],[-115.58984,28.31453],[-115.58923,28.31309],[-115.58918,28.31222],[-115.58873,28.31193],[-115.58845,28.31144],[-115.58774,28.31091],[-115.58747,28.31098],[-115.58722,28.3113],[-115.58713,28.31124],[-115.58732,28.31095],[-115.5871,28.31074],[-115.58737,28.3105],[-115.58721,28.30994],[-115.58689,28.30972],[-115.58698,28.30929],[-115.58686,28.30851],[-115.58621,28.30838],[-115.58541,28.3076],[-115.58524,28.307],[-115.58504,28.30685],[-115.58433,28.30701],[-115.58415,28.30682],[-115.5837,28.30694],[-115.58349,28.30722],[-115.58378,28.3077],[-115.58344,28.30759],[-115.58302,28.30709],[-115.58298,28.30592],[-115.58245,28.30554],[-115.5819,28.30544],[-115.58141,28.30558],[-115.58123,28.30636],[-115.581,28.30558],[-115.57929,28.30563],[-115.57917,28.30583],[-115.57926,28.30606],[-115.57898,28.30599],[-115.57848,28.30637],[-115.57881,28.30714],[-115.5786,28.30706],[-115.57846,28.30763],[-115.57807,28.30769],[-115.57816,28.30817],[-115.57757,28.30905],[-115.57738,28.30913],[-115.57705,28.30899],[-115.57678,28.30957],[-115.57653,28.30922],[-115.57588,28.30938],[-115.57528,28.31018],[-115.57521,28.30985],[-115.57586,28.30873],[-115.57538,28.30823],[-115.57495,28.30822],[-115.57465,28.30782],[-115.57426,28.30824],[-115.57402,28.30796],[-115.5741,28.30762],[-115.57439,28.30735],[-115.57449,28.30763],[-115.5747,28.30763],[-115.57473,28.30687],[-115.57505,28.30635],[-115.57531,28.30685],[-115.57556,28.30681],[-115.57567,28.30551],[-115.57608,28.30551],[-115.57565,28.30499],[-115.57604,28.30509],[-115.57604,28.30433],[-115.5764,28.30447],[-115.57618,28.30409],[-115.57661,28.30409],[-115.57623,28.30353],[-115.57619,28.30297],[-115.57652,28.30332],[-115.57665,28.30315],[-115.57616,28.30266],[-115.57608,28.30235],[-115.5765,28.30232],[-115.57692,28.30305],[-115.57705,28.30294],[-115.57704,28.3026],[-115.57725,28.30277],[-115.57722,28.30318],[-115.5778,28.30326],[-115.57786,28.30273],[-115.57814,28.30283],[-115.57827,28.30316],[-115.5785,28.30314],[-115.57891,28.3027],[-115.579,28.30209],[-115.57931,28.30231],[-115.57939,28.30205],[-115.57979,28.30239],[-115.58017,28.30212],[-115.5799,28.30166],[-115.58018,28.30168],[-115.58031,28.30153],[-115.57998,28.30072],[-115.57967,28.30057],[-115.57959,28.30023],[-115.57888,28.29969],[-115.57893,28.29897],[-115.57922,28.29831],[-115.57899,28.29779],[-115.57905,28.29759],[-115.57961,28.29764],[-115.57997,28.29745],[-115.5805,28.29802],[-115.58073,28.29782],[-115.58114,28.29791],[-115.58112,28.29712],[-115.58158,28.29707],[-115.58202,28.298],[-115.58201,28.29818],[-115.58171,28.29811],[-115.58165,28.29828],[-115.58311,28.29957],[-115.5834,28.29928],[-115.58334,28.29887],[-115.58368,28.29903],[-115.58383,28.2988],[-115.58459,28.29895],[-115.5845,28.29796],[-115.58497,28.2969],[-115.58542,28.29687],[-115.58613,28.29799],[-115.58621,28.2975],[-115.58642,28.29755],[-115.58667,28.29737],[-115.58684,28.29763],[-115.58712,28.29717],[-115.58729,28.29756],[-115.58739,28.29701],[-115.58763,28.29742],[-115.58793,28.2972],[-115.58834,28.29766],[-115.58822,28.29705],[-115.58847,28.29654],[-115.58956,28.29608],[-115.58951,28.29573],[-115.59005,28.29524],[-115.59029,28.29526],[-115.59026,28.29541],[-115.59055,28.29526],[-115.59007,28.29567],[-115.59044,28.29672],[-115.59073,28.297],[-115.59041,28.29723],[-115.59084,28.29785],[-115.59141,28.2982],[-115.59137,28.29917],[-115.59171,28.29897],[-115.59164,28.2994],[-115.59204,28.29935],[-115.59216,28.29899],[-115.59223,28.29934],[-115.59237,28.29939],[-115.59251,28.29873],[-115.59277,28.29911],[-115.59284,28.2987],[-115.59313,28.2987],[-115.59315,28.29841],[-115.59295,28.29812],[-115.5937,28.29889],[-115.59346,28.29833],[-115.59364,28.29822],[-115.59374,28.29745],[-115.59393,28.29729],[-115.59421,28.29758],[-115.59452,28.29762],[-115.59482,28.29736],[-115.59513,28.29746],[-115.59516,28.29722],[-115.59539,28.29748],[-115.59571,28.29744],[-115.59621,28.29769],[-115.59635,28.29729],[-115.59661,28.29719],[-115.59704,28.29776],[-115.59742,28.2976],[-115.59772,28.2979],[-115.59796,28.29858],[-115.59769,28.29889],[-115.59807,28.29887],[-115.59837,28.29905],[-115.59872,28.29874],[-115.59914,28.29872],[-115.59912,28.29855],[-115.59944,28.29832],[-115.59983,28.29881],[-115.59992,28.29933],[-115.60015,28.29902],[-115.60028,28.29937],[-115.60083,28.29865],[-115.60073,28.2991],[-115.60118,28.29908],[-115.60161,28.30019],[-115.60152,28.29951],[-115.60184,28.29907],[-115.60216,28.299],[-115.60262,28.29952],[-115.60288,28.29923],[-115.60308,28.29943],[-115.60359,28.29934],[-115.60403,28.29991],[-115.60446,28.29963],[-115.60471,28.29971],[-115.60465,28.29923],[-115.60491,28.29915],[-115.60508,28.29952],[-115.60499,28.30051],[-115.60514,28.3005],[-115.60534,28.30009],[-115.60531,28.3005],[-115.60555,28.30076],[-115.60625,28.30013],[-115.60633,28.30115],[-115.6059,28.30143],[-115.60553,28.30107],[-115.60528,28.30118],[-115.6052,28.30159],[-115.60543,28.30191],[-115.6054,28.30225],[-115.60519,28.30258],[-115.60476,28.30281],[-115.60438,28.30361],[-115.60376,28.3042],[-115.60348,28.3048],[-115.60259,28.30532],[-115.60164,28.30552],[-115.60209,28.30655]]]},"properties":{"name":"unnamed-land"}},{"type":"Feature","geometry":{"type":"Polygon","coordinates":[[[-115.54609,28.30223],[-115.54666,28.30266],[-115.5476,28.30242],[-115.54789,28.30279],[-115.54912,28.30232],[-115.54949,28.30249],[-115.54953,28.30329],[-115.54985,28.30396],[-115.54981,28.30423],[-115.5497,28.30441],[-115.54942,28.30429],[-115.54926,28.30438],[-115.54955,28.30469],[-115.54947,28.30507],[-115.54926,28.30518],[-115.54943,28.30557],[-115.54861,28.30575],[-115.54893,28.30619],[-115.54905,28.30687],[-115.54958,28.30687],[-115.54967,28.307],[-115.54915,28.30713],[-115.54866,28.30748],[-115.54889,28.30758],[-115.54882,28.30784],[-115.549,28.30829],[-115.54932,28.3086],[-115.5491,28.30901],[-115.54903,28.30993],[-115.54884,28.30985],[-115.54811,28.31008],[-115.54757,28.31115],[-115.54772,28.31139],[-115.54641,28.31107],[-115.54529,28.31162],[-115.54547,28.31185],[-115.54524,28.31196],[-115.54502,28.31188],[-115.54478,28.31135],[-115.54425,28.31142],[-115.54366,28.31081],[-115.54382,28.30946],[-115.54413,28.30904],[-115.54362,28.30931],[-115.5435,28.30888],[-115.54279,28.30891],[-115.54237,28.30871],[-115.5422,28.30839],[-115.54189,28.30841],[-115.5422,28.30801],[-115.54261,28.30788],[-115.54284,28.30744],[-115.54282,28.30723],[-115.54238,28.30693],[-115.54212,28.30651],[-115.54212,28.30612],[-115.54181,28.30631],[-115.54168,28.30612],[-115.5411,28.30675],[-115.54096,28.30619],[-115.54046,28.30638],[-115.54037,28.30594],[-115.53943,28.30563],[-115.53959,28.30527],[-115.53891,28.30539],[-115.53871,28.30515],[-115.53811,28.30507],[-115.53762,28.30475],[-115.53722,28.30502],[-115.53672,28.30498],[-115.53668,28.30434],[-115.53683,28.30398],[-115.53707,28.30385],[-115.53658,28.3035],[-115.53749,28.30324],[-115.53789,28.30292],[-115.53843,28.3017],[-115.53729,28.3015],[-115.53752,28.30095],[-115.53707,28.30083],[-115.53683,28.30043],[-115.53618,28.30065],[-115.5373,28.29988],[-115.53841,28.29956],[-115.53827,28.29922],[-115.53961,28.29862],[-115.53897,28.2986],[-115.53893,28.29837],[-115.53835,28.29853],[-115.53807,28.29827],[-115.53842,28.29799],[-115.53885,28.2967],[-115.53971,28.29641],[-115.54062,28.29632],[-115.5409,28.29646],[-115.54096,28.29619],[-115.54132,28.29611],[-115.5413,28.29588],[-115.5404,28.29556],[-115.54038,28.2953],[-115.54089,28.29514],[-115.54079,28.2949],[-115.54127,28.2949],[-115.54166,28.29512],[-115.54181,28.29455],[-115.5425,28.29444],[-115.54222,28.29426],[-115.54257,28.29399],[-115.54238,28.29319],[-115.54282,28.29316],[-115.54283,28.29286],[-115.54337,28.29221],[-115.54363,28.29113],[-115.54414,28.29139],[-115.5446,28.29071],[-115.5453,28.29135],[-115.54532,28.29155],[-115.545,28.29172],[-115.54529,28.29197],[-115.54515,28.29218],[-115.54541,28.29265],[-115.54563,28.29376],[-115.54553,28.29398],[-115.54393,28.29496],[-115.54393,28.29519],[-115.54435,28.29539],[-115.54466,28.29511],[-115.54525,28.29507],[-115.54507,28.29573],[-115.54543,28.29544],[-115.5455,28.29576],[-115.54565,28.29578],[-115.54594,28.29537],[-115.54619,28.29564],[-115.54606,28.29586],[-115.54615,28.296],[-115.54672,28.29604],[-115.54691,28.29571],[-115.54731,28.29572],[-115.54744,28.29581],[-115.54718,28.29652],[-115.54758,28.29708],[-115.54804,28.29687],[-115.54783,28.29723],[-115.54819,28.29756],[-115.54719,28.29764],[-115.54742,28.29806],[-115.54695,28.29835],[-115.54697,28.29971],[-115.5465,28.30047],[-115.54609,28.30223]]]},"properties":{"name":"unnamed-land"}},{"type":"Feature","geometry":{"type":"Polygon","coordinates":[[[-115.56464,28.30801],[-115.56496,28.3075],[-115.56571,28.30741],[-115.56639,28.30793],[-115.56716,28.30797],[-115.56739,28.30758],[-115.56822,28.30755],[-115.5681,28.30738],[-115.56824,28.30725],[-115.5682,28.30689],[-115.56867,28.30734],[-115.56853,28.30781],[-115.56906,28.30784],[-115.56934,28.30852],[-115.57098,28.30871],[-115.57149,28.30927],[-115.57183,28.30887],[-115.57174,28.30934],[-115.57223,28.30965],[-115.57208,28.30983],[-115.57226,28.31017],[-115.57242,28.31028],[-115.57273,28.31009],[-115.57292,28.31014],[-115.57277,28.31101],[-115.57308,28.31216],[-115.57333,28.31241],[-115.57334,28.31287],[-115.57368,28.31345],[-115.57363,28.31362],[-115.57328,28.31349],[-115.57343,28.31374],[-115.57325,28.31392],[-115.57337,28.31442],[-115.57289,28.31374],[-115.57251,28.314],[-115.57263,28.31356],[-115.5725,28.31319],[-115.57205,28.31285],[-115.57202,28.31252],[-115.57166,28.31227],[-115.57157,28.31182],[-115.57126,28.31172],[-115.57073,28.3117],[-115.57029,28.31194],[-115.57018,28.31221],[-115.57043,28.3127],[-115.57029,28.31283],[-115.56925,28.31243],[-115.56869,28.31282],[-115.56837,28.31265],[-115.56796,28.31371],[-115.56725,28.31348],[-115.56699,28.31305],[-115.56666,28.31324],[-115.56565,28.31193],[-115.56552,28.31148],[-115.56502,28.31123],[-115.56498,28.31093],[-115.56401,28.31095],[-115.56371,28.31032],[-115.56333,28.31076],[-115.563,28.31017],[-115.56297,28.31063],[-115.56276,28.31068],[-115.56208,28.30987],[-115.56154,28.30963],[-115.56079,28.30884],[-115.56062,28.30829],[-115.56072,28.30697],[-115.56083,28.30698],[-115.56093,28.30771],[-115.56148,28.30771],[-115.56185,28.30808],[-115.56197,28.30757],[-115.56247,28.3078],[-115.56252,28.30742],[-115.56342,28.30763],[-115.56384,28.30792],[-115.56423,28.30777],[-115.56437,28.30805],[-115.56464,28.30801]]]},"properties":{"name":"unnamed-land"}}]}