{"type":"FeatureCollection","features":[{"type":"Feature","geometry":{"type":"Point","coordinates":[-115.57278,28.31971]},"properties":{"depth_ft":326,"depth_m":99.4}},{"type":"Feature","geometry":{"type":"Point","coordinates":[-115.59502,28.31579]},"properties":{"depth_ft":107,"depth_m":32.6}},{"type":"Feature","geometry":{"type":"Point","coordinates":[-115.57278,28.31579]},"properties":{"depth_ft":4,"depth_m":1.1}},{"type":"Feature","geometry":{"type":"Point","coordinates":[-115.56833,28.31579]},"properties":{"depth_ft":103,"depth_m":31.3}},{"type":"Feature","geometry":{"type":"Point","coordinates":[-115.56388,28.31579]},"properties":{"depth_ft":203,"depth_m":61.9}},{"type":"Feature","geometry":{"type":"Point","coordinates":[-115.58612,28.31188]},"properties":{"depth_ft":212,"depth_m":64.7}},{"type":"Feature","geometry":{"type":"Point","coordinates":[-115.58167,28.31188]},"properties":{"depth_ft":144,"depth_m":44.0}},{"type":"Feature","geometry":{"type":"Point","coordinates":[-115.57722,28.31188]},"properties":{"depth_ft":26,"depth_m":8.1}},{"type":"Feature","geometry":{"type":"Point","coordinates":[-115.56388,28.31188]},"properties":{"depth_ft":29,"depth_m":8.8}},{"type":"Feature","geometry":{"type":"Point","coordinates":[-115.55943,28.31188]},"properties":{"depth_ft":296,"depth_m":90.1}},{"type":"Feature","geometry":{"type":"Point","coordinates":[-115.54608,28.31188]},"properties":{"depth_ft":170,"depth_m":51.7}},{"type":"Feature","geometry":{"type":"Point","coordinates":[-115.54163,28.31188]},"properties":{"depth_ft":61,"depth_m":18.4}},{"type":"Feature","geometry":{"type":"Point","coordinates":[-115.53718,28.31188]},"properties":{"depth_ft":142,"depth_m":43.4}},{"type":"Feature","geometry":{"type":"Point","coordinates":[-115.58167,28.30796]},"properties":{"depth_ft":144,"depth_m":44.0}},{"type":"Feature","geometry":{"type":"Point","coordinates":[-115.55943,28.30796]},"properties":{"depth_ft":304,"depth_m":92.7}},{"type":"Feature","geometry":{"type":"Point","coordinates":[-115.55498,28.30796]},"properties":{"depth_ft":244,"depth_m":74.3}},{"type":"Feature","geometry":{"type":"Point","coordinates":[-115.55053,28.30796]},"properties":{"depth_ft":211,"depth_m":64.2}},{"type":"Feature","geometry":{"type":"Point","coordinates":[-115.54163,28.30796]},"properties":{"depth_ft":5,"depth_m":1.5}},{"type":"Feature","geometry":{"type":"Point","coordinates":[-115.53718,28.30796]},"properties":{"depth_ft":2,"depth_m":0.7}},{"type":"Feature","geometry":{"type":"Point","coordinates":[-115.53274,28.30796]},"properties":{"depth_ft":156,"depth_m":47.5}},{"type":"Feature","geometry":{"type":"Point","coordinates":[-115.56833,28.30404]},"properties":{"depth_ft":17,"depth_m":5.0}},{"type":"Feature","geometry":{"type":"Point","coordinates":[-115.56388,28.30404]},"properties":{"depth_ft":34,"depth_m":10.4}},{"type":"Feature","geometry":{"type":"Point","coordinates":[-115.55943,28.30404]},"properties":{"depth_ft":147,"depth_m":44.9}},{"type":"Feature","geometry":{"type":"Point","coordinates":[-115.55498,28.30404]},"properties":{"depth_ft":206,"depth_m":62.9}},{"type":"Feature","geometry":{"type":"Point","coordinates":[-115.55053,28.30404]},"properties":{"depth_ft":159,"depth_m":48.6}},{"type":"Feature","geometry":{"type":"Point","coordinates":[-115.53274,28.30404]},"properties":{"depth_ft":174,"depth_m":53.0}},{"type":"Feature","geometry":{"type":"Point","coordinates":[-115.57722,28.30012]},"properties":{"depth_ft":10,"depth_m":3.1}},{"type":"Feature","geometry":{"type":"Point","coordinates":[-115.56833,28.30012]},"properties":{"depth_ft":14,"depth_m":4.2}},{"type":"Feature","geometry":{"type":"Point","coordinates":[-115.56388,28.30012]},"properties":{"depth_ft":26,"depth_m":7.9}},{"type":"Feature","geometry":{"type":"Point","coordinates":[-115.55943,28.30012]},"properties":{"depth_ft":29,"depth_m":8.9}},{"type":"Feature","geometry":{"type":"Point","coordinates":[-115.55498,28.30012]},"properties":{"depth_ft":75,"depth_m":23.0}},{"type":"Feature","geometry":{"type":"Point","coordinates":[-115.55053,28.30012]},"properties":{"depth_ft":156,"depth_m":47.4}},{"type":"Feature","geometry":{"type":"Point","coordinates":[-115.57722,28.29621]},"properties":{"depth_ft":86,"depth_m":26.1}},{"type":"Feature","geometry":{"type":"Point","coordinates":[-115.57278,28.29621]},"properties":{"depth_ft":25,"depth_m":7.6}},{"type":"Feature","geometry":{"type":"Point","coordinates":[-115.56833,28.29621]},"properties":{"depth_ft":1,"depth_m":0.2}},{"type":"Feature","geometry":{"type":"Point","coordinates":[-115.56388,28.29621]},"properties":{"depth_ft":17,"depth_m":5.1}},{"type":"Feature","geometry":{"type":"Point","coordinates":[-115.55498,28.29621]},"properties":{"depth_ft":18,"depth_m":5.5}},{"type":"Feature","geometry":{"type":"Point","coordinates":[-115.55053,28.29621]},"properties":{"depth_ft":83,"depth_m":25.2}},{"type":"Feature","geometry":{"type":"Point","coordinates":[-115.55498,28.29229]},"properties":{"depth_ft":1,"depth_m":0.4}},{"type":"Feature","geometry":{"type":"Point","coordinates":[-115.55053,28.29229]},"properties":{"depth_ft":80,"depth_m":24.4}},{"type":"Feature","geometry":{"type":"Point","coordinates":[-115.54608,28.29229]},"properties":{"depth_ft":223,"depth_m":67.9}},{"type":"Feature","geometry":{"type":"Point","coordinates":[-115.57278,28.28837]},"properties":{"depth_ft":70,"depth_m":21.3}},{"type":"Feature","geometry":{"type":"Point","coordinates":[-115.56833,28.28837]},"properties":{"depth_ft":70,"depth_m":21.3}},{"type":"Feature","geometry":{"type":"Point","coordinates":[-115.55943,28.28837]},"properties":{"depth_ft":1,"depth_m":0.3}},{"type":"Feature","geometry":{"type":"Point","coordinates":[-115.55498,28.28837]},"properties":{"depth_ft":64,"depth_m":19.5}},{"type":"Feature","geometry":{"type":"Point","coordinates":[-115.57278,28.28446]},"properties":{"depth_ft":65,"depth_m":19.9}},{"type":"Feature","geometry":{"type":"Point","coordinates":[-115.56833,28.28446]},"properties":{"depth_ft":65,"depth_m":19.9}},{"type":"Feature","geometry":{"type":"Point","coordinates":[-115.56388,28.28446]},"properties":{"depth_ft":9,"depth_m":2.6}},{"type":"Feature","geometry":{"type":"Point","coordinates":[-115.55943,28.28446]},"properties":{"depth_ft":29,"depth_m":8.7}},{"type":"Feature","geometry":{"type":"Point","coordinates":[-115.57278,28.28054]},"properties":{"depth_ft":69,"depth_m":21.0}},{"type":"Feature","geometry":{"type":"Point","coordinates":[-115.56833,28.28054]},"properties":{"depth_ft":10,"depth_m":3.0}},{"type":"Feature","geometry":{"type":"Point","coordinates":[-115.56388,28.28054]},"properties":{"depth_ft":1,"depth_m":0.4}},{"type":"Feature","geometry":{"type":"Point","coordinates":[-115.56833,28.27662]},"properties":{"depth_ft":86,"depth_m":26.3}}]}