{"type":"FeatureCollection","features":[{"type":"Feature","geometry":{"type":"Polygon","coordinates":[[[-117.27362,32.81538],[-117.27399,32.8155],[-117.27401,32.81565],[-117.27306,32.8167],[-117.27339,32.8174],[-117.27387,32.81798],[-117.27467,32.81856],[-117.27511,32.81851],[-117.27568,32.81806],[-117.27555,32.81855],[-117.27617,32.81848],[-117.27605,32.81866],[-117.27633,32.81884],[-117.27693,32.81891],[-117.27735,32.81962],[-117.27854,32.82001],[-117.27917,32.82073],[-117.2799,32.82059],[-117.27976,32.82082],[-117.28,32.82109],[-117.28019,32.82108],[-117.28056,32.82179],[-117.28103,32.82194],[-117.28097,32.82232],[-117.28042,32.82329],[-117.28047,32.82392],[-117.28021,32.82448],[-117.27989,32.82621],[-117.28021,32.82758],[-117.28106,32.82967],[-117.28142,32.8313],[-117.28226,32.83262],[-117.28206,32.83379],[-117.28166,32.83492],[-117.28149,32.83669],[-117.28176,32.83849],[-117.28217,32.83945],[-117.28223,32.83999],[-117.28132,32.8429],[-117.2807,32.84341],[-117.28092,32.84352],[-117.2792,32.84438],[-117.27891,32.84581],[-117.27924,32.84589],[-117.27882,32.84661],[-117.27897,32.84722],[-117.27885,32.84768],[-117.2787,32.84785],[-117.2784,32.84794],[-117.27865,32.84782],[-117.2782,32.84748],[-117.27791,32.84776],[-117.27781,32.84754],[-117.27735,32.8477],[-117.27714,32.848],[-117.27659,32.84832],[-117.276,32.84911],[-117.27626,32.84933],[-117.27591,32.84939],[-117.2758,32.84956],[-117.27545,32.84955],[-117.27405,32.85086],[-117.27407,32.85114],[-117.2739,32.85116],[-117.27389,32.85133],[-117.2737,32.85137],[-117.27322,32.85121],[-117.27292,32.85075],[-117.27301,32.85054],[-117.27261,32.85025],[-117.27225,32.85041],[-117.27195,32.85023],[-117.27161,32.85049],[-117.27126,32.8504],[-117.27035,32.84951],[-117.27043,32.85016],[-117.27005,32.85015],[-117.26979,32.84967],[-117.26939,32.84939],[-117.26913,32.84939],[-117.2688,32.84907],[-117.26755,32.84859],[-117.26655,32.84905],[-117.26549,32.84859],[-117.26438,32.84914],[-117.26379,32.84986],[-117.26367,32.85053],[-117.26327,32.85069],[-117.26326,32.85095],[-117.26221,32.85166],[-117.26065,32.85323],[-117.25857,32.85615],[-117.25641,32.86003],[-117.25545,32.86288],[-117.25461,32.86676],[-117.25391,32.86808],[-117.25325,32.8707],[-117.25325,32.87112],[-117.25339,32.8712],[-117.25257,32.872],[-117.25158,32.87677],[-117.25176,32.88108],[-117.25305,32.8839],[-117.25303,32.88536],[-117.25344,32.8888],[-117.25354,32.89129],[-117.25339,32.89208],[-117.25360462033463,32.89303603603604],[-117.22910280068832,32.89303603603604],[-117.22910280068832,32.81496396396396],[-117.2735199913375,32.81496396396396],[-117.27362,32.81538]]]},"properties":{"name":"ca-mainland"}}]}