{"type":"FeatureCollection","features":[{"type":"Feature","properties":{"id":"lajolla-kelp-canopy","name":"La Jolla recent kelp canopy","className":"Kelp Canopy"},"geometry":{"type":"MultiPolygon","coordinates":[[[[-117.2933,32.81833],[-117.29298,32.81805],[-117.2933,32.81805],[-117.2933,32.81833]]],[[[-117.2933,32.8186],[-117.29362,32.81833],[-117.29362,32.8186],[-117.2933,32.8186]]],[[[-117.2901,32.81915],[-117.29074,32.81969],[-117.2901,32.82023],[-117.28914,32.8186],[-117.28945,32.81806],[-117.29074,32.81833],[-117.29074,32.81888],[-117.2901,32.81915]],[[-117.28978,32.8186],[-117.28977,32.81834],[-117.28977,32.8186],[-117.28978,32.8186]]],[[[-117.28851,32.82159],[-117.28819,32.8224],[-117.28722,32.8224],[-117.28754,32.82023],[-117.2885,32.81969],[-117.28914,32.81969],[-117.28946,32.82023],[-117.28947,32.82132],[-117.28851,32.82159]],[[-117.28818,32.82104],[-117.28819,32.82104],[-117.28818,32.82077],[-117.28818,32.82104]]],[[[-117.28917,32.82889],[-117.28885,32.82889],[-117.28917,32.82862],[-117.28917,32.82889]]],[[[-117.29206,32.83213],[-117.28982,32.83105],[-117.29045,32.82835],[-117.28917,32.82835],[-117.2898,32.82726],[-117.29044,32.8278],[-117.29076,32.82699],[-117.2914,32.82726],[-117.29141,32.82834],[-117.2927,32.82996],[-117.2927,32.83132],[-117.29206,32.83213]],[[-117.2911,32.82997],[-117.29109,32.83024],[-117.2911,32.83024],[-117.2911,32.82997]]],[[[-117.29111,32.83403],[-117.29143,32.83376],[-117.29143,32.83403],[-117.29111,32.83403]]],[[[-117.29432,32.83645],[-117.29529,32.83754],[-117.29433,32.83754],[-117.29432,32.83645]]],[[[-117.28826,32.84513],[-117.28794,32.84513],[-117.28826,32.84486],[-117.28826,32.84513]]],[[[-117.2889,32.84621],[-117.2889,32.84594],[-117.2905,32.84621],[-117.2889,32.84621]]],[[[-117.28658,32.81942],[-117.28625,32.81916],[-117.28658,32.81888],[-117.28722,32.81969],[-117.28658,32.81997],[-117.28593,32.81942],[-117.28658,32.81942]]],[[[-117.28593,32.82051],[-117.28625,32.82024],[-117.28625,32.82051],[-117.28593,32.82051]]],[[[-117.28529,32.82105],[-117.28561,32.82078],[-117.28561,32.82105],[-117.28529,32.82105]]],[[[-117.28822,32.8316],[-117.28822,32.83187],[-117.2879,32.8316],[-117.28822,32.8316]]],[[[-117.28761,32.84378],[-117.28729,32.84378],[-117.28761,32.84351],[-117.28761,32.84378]]],[[[-117.27674,32.85138],[-117.27674,32.85165],[-117.27578,32.85165],[-117.2761,32.85111],[-117.27674,32.85138]]],[[[-117.28508,32.85244],[-117.2854,32.85217],[-117.2854,32.85244],[-117.28508,32.85244]]],[[[-117.28252,32.85353],[-117.28284,32.85326],[-117.28284,32.85353],[-117.28252,32.85353]]],[[[-117.28348,32.8538],[-117.28316,32.8538],[-117.28348,32.85353],[-117.28348,32.8538]]],[[[-117.2838,32.8538],[-117.28476,32.85461],[-117.2838,32.85407],[-117.2838,32.8538]]]]}}]}