{"type":"FeatureCollection","features":[{"type":"Feature","geometry":{"type":"Point","coordinates":[-117.2735,32.8505]},"properties":{"name":"La Jolla Cove","importance":"marquee","category":"dive"}},{"type":"Feature","geometry":{"type":"Point","coordinates":[-117.2745,32.852]},"properties":{"name":"La Jolla Caves","importance":"major","category":"dive"}},{"type":"Feature","geometry":{"type":"Point","coordinates":[-117.2738,32.8495]},"properties":{"name":"Boomer Beach","importance":"minor","category":"dive"}},{"type":"Feature","geometry":{"type":"Point","coordinates":[-117.279,32.8475]},"properties":{"name":"Children's Pool","importance":"major","category":"dive"}},{"type":"Feature","geometry":{"type":"Point","coordinates":[-117.254,32.858]},"properties":{"name":"Marine Room","importance":"minor","category":"dive"}},{"type":"Feature","geometry":{"type":"Point","coordinates":[-117.258,32.8595]},"properties":{"name":"Vallecitos","importance":"minor","category":"dive"}},{"type":"Feature","geometry":{"type":"Point","coordinates":[-117.2545,32.85]},"properties":{"name":"Hospital Reef","importance":"minor","category":"dive"}},{"type":"Feature","geometry":{"type":"Point","coordinates":[-117.278,32.852]},"properties":{"name":"Point La Jolla","importance":"major","category":"coastal"}},{"type":"Feature","geometry":{"type":"Point","coordinates":[-117.2535,32.887]},"properties":{"name":"Black's Beach","importance":"major","category":"coastal"}},{"type":"Feature","geometry":{"type":"Point","coordinates":[-117.281,32.832]},"properties":{"name":"Windansea","importance":"minor","category":"coastal"}},{"type":"Feature","geometry":{"type":"Point","coordinates":[-117.25,32.865]},"properties":{"name":"La Jolla Shores Beach","importance":"major","category":"coastal"}},{"type":"Feature","geometry":{"type":"Point","coordinates":[-117.258,32.874]},"properties":{"name":"Scripps Beach","importance":"minor","category":"coastal"}},{"type":"Feature","geometry":{"type":"Point","coordinates":[-117.254,32.8665]},"properties":{"name":"Scripps Pier","importance":"major","category":"inland"}},{"type":"Feature","geometry":{"type":"Point","coordinates":[-117.255,32.8657]},"properties":{"name":"Birch Aquarium","importance":"major","category":"inland"}},{"type":"Feature","geometry":{"type":"Point","coordinates":[-117.253,32.869]},"properties":{"name":"Scripps Inst.","importance":"minor","category":"inland"}},{"type":"Feature","geometry":{"type":"Point","coordinates":[-117.238,32.8675]},"properties":{"name":"Revelle Coll.","importance":"minor","category":"inland"}},{"type":"Feature","geometry":{"type":"Point","coordinates":[-117.2655,32.847]},"properties":{"name":"Village of La Jolla","importance":"major","category":"inland"}},{"type":"Feature","geometry":{"type":"Point","coordinates":[-117.2435,32.84]},"properties":{"name":"Mt Soledad","importance":"major","category":"inland"}},{"type":"Feature","geometry":{"type":"Point","coordinates":[-117.25,32.854]},"properties":{"name":"La Jolla Shores","importance":"major","category":"inland"}},{"type":"Feature","geometry":{"type":"Point","coordinates":[-117.2895,32.86]},"properties":{"name":"La Jolla Canyon","importance":"marquee","category":"marine"}},{"type":"Feature","geometry":{"type":"Point","coordinates":[-117.27,32.859]},"properties":{"name":"Mushroom Bch Reef","importance":"minor","category":"marine"}},{"type":"Feature","geometry":{"type":"Point","coordinates":[-117.282,32.843]},"properties":{"name":"Yellowtail Hole","importance":"minor","category":"marine"}},{"type":"Feature","geometry":{"type":"Point","coordinates":[-117.266,32.852]},"properties":{"name":"Vallecitos Bank","importance":"minor","category":"marine"}},{"type":"Feature","geometry":{"type":"Point","coordinates":[-117.273,32.856]},"properties":{"name":"La Jolla Kelp Bed","importance":"major","category":"marine"}}]}