{"type":"FeatureCollection","features":[{"type":"Feature","geometry":{"type":"Polygon","coordinates":[[[-117.254,32.868],[-117.254,32.868],[-117.254,32.867],[-117.254,32.867],[-117.254,32.867],[-117.254,32.867],[-117.254,32.867],[-117.254,32.866],[-117.254,32.866],[-117.258,32.866],[-117.273,32.866],[-117.273,32.883],[-117.253,32.883],[-117.253,32.883],[-117.252,32.882],[-117.252,32.881],[-117.251,32.88],[-117.251,32.879],[-117.251,32.878],[-117.251,32.878],[-117.251,32.878],[-117.251,32.877],[-117.251,32.877],[-117.251,32.877],[-117.251,32.876],[-117.251,32.876],[-117.251,32.876],[-117.251,32.875],[-117.251,32.875],[-117.251,32.874],[-117.252,32.874],[-117.252,32.874],[-117.252,32.873],[-117.252,32.873],[-117.252,32.872],[-117.253,32.872],[-117.253,32.872],[-117.253,32.871],[-117.253,32.871],[-117.253,32.871],[-117.253,32.871],[-117.253,32.87],[-117.253,32.87],[-117.253,32.87],[-117.253,32.869],[-117.253,32.869],[-117.254,32.869],[-117.254,32.868],[-117.254,32.868],[-117.254,32.868],[-117.254,32.868]]]},"properties":{"id":"san-diego-scripps-coastal-state-marine-conservation-area","name":"San Diego-Scripps Coastal State Marine Conservation Area","type":"SMCA","shortName":"San Diego-Scripps Coastal","areaKm2":null,"ccrCitation":null}},{"type":"Feature","geometry":{"type":"Polygon","coordinates":[[[-117.264,32.849],[-117.264,32.849],[-117.264,32.849],[-117.265,32.849],[-117.265,32.849],[-117.265,32.849],[-117.265,32.849],[-117.265,32.849],[-117.266,32.849],[-117.266,32.849],[-117.266,32.849],[-117.266,32.849],[-117.266,32.849],[-117.266,32.849],[-117.266,32.849],[-117.267,32.849],[-117.267,32.849],[-117.267,32.849],[-117.267,32.849],[-117.267,32.849],[-117.267,32.849],[-117.267,32.849],[-117.267,32.849],[-117.268,32.849],[-117.268,32.849],[-117.268,32.849],[-117.268,32.849],[-117.268,32.849],[-117.268,32.849],[-117.268,32.849],[-117.268,32.849],[-117.268,32.849],[-117.268,32.849],[-117.268,32.849],[-117.268,32.849],[-117.268,32.849],[-117.268,32.849],[-117.268,32.849],[-117.269,32.849],[-117.269,32.849],[-117.269,32.849],[-117.269,32.849],[-117.269,32.849],[-117.269,32.849],[-117.269,32.849],[-117.269,32.849],[-117.269,32.849],[-117.269,32.849],[-117.269,32.849],[-117.269,32.849],[-117.269,32.849],[-117.27,32.849],[-117.27,32.85],[-117.27,32.85],[-117.27,32.85],[-117.27,32.85],[-117.27,32.85],[-117.27,32.85],[-117.27,32.85],[-117.27,32.85],[-117.27,32.85],[-117.27,32.85],[-117.27,32.85],[-117.27,32.85],[-117.27,32.85],[-117.27,32.85],[-117.27,32.85],[-117.27,32.85],[-117.27,32.85],[-117.27,32.85],[-117.27,32.85],[-117.27,32.85],[-117.27,32.85],[-117.27,32.85],[-117.27,32.85],[-117.27,32.85],[-117.271,32.85],[-117.271,32.85],[-117.271,32.85],[-117.271,32.85],[-117.271,32.85],[-117.271,32.85],[-117.271,32.85],[-117.271,32.85],[-117.271,32.85],[-117.271,32.85],[-117.271,32.85],[-117.271,32.85],[-117.271,32.85],[-117.271,32.85],[-117.271,32.85],[-117.271,32.85],[-117.271,32.85],[-117.272,32.85],[-117.272,32.85],[-117.272,32.85],[-117.272,32.85],[-117.272,32.85],[-117.272,32.85],[-117.272,32.85],[-117.272,32.85],[-117.272,32.85],[-117.272,32.85],[-117.272,32.85],[-117.272,32.85],[-117.272,32.85],[-117.272,32.85],[-117.272,32.85],[-117.272,32.85],[-117.272,32.85],[-117.272,32.85],[-117.272,32.85],[-117.272,32.85],[-117.272,32.85],[-117.272,32.85],[-117.273,32.85],[-117.273,32.85],[-117.273,32.85],[-117.273,32.85],[-117.273,32.85],[-117.273,32.851],[-117.273,32.851],[-117.273,32.851],[-117.273,32.851],[-117.273,32.851],[-117.273,32.851],[-117.273,32.851],[-117.273,32.851],[-117.273,32.851],[-117.273,32.851],[-117.273,32.851],[-117.273,32.866],[-117.258,32.866],[-117.254,32.866],[-117.254,32.866],[-117.254,32.866],[-117.254,32.865],[-117.255,32.865],[-117.255,32.865],[-117.255,32.864],[-117.255,32.864],[-117.255,32.864],[-117.255,32.864],[-117.255,32.863],[-117.255,32.863],[-117.255,32.863],[-117.255,32.863],[-117.255,32.863],[-117.255,32.862],[-117.255,32.862],[-117.255,32.862],[-117.255,32.862],[-117.255,32.862],[-117.255,32.862],[-117.255,32.862],[-117.255,32.862],[-117.255,32.861],[-117.255,32.861],[-117.255,32.861],[-117.256,32.861],[-117.256,32.86],[-117.256,32.86],[-117.256,32.86],[-117.256,32.859],[-117.257,32.858],[-117.257,32.857],[-117.258,32.857],[-117.258,32.856],[-117.259,32.855],[-117.259,32.855],[-117.259,32.855],[-117.259,32.854],[-117.26,32.854],[-117.26,32.853],[-117.261,32.853],[-117.261,32.853],[-117.261,32.853],[-117.261,32.852],[-117.261,32.852],[-117.261,32.852],[-117.262,32.852],[-117.262,32.852],[-117.262,32.852],[-117.263,32.851],[-117.263,32.851],[-117.263,32.851],[-117.263,32.851],[-117.263,32.851],[-117.263,32.851],[-117.263,32.851],[-117.263,32.851],[-117.263,32.851],[-117.263,32.851],[-117.263,32.851],[-117.263,32.851],[-117.263,32.851],[-117.263,32.851],[-117.264,32.851],[-117.264,32.851],[-117.264,32.851],[-117.264,32.85],[-117.264,32.85],[-117.264,32.85],[-117.264,32.85],[-117.264,32.85],[-117.264,32.85],[-117.264,32.85],[-117.264,32.85],[-117.264,32.85],[-117.264,32.849]]]},"properties":{"id":"matlahuayl-state-marine-reserve","name":"Matlahuayl State Marine Reserve","type":"SMR","shortName":"Matlahuayl","areaKm2":null,"ccrCitation":null}},{"type":"Feature","geometry":{"type":"Polygon","coordinates":[[[-117.266,32.808],[-117.266,32.808],[-117.266,32.808],[-117.265,32.808],[-117.265,32.808],[-117.264,32.808],[-117.264,32.807],[-117.264,32.807],[-117.264,32.807],[-117.263,32.806],[-117.263,32.806],[-117.263,32.806],[-117.262,32.805],[-117.262,32.805],[-117.262,32.805],[-117.262,32.804],[-117.261,32.804],[-117.261,32.804],[-117.261,32.803],[-117.26,32.803],[-117.26,32.802],[-117.26,32.802],[-117.259,32.801],[-117.259,32.801],[-117.259,32.801],[-117.259,32.8],[-117.259,32.8],[-117.258,32.799],[-117.317,32.799],[-117.317,32.826],[-117.28,32.826],[-117.28,32.826],[-117.28,32.826],[-117.28,32.826],[-117.28,32.826],[-117.28,32.826],[-117.28,32.826],[-117.28,32.826],[-117.28,32.826],[-117.28,32.826],[-117.28,32.825],[-117.28,32.825],[-117.28,32.825],[-117.28,32.825],[-117.28,32.825],[-117.28,32.825],[-117.28,32.825],[-117.28,32.825],[-117.28,32.825],[-117.28,32.825],[-117.28,32.825],[-117.28,32.824],[-117.28,32.824],[-117.28,32.824],[-117.28,32.824],[-117.28,32.824],[-117.28,32.824],[-117.28,32.824],[-117.28,32.824],[-117.28,32.824],[-117.28,32.823],[-117.28,32.823],[-117.28,32.823],[-117.28,32.823],[-117.28,32.823],[-117.28,32.823],[-117.281,32.823],[-117.281,32.823],[-117.281,32.823],[-117.281,32.823],[-117.281,32.822],[-117.281,32.822],[-117.281,32.822],[-117.281,32.822],[-117.281,32.822],[-117.281,32.822],[-117.28,32.822],[-117.28,32.822],[-117.28,32.822],[-117.28,32.822],[-117.28,32.822],[-117.28,32.822],[-117.28,32.822],[-117.28,32.822],[-117.28,32.822],[-117.28,32.822],[-117.28,32.821],[-117.28,32.821],[-117.28,32.821],[-117.28,32.821],[-117.28,32.821],[-117.28,32.821],[-117.28,32.821],[-117.28,32.821],[-117.28,32.821],[-117.28,32.821],[-117.28,32.821],[-117.28,32.821],[-117.28,32.821],[-117.28,32.821],[-117.28,32.821],[-117.28,32.821],[-117.279,32.821],[-117.279,32.821],[-117.279,32.821],[-117.279,32.821],[-117.279,32.821],[-117.279,32.821],[-117.279,32.821],[-117.279,32.821],[-117.279,32.821],[-117.279,32.821],[-117.279,32.821],[-117.279,32.821],[-117.279,32.821],[-117.279,32.821],[-117.279,32.821],[-117.279,32.821],[-117.279,32.821],[-117.279,32.821],[-117.279,32.82],[-117.279,32.82],[-117.279,32.82],[-117.279,32.82],[-117.279,32.82],[-117.278,32.82],[-117.278,32.82],[-117.278,32.82],[-117.278,32.82],[-117.278,32.82],[-117.278,32.82],[-117.278,32.82],[-117.278,32.82],[-117.278,32.82],[-117.278,32.82],[-117.278,32.82],[-117.278,32.82],[-117.277,32.82],[-117.277,32.82],[-117.277,32.82],[-117.277,32.82],[-117.277,32.82],[-117.277,32.82],[-117.277,32.82],[-117.277,32.82],[-117.277,32.82],[-117.277,32.82],[-117.277,32.82],[-117.277,32.819],[-117.277,32.819],[-117.277,32.819],[-117.277,32.819],[-117.277,32.819],[-117.277,32.819],[-117.277,32.819],[-117.277,32.819],[-117.277,32.819],[-117.277,32.819],[-117.277,32.819],[-117.277,32.819],[-117.277,32.819],[-117.277,32.819],[-117.277,32.819],[-117.277,32.819],[-117.277,32.819],[-117.276,32.819],[-117.276,32.819],[-117.276,32.819],[-117.276,32.819],[-117.276,32.819],[-117.276,32.819],[-117.276,32.819],[-117.276,32.819],[-117.276,32.819],[-117.276,32.819],[-117.276,32.819],[-117.276,32.819],[-117.275,32.819],[-117.275,32.819],[-117.275,32.819],[-117.275,32.819],[-117.275,32.819],[-117.275,32.819],[-117.275,32.819],[-117.275,32.819],[-117.275,32.819],[-117.275,32.819],[-117.275,32.819],[-117.275,32.819],[-117.274,32.818],[-117.274,32.818],[-117.274,32.818],[-117.273,32.818],[-117.273,32.817],[-117.273,32.817],[-117.273,32.817],[-117.273,32.817],[-117.273,32.817],[-117.273,32.817],[-117.273,32.817],[-117.273,32.817],[-117.273,32.817],[-117.273,32.817],[-117.273,32.816],[-117.273,32.816],[-117.273,32.816],[-117.273,32.816],[-117.273,32.816],[-117.273,32.816],[-117.274,32.816],[-117.274,32.816],[-117.274,32.816],[-117.274,32.816],[-117.274,32.816],[-117.274,32.816],[-117.274,32.816],[-117.274,32.816],[-117.274,32.816],[-117.274,32.816],[-117.274,32.816],[-117.274,32.816],[-117.274,32.816],[-117.274,32.816],[-117.274,32.816],[-117.274,32.816],[-117.274,32.815],[-117.274,32.815],[-117.274,32.815],[-117.274,32.815],[-117.273,32.815],[-117.273,32.815],[-117.273,32.815],[-117.273,32.814],[-117.273,32.814],[-117.273,32.814],[-117.273,32.814],[-117.273,32.814],[-117.273,32.814],[-117.273,32.814],[-117.273,32.814],[-117.273,32.814],[-117.273,32.814],[-117.273,32.814],[-117.273,32.814],[-117.273,32.814],[-117.273,32.814],[-117.273,32.814],[-117.273,32.814],[-117.272,32.814],[-117.272,32.814],[-117.272,32.814],[-117.271,32.813],[-117.271,32.813],[-117.271,32.813],[-117.271,32.813],[-117.271,32.813],[-117.271,32.813],[-117.271,32.813],[-117.271,32.812],[-117.27,32.812],[-117.27,32.811],[-117.27,32.811],[-117.27,32.811],[-117.27,32.811],[-117.27,32.811],[-117.269,32.81],[-117.269,32.81],[-117.269,32.81],[-117.269,32.809],[-117.269,32.809],[-117.269,32.809],[-117.269,32.809],[-117.269,32.809],[-117.268,32.808],[-117.268,32.808],[-117.268,32.808],[-117.268,32.808],[-117.268,32.808],[-117.268,32.808],[-117.267,32.808],[-117.267,32.808],[-117.266,32.808],[-117.266,32.808]]]},"properties":{"id":"south-la-jolla-state-marine-reserve","name":"South La Jolla State Marine Reserve","type":"SMR","shortName":"South La Jolla","areaKm2":null,"ccrCitation":null}},{"type":"Feature","geometry":{"type":"Polygon","coordinates":[[[-117.317,32.799],[-117.334,32.799],[-117.335,32.8],[-117.335,32.8],[-117.336,32.801],[-117.336,32.802],[-117.336,32.803],[-117.337,32.804],[-117.337,32.804],[-117.337,32.805],[-117.338,32.806],[-117.338,32.807],[-117.338,32.808],[-117.338,32.808],[-117.339,32.808],[-117.339,32.809],[-117.339,32.81],[-117.339,32.811],[-117.34,32.812],[-117.34,32.813],[-117.34,32.813],[-117.34,32.814],[-117.34,32.815],[-117.341,32.816],[-117.341,32.817],[-117.341,32.818],[-117.341,32.819],[-117.341,32.819],[-117.341,32.819],[-117.341,32.82],[-117.341,32.821],[-117.341,32.821],[-117.341,32.822],[-117.341,32.823],[-117.342,32.824],[-117.342,32.824],[-117.342,32.825],[-117.342,32.826],[-117.342,32.826],[-117.317,32.826],[-117.317,32.799]]]},"properties":{"id":"south-la-jolla-state-marine-conservation-area","name":"South La Jolla State Marine Conservation Area","type":"SMCA","shortName":"South La Jolla","areaKm2":null,"ccrCitation":null}}]}