{"type":"FeatureCollection","features":[{"type":"Feature","geometry":{"type":"Point","coordinates":[-117.3179,32.89004]},"properties":{"depth_ft":1512,"depth_m":460.7}},{"type":"Feature","geometry":{"type":"Point","coordinates":[-117.31417,32.89004]},"properties":{"depth_ft":1420,"depth_m":432.8}},{"type":"Feature","geometry":{"type":"Point","coordinates":[-117.31044,32.89004]},"properties":{"depth_ft":1426,"depth_m":434.8}},{"type":"Feature","geometry":{"type":"Point","coordinates":[-117.30671,32.89004]},"properties":{"depth_ft":1334,"depth_m":406.5}},{"type":"Feature","geometry":{"type":"Point","coordinates":[-117.30298,32.89004]},"properties":{"depth_ft":1159,"depth_m":353.3}},{"type":"Feature","geometry":{"type":"Point","coordinates":[-117.29925,32.89004]},"properties":{"depth_ft":1122,"depth_m":342.1}},{"type":"Feature","geometry":{"type":"Point","coordinates":[-117.29552,32.89004]},"properties":{"depth_ft":1210,"depth_m":368.8}},{"type":"Feature","geometry":{"type":"Point","coordinates":[-117.29179,32.89004]},"properties":{"depth_ft":1273,"depth_m":388.1}},{"type":"Feature","geometry":{"type":"Point","coordinates":[-117.28806,32.89004]},"properties":{"depth_ft":1083,"depth_m":330.2}},{"type":"Feature","geometry":{"type":"Point","coordinates":[-117.28433,32.89004]},"properties":{"depth_ft":719,"depth_m":219.2}},{"type":"Feature","geometry":{"type":"Point","coordinates":[-117.2806,32.89004]},"properties":{"depth_ft":247,"depth_m":75.4}},{"type":"Feature","geometry":{"type":"Point","coordinates":[-117.27687,32.89004]},"properties":{"depth_ft":189,"depth_m":57.5}},{"type":"Feature","geometry":{"type":"Point","coordinates":[-117.27313,32.89004]},"properties":{"depth_ft":152,"depth_m":46.5}},{"type":"Feature","geometry":{"type":"Point","coordinates":[-117.2694,32.89004]},"properties":{"depth_ft":115,"depth_m":35.0}},{"type":"Feature","geometry":{"type":"Point","coordinates":[-117.26567,32.89004]},"properties":{"depth_ft":71,"depth_m":21.6}},{"type":"Feature","geometry":{"type":"Point","coordinates":[-117.26194,32.89004]},"properties":{"depth_ft":47,"depth_m":14.4}},{"type":"Feature","geometry":{"type":"Point","coordinates":[-117.25821,32.89004]},"properties":{"depth_ft":28,"depth_m":8.6}},{"type":"Feature","geometry":{"type":"Point","coordinates":[-117.25448,32.89004]},"properties":{"depth_ft":5,"depth_m":1.4}},{"type":"Feature","geometry":{"type":"Point","coordinates":[-117.3179,32.8869]},"properties":{"depth_ft":1437,"depth_m":438.1}},{"type":"Feature","geometry":{"type":"Point","coordinates":[-117.31417,32.8869]},"properties":{"depth_ft":1463,"depth_m":446.1}},{"type":"Feature","geometry":{"type":"Point","coordinates":[-117.31044,32.8869]},"properties":{"depth_ft":1400,"depth_m":426.8}},{"type":"Feature","geometry":{"type":"Point","coordinates":[-117.30671,32.8869]},"properties":{"depth_ft":1240,"depth_m":378.0}},{"type":"Feature","geometry":{"type":"Point","coordinates":[-117.30298,32.8869]},"properties":{"depth_ft":1142,"depth_m":348.2}},{"type":"Feature","geometry":{"type":"Point","coordinates":[-117.29925,32.8869]},"properties":{"depth_ft":1080,"depth_m":329.3}},{"type":"Feature","geometry":{"type":"Point","coordinates":[-117.29552,32.8869]},"properties":{"depth_ft":958,"depth_m":291.9}},{"type":"Feature","geometry":{"type":"Point","coordinates":[-117.29179,32.8869]},"properties":{"depth_ft":1224,"depth_m":373.2}},{"type":"Feature","geometry":{"type":"Point","coordinates":[-117.28806,32.8869]},"properties":{"depth_ft":1236,"depth_m":376.7}},{"type":"Feature","geometry":{"type":"Point","coordinates":[-117.28433,32.8869]},"properties":{"depth_ft":787,"depth_m":239.8}},{"type":"Feature","geometry":{"type":"Point","coordinates":[-117.2806,32.8869]},"properties":{"depth_ft":361,"depth_m":110.1}},{"type":"Feature","geometry":{"type":"Point","coordinates":[-117.27687,32.8869]},"properties":{"depth_ft":197,"depth_m":60.1}},{"type":"Feature","geometry":{"type":"Point","coordinates":[-117.27313,32.8869]},"properties":{"depth_ft":159,"depth_m":48.5}},{"type":"Feature","geometry":{"type":"Point","coordinates":[-117.2694,32.8869]},"properties":{"depth_ft":121,"depth_m":36.7}},{"type":"Feature","geometry":{"type":"Point","coordinates":[-117.26567,32.8869]},"properties":{"depth_ft":74,"depth_m":22.4}},{"type":"Feature","geometry":{"type":"Point","coordinates":[-117.26194,32.8869]},"properties":{"depth_ft":49,"depth_m":14.9}},{"type":"Feature","geometry":{"type":"Point","coordinates":[-117.25821,32.8869]},"properties":{"depth_ft":27,"depth_m":8.3}},{"type":"Feature","geometry":{"type":"Point","coordinates":[-117.25448,32.8869]},"properties":{"depth_ft":5,"depth_m":1.6}},{"type":"Feature","geometry":{"type":"Point","coordinates":[-117.3179,32.88377]},"properties":{"depth_ft":1046,"depth_m":319.0}},{"type":"Feature","geometry":{"type":"Point","coordinates":[-117.31417,32.88377]},"properties":{"depth_ft":1067,"depth_m":325.2}},{"type":"Feature","geometry":{"type":"Point","coordinates":[-117.31044,32.88377]},"properties":{"depth_ft":1138,"depth_m":346.8}},{"type":"Feature","geometry":{"type":"Point","coordinates":[-117.30671,32.88377]},"properties":{"depth_ft":1124,"depth_m":342.7}},{"type":"Feature","geometry":{"type":"Point","coordinates":[-117.30298,32.88377]},"properties":{"depth_ft":1081,"depth_m":329.6}},{"type":"Feature","geometry":{"type":"Point","coordinates":[-117.29925,32.88377]},"properties":{"depth_ft":943,"depth_m":287.4}},{"type":"Feature","geometry":{"type":"Point","coordinates":[-117.29552,32.88377]},"properties":{"depth_ft":768,"depth_m":234.2}},{"type":"Feature","geometry":{"type":"Point","coordinates":[-117.29179,32.88377]},"properties":{"depth_ft":924,"depth_m":281.6}},{"type":"Feature","geometry":{"type":"Point","coordinates":[-117.28806,32.88377]},"properties":{"depth_ft":1196,"depth_m":364.5}},{"type":"Feature","geometry":{"type":"Point","coordinates":[-117.28433,32.88377]},"properties":{"depth_ft":997,"depth_m":303.8}},{"type":"Feature","geometry":{"type":"Point","coordinates":[-117.2806,32.88377]},"properties":{"depth_ft":558,"depth_m":170.0}},{"type":"Feature","geometry":{"type":"Point","coordinates":[-117.27687,32.88377]},"properties":{"depth_ft":213,"depth_m":64.8}},{"type":"Feature","geometry":{"type":"Point","coordinates":[-117.27313,32.88377]},"properties":{"depth_ft":170,"depth_m":51.7}},{"type":"Feature","geometry":{"type":"Point","coordinates":[-117.2694,32.88377]},"properties":{"depth_ft":129,"depth_m":39.2}},{"type":"Feature","geometry":{"type":"Point","coordinates":[-117.26567,32.88377]},"properties":{"depth_ft":78,"depth_m":23.7}},{"type":"Feature","geometry":{"type":"Point","coordinates":[-117.26194,32.88377]},"properties":{"depth_ft":51,"depth_m":15.5}},{"type":"Feature","geometry":{"type":"Point","coordinates":[-117.25821,32.88377]},"properties":{"depth_ft":30,"depth_m":9.2}},{"type":"Feature","geometry":{"type":"Point","coordinates":[-117.25448,32.88377]},"properties":{"depth_ft":8,"depth_m":2.4}},{"type":"Feature","geometry":{"type":"Point","coordinates":[-117.3179,32.88064]},"properties":{"depth_ft":742,"depth_m":226.0}},{"type":"Feature","geometry":{"type":"Point","coordinates":[-117.31417,32.88064]},"properties":{"depth_ft":854,"depth_m":260.2}},{"type":"Feature","geometry":{"type":"Point","coordinates":[-117.31044,32.88064]},"properties":{"depth_ft":798,"depth_m":243.4}},{"type":"Feature","geometry":{"type":"Point","coordinates":[-117.30671,32.88064]},"properties":{"depth_ft":818,"depth_m":249.3}},{"type":"Feature","geometry":{"type":"Point","coordinates":[-117.30298,32.88064]},"properties":{"depth_ft":917,"depth_m":279.7}},{"type":"Feature","geometry":{"type":"Point","coordinates":[-117.29925,32.88064]},"properties":{"depth_ft":638,"depth_m":194.6}},{"type":"Feature","geometry":{"type":"Point","coordinates":[-117.29552,32.88064]},"properties":{"depth_ft":488,"depth_m":148.7}},{"type":"Feature","geometry":{"type":"Point","coordinates":[-117.29179,32.88064]},"properties":{"depth_ft":505,"depth_m":154.0}},{"type":"Feature","geometry":{"type":"Point","coordinates":[-117.28806,32.88064]},"properties":{"depth_ft":954,"depth_m":290.7}},{"type":"Feature","geometry":{"type":"Point","coordinates":[-117.28433,32.88064]},"properties":{"depth_ft":1089,"depth_m":332.0}},{"type":"Feature","geometry":{"type":"Point","coordinates":[-117.2806,32.88064]},"properties":{"depth_ft":646,"depth_m":197.0}},{"type":"Feature","geometry":{"type":"Point","coordinates":[-117.27687,32.88064]},"properties":{"depth_ft":240,"depth_m":73.2}},{"type":"Feature","geometry":{"type":"Point","coordinates":[-117.27313,32.88064]},"properties":{"depth_ft":183,"depth_m":55.9}},{"type":"Feature","geometry":{"type":"Point","coordinates":[-117.2694,32.88064]},"properties":{"depth_ft":136,"depth_m":41.5}},{"type":"Feature","geometry":{"type":"Point","coordinates":[-117.26567,32.88064]},"properties":{"depth_ft":84,"depth_m":25.5}},{"type":"Feature","geometry":{"type":"Point","coordinates":[-117.26194,32.88064]},"properties":{"depth_ft":55,"depth_m":16.8}},{"type":"Feature","geometry":{"type":"Point","coordinates":[-117.25821,32.88064]},"properties":{"depth_ft":34,"depth_m":10.4}},{"type":"Feature","geometry":{"type":"Point","coordinates":[-117.25448,32.88064]},"properties":{"depth_ft":13,"depth_m":4.0}},{"type":"Feature","geometry":{"type":"Point","coordinates":[-117.3179,32.8775]},"properties":{"depth_ft":571,"depth_m":174.0}},{"type":"Feature","geometry":{"type":"Point","coordinates":[-117.31417,32.8775]},"properties":{"depth_ft":593,"depth_m":180.7}},{"type":"Feature","geometry":{"type":"Point","coordinates":[-117.31044,32.8775]},"properties":{"depth_ft":564,"depth_m":171.9}},{"type":"Feature","geometry":{"type":"Point","coordinates":[-117.30671,32.8775]},"properties":{"depth_ft":475,"depth_m":144.8}},{"type":"Feature","geometry":{"type":"Point","coordinates":[-117.30298,32.8775]},"properties":{"depth_ft":454,"depth_m":138.4}},{"type":"Feature","geometry":{"type":"Point","coordinates":[-117.29925,32.8775]},"properties":{"depth_ft":320,"depth_m":97.6}},{"type":"Feature","geometry":{"type":"Point","coordinates":[-117.29552,32.8775]},"properties":{"depth_ft":304,"depth_m":92.6}},{"type":"Feature","geometry":{"type":"Point","coordinates":[-117.29179,32.8775]},"properties":{"depth_ft":311,"depth_m":94.8}},{"type":"Feature","geometry":{"type":"Point","coordinates":[-117.28806,32.8775]},"properties":{"depth_ft":509,"depth_m":155.1}},{"type":"Feature","geometry":{"type":"Point","coordinates":[-117.28433,32.8775]},"properties":{"depth_ft":1150,"depth_m":350.5}},{"type":"Feature","geometry":{"type":"Point","coordinates":[-117.2806,32.8775]},"properties":{"depth_ft":904,"depth_m":275.7}},{"type":"Feature","geometry":{"type":"Point","coordinates":[-117.27687,32.8775]},"properties":{"depth_ft":432,"depth_m":131.6}},{"type":"Feature","geometry":{"type":"Point","coordinates":[-117.27313,32.8775]},"properties":{"depth_ft":197,"depth_m":60.2}},{"type":"Feature","geometry":{"type":"Point","coordinates":[-117.2694,32.8775]},"properties":{"depth_ft":145,"depth_m":44.2}},{"type":"Feature","geometry":{"type":"Point","coordinates":[-117.26567,32.8775]},"properties":{"depth_ft":97,"depth_m":29.6}},{"type":"Feature","geometry":{"type":"Point","coordinates":[-117.26194,32.8775]},"properties":{"depth_ft":66,"depth_m":20.0}},{"type":"Feature","geometry":{"type":"Point","coordinates":[-117.25821,32.8775]},"properties":{"depth_ft":52,"depth_m":15.9}},{"type":"Feature","geometry":{"type":"Point","coordinates":[-117.25448,32.8775]},"properties":{"depth_ft":18,"depth_m":5.5}},{"type":"Feature","geometry":{"type":"Point","coordinates":[-117.3179,32.87437]},"properties":{"depth_ft":321,"depth_m":98.0}},{"type":"Feature","geometry":{"type":"Point","coordinates":[-117.31417,32.87437]},"properties":{"depth_ft":317,"depth_m":96.7}},{"type":"Feature","geometry":{"type":"Point","coordinates":[-117.31044,32.87437]},"properties":{"depth_ft":306,"depth_m":93.2}},{"type":"Feature","geometry":{"type":"Point","coordinates":[-117.30671,32.87437]},"properties":{"depth_ft":299,"depth_m":91.3}},{"type":"Feature","geometry":{"type":"Point","coordinates":[-117.30298,32.87437]},"properties":{"depth_ft":298,"depth_m":90.8}},{"type":"Feature","geometry":{"type":"Point","coordinates":[-117.29925,32.87437]},"properties":{"depth_ft":289,"depth_m":88.1}},{"type":"Feature","geometry":{"type":"Point","coordinates":[-117.29552,32.87437]},"properties":{"depth_ft":286,"depth_m":87.2}},{"type":"Feature","geometry":{"type":"Point","coordinates":[-117.29179,32.87437]},"properties":{"depth_ft":287,"depth_m":87.5}},{"type":"Feature","geometry":{"type":"Point","coordinates":[-117.28806,32.87437]},"properties":{"depth_ft":341,"depth_m":103.9}},{"type":"Feature","geometry":{"type":"Point","coordinates":[-117.28433,32.87437]},"properties":{"depth_ft":922,"depth_m":281.1}},{"type":"Feature","geometry":{"type":"Point","coordinates":[-117.2806,32.87437]},"properties":{"depth_ft":1015,"depth_m":309.3}},{"type":"Feature","geometry":{"type":"Point","coordinates":[-117.27687,32.87437]},"properties":{"depth_ft":529,"depth_m":161.3}},{"type":"Feature","geometry":{"type":"Point","coordinates":[-117.27313,32.87437]},"properties":{"depth_ft":248,"depth_m":75.7}},{"type":"Feature","geometry":{"type":"Point","coordinates":[-117.2694,32.87437]},"properties":{"depth_ft":156,"depth_m":47.5}},{"type":"Feature","geometry":{"type":"Point","coordinates":[-117.26567,32.87437]},"properties":{"depth_ft":110,"depth_m":33.7}},{"type":"Feature","geometry":{"type":"Point","coordinates":[-117.26194,32.87437]},"properties":{"depth_ft":101,"depth_m":30.9}},{"type":"Feature","geometry":{"type":"Point","coordinates":[-117.25821,32.87437]},"properties":{"depth_ft":91,"depth_m":27.7}},{"type":"Feature","geometry":{"type":"Point","coordinates":[-117.25448,32.87437]},"properties":{"depth_ft":55,"depth_m":16.8}},{"type":"Feature","geometry":{"type":"Point","coordinates":[-117.3179,32.87123]},"properties":{"depth_ft":300,"depth_m":91.3}},{"type":"Feature","geometry":{"type":"Point","coordinates":[-117.31417,32.87123]},"properties":{"depth_ft":294,"depth_m":89.5}},{"type":"Feature","geometry":{"type":"Point","coordinates":[-117.31044,32.87123]},"properties":{"depth_ft":287,"depth_m":87.6}},{"type":"Feature","geometry":{"type":"Point","coordinates":[-117.30671,32.87123]},"properties":{"depth_ft":283,"depth_m":86.1}},{"type":"Feature","geometry":{"type":"Point","coordinates":[-117.30298,32.87123]},"properties":{"depth_ft":278,"depth_m":84.6}},{"type":"Feature","geometry":{"type":"Point","coordinates":[-117.29925,32.87123]},"properties":{"depth_ft":272,"depth_m":83.0}},{"type":"Feature","geometry":{"type":"Point","coordinates":[-117.29552,32.87123]},"properties":{"depth_ft":259,"depth_m":78.9}},{"type":"Feature","geometry":{"type":"Point","coordinates":[-117.29179,32.87123]},"properties":{"depth_ft":254,"depth_m":77.3}},{"type":"Feature","geometry":{"type":"Point","coordinates":[-117.28806,32.87123]},"properties":{"depth_ft":267,"depth_m":81.3}},{"type":"Feature","geometry":{"type":"Point","coordinates":[-117.28433,32.87123]},"properties":{"depth_ft":575,"depth_m":175.3}},{"type":"Feature","geometry":{"type":"Point","coordinates":[-117.2806,32.87123]},"properties":{"depth_ft":971,"depth_m":296.0}},{"type":"Feature","geometry":{"type":"Point","coordinates":[-117.27687,32.87123]},"properties":{"depth_ft":604,"depth_m":184.2}},{"type":"Feature","geometry":{"type":"Point","coordinates":[-117.27313,32.87123]},"properties":{"depth_ft":222,"depth_m":67.7}},{"type":"Feature","geometry":{"type":"Point","coordinates":[-117.2694,32.87123]},"properties":{"depth_ft":171,"depth_m":52.0}},{"type":"Feature","geometry":{"type":"Point","coordinates":[-117.26567,32.87123]},"properties":{"depth_ft":251,"depth_m":76.6}},{"type":"Feature","geometry":{"type":"Point","coordinates":[-117.26194,32.87123]},"properties":{"depth_ft":322,"depth_m":98.3}},{"type":"Feature","geometry":{"type":"Point","coordinates":[-117.25821,32.87123]},"properties":{"depth_ft":71,"depth_m":21.6}},{"type":"Feature","geometry":{"type":"Point","coordinates":[-117.25448,32.87123]},"properties":{"depth_ft":9,"depth_m":2.9}},{"type":"Feature","geometry":{"type":"Point","coordinates":[-117.3179,32.8681]},"properties":{"depth_ft":274,"depth_m":83.7}},{"type":"Feature","geometry":{"type":"Point","coordinates":[-117.31417,32.8681]},"properties":{"depth_ft":262,"depth_m":80.0}},{"type":"Feature","geometry":{"type":"Point","coordinates":[-117.31044,32.8681]},"properties":{"depth_ft":257,"depth_m":78.5}},{"type":"Feature","geometry":{"type":"Point","coordinates":[-117.30671,32.8681]},"properties":{"depth_ft":256,"depth_m":78.2}},{"type":"Feature","geometry":{"type":"Point","coordinates":[-117.30298,32.8681]},"properties":{"depth_ft":256,"depth_m":78.0}},{"type":"Feature","geometry":{"type":"Point","coordinates":[-117.29925,32.8681]},"properties":{"depth_ft":246,"depth_m":74.9}},{"type":"Feature","geometry":{"type":"Point","coordinates":[-117.29552,32.8681]},"properties":{"depth_ft":232,"depth_m":70.8}},{"type":"Feature","geometry":{"type":"Point","coordinates":[-117.29179,32.8681]},"properties":{"depth_ft":220,"depth_m":67.2}},{"type":"Feature","geometry":{"type":"Point","coordinates":[-117.28806,32.8681]},"properties":{"depth_ft":214,"depth_m":65.2}},{"type":"Feature","geometry":{"type":"Point","coordinates":[-117.28433,32.8681]},"properties":{"depth_ft":225,"depth_m":68.6}},{"type":"Feature","geometry":{"type":"Point","coordinates":[-117.2806,32.8681]},"properties":{"depth_ft":652,"depth_m":198.7}},{"type":"Feature","geometry":{"type":"Point","coordinates":[-117.27687,32.8681]},"properties":{"depth_ft":780,"depth_m":237.7}},{"type":"Feature","geometry":{"type":"Point","coordinates":[-117.27313,32.8681]},"properties":{"depth_ft":551,"depth_m":167.8}},{"type":"Feature","geometry":{"type":"Point","coordinates":[-117.2694,32.8681]},"properties":{"depth_ft":258,"depth_m":78.7}},{"type":"Feature","geometry":{"type":"Point","coordinates":[-117.26567,32.8681]},"properties":{"depth_ft":119,"depth_m":36.2}},{"type":"Feature","geometry":{"type":"Point","coordinates":[-117.26194,32.8681]},"properties":{"depth_ft":73,"depth_m":22.2}},{"type":"Feature","geometry":{"type":"Point","coordinates":[-117.25821,32.8681]},"properties":{"depth_ft":25,"depth_m":7.7}},{"type":"Feature","geometry":{"type":"Point","coordinates":[-117.25448,32.8681]},"properties":{"depth_ft":4,"depth_m":1.1}},{"type":"Feature","geometry":{"type":"Point","coordinates":[-117.3179,32.86497]},"properties":{"depth_ft":232,"depth_m":70.8}},{"type":"Feature","geometry":{"type":"Point","coordinates":[-117.31417,32.86497]},"properties":{"depth_ft":223,"depth_m":67.8}},{"type":"Feature","geometry":{"type":"Point","coordinates":[-117.31044,32.86497]},"properties":{"depth_ft":225,"depth_m":68.6}},{"type":"Feature","geometry":{"type":"Point","coordinates":[-117.30671,32.86497]},"properties":{"depth_ft":227,"depth_m":69.2}},{"type":"Feature","geometry":{"type":"Point","coordinates":[-117.30298,32.86497]},"properties":{"depth_ft":229,"depth_m":69.7}},{"type":"Feature","geometry":{"type":"Point","coordinates":[-117.29925,32.86497]},"properties":{"depth_ft":219,"depth_m":66.7}},{"type":"Feature","geometry":{"type":"Point","coordinates":[-117.29552,32.86497]},"properties":{"depth_ft":205,"depth_m":62.6}},{"type":"Feature","geometry":{"type":"Point","coordinates":[-117.29179,32.86497]},"properties":{"depth_ft":194,"depth_m":59.1}},{"type":"Feature","geometry":{"type":"Point","coordinates":[-117.28806,32.86497]},"properties":{"depth_ft":181,"depth_m":55.2}},{"type":"Feature","geometry":{"type":"Point","coordinates":[-117.28433,32.86497]},"properties":{"depth_ft":179,"depth_m":54.5}},{"type":"Feature","geometry":{"type":"Point","coordinates":[-117.2806,32.86497]},"properties":{"depth_ft":208,"depth_m":63.3}},{"type":"Feature","geometry":{"type":"Point","coordinates":[-117.27687,32.86497]},"properties":{"depth_ft":720,"depth_m":219.4}},{"type":"Feature","geometry":{"type":"Point","coordinates":[-117.27313,32.86497]},"properties":{"depth_ft":292,"depth_m":89.1}},{"type":"Feature","geometry":{"type":"Point","coordinates":[-117.2694,32.86497]},"properties":{"depth_ft":133,"depth_m":40.5}},{"type":"Feature","geometry":{"type":"Point","coordinates":[-117.26567,32.86497]},"properties":{"depth_ft":66,"depth_m":20.1}},{"type":"Feature","geometry":{"type":"Point","coordinates":[-117.26194,32.86497]},"properties":{"depth_ft":45,"depth_m":13.8}},{"type":"Feature","geometry":{"type":"Point","coordinates":[-117.25821,32.86497]},"properties":{"depth_ft":21,"depth_m":6.3}},{"type":"Feature","geometry":{"type":"Point","coordinates":[-117.3179,32.86183]},"properties":{"depth_ft":216,"depth_m":65.7}},{"type":"Feature","geometry":{"type":"Point","coordinates":[-117.31417,32.86183]},"properties":{"depth_ft":202,"depth_m":61.6}},{"type":"Feature","geometry":{"type":"Point","coordinates":[-117.31044,32.86183]},"properties":{"depth_ft":195,"depth_m":59.5}},{"type":"Feature","geometry":{"type":"Point","coordinates":[-117.30671,32.86183]},"properties":{"depth_ft":204,"depth_m":62.3}},{"type":"Feature","geometry":{"type":"Point","coordinates":[-117.30298,32.86183]},"properties":{"depth_ft":205,"depth_m":62.4}},{"type":"Feature","geometry":{"type":"Point","coordinates":[-117.29925,32.86183]},"properties":{"depth_ft":195,"depth_m":59.5}},{"type":"Feature","geometry":{"type":"Point","coordinates":[-117.29552,32.86183]},"properties":{"depth_ft":182,"depth_m":55.4}},{"type":"Feature","geometry":{"type":"Point","coordinates":[-117.29179,32.86183]},"properties":{"depth_ft":161,"depth_m":49.2}},{"type":"Feature","geometry":{"type":"Point","coordinates":[-117.28806,32.86183]},"properties":{"depth_ft":142,"depth_m":43.1}},{"type":"Feature","geometry":{"type":"Point","coordinates":[-117.28433,32.86183]},"properties":{"depth_ft":133,"depth_m":40.6}},{"type":"Feature","geometry":{"type":"Point","coordinates":[-117.2806,32.86183]},"properties":{"depth_ft":137,"depth_m":41.8}},{"type":"Feature","geometry":{"type":"Point","coordinates":[-117.27687,32.86183]},"properties":{"depth_ft":155,"depth_m":47.3}},{"type":"Feature","geometry":{"type":"Point","coordinates":[-117.27313,32.86183]},"properties":{"depth_ft":606,"depth_m":184.9}},{"type":"Feature","geometry":{"type":"Point","coordinates":[-117.2694,32.86183]},"properties":{"depth_ft":113,"depth_m":34.4}},{"type":"Feature","geometry":{"type":"Point","coordinates":[-117.26567,32.86183]},"properties":{"depth_ft":63,"depth_m":19.3}},{"type":"Feature","geometry":{"type":"Point","coordinates":[-117.26194,32.86183]},"properties":{"depth_ft":43,"depth_m":13.1}},{"type":"Feature","geometry":{"type":"Point","coordinates":[-117.25821,32.86183]},"properties":{"depth_ft":17,"depth_m":5.1}},{"type":"Feature","geometry":{"type":"Point","coordinates":[-117.3179,32.8587]},"properties":{"depth_ft":201,"depth_m":61.2}},{"type":"Feature","geometry":{"type":"Point","coordinates":[-117.31417,32.8587]},"properties":{"depth_ft":187,"depth_m":57.0}},{"type":"Feature","geometry":{"type":"Point","coordinates":[-117.31044,32.8587]},"properties":{"depth_ft":169,"depth_m":51.5}},{"type":"Feature","geometry":{"type":"Point","coordinates":[-117.30671,32.8587]},"properties":{"depth_ft":185,"depth_m":56.3}},{"type":"Feature","geometry":{"type":"Point","coordinates":[-117.30298,32.8587]},"properties":{"depth_ft":172,"depth_m":52.5}},{"type":"Feature","geometry":{"type":"Point","coordinates":[-117.29925,32.8587]},"properties":{"depth_ft":168,"depth_m":51.3}},{"type":"Feature","geometry":{"type":"Point","coordinates":[-117.29552,32.8587]},"properties":{"depth_ft":148,"depth_m":45.1}},{"type":"Feature","geometry":{"type":"Point","coordinates":[-117.29179,32.8587]},"properties":{"depth_ft":132,"depth_m":40.3}},{"type":"Feature","geometry":{"type":"Point","coordinates":[-117.28806,32.8587]},"properties":{"depth_ft":114,"depth_m":34.6}},{"type":"Feature","geometry":{"type":"Point","coordinates":[-117.28433,32.8587]},"properties":{"depth_ft":105,"depth_m":32.1}},{"type":"Feature","geometry":{"type":"Point","coordinates":[-117.2806,32.8587]},"properties":{"depth_ft":96,"depth_m":29.3}},{"type":"Feature","geometry":{"type":"Point","coordinates":[-117.27687,32.8587]},"properties":{"depth_ft":89,"depth_m":27.0}},{"type":"Feature","geometry":{"type":"Point","coordinates":[-117.27313,32.8587]},"properties":{"depth_ft":125,"depth_m":37.9}},{"type":"Feature","geometry":{"type":"Point","coordinates":[-117.2694,32.8587]},"properties":{"depth_ft":397,"depth_m":120.9}},{"type":"Feature","geometry":{"type":"Point","coordinates":[-117.26567,32.8587]},"properties":{"depth_ft":134,"depth_m":41.0}},{"type":"Feature","geometry":{"type":"Point","coordinates":[-117.26194,32.8587]},"properties":{"depth_ft":64,"depth_m":19.6}},{"type":"Feature","geometry":{"type":"Point","coordinates":[-117.25821,32.8587]},"properties":{"depth_ft":5,"depth_m":1.6}},{"type":"Feature","geometry":{"type":"Point","coordinates":[-117.3179,32.85557]},"properties":{"depth_ft":179,"depth_m":54.5}},{"type":"Feature","geometry":{"type":"Point","coordinates":[-117.31417,32.85557]},"properties":{"depth_ft":172,"depth_m":52.5}},{"type":"Feature","geometry":{"type":"Point","coordinates":[-117.31044,32.85557]},"properties":{"depth_ft":166,"depth_m":50.7}},{"type":"Feature","geometry":{"type":"Point","coordinates":[-117.30671,32.85557]},"properties":{"depth_ft":164,"depth_m":49.8}},{"type":"Feature","geometry":{"type":"Point","coordinates":[-117.30298,32.85557]},"properties":{"depth_ft":152,"depth_m":46.2}},{"type":"Feature","geometry":{"type":"Point","coordinates":[-117.29925,32.85557]},"properties":{"depth_ft":143,"depth_m":43.7}},{"type":"Feature","geometry":{"type":"Point","coordinates":[-117.29552,32.85557]},"properties":{"depth_ft":127,"depth_m":38.8}},{"type":"Feature","geometry":{"type":"Point","coordinates":[-117.29179,32.85557]},"properties":{"depth_ft":104,"depth_m":31.8}},{"type":"Feature","geometry":{"type":"Point","coordinates":[-117.28806,32.85557]},"properties":{"depth_ft":86,"depth_m":26.1}},{"type":"Feature","geometry":{"type":"Point","coordinates":[-117.28433,32.85557]},"properties":{"depth_ft":70,"depth_m":21.4}},{"type":"Feature","geometry":{"type":"Point","coordinates":[-117.2806,32.85557]},"properties":{"depth_ft":59,"depth_m":18.1}},{"type":"Feature","geometry":{"type":"Point","coordinates":[-117.27687,32.85557]},"properties":{"depth_ft":66,"depth_m":20.3}},{"type":"Feature","geometry":{"type":"Point","coordinates":[-117.27313,32.85557]},"properties":{"depth_ft":60,"depth_m":18.2}},{"type":"Feature","geometry":{"type":"Point","coordinates":[-117.2694,32.85557]},"properties":{"depth_ft":56,"depth_m":17.1}},{"type":"Feature","geometry":{"type":"Point","coordinates":[-117.26567,32.85557]},"properties":{"depth_ft":174,"depth_m":53.1}},{"type":"Feature","geometry":{"type":"Point","coordinates":[-117.26194,32.85557]},"properties":{"depth_ft":24,"depth_m":7.4}},{"type":"Feature","geometry":{"type":"Point","coordinates":[-117.3179,32.85243]},"properties":{"depth_ft":170,"depth_m":51.7}},{"type":"Feature","geometry":{"type":"Point","coordinates":[-117.31417,32.85243]},"properties":{"depth_ft":161,"depth_m":49.2}},{"type":"Feature","geometry":{"type":"Point","coordinates":[-117.31044,32.85243]},"properties":{"depth_ft":163,"depth_m":49.7}},{"type":"Feature","geometry":{"type":"Point","coordinates":[-117.30671,32.85243]},"properties":{"depth_ft":148,"depth_m":45.2}},{"type":"Feature","geometry":{"type":"Point","coordinates":[-117.30298,32.85243]},"properties":{"depth_ft":133,"depth_m":40.6}},{"type":"Feature","geometry":{"type":"Point","coordinates":[-117.29925,32.85243]},"properties":{"depth_ft":125,"depth_m":38.0}},{"type":"Feature","geometry":{"type":"Point","coordinates":[-117.29552,32.85243]},"properties":{"depth_ft":101,"depth_m":30.7}},{"type":"Feature","geometry":{"type":"Point","coordinates":[-117.29179,32.85243]},"properties":{"depth_ft":76,"depth_m":23.2}},{"type":"Feature","geometry":{"type":"Point","coordinates":[-117.28806,32.85243]},"properties":{"depth_ft":57,"depth_m":17.2}},{"type":"Feature","geometry":{"type":"Point","coordinates":[-117.28433,32.85243]},"properties":{"depth_ft":53,"depth_m":16.0}},{"type":"Feature","geometry":{"type":"Point","coordinates":[-117.2806,32.85243]},"properties":{"depth_ft":34,"depth_m":10.4}},{"type":"Feature","geometry":{"type":"Point","coordinates":[-117.27687,32.85243]},"properties":{"depth_ft":30,"depth_m":9.2}},{"type":"Feature","geometry":{"type":"Point","coordinates":[-117.27313,32.85243]},"properties":{"depth_ft":24,"depth_m":7.5}},{"type":"Feature","geometry":{"type":"Point","coordinates":[-117.2694,32.85243]},"properties":{"depth_ft":18,"depth_m":5.4}},{"type":"Feature","geometry":{"type":"Point","coordinates":[-117.26567,32.85243]},"properties":{"depth_ft":15,"depth_m":4.7}},{"type":"Feature","geometry":{"type":"Point","coordinates":[-117.26194,32.85243]},"properties":{"depth_ft":2,"depth_m":0.6}},{"type":"Feature","geometry":{"type":"Point","coordinates":[-117.3179,32.8493]},"properties":{"depth_ft":176,"depth_m":53.6}},{"type":"Feature","geometry":{"type":"Point","coordinates":[-117.31417,32.8493]},"properties":{"depth_ft":161,"depth_m":49.1}},{"type":"Feature","geometry":{"type":"Point","coordinates":[-117.31044,32.8493]},"properties":{"depth_ft":147,"depth_m":44.8}},{"type":"Feature","geometry":{"type":"Point","coordinates":[-117.30671,32.8493]},"properties":{"depth_ft":131,"depth_m":39.9}},{"type":"Feature","geometry":{"type":"Point","coordinates":[-117.30298,32.8493]},"properties":{"depth_ft":115,"depth_m":35.1}},{"type":"Feature","geometry":{"type":"Point","coordinates":[-117.29925,32.8493]},"properties":{"depth_ft":101,"depth_m":30.7}},{"type":"Feature","geometry":{"type":"Point","coordinates":[-117.29552,32.8493]},"properties":{"depth_ft":79,"depth_m":24.2}},{"type":"Feature","geometry":{"type":"Point","coordinates":[-117.29179,32.8493]},"properties":{"depth_ft":63,"depth_m":19.3}},{"type":"Feature","geometry":{"type":"Point","coordinates":[-117.28806,32.8493]},"properties":{"depth_ft":50,"depth_m":15.1}},{"type":"Feature","geometry":{"type":"Point","coordinates":[-117.28433,32.8493]},"properties":{"depth_ft":40,"depth_m":12.1}},{"type":"Feature","geometry":{"type":"Point","coordinates":[-117.2806,32.8493]},"properties":{"depth_ft":18,"depth_m":5.4}},{"type":"Feature","geometry":{"type":"Point","coordinates":[-117.27687,32.8493]},"properties":{"depth_ft":3,"depth_m":0.9}},{"type":"Feature","geometry":{"type":"Point","coordinates":[-117.26567,32.8493]},"properties":{"depth_ft":1,"depth_m":0.3}},{"type":"Feature","geometry":{"type":"Point","coordinates":[-117.3179,32.84617]},"properties":{"depth_ft":188,"depth_m":57.3}},{"type":"Feature","geometry":{"type":"Point","coordinates":[-117.31417,32.84617]},"properties":{"depth_ft":158,"depth_m":48.1}},{"type":"Feature","geometry":{"type":"Point","coordinates":[-117.31044,32.84617]},"properties":{"depth_ft":131,"depth_m":39.9}},{"type":"Feature","geometry":{"type":"Point","coordinates":[-117.30671,32.84617]},"properties":{"depth_ft":112,"depth_m":34.2}},{"type":"Feature","geometry":{"type":"Point","coordinates":[-117.30298,32.84617]},"properties":{"depth_ft":95,"depth_m":28.8}},{"type":"Feature","geometry":{"type":"Point","coordinates":[-117.29925,32.84617]},"properties":{"depth_ft":77,"depth_m":23.6}},{"type":"Feature","geometry":{"type":"Point","coordinates":[-117.29552,32.84617]},"properties":{"depth_ft":63,"depth_m":19.2}},{"type":"Feature","geometry":{"type":"Point","coordinates":[-117.29179,32.84617]},"properties":{"depth_ft":50,"depth_m":15.2}},{"type":"Feature","geometry":{"type":"Point","coordinates":[-117.28806,32.84617]},"properties":{"depth_ft":45,"depth_m":13.8}},{"type":"Feature","geometry":{"type":"Point","coordinates":[-117.28433,32.84617]},"properties":{"depth_ft":30,"depth_m":9.3}},{"type":"Feature","geometry":{"type":"Point","coordinates":[-117.2806,32.84617]},"properties":{"depth_ft":12,"depth_m":3.7}},{"type":"Feature","geometry":{"type":"Point","coordinates":[-117.3179,32.84303]},"properties":{"depth_ft":181,"depth_m":55.1}},{"type":"Feature","geometry":{"type":"Point","coordinates":[-117.31417,32.84303]},"properties":{"depth_ft":152,"depth_m":46.3}},{"type":"Feature","geometry":{"type":"Point","coordinates":[-117.31044,32.84303]},"properties":{"depth_ft":121,"depth_m":36.8}},{"type":"Feature","geometry":{"type":"Point","coordinates":[-117.30671,32.84303]},"properties":{"depth_ft":93,"depth_m":28.3}},{"type":"Feature","geometry":{"type":"Point","coordinates":[-117.30298,32.84303]},"properties":{"depth_ft":77,"depth_m":23.3}},{"type":"Feature","geometry":{"type":"Point","coordinates":[-117.29925,32.84303]},"properties":{"depth_ft":71,"depth_m":21.6}},{"type":"Feature","geometry":{"type":"Point","coordinates":[-117.29552,32.84303]},"properties":{"depth_ft":57,"depth_m":17.5}},{"type":"Feature","geometry":{"type":"Point","coordinates":[-117.29179,32.84303]},"properties":{"depth_ft":49,"depth_m":14.8}},{"type":"Feature","geometry":{"type":"Point","coordinates":[-117.28806,32.84303]},"properties":{"depth_ft":49,"depth_m":15.0}},{"type":"Feature","geometry":{"type":"Point","coordinates":[-117.28433,32.84303]},"properties":{"depth_ft":16,"depth_m":4.9}},{"type":"Feature","geometry":{"type":"Point","coordinates":[-117.3179,32.8399]},"properties":{"depth_ft":173,"depth_m":52.7}},{"type":"Feature","geometry":{"type":"Point","coordinates":[-117.31417,32.8399]},"properties":{"depth_ft":144,"depth_m":43.8}},{"type":"Feature","geometry":{"type":"Point","coordinates":[-117.31044,32.8399]},"properties":{"depth_ft":119,"depth_m":36.3}},{"type":"Feature","geometry":{"type":"Point","coordinates":[-117.30671,32.8399]},"properties":{"depth_ft":90,"depth_m":27.3}},{"type":"Feature","geometry":{"type":"Point","coordinates":[-117.30298,32.8399]},"properties":{"depth_ft":64,"depth_m":19.6}},{"type":"Feature","geometry":{"type":"Point","coordinates":[-117.29925,32.8399]},"properties":{"depth_ft":70,"depth_m":21.5}},{"type":"Feature","geometry":{"type":"Point","coordinates":[-117.29552,32.8399]},"properties":{"depth_ft":58,"depth_m":17.6}},{"type":"Feature","geometry":{"type":"Point","coordinates":[-117.29179,32.8399]},"properties":{"depth_ft":49,"depth_m":15.1}},{"type":"Feature","geometry":{"type":"Point","coordinates":[-117.28806,32.8399]},"properties":{"depth_ft":41,"depth_m":12.6}},{"type":"Feature","geometry":{"type":"Point","coordinates":[-117.28433,32.8399]},"properties":{"depth_ft":15,"depth_m":4.6}},{"type":"Feature","geometry":{"type":"Point","coordinates":[-117.3179,32.83677]},"properties":{"depth_ft":170,"depth_m":51.9}},{"type":"Feature","geometry":{"type":"Point","coordinates":[-117.31417,32.83677]},"properties":{"depth_ft":151,"depth_m":46.1}},{"type":"Feature","geometry":{"type":"Point","coordinates":[-117.31044,32.83677]},"properties":{"depth_ft":127,"depth_m":38.6}},{"type":"Feature","geometry":{"type":"Point","coordinates":[-117.30671,32.83677]},"properties":{"depth_ft":102,"depth_m":31.2}},{"type":"Feature","geometry":{"type":"Point","coordinates":[-117.30298,32.83677]},"properties":{"depth_ft":72,"depth_m":22.1}},{"type":"Feature","geometry":{"type":"Point","coordinates":[-117.29925,32.83677]},"properties":{"depth_ft":71,"depth_m":21.7}},{"type":"Feature","geometry":{"type":"Point","coordinates":[-117.29552,32.83677]},"properties":{"depth_ft":59,"depth_m":17.9}},{"type":"Feature","geometry":{"type":"Point","coordinates":[-117.29179,32.83677]},"properties":{"depth_ft":46,"depth_m":14.0}},{"type":"Feature","geometry":{"type":"Point","coordinates":[-117.28806,32.83677]},"properties":{"depth_ft":40,"depth_m":12.1}},{"type":"Feature","geometry":{"type":"Point","coordinates":[-117.28433,32.83677]},"properties":{"depth_ft":19,"depth_m":5.8}},{"type":"Feature","geometry":{"type":"Point","coordinates":[-117.3179,32.83363]},"properties":{"depth_ft":168,"depth_m":51.1}},{"type":"Feature","geometry":{"type":"Point","coordinates":[-117.31417,32.83363]},"properties":{"depth_ft":146,"depth_m":44.6}},{"type":"Feature","geometry":{"type":"Point","coordinates":[-117.31044,32.83363]},"properties":{"depth_ft":130,"depth_m":39.5}},{"type":"Feature","geometry":{"type":"Point","coordinates":[-117.30671,32.83363]},"properties":{"depth_ft":103,"depth_m":31.4}},{"type":"Feature","geometry":{"type":"Point","coordinates":[-117.30298,32.83363]},"properties":{"depth_ft":80,"depth_m":24.3}},{"type":"Feature","geometry":{"type":"Point","coordinates":[-117.29925,32.83363]},"properties":{"depth_ft":71,"depth_m":21.6}},{"type":"Feature","geometry":{"type":"Point","coordinates":[-117.29552,32.83363]},"properties":{"depth_ft":64,"depth_m":19.6}},{"type":"Feature","geometry":{"type":"Point","coordinates":[-117.29179,32.83363]},"properties":{"depth_ft":54,"depth_m":16.5}},{"type":"Feature","geometry":{"type":"Point","coordinates":[-117.28806,32.83363]},"properties":{"depth_ft":39,"depth_m":11.9}},{"type":"Feature","geometry":{"type":"Point","coordinates":[-117.28433,32.83363]},"properties":{"depth_ft":18,"depth_m":5.5}},{"type":"Feature","geometry":{"type":"Point","coordinates":[-117.3179,32.8305]},"properties":{"depth_ft":163,"depth_m":49.8}},{"type":"Feature","geometry":{"type":"Point","coordinates":[-117.31417,32.8305]},"properties":{"depth_ft":146,"depth_m":44.6}},{"type":"Feature","geometry":{"type":"Point","coordinates":[-117.31044,32.8305]},"properties":{"depth_ft":127,"depth_m":38.7}},{"type":"Feature","geometry":{"type":"Point","coordinates":[-117.30671,32.8305]},"properties":{"depth_ft":111,"depth_m":33.9}},{"type":"Feature","geometry":{"type":"Point","coordinates":[-117.30298,32.8305]},"properties":{"depth_ft":97,"depth_m":29.6}},{"type":"Feature","geometry":{"type":"Point","coordinates":[-117.29925,32.8305]},"properties":{"depth_ft":78,"depth_m":23.8}},{"type":"Feature","geometry":{"type":"Point","coordinates":[-117.29552,32.8305]},"properties":{"depth_ft":69,"depth_m":21.2}},{"type":"Feature","geometry":{"type":"Point","coordinates":[-117.29179,32.8305]},"properties":{"depth_ft":49,"depth_m":14.8}},{"type":"Feature","geometry":{"type":"Point","coordinates":[-117.28806,32.8305]},"properties":{"depth_ft":27,"depth_m":8.1}},{"type":"Feature","geometry":{"type":"Point","coordinates":[-117.28433,32.8305]},"properties":{"depth_ft":14,"depth_m":4.3}},{"type":"Feature","geometry":{"type":"Point","coordinates":[-117.3179,32.82736]},"properties":{"depth_ft":155,"depth_m":47.1}},{"type":"Feature","geometry":{"type":"Point","coordinates":[-117.31417,32.82736]},"properties":{"depth_ft":143,"depth_m":43.5}},{"type":"Feature","geometry":{"type":"Point","coordinates":[-117.31044,32.82736]},"properties":{"depth_ft":126,"depth_m":38.5}},{"type":"Feature","geometry":{"type":"Point","coordinates":[-117.30671,32.82736]},"properties":{"depth_ft":106,"depth_m":32.4}},{"type":"Feature","geometry":{"type":"Point","coordinates":[-117.30298,32.82736]},"properties":{"depth_ft":92,"depth_m":28.0}},{"type":"Feature","geometry":{"type":"Point","coordinates":[-117.29925,32.82736]},"properties":{"depth_ft":85,"depth_m":25.9}},{"type":"Feature","geometry":{"type":"Point","coordinates":[-117.29552,32.82736]},"properties":{"depth_ft":73,"depth_m":22.2}},{"type":"Feature","geometry":{"type":"Point","coordinates":[-117.29179,32.82736]},"properties":{"depth_ft":59,"depth_m":17.9}},{"type":"Feature","geometry":{"type":"Point","coordinates":[-117.28806,32.82736]},"properties":{"depth_ft":38,"depth_m":11.5}},{"type":"Feature","geometry":{"type":"Point","coordinates":[-117.28433,32.82736]},"properties":{"depth_ft":20,"depth_m":6.0}},{"type":"Feature","geometry":{"type":"Point","coordinates":[-117.2806,32.82736]},"properties":{"depth_ft":3,"depth_m":0.9}},{"type":"Feature","geometry":{"type":"Point","coordinates":[-117.3179,32.82423]},"properties":{"depth_ft":148,"depth_m":45.1}},{"type":"Feature","geometry":{"type":"Point","coordinates":[-117.31417,32.82423]},"properties":{"depth_ft":139,"depth_m":42.4}},{"type":"Feature","geometry":{"type":"Point","coordinates":[-117.31044,32.82423]},"properties":{"depth_ft":127,"depth_m":38.7}},{"type":"Feature","geometry":{"type":"Point","coordinates":[-117.30671,32.82423]},"properties":{"depth_ft":105,"depth_m":32.0}},{"type":"Feature","geometry":{"type":"Point","coordinates":[-117.30298,32.82423]},"properties":{"depth_ft":89,"depth_m":27.3}},{"type":"Feature","geometry":{"type":"Point","coordinates":[-117.29925,32.82423]},"properties":{"depth_ft":85,"depth_m":25.8}},{"type":"Feature","geometry":{"type":"Point","coordinates":[-117.29552,32.82423]},"properties":{"depth_ft":77,"depth_m":23.4}},{"type":"Feature","geometry":{"type":"Point","coordinates":[-117.29179,32.82423]},"properties":{"depth_ft":65,"depth_m":20.0}},{"type":"Feature","geometry":{"type":"Point","coordinates":[-117.28806,32.82423]},"properties":{"depth_ft":41,"depth_m":12.6}},{"type":"Feature","geometry":{"type":"Point","coordinates":[-117.28433,32.82423]},"properties":{"depth_ft":34,"depth_m":10.3}},{"type":"Feature","geometry":{"type":"Point","coordinates":[-117.2806,32.82423]},"properties":{"depth_ft":2,"depth_m":0.5}},{"type":"Feature","geometry":{"type":"Point","coordinates":[-117.3179,32.8211]},"properties":{"depth_ft":156,"depth_m":47.5}},{"type":"Feature","geometry":{"type":"Point","coordinates":[-117.31417,32.8211]},"properties":{"depth_ft":131,"depth_m":40.0}},{"type":"Feature","geometry":{"type":"Point","coordinates":[-117.31044,32.8211]},"properties":{"depth_ft":125,"depth_m":38.0}},{"type":"Feature","geometry":{"type":"Point","coordinates":[-117.30671,32.8211]},"properties":{"depth_ft":105,"depth_m":31.9}},{"type":"Feature","geometry":{"type":"Point","coordinates":[-117.30298,32.8211]},"properties":{"depth_ft":89,"depth_m":27.1}},{"type":"Feature","geometry":{"type":"Point","coordinates":[-117.29925,32.8211]},"properties":{"depth_ft":84,"depth_m":25.7}},{"type":"Feature","geometry":{"type":"Point","coordinates":[-117.29552,32.8211]},"properties":{"depth_ft":76,"depth_m":23.3}},{"type":"Feature","geometry":{"type":"Point","coordinates":[-117.29179,32.8211]},"properties":{"depth_ft":65,"depth_m":19.8}},{"type":"Feature","geometry":{"type":"Point","coordinates":[-117.28806,32.8211]},"properties":{"depth_ft":45,"depth_m":13.6}},{"type":"Feature","geometry":{"type":"Point","coordinates":[-117.28433,32.8211]},"properties":{"depth_ft":24,"depth_m":7.2}},{"type":"Feature","geometry":{"type":"Point","coordinates":[-117.2806,32.8211]},"properties":{"depth_ft":3,"depth_m":0.8}},{"type":"Feature","geometry":{"type":"Point","coordinates":[-117.3179,32.81796]},"properties":{"depth_ft":155,"depth_m":47.2}},{"type":"Feature","geometry":{"type":"Point","coordinates":[-117.31417,32.81796]},"properties":{"depth_ft":140,"depth_m":42.6}},{"type":"Feature","geometry":{"type":"Point","coordinates":[-117.31044,32.81796]},"properties":{"depth_ft":125,"depth_m":38.0}},{"type":"Feature","geometry":{"type":"Point","coordinates":[-117.30671,32.81796]},"properties":{"depth_ft":98,"depth_m":29.9}},{"type":"Feature","geometry":{"type":"Point","coordinates":[-117.30298,32.81796]},"properties":{"depth_ft":87,"depth_m":26.6}},{"type":"Feature","geometry":{"type":"Point","coordinates":[-117.29925,32.81796]},"properties":{"depth_ft":78,"depth_m":23.7}},{"type":"Feature","geometry":{"type":"Point","coordinates":[-117.29552,32.81796]},"properties":{"depth_ft":71,"depth_m":21.5}},{"type":"Feature","geometry":{"type":"Point","coordinates":[-117.29179,32.81796]},"properties":{"depth_ft":62,"depth_m":18.8}},{"type":"Feature","geometry":{"type":"Point","coordinates":[-117.28806,32.81796]},"properties":{"depth_ft":37,"depth_m":11.4}},{"type":"Feature","geometry":{"type":"Point","coordinates":[-117.28433,32.81796]},"properties":{"depth_ft":21,"depth_m":6.3}},{"type":"Feature","geometry":{"type":"Point","coordinates":[-117.2806,32.81796]},"properties":{"depth_ft":10,"depth_m":3.1}},{"type":"Feature","geometry":{"type":"Point","coordinates":[-117.27687,32.81796]},"properties":{"depth_ft":4,"depth_m":1.1}}]}