{"type":"FeatureCollection","features":[{"type":"Feature","geometry":{"type":"MultiLineString","coordinates":[[[-109.51209,23.11105],[-109.51475,23.1099]]]},"properties":{"depth_m":30}},{"type":"Feature","geometry":{"type":"MultiLineString","coordinates":[[[-109.50683,23.11105],[-109.51475,23.10759]],[[-109.51401,23.10789],[-109.51401,23.10789]]]},"properties":{"depth_m":35}},{"type":"Feature","geometry":{"type":"MultiLineString","coordinates":[[[-109.51475,23.10528],[-109.50665,23.10899],[-109.50162,23.11105]],[[-109.50322,23.11038],[-109.50322,23.11038]]]},"properties":{"depth_m":40}},{"type":"Feature","geometry":{"type":"MultiLineString","coordinates":[[[-109.49626,23.11105],[-109.50224,23.1085],[-109.50641,23.10701],[-109.51033,23.10491],[-109.51475,23.10296]],[[-109.50861,23.10586],[-109.50861,23.10586]],[[-109.51426,23.10315],[-109.51426,23.10315]]]},"properties":{"depth_m":45}},{"type":"Feature","geometry":{"type":"MultiLineString","coordinates":[[[-109.4904,23.11105],[-109.4939,23.10989],[-109.50199,23.10629],[-109.50616,23.10489],[-109.51033,23.10259],[-109.51475,23.10047]]]},"properties":{"depth_m":50}},{"type":"Feature","geometry":{"type":"MultiLineString","coordinates":[[[-109.4904,23.11105],[-109.4939,23.10989],[-109.50199,23.10629],[-109.50616,23.10489],[-109.51033,23.10259],[-109.51475,23.10047]]]},"properties":{"depth_m":50}},{"type":"Feature","geometry":{"type":"MultiLineString","coordinates":[[[-109.51475,23.08535],[-109.50616,23.0896],[-109.50199,23.09042],[-109.49807,23.09061],[-109.49365,23.08965],[-109.48948,23.09239],[-109.48511,23.0939],[-109.47722,23.09784],[-109.4728,23.10216],[-109.47084,23.10359],[-109.46839,23.10502],[-109.46446,23.10628],[-109.46029,23.10692],[-109.45637,23.10627],[-109.44386,23.10005],[-109.43993,23.09936],[-109.43944,23.09941],[-109.43773,23.10047],[-109.43552,23.10152],[-109.43456,23.10225],[-109.43051,23.10631],[-109.42897,23.10835],[-109.42718,23.11035],[-109.42732,23.11105]],[[-109.45367,23.10496],[-109.45367,23.10496]],[[-109.47501,23.09999],[-109.47501,23.09999]],[[-109.48286,23.09503],[-109.48286,23.09503]],[[-109.39725,23.08987],[-109.39763,23.08939],[-109.39913,23.08532],[-109.39858,23.08149],[-109.39799,23.08106],[-109.39725,23.08098]],[[-109.50935,23.08803],[-109.50935,23.08803]]]},"properties":{"depth_m":75}},{"type":"Feature","geometry":{"type":"MultiLineString","coordinates":[[[-109.41266,23.11105],[-109.41454,23.10631],[-109.41713,23.10203],[-109.41933,23.0999],[-109.42181,23.09796],[-109.42546,23.09581],[-109.4311,23.09291],[-109.43552,23.09],[-109.43969,23.08799],[-109.44803,23.0861],[-109.4522,23.08542],[-109.45612,23.08542],[-109.45735,23.08497],[-109.45833,23.08438],[-109.45923,23.08352],[-109.46052,23.08126],[-109.46331,23.07923],[-109.46551,23.0772],[-109.4728,23.07357],[-109.47722,23.07345],[-109.48948,23.07528],[-109.4939,23.0755],[-109.49782,23.07472],[-109.50213,23.07291],[-109.50616,23.07156],[-109.51033,23.07055],[-109.51475,23.06923]],[[-109.39725,23.09289],[-109.39799,23.09218],[-109.39922,23.09169],[-109.40007,23.09097],[-109.40191,23.08729],[-109.40289,23.0861],[-109.40409,23.08397],[-109.4051,23.08272],[-109.40648,23.08149],[-109.40668,23.08104],[-109.40658,23.0772],[-109.40633,23.07697],[-109.40577,23.07697],[-109.40339,23.07773],[-109.39725,23.07837]],[[-109.47354,23.01675],[-109.47596,23.01581],[-109.47742,23.01468],[-109.47761,23.01039],[-109.47697,23.0094],[-109.47596,23.00836],[-109.47452,23.00713],[-109.47305,23.00614],[-109.46912,23.00536],[-109.46863,23.00539],[-109.46699,23.00633],[-109.46642,23.0069],[-109.46581,23.00791],[-109.46526,23.00949],[-109.46512,23.01062],[-109.4664,23.01446],[-109.46888,23.016],[-109.4728,23.01688],[-109.47354,23.01675]],[[-109.47501,23.01626],[-109.47501,23.01626]],[[-109.47697,23.01513],[-109.47697,23.01513]],[[-109.47722,23.01491],[-109.47722,23.01491]]]},"properties":{"depth_m":100}},{"type":"Feature","geometry":{"type":"MultiLineString","coordinates":[[[-109.39725,23.07619],[-109.4002,23.07545],[-109.40226,23.07472],[-109.40363,23.07401],[-109.40502,23.07291],[-109.40633,23.07239],[-109.41467,23.07272],[-109.41737,23.07226],[-109.4181,23.07191],[-109.41884,23.07126],[-109.42301,23.07135],[-109.43135,23.07083],[-109.43527,23.07084],[-109.43586,23.07133],[-109.43682,23.07291],[-109.43748,23.07359],[-109.4392,23.0748],[-109.43993,23.07491],[-109.44386,23.07392],[-109.44876,23.07201],[-109.4522,23.07101],[-109.45612,23.06955],[-109.45735,23.06882],[-109.45882,23.06826],[-109.46029,23.06784],[-109.46446,23.06745],[-109.46667,23.06691],[-109.46961,23.0659],[-109.47305,23.0642],[-109.47697,23.06322],[-109.48948,23.06292],[-109.49365,23.06251],[-109.49782,23.06194],[-109.50288,23.0605],[-109.50616,23.05991],[-109.51033,23.06043],[-109.51475,23.0607]],[[-109.43748,23.07359],[-109.43748,23.07359]],[[-109.4912,23.06276],[-109.4912,23.06276]],[[-109.46711,23.00295],[-109.46554,23.0043],[-109.4633,23.00543],[-109.46147,23.00611],[-109.461,23.00656],[-109.46119,23.01039],[-109.46209,23.01446],[-109.46397,23.01634],[-109.4652,23.01725],[-109.46863,23.01912],[-109.47112,23.0201],[-109.47305,23.02139],[-109.47501,23.0222],[-109.47697,23.02354],[-109.47746,23.02352],[-109.47942,23.02303],[-109.48114,23.02237],[-109.48482,23.01874],[-109.48531,23.01759],[-109.48588,23.01468],[-109.48556,23.01412],[-109.48375,23.01265],[-109.48313,23.01175],[-109.48262,23.01062],[-109.48112,23.00927],[-109.47889,23.00611],[-109.47697,23.00425],[-109.47494,23.00295]],[[-109.48212,23.02145],[-109.48212,23.02145]],[[-109.46692,23.00317],[-109.46692,23.00317]]]},"properties":{"depth_m":125}},{"type":"Feature","geometry":{"type":"MultiLineString","coordinates":[[[-109.39725,23.07442],[-109.39922,23.07373],[-109.40633,23.07069],[-109.40976,23.07016],[-109.41246,23.0693],[-109.41639,23.06737],[-109.41884,23.06566],[-109.42148,23.06411],[-109.42301,23.06294],[-109.42546,23.06235],[-109.42718,23.06155],[-109.43135,23.06144],[-109.44386,23.05905],[-109.44778,23.05985],[-109.45048,23.06124],[-109.45367,23.06224],[-109.45637,23.06278],[-109.46054,23.06311],[-109.46471,23.06189],[-109.4728,23.05756],[-109.48139,23.05433],[-109.48531,23.05336],[-109.48948,23.05359],[-109.49365,23.05457],[-109.49807,23.0551],[-109.51033,23.05593],[-109.51475,23.05571]],[[-109.44852,23.06027],[-109.44852,23.06027]],[[-109.47771,23.05576],[-109.47771,23.05576]],[[-109.46441,23.00295],[-109.46313,23.00385],[-109.46132,23.00475],[-109.45661,23.0061],[-109.45644,23.00633],[-109.45645,23.00656],[-109.4576,23.00791],[-109.45833,23.00944],[-109.45864,23.01039],[-109.45921,23.01446],[-109.46007,23.01626],[-109.46054,23.01694],[-109.46348,23.01955],[-109.46901,23.02303],[-109.47122,23.0271],[-109.4728,23.02845],[-109.47697,23.03032],[-109.47967,23.03117],[-109.48188,23.03258],[-109.48286,23.03359],[-109.48368,23.03477],[-109.48403,23.03545],[-109.48458,23.03748],[-109.48531,23.03856],[-109.4858,23.03823],[-109.48755,23.03612],[-109.48948,23.03412],[-109.49031,23.03138],[-109.48958,23.02687],[-109.49079,23.01874],[-109.49092,23.01468],[-109.48973,23.01167],[-109.48901,23.01062],[-109.48633,23.00927],[-109.48433,23.00788],[-109.47931,23.00295]]]},"properties":{"depth_m":150}},{"type":"Feature","geometry":{"type":"MultiLineString","coordinates":[[[-109.46189,23.00295],[-109.46029,23.00384],[-109.45637,23.00489],[-109.45553,23.00611],[-109.45574,23.00859],[-109.45641,23.01039],[-109.45735,23.01549],[-109.45808,23.01751],[-109.45931,23.01988],[-109.46054,23.02131],[-109.46312,23.02303],[-109.46485,23.0271],[-109.46642,23.02936],[-109.46763,23.03048],[-109.46984,23.03206],[-109.47378,23.03401],[-109.47563,23.03522],[-109.476,23.03567],[-109.47697,23.03794],[-109.47743,23.03951],[-109.47762,23.0438],[-109.47641,23.04786],[-109.47564,23.04876],[-109.47334,23.05102],[-109.47187,23.05215],[-109.46888,23.05373],[-109.46642,23.05479],[-109.46446,23.05594],[-109.46054,23.05713],[-109.46029,23.05713],[-109.45903,23.05621],[-109.45735,23.05382],[-109.45514,23.05161],[-109.45392,23.05078],[-109.4522,23.05004],[-109.44803,23.05],[-109.43969,23.05176],[-109.43601,23.05206],[-109.43135,23.05162],[-109.42718,23.05183],[-109.42676,23.05215],[-109.42582,23.05463],[-109.42479,23.05644],[-109.42276,23.05866],[-109.42154,23.06025],[-109.42006,23.06166],[-109.4154,23.06518],[-109.4135,23.06637],[-109.4116,23.06727],[-109.40903,23.06823],[-109.40633,23.069],[-109.40167,23.07124],[-109.39725,23.07274]],[[-109.41565,23.06501],[-109.41565,23.06501]],[[-109.47059,23.05282],[-109.47059,23.05282]],[[-109.48301,23.00295],[-109.48695,23.00701],[-109.48826,23.00793],[-109.49095,23.00944],[-109.49217,23.01039],[-109.49395,23.01446],[-109.49411,23.01874],[-109.49338,23.02303],[-109.49481,23.03116],[-109.49469,23.03973],[-109.49516,23.0438],[-109.49578,23.04538],[-109.49653,23.04673],[-109.49769,23.04809],[-109.49978,23.04956],[-109.50199,23.05059],[-109.50469,23.0514],[-109.50641,23.05178],[-109.51058,23.05206],[-109.51475,23.05133]]]},"properties":{"depth_m":175}},{"type":"Feature","geometry":{"type":"MultiLineString","coordinates":[[[-109.39725,23.07152],[-109.40069,23.07026],[-109.40633,23.06746],[-109.40967,23.06614],[-109.41222,23.0648],[-109.4154,23.06277],[-109.41757,23.06095],[-109.42056,23.05781],[-109.42178,23.05605],[-109.42417,23.05192],[-109.42546,23.05078],[-109.42693,23.04979],[-109.42914,23.04898],[-109.43135,23.0476],[-109.43356,23.04676],[-109.43552,23.0454],[-109.43969,23.04455],[-109.44361,23.04284],[-109.44803,23.04182],[-109.45281,23.03973],[-109.45336,23.03928],[-109.45437,23.03748],[-109.455,23.03545],[-109.45391,23.03138],[-109.45485,23.02281],[-109.45478,23.01874],[-109.45438,23.01581],[-109.45409,23.01039],[-109.45448,23.00881],[-109.45468,23.00633],[-109.45539,23.00498],[-109.45637,23.0036],[-109.45853,23.00295]],[[-109.48656,23.00295],[-109.48915,23.00633],[-109.49259,23.00791],[-109.49522,23.00994],[-109.49577,23.01062],[-109.4966,23.01262],[-109.49726,23.01468],[-109.49718,23.01874],[-109.49607,23.02303],[-109.49682,23.02529],[-109.49919,23.03116],[-109.5006,23.03951],[-109.50187,23.0438],[-109.50322,23.0453],[-109.50469,23.04659],[-109.50616,23.04763],[-109.50705,23.04786],[-109.51058,23.04831],[-109.51189,23.04786],[-109.51475,23.04607]]]},"properties":{"depth_m":200}},{"type":"Feature","geometry":{"type":"MultiLineString","coordinates":[[[-109.39725,23.0703],[-109.39882,23.06975],[-109.40167,23.06844],[-109.40854,23.06492],[-109.41197,23.06296],[-109.41418,23.06144],[-109.41688,23.05909],[-109.41944,23.05598],[-109.42068,23.05418],[-109.42301,23.05005],[-109.42508,23.04854],[-109.42865,23.04677],[-109.43037,23.04526],[-109.43153,23.0438],[-109.43157,23.04357],[-109.43097,23.04109],[-109.43022,23.03973],[-109.43022,23.03928],[-109.43215,23.03567],[-109.43552,23.03249],[-109.43969,23.03079],[-109.4442,23.0271],[-109.44484,23.02544],[-109.44547,23.02281],[-109.44737,23.01874],[-109.44965,23.01468],[-109.45063,23.01333],[-109.45152,23.01062],[-109.45256,23.00972],[-109.45317,23.00881],[-109.45399,23.00611],[-109.45581,23.00295]],[[-109.41393,23.06163],[-109.41393,23.06163]],[[-109.42227,23.05124],[-109.42227,23.05124]],[[-109.43257,23.03522],[-109.43257,23.03522]],[[-109.44239,23.02868],[-109.44239,23.02868]],[[-109.44631,23.021],[-109.44631,23.021]],[[-109.49006,23.00295],[-109.49267,23.00468],[-109.49635,23.00623],[-109.49807,23.00739],[-109.50027,23.00797],[-109.50224,23.00887],[-109.50616,23.00919],[-109.50837,23.00829],[-109.51475,23.00651]]]},"properties":{"depth_m":225}},{"type":"Feature","geometry":{"type":"MultiLineString","coordinates":[[[-109.39725,23.06909],[-109.4002,23.06793],[-109.40388,23.06595],[-109.41074,23.06182],[-109.41386,23.0596],[-109.41606,23.05756],[-109.41788,23.05531],[-109.4199,23.05215],[-109.4223,23.04786],[-109.42276,23.04673],[-109.42325,23.04628],[-109.42374,23.04615],[-109.42718,23.0457],[-109.4291,23.04402],[-109.42925,23.04357],[-109.42816,23.04196],[-109.42718,23.04113],[-109.42563,23.04041],[-109.42488,23.03973],[-109.42492,23.03928],[-109.42647,23.03545],[-109.42718,23.03469],[-109.42938,23.03296],[-109.43119,23.03093],[-109.43356,23.02912],[-109.43552,23.02691],[-109.43708,23.02597],[-109.43831,23.02484],[-109.43954,23.02303],[-109.44128,23.01897],[-109.44312,23.0178],[-109.44386,23.01656],[-109.44531,23.01468],[-109.44688,23.0131],[-109.44819,23.01062],[-109.44844,23.01039],[-109.45073,23.00955],[-109.45202,23.00859],[-109.4526,23.00769],[-109.45363,23.0052],[-109.45488,23.00295]],[[-109.4154,23.05824],[-109.4154,23.05824]],[[-109.42276,23.04673],[-109.42276,23.04673]],[[-109.42423,23.04605],[-109.42423,23.04605]],[[-109.42914,23.03319],[-109.42914,23.03319]],[[-109.45342,23.00565],[-109.45342,23.00565]]]},"properties":{"depth_m":250}},{"type":"Feature","geometry":{"type":"MultiLineString","coordinates":[[[-109.39725,23.06802],[-109.39872,23.06751],[-109.40093,23.06636],[-109.40388,23.06456],[-109.40633,23.06266],[-109.41066,23.06005],[-109.41344,23.05794],[-109.41566,23.05576],[-109.41791,23.0526],[-109.42028,23.04786],[-109.42081,23.04583],[-109.42163,23.04357],[-109.42199,23.03951],[-109.42301,23.03622],[-109.4234,23.03545],[-109.42525,23.03364],[-109.42714,23.03138],[-109.42939,23.0297],[-109.4318,23.0271],[-109.4338,23.02567],[-109.43552,23.0235],[-109.43724,23.02204],[-109.43809,23.02078],[-109.43889,23.01874],[-109.43969,23.01818],[-109.44116,23.01758],[-109.44214,23.01682],[-109.44283,23.01581],[-109.44361,23.01396],[-109.44546,23.0122],[-109.44651,23.01062],[-109.44729,23.01005],[-109.44999,23.00889],[-109.45146,23.00771],[-109.4522,23.00667],[-109.45396,23.00295]],[[-109.42129,23.04447],[-109.42129,23.04447]],[[-109.42546,23.03341],[-109.42546,23.03341]],[[-109.43797,23.021],[-109.43797,23.021]],[[-109.44312,23.01513],[-109.44312,23.01513]]]},"properties":{"depth_m":275}},{"type":"Feature","geometry":{"type":"MultiLineString","coordinates":[[[-109.39725,23.06702],[-109.39845,23.06659],[-109.40069,23.06532],[-109.40633,23.06093],[-109.4105,23.05841],[-109.41268,23.05666],[-109.41481,23.05463],[-109.41665,23.05215],[-109.41812,23.04876],[-109.41844,23.04786],[-109.41877,23.04357],[-109.41953,23.04177],[-109.42017,23.03951],[-109.42168,23.03545],[-109.42301,23.0332],[-109.42494,23.03116],[-109.42947,23.0271],[-109.43281,23.02439],[-109.43395,23.02303],[-109.43644,23.02055],[-109.4374,23.01897],[-109.44141,23.01613],[-109.44215,23.01513],[-109.44361,23.01224],[-109.44508,23.01052],[-109.44624,23.00972],[-109.44925,23.00839],[-109.45072,23.00723],[-109.45146,23.00633],[-109.45303,23.00295]]]},"properties":{"depth_m":300}},{"type":"Feature","geometry":{"type":"MultiLineString","coordinates":[[[-109.39725,23.06602],[-109.39799,23.0658],[-109.40006,23.06456],[-109.40458,23.06072],[-109.40633,23.05895],[-109.4105,23.05667],[-109.41247,23.05508],[-109.41425,23.05328],[-109.41527,23.05192],[-109.41705,23.04809],[-109.41699,23.0438],[-109.41785,23.04177],[-109.41884,23.03861],[-109.42021,23.03545],[-109.42154,23.03362],[-109.42278,23.03116],[-109.42522,23.0291],[-109.42727,23.0271],[-109.42961,23.02552],[-109.43222,23.02303],[-109.43376,23.0219],[-109.43463,23.021],[-109.43633,23.01874],[-109.43846,23.01739],[-109.44077,23.01558],[-109.4415,23.01468],[-109.44317,23.0113],[-109.4441,23.00996],[-109.4456,23.00904],[-109.44803,23.00826],[-109.45009,23.00678],[-109.4506,23.00611],[-109.4508,23.00475],[-109.45112,23.00385],[-109.45197,23.00295]],[[-109.40829,23.05779],[-109.40829,23.05779]],[[-109.4132,23.0544],[-109.4132,23.0544]]]},"properties":{"depth_m":325}},{"type":"Feature","geometry":{"type":"MultiLineString","coordinates":[[[-109.39725,23.06502],[-109.39848,23.06448],[-109.40062,23.06276],[-109.40308,23.06027],[-109.40389,23.05892],[-109.4051,23.05767],[-109.40756,23.05625],[-109.4105,23.05511],[-109.41211,23.05373],[-109.4136,23.05215],[-109.41475,23.05012],[-109.41577,23.04786],[-109.41531,23.0438],[-109.4169,23.04086],[-109.41877,23.03545],[-109.42056,23.03329],[-109.42276,23.02956],[-109.42541,23.0271],[-109.42816,23.02528],[-109.43088,23.02281],[-109.43307,23.02137],[-109.43405,23.02037],[-109.43545,23.01852],[-109.43797,23.01699],[-109.4402,23.01513],[-109.44075,23.01446],[-109.4428,23.01017],[-109.44386,23.00867],[-109.44533,23.00807],[-109.44803,23.00752],[-109.44956,23.00633],[-109.4495,23.00543],[-109.44913,23.0043],[-109.44876,23.00375],[-109.44775,23.00295]],[[-109.4154,23.04357],[-109.4154,23.04357]],[[-109.41614,23.04244],[-109.41614,23.04244]],[[-109.42031,23.03364],[-109.42031,23.03364]]]},"properties":{"depth_m":350}},{"type":"Feature","geometry":{"type":"MultiLineString","coordinates":[[[-109.39725,23.06395],[-109.39799,23.06369],[-109.39897,23.06294],[-109.4014,23.0605],[-109.40216,23.05728],[-109.40309,23.05621],[-109.40453,23.05553],[-109.41025,23.05374],[-109.41203,23.05215],[-109.41324,23.05034],[-109.41441,23.04809],[-109.41408,23.04402],[-109.41433,23.04312],[-109.4161,23.03996],[-109.41785,23.03545],[-109.4201,23.03229],[-109.42276,23.02795],[-109.42357,23.0271],[-109.42595,23.02568],[-109.42952,23.02281],[-109.43208,23.02118],[-109.43326,23.0201],[-109.43455,23.01852],[-109.43765,23.01649],[-109.43973,23.01468],[-109.44214,23.00945],[-109.44311,23.00791],[-109.44386,23.00712],[-109.44778,23.00687],[-109.44858,23.00633],[-109.44856,23.00588],[-109.44827,23.00533],[-109.44683,23.00407],[-109.44624,23.00295]],[[-109.42399,23.02687],[-109.42399,23.02687]],[[-109.44042,23.0131],[-109.44042,23.0131]]]},"properties":{"depth_m":375}},{"type":"Feature","geometry":{"type":"MultiLineString","coordinates":[[[-109.39725,23.06283],[-109.39799,23.06258],[-109.40021,23.0605],[-109.40124,23.05486],[-109.40191,23.05316],[-109.4024,23.05299],[-109.40633,23.05336],[-109.41025,23.05224],[-109.41086,23.0517],[-109.41215,23.04989],[-109.41319,23.04809],[-109.41326,23.04357],[-109.41418,23.04141],[-109.4159,23.03808],[-109.41695,23.03545],[-109.4208,23.02971],[-109.42236,23.0271],[-109.42301,23.02647],[-109.42571,23.02479],[-109.42815,23.02281],[-109.43146,23.02078],[-109.43405,23.0182],[-109.43699,23.01626],[-109.43889,23.01468],[-109.44141,23.00867],[-109.44433,23.0043],[-109.44475,23.00295]],[[-109.40731,23.05305],[-109.40731,23.05305]]]},"properties":{"depth_m":400}},{"type":"Feature","geometry":{"type":"MultiLineString","coordinates":[[[-109.39725,23.06171],[-109.39799,23.06146],[-109.39902,23.0605],[-109.39965,23.05644],[-109.39953,23.05531],[-109.39915,23.05395],[-109.39872,23.05317],[-109.39794,23.05237],[-109.39796,23.05215],[-109.39831,23.05192],[-109.40191,23.05146],[-109.40633,23.05184],[-109.40878,23.05121],[-109.4105,23.05028],[-109.41207,23.04786],[-109.41233,23.0438],[-109.41363,23.04041],[-109.41605,23.03545],[-109.4174,23.03364],[-109.41884,23.03113],[-109.4215,23.0271],[-109.42301,23.02557],[-109.42484,23.02439],[-109.42681,23.02281],[-109.43135,23.02002],[-109.43356,23.0178],[-109.43625,23.0161],[-109.43804,23.01468],[-109.43883,23.0122],[-109.43966,23.01039],[-109.44053,23.00791],[-109.44329,23.00295]],[[-109.43993,23.00949],[-109.43993,23.00949]]]},"properties":{"depth_m":425}},{"type":"Feature","geometry":{"type":"MultiLineString","coordinates":[[[-109.39725,23.06059],[-109.3976,23.0605],[-109.39792,23.06005],[-109.39832,23.05644],[-109.39781,23.05508],[-109.39725,23.05424]],[[-109.39725,23.0513],[-109.39799,23.05108],[-109.40191,23.05066],[-109.40633,23.05089],[-109.40854,23.05001],[-109.41025,23.04874],[-109.41086,23.04786],[-109.41151,23.04357],[-109.41287,23.03973],[-109.41515,23.03545],[-109.41708,23.03296],[-109.41884,23.02983],[-109.42064,23.0271],[-109.42301,23.02468],[-109.4262,23.02238],[-109.4311,23.01937],[-109.43326,23.01716],[-109.43552,23.01596],[-109.43719,23.01468],[-109.43735,23.01446],[-109.43803,23.01107],[-109.43901,23.00904],[-109.43969,23.0066],[-109.44189,23.00295]],[[-109.40461,23.05079],[-109.40461,23.05079]],[[-109.43748,23.01355],[-109.43748,23.01355]],[[-109.43871,23.00972],[-109.43871,23.00972]]]},"properties":{"depth_m":450}},{"type":"Feature","geometry":{"type":"MultiLineString","coordinates":[[[-109.39725,23.05038],[-109.39799,23.0502],[-109.40191,23.04986],[-109.40633,23.04993],[-109.40805,23.04906],[-109.40929,23.04809],[-109.41001,23.04652],[-109.41092,23.04244],[-109.41188,23.03951],[-109.41306,23.0377],[-109.41425,23.03545],[-109.41565,23.03387],[-109.41688,23.03214],[-109.41859,23.02894],[-109.41978,23.0271],[-109.42137,23.02529],[-109.42301,23.02378],[-109.42558,23.0219],[-109.43045,23.01897],[-109.43207,23.01716],[-109.43282,23.01654],[-109.4338,23.01599],[-109.43552,23.01533],[-109.43634,23.01468],[-109.43651,23.01446],[-109.43685,23.01039],[-109.4377,23.00949],[-109.43825,23.00859],[-109.43879,23.00723],[-109.43944,23.00479],[-109.44049,23.00295]],[[-109.42374,23.02326],[-109.42374,23.02326]],[[-109.42595,23.02168],[-109.42595,23.02168]],[[-109.43846,23.00814],[-109.43846,23.00814]]]},"properties":{"depth_m":475}},{"type":"Feature","geometry":{"type":"MultiLineString","coordinates":[[[-109.39725,23.04946],[-109.40191,23.04905],[-109.40608,23.04902],[-109.40706,23.04856],[-109.40805,23.04781],[-109.40878,23.0467],[-109.40942,23.04515],[-109.41077,23.03951],[-109.41206,23.0377],[-109.41336,23.03545],[-109.41491,23.03379],[-109.41622,23.03206],[-109.41859,23.02763],[-109.41957,23.02626],[-109.42154,23.02416],[-109.42399,23.02205],[-109.42918,23.01897],[-109.43199,23.01604],[-109.43331,23.01535],[-109.43527,23.01481],[-109.43567,23.01446],[-109.4354,23.01062],[-109.43699,23.00904],[-109.43786,23.00769],[-109.4384,23.00633],[-109.43876,23.0043],[-109.43919,23.00295]],[[-109.4154,23.03319],[-109.4154,23.03319]]]},"properties":{"depth_m":500}},{"type":"Feature","geometry":{"type":"MultiLineString","coordinates":[[[-109.39725,23.04946],[-109.40191,23.04905],[-109.40608,23.04902],[-109.40706,23.04856],[-109.40805,23.04781],[-109.40878,23.0467],[-109.40942,23.04515],[-109.41077,23.03951],[-109.41206,23.0377],[-109.41336,23.03545],[-109.41491,23.03379],[-109.41622,23.03206],[-109.41859,23.02763],[-109.41957,23.02626],[-109.42154,23.02416],[-109.42399,23.02205],[-109.42918,23.01897],[-109.43199,23.01604],[-109.43331,23.01535],[-109.43527,23.01481],[-109.43567,23.01446],[-109.4354,23.01062],[-109.43699,23.00904],[-109.43786,23.00769],[-109.4384,23.00633],[-109.43876,23.0043],[-109.43919,23.00295]],[[-109.4154,23.03319],[-109.4154,23.03319]]]},"properties":{"depth_m":500}},{"type":"Feature","geometry":{"type":"MultiLineString","coordinates":[[[-109.39725,23.04519],[-109.39946,23.04564],[-109.40216,23.04595],[-109.40461,23.04523],[-109.40633,23.04432],[-109.40673,23.04357],[-109.40755,23.03951],[-109.40903,23.03668],[-109.40997,23.03522],[-109.41387,23.03116],[-109.41467,23.02991],[-109.41712,23.02471],[-109.41957,23.02144],[-109.42075,23.0201],[-109.42203,23.01897],[-109.42446,23.01784],[-109.42553,23.01694],[-109.42643,23.01536],[-109.42718,23.01283],[-109.42881,23.01039],[-109.4311,23.00778],[-109.43135,23.00756],[-109.43233,23.0073],[-109.43527,23.00695],[-109.43586,23.00633],[-109.43552,23.00475],[-109.43464,23.00362],[-109.43431,23.00295]],[[-109.41344,23.03161],[-109.41344,23.03161]],[[-109.42571,23.01671],[-109.42571,23.01671]]]},"properties":{"depth_m":600}},{"type":"Feature","geometry":{"type":"MultiLineString","coordinates":[[[-109.39725,23.04114],[-109.39799,23.04151],[-109.40167,23.04202],[-109.40216,23.04196],[-109.4024,23.04174],[-109.40339,23.0403],[-109.40486,23.03733],[-109.4071,23.03364],[-109.40805,23.03247],[-109.40983,23.03093],[-109.4105,23.02998],[-109.41213,23.0271],[-109.41346,23.02281],[-109.41516,23.02086],[-109.41805,23.01671],[-109.41884,23.01593],[-109.42301,23.01585],[-109.42413,23.01468],[-109.42408,23.01333],[-109.42358,23.01017],[-109.42451,23.00814],[-109.4257,23.00633],[-109.42659,23.00295]],[[-109.40559,23.03612],[-109.40559,23.03612]]]},"properties":{"depth_m":700}},{"type":"Feature","geometry":{"type":"MultiLineString","coordinates":[[[-109.39725,23.03629],[-109.39799,23.03647],[-109.39945,23.03545],[-109.40176,23.03116],[-109.40363,23.02931],[-109.40608,23.02761],[-109.40659,23.0271],[-109.40756,23.02281],[-109.40863,23.02032],[-109.40962,23.01874],[-109.41165,23.01671],[-109.4132,23.01478],[-109.41456,23.01197],[-109.41563,23.01039],[-109.41651,23.00611],[-109.41459,23.00295]]]},"properties":{"depth_m":800}},{"type":"Feature","geometry":{"type":"MultiLineString","coordinates":[[[-109.39725,23.0248],[-109.39799,23.02433],[-109.39943,23.02281],[-109.39976,23.01874],[-109.40149,23.01716],[-109.40507,23.01446],[-109.40567,23.01039],[-109.40532,23.00881],[-109.40507,23.00611],[-109.4044,23.00295]]]},"properties":{"depth_m":900}},{"type":"Feature","geometry":{"type":"MultiLineString","coordinates":[[[-109.39725,23.00673],[-109.39768,23.00633],[-109.39768,23.00611],[-109.39725,23.00531]]]},"properties":{"depth_m":1000}}]}