{"type":"FeatureCollection","features":[{"type":"Feature","geometry":{"type":"Point","coordinates":[-109.51475,23.11105]},"properties":{"depth_ft":90,"depth_m":27.4}},{"type":"Feature","geometry":{"type":"Point","coordinates":[-109.50964,23.11105]},"properties":{"depth_ft":105,"depth_m":32.1}},{"type":"Feature","geometry":{"type":"Point","coordinates":[-109.50453,23.11105]},"properties":{"depth_ft":122,"depth_m":37.1}},{"type":"Feature","geometry":{"type":"Point","coordinates":[-109.49942,23.11105]},"properties":{"depth_ft":137,"depth_m":41.8}},{"type":"Feature","geometry":{"type":"Point","coordinates":[-109.49431,23.11105]},"properties":{"depth_ft":152,"depth_m":46.4}},{"type":"Feature","geometry":{"type":"Point","coordinates":[-109.4892,23.11105]},"properties":{"depth_ft":166,"depth_m":50.7}},{"type":"Feature","geometry":{"type":"Point","coordinates":[-109.4841,23.11105]},"properties":{"depth_ft":180,"depth_m":54.8}},{"type":"Feature","geometry":{"type":"Point","coordinates":[-109.47899,23.11105]},"properties":{"depth_ft":192,"depth_m":58.6}},{"type":"Feature","geometry":{"type":"Point","coordinates":[-109.47388,23.11105]},"properties":{"depth_ft":204,"depth_m":62.3}},{"type":"Feature","geometry":{"type":"Point","coordinates":[-109.46877,23.11105]},"properties":{"depth_ft":216,"depth_m":65.8}},{"type":"Feature","geometry":{"type":"Point","coordinates":[-109.46366,23.11105]},"properties":{"depth_ft":224,"depth_m":68.3}},{"type":"Feature","geometry":{"type":"Point","coordinates":[-109.45855,23.11105]},"properties":{"depth_ft":226,"depth_m":68.9}},{"type":"Feature","geometry":{"type":"Point","coordinates":[-109.45345,23.11105]},"properties":{"depth_ft":220,"depth_m":67.1}},{"type":"Feature","geometry":{"type":"Point","coordinates":[-109.44834,23.11105]},"properties":{"depth_ft":210,"depth_m":63.9}},{"type":"Feature","geometry":{"type":"Point","coordinates":[-109.44323,23.11105]},"properties":{"depth_ft":199,"depth_m":60.6}},{"type":"Feature","geometry":{"type":"Point","coordinates":[-109.43812,23.11105]},"properties":{"depth_ft":200,"depth_m":60.9}},{"type":"Feature","geometry":{"type":"Point","coordinates":[-109.43301,23.11105]},"properties":{"depth_ft":221,"depth_m":67.5}},{"type":"Feature","geometry":{"type":"Point","coordinates":[-109.4279,23.11105]},"properties":{"depth_ft":244,"depth_m":74.2}},{"type":"Feature","geometry":{"type":"Point","coordinates":[-109.4228,23.11105]},"properties":{"depth_ft":276,"depth_m":84.1}},{"type":"Feature","geometry":{"type":"Point","coordinates":[-109.41769,23.11105]},"properties":{"depth_ft":304,"depth_m":92.7}},{"type":"Feature","geometry":{"type":"Point","coordinates":[-109.41258,23.11105]},"properties":{"depth_ft":329,"depth_m":100.2}},{"type":"Feature","geometry":{"type":"Point","coordinates":[-109.39725,23.11105]},"properties":{"depth_ft":330,"depth_m":100.7}},{"type":"Feature","geometry":{"type":"Point","coordinates":[-109.51475,23.10635]},"properties":{"depth_ft":124,"depth_m":37.8}},{"type":"Feature","geometry":{"type":"Point","coordinates":[-109.50964,23.10635]},"properties":{"depth_ft":141,"depth_m":42.8}},{"type":"Feature","geometry":{"type":"Point","coordinates":[-109.50453,23.10635]},"properties":{"depth_ft":158,"depth_m":48.2}},{"type":"Feature","geometry":{"type":"Point","coordinates":[-109.49942,23.10635]},"properties":{"depth_ft":172,"depth_m":52.3}},{"type":"Feature","geometry":{"type":"Point","coordinates":[-109.49431,23.10635]},"properties":{"depth_ft":188,"depth_m":57.2}},{"type":"Feature","geometry":{"type":"Point","coordinates":[-109.4892,23.10635]},"properties":{"depth_ft":197,"depth_m":60.0}},{"type":"Feature","geometry":{"type":"Point","coordinates":[-109.4841,23.10635]},"properties":{"depth_ft":205,"depth_m":62.5}},{"type":"Feature","geometry":{"type":"Point","coordinates":[-109.47899,23.10635]},"properties":{"depth_ft":213,"depth_m":65.0}},{"type":"Feature","geometry":{"type":"Point","coordinates":[-109.47388,23.10635]},"properties":{"depth_ft":227,"depth_m":69.1}},{"type":"Feature","geometry":{"type":"Point","coordinates":[-109.46877,23.10635]},"properties":{"depth_ft":239,"depth_m":72.8}},{"type":"Feature","geometry":{"type":"Point","coordinates":[-109.46366,23.10635]},"properties":{"depth_ft":246,"depth_m":75.1}},{"type":"Feature","geometry":{"type":"Point","coordinates":[-109.45855,23.10635]},"properties":{"depth_ft":248,"depth_m":75.5}},{"type":"Feature","geometry":{"type":"Point","coordinates":[-109.45345,23.10635]},"properties":{"depth_ft":239,"depth_m":72.9}},{"type":"Feature","geometry":{"type":"Point","coordinates":[-109.44834,23.10635]},"properties":{"depth_ft":227,"depth_m":69.2}},{"type":"Feature","geometry":{"type":"Point","coordinates":[-109.44323,23.10635]},"properties":{"depth_ft":216,"depth_m":65.8}},{"type":"Feature","geometry":{"type":"Point","coordinates":[-109.43812,23.10635]},"properties":{"depth_ft":216,"depth_m":65.9}},{"type":"Feature","geometry":{"type":"Point","coordinates":[-109.43301,23.10635]},"properties":{"depth_ft":234,"depth_m":71.3}},{"type":"Feature","geometry":{"type":"Point","coordinates":[-109.4279,23.10635]},"properties":{"depth_ft":258,"depth_m":78.7}},{"type":"Feature","geometry":{"type":"Point","coordinates":[-109.4228,23.10635]},"properties":{"depth_ft":286,"depth_m":87.2}},{"type":"Feature","geometry":{"type":"Point","coordinates":[-109.41769,23.10635]},"properties":{"depth_ft":316,"depth_m":96.3}},{"type":"Feature","geometry":{"type":"Point","coordinates":[-109.51475,23.10165]},"properties":{"depth_ft":157,"depth_m":47.9}},{"type":"Feature","geometry":{"type":"Point","coordinates":[-109.50964,23.10165]},"properties":{"depth_ft":174,"depth_m":53.0}},{"type":"Feature","geometry":{"type":"Point","coordinates":[-109.50453,23.10165]},"properties":{"depth_ft":191,"depth_m":58.2}},{"type":"Feature","geometry":{"type":"Point","coordinates":[-109.49942,23.10165]},"properties":{"depth_ft":202,"depth_m":61.6}},{"type":"Feature","geometry":{"type":"Point","coordinates":[-109.49431,23.10165]},"properties":{"depth_ft":214,"depth_m":65.2}},{"type":"Feature","geometry":{"type":"Point","coordinates":[-109.4892,23.10165]},"properties":{"depth_ft":219,"depth_m":66.8}},{"type":"Feature","geometry":{"type":"Point","coordinates":[-109.4841,23.10165]},"properties":{"depth_ft":226,"depth_m":68.9}},{"type":"Feature","geometry":{"type":"Point","coordinates":[-109.47899,23.10165]},"properties":{"depth_ft":232,"depth_m":70.7}},{"type":"Feature","geometry":{"type":"Point","coordinates":[-109.47388,23.10165]},"properties":{"depth_ft":245,"depth_m":74.7}},{"type":"Feature","geometry":{"type":"Point","coordinates":[-109.46877,23.10165]},"properties":{"depth_ft":261,"depth_m":79.5}},{"type":"Feature","geometry":{"type":"Point","coordinates":[-109.46366,23.10165]},"properties":{"depth_ft":276,"depth_m":84.0}},{"type":"Feature","geometry":{"type":"Point","coordinates":[-109.45855,23.10165]},"properties":{"depth_ft":272,"depth_m":83.0}},{"type":"Feature","geometry":{"type":"Point","coordinates":[-109.45345,23.10165]},"properties":{"depth_ft":262,"depth_m":79.7}},{"type":"Feature","geometry":{"type":"Point","coordinates":[-109.44834,23.10165]},"properties":{"depth_ft":249,"depth_m":76.0}},{"type":"Feature","geometry":{"type":"Point","coordinates":[-109.44323,23.10165]},"properties":{"depth_ft":238,"depth_m":72.6}},{"type":"Feature","geometry":{"type":"Point","coordinates":[-109.43812,23.10165]},"properties":{"depth_ft":239,"depth_m":72.8}},{"type":"Feature","geometry":{"type":"Point","coordinates":[-109.43301,23.10165]},"properties":{"depth_ft":257,"depth_m":78.4}},{"type":"Feature","geometry":{"type":"Point","coordinates":[-109.4279,23.10165]},"properties":{"depth_ft":281,"depth_m":85.7}},{"type":"Feature","geometry":{"type":"Point","coordinates":[-109.4228,23.10165]},"properties":{"depth_ft":308,"depth_m":93.9}},{"type":"Feature","geometry":{"type":"Point","coordinates":[-109.41769,23.10165]},"properties":{"depth_ft":328,"depth_m":99.9}},{"type":"Feature","geometry":{"type":"Point","coordinates":[-109.51475,23.09695]},"properties":{"depth_ft":185,"depth_m":56.3}},{"type":"Feature","geometry":{"type":"Point","coordinates":[-109.50964,23.09695]},"properties":{"depth_ft":201,"depth_m":61.3}},{"type":"Feature","geometry":{"type":"Point","coordinates":[-109.50453,23.09695]},"properties":{"depth_ft":216,"depth_m":65.9}},{"type":"Feature","geometry":{"type":"Point","coordinates":[-109.49942,23.09695]},"properties":{"depth_ft":223,"depth_m":68.1}},{"type":"Feature","geometry":{"type":"Point","coordinates":[-109.49431,23.09695]},"properties":{"depth_ft":230,"depth_m":70.2}},{"type":"Feature","geometry":{"type":"Point","coordinates":[-109.4892,23.09695]},"properties":{"depth_ft":235,"depth_m":71.8}},{"type":"Feature","geometry":{"type":"Point","coordinates":[-109.4841,23.09695]},"properties":{"depth_ft":242,"depth_m":73.7}},{"type":"Feature","geometry":{"type":"Point","coordinates":[-109.47899,23.09695]},"properties":{"depth_ft":246,"depth_m":75.0}},{"type":"Feature","geometry":{"type":"Point","coordinates":[-109.47388,23.09695]},"properties":{"depth_ft":257,"depth_m":78.4}},{"type":"Feature","geometry":{"type":"Point","coordinates":[-109.46877,23.09695]},"properties":{"depth_ft":276,"depth_m":84.3}},{"type":"Feature","geometry":{"type":"Point","coordinates":[-109.46366,23.09695]},"properties":{"depth_ft":300,"depth_m":91.3}},{"type":"Feature","geometry":{"type":"Point","coordinates":[-109.45855,23.09695]},"properties":{"depth_ft":297,"depth_m":90.5}},{"type":"Feature","geometry":{"type":"Point","coordinates":[-109.45345,23.09695]},"properties":{"depth_ft":284,"depth_m":86.5}},{"type":"Feature","geometry":{"type":"Point","coordinates":[-109.44834,23.09695]},"properties":{"depth_ft":271,"depth_m":82.7}},{"type":"Feature","geometry":{"type":"Point","coordinates":[-109.44323,23.09695]},"properties":{"depth_ft":262,"depth_m":79.7}},{"type":"Feature","geometry":{"type":"Point","coordinates":[-109.43812,23.09695]},"properties":{"depth_ft":265,"depth_m":80.7}},{"type":"Feature","geometry":{"type":"Point","coordinates":[-109.43301,23.09695]},"properties":{"depth_ft":287,"depth_m":87.4}},{"type":"Feature","geometry":{"type":"Point","coordinates":[-109.4279,23.09695]},"properties":{"depth_ft":309,"depth_m":94.1}},{"type":"Feature","geometry":{"type":"Point","coordinates":[-109.51475,23.09225]},"properties":{"depth_ft":211,"depth_m":64.3}},{"type":"Feature","geometry":{"type":"Point","coordinates":[-109.50964,23.09225]},"properties":{"depth_ft":225,"depth_m":68.6}},{"type":"Feature","geometry":{"type":"Point","coordinates":[-109.50453,23.09225]},"properties":{"depth_ft":235,"depth_m":71.8}},{"type":"Feature","geometry":{"type":"Point","coordinates":[-109.49942,23.09225]},"properties":{"depth_ft":240,"depth_m":73.1}},{"type":"Feature","geometry":{"type":"Point","coordinates":[-109.49431,23.09225]},"properties":{"depth_ft":240,"depth_m":73.1}},{"type":"Feature","geometry":{"type":"Point","coordinates":[-109.4892,23.09225]},"properties":{"depth_ft":246,"depth_m":75.1}},{"type":"Feature","geometry":{"type":"Point","coordinates":[-109.4841,23.09225]},"properties":{"depth_ft":250,"depth_m":76.3}},{"type":"Feature","geometry":{"type":"Point","coordinates":[-109.47899,23.09225]},"properties":{"depth_ft":254,"depth_m":77.4}},{"type":"Feature","geometry":{"type":"Point","coordinates":[-109.47388,23.09225]},"properties":{"depth_ft":261,"depth_m":79.5}},{"type":"Feature","geometry":{"type":"Point","coordinates":[-109.46877,23.09225]},"properties":{"depth_ft":283,"depth_m":86.1}},{"type":"Feature","geometry":{"type":"Point","coordinates":[-109.46366,23.09225]},"properties":{"depth_ft":305,"depth_m":93.0}},{"type":"Feature","geometry":{"type":"Point","coordinates":[-109.45855,23.09225]},"properties":{"depth_ft":311,"depth_m":94.9}},{"type":"Feature","geometry":{"type":"Point","coordinates":[-109.45345,23.09225]},"properties":{"depth_ft":304,"depth_m":92.8}},{"type":"Feature","geometry":{"type":"Point","coordinates":[-109.44834,23.09225]},"properties":{"depth_ft":297,"depth_m":90.5}},{"type":"Feature","geometry":{"type":"Point","coordinates":[-109.44323,23.09225]},"properties":{"depth_ft":295,"depth_m":89.8}},{"type":"Feature","geometry":{"type":"Point","coordinates":[-109.43812,23.09225]},"properties":{"depth_ft":302,"depth_m":92.0}},{"type":"Feature","geometry":{"type":"Point","coordinates":[-109.43301,23.09225]},"properties":{"depth_ft":323,"depth_m":98.5}},{"type":"Feature","geometry":{"type":"Point","coordinates":[-109.39725,23.09225]},"properties":{"depth_ft":313,"depth_m":95.3}},{"type":"Feature","geometry":{"type":"Point","coordinates":[-109.51475,23.08755]},"properties":{"depth_ft":235,"depth_m":71.8}},{"type":"Feature","geometry":{"type":"Point","coordinates":[-109.50964,23.08755]},"properties":{"depth_ft":248,"depth_m":75.5}},{"type":"Feature","geometry":{"type":"Point","coordinates":[-109.50453,23.08755]},"properties":{"depth_ft":257,"depth_m":78.3}},{"type":"Feature","geometry":{"type":"Point","coordinates":[-109.49942,23.08755]},"properties":{"depth_ft":259,"depth_m":78.9}},{"type":"Feature","geometry":{"type":"Point","coordinates":[-109.49431,23.08755]},"properties":{"depth_ft":256,"depth_m":78.0}},{"type":"Feature","geometry":{"type":"Point","coordinates":[-109.4892,23.08755]},"properties":{"depth_ft":261,"depth_m":79.5}},{"type":"Feature","geometry":{"type":"Point","coordinates":[-109.4841,23.08755]},"properties":{"depth_ft":264,"depth_m":80.6}},{"type":"Feature","geometry":{"type":"Point","coordinates":[-109.47899,23.08755]},"properties":{"depth_ft":265,"depth_m":80.7}},{"type":"Feature","geometry":{"type":"Point","coordinates":[-109.47388,23.08755]},"properties":{"depth_ft":268,"depth_m":81.6}},{"type":"Feature","geometry":{"type":"Point","coordinates":[-109.46877,23.08755]},"properties":{"depth_ft":288,"depth_m":87.8}},{"type":"Feature","geometry":{"type":"Point","coordinates":[-109.46366,23.08755]},"properties":{"depth_ft":310,"depth_m":94.5}},{"type":"Feature","geometry":{"type":"Point","coordinates":[-109.45855,23.08755]},"properties":{"depth_ft":323,"depth_m":98.5}},{"type":"Feature","geometry":{"type":"Point","coordinates":[-109.45345,23.08755]},"properties":{"depth_ft":322,"depth_m":98.1}},{"type":"Feature","geometry":{"type":"Point","coordinates":[-109.44834,23.08755]},"properties":{"depth_ft":321,"depth_m":97.9}},{"type":"Feature","geometry":{"type":"Point","coordinates":[-109.44323,23.08755]},"properties":{"depth_ft":325,"depth_m":99.1}},{"type":"Feature","geometry":{"type":"Point","coordinates":[-109.39725,23.08755]},"properties":{"depth_ft":226,"depth_m":68.9}},{"type":"Feature","geometry":{"type":"Point","coordinates":[-109.51475,23.08285]},"properties":{"depth_ft":258,"depth_m":78.6}},{"type":"Feature","geometry":{"type":"Point","coordinates":[-109.50964,23.08285]},"properties":{"depth_ft":270,"depth_m":82.3}},{"type":"Feature","geometry":{"type":"Point","coordinates":[-109.50453,23.08285]},"properties":{"depth_ft":279,"depth_m":85.1}},{"type":"Feature","geometry":{"type":"Point","coordinates":[-109.49942,23.08285]},"properties":{"depth_ft":282,"depth_m":86.1}},{"type":"Feature","geometry":{"type":"Point","coordinates":[-109.49431,23.08285]},"properties":{"depth_ft":282,"depth_m":86.0}},{"type":"Feature","geometry":{"type":"Point","coordinates":[-109.4892,23.08285]},"properties":{"depth_ft":283,"depth_m":86.4}},{"type":"Feature","geometry":{"type":"Point","coordinates":[-109.4841,23.08285]},"properties":{"depth_ft":284,"depth_m":86.5}},{"type":"Feature","geometry":{"type":"Point","coordinates":[-109.47899,23.08285]},"properties":{"depth_ft":281,"depth_m":85.5}},{"type":"Feature","geometry":{"type":"Point","coordinates":[-109.47388,23.08285]},"properties":{"depth_ft":281,"depth_m":85.7}},{"type":"Feature","geometry":{"type":"Point","coordinates":[-109.46877,23.08285]},"properties":{"depth_ft":298,"depth_m":90.7}},{"type":"Feature","geometry":{"type":"Point","coordinates":[-109.46366,23.08285]},"properties":{"depth_ft":317,"depth_m":96.6}},{"type":"Feature","geometry":{"type":"Point","coordinates":[-109.45855,23.08285]},"properties":{"depth_ft":330,"depth_m":100.6}},{"type":"Feature","geometry":{"type":"Point","coordinates":[-109.40236,23.08285]},"properties":{"depth_ft":298,"depth_m":90.8}},{"type":"Feature","geometry":{"type":"Point","coordinates":[-109.39725,23.08285]},"properties":{"depth_ft":228,"depth_m":69.5}},{"type":"Feature","geometry":{"type":"Point","coordinates":[-109.51475,23.07815]},"properties":{"depth_ft":280,"depth_m":85.4}},{"type":"Feature","geometry":{"type":"Point","coordinates":[-109.50964,23.07815]},"properties":{"depth_ft":292,"depth_m":89.0}},{"type":"Feature","geometry":{"type":"Point","coordinates":[-109.50453,23.07815]},"properties":{"depth_ft":300,"depth_m":91.5}},{"type":"Feature","geometry":{"type":"Point","coordinates":[-109.49942,23.07815]},"properties":{"depth_ft":307,"depth_m":93.6}},{"type":"Feature","geometry":{"type":"Point","coordinates":[-109.49431,23.07815]},"properties":{"depth_ft":311,"depth_m":94.9}},{"type":"Feature","geometry":{"type":"Point","coordinates":[-109.4892,23.07815]},"properties":{"depth_ft":312,"depth_m":95.0}},{"type":"Feature","geometry":{"type":"Point","coordinates":[-109.4841,23.07815]},"properties":{"depth_ft":308,"depth_m":93.7}},{"type":"Feature","geometry":{"type":"Point","coordinates":[-109.47899,23.07815]},"properties":{"depth_ft":302,"depth_m":92.0}},{"type":"Feature","geometry":{"type":"Point","coordinates":[-109.47388,23.07815]},"properties":{"depth_ft":302,"depth_m":92.1}},{"type":"Feature","geometry":{"type":"Point","coordinates":[-109.46877,23.07815]},"properties":{"depth_ft":314,"depth_m":95.7}},{"type":"Feature","geometry":{"type":"Point","coordinates":[-109.40236,23.07815]},"properties":{"depth_ft":325,"depth_m":99.1}},{"type":"Feature","geometry":{"type":"Point","coordinates":[-109.51475,23.07345]},"properties":{"depth_ft":303,"depth_m":92.3}},{"type":"Feature","geometry":{"type":"Point","coordinates":[-109.50964,23.07345]},"properties":{"depth_ft":314,"depth_m":95.8}},{"type":"Feature","geometry":{"type":"Point","coordinates":[-109.50453,23.07345]},"properties":{"depth_ft":322,"depth_m":98.2}},{"type":"Feature","geometry":{"type":"Point","coordinates":[-109.47899,23.07345]},"properties":{"depth_ft":330,"depth_m":100.6}},{"type":"Feature","geometry":{"type":"Point","coordinates":[-109.47388,23.07345]},"properties":{"depth_ft":329,"depth_m":100.2}},{"type":"Feature","geometry":{"type":"Point","coordinates":[-109.51475,23.06875]},"properties":{"depth_ft":330,"depth_m":100.7}},{"type":"Feature","geometry":{"type":"Point","coordinates":[-109.47388,23.01235]},"properties":{"depth_ft":276,"depth_m":84.0}},{"type":"Feature","geometry":{"type":"Point","coordinates":[-109.46877,23.01235]},"properties":{"depth_ft":271,"depth_m":82.7}},{"type":"Feature","geometry":{"type":"Point","coordinates":[-109.47388,23.00765]},"properties":{"depth_ft":313,"depth_m":95.3}},{"type":"Feature","geometry":{"type":"Point","coordinates":[-109.46877,23.00765]},"properties":{"depth_ft":294,"depth_m":89.5}}]}