{"type":"FeatureCollection","features":[{"type":"Feature","geometry":{"type":"Polygon","coordinates":[[[-114.82335,27.63053],[-114.82543,27.63087],[-114.83031,27.63125],[-114.83415,27.63114],[-114.83834,27.63047],[-114.84094,27.62957],[-114.84383,27.62765],[-114.84581,27.62554],[-114.8457,27.62517],[-114.84579,27.62489],[-114.84544,27.62386],[-114.84499,27.62301],[-114.84454,27.62257],[-114.84444,27.62192],[-114.84395,27.6213],[-114.84389,27.62032],[-114.84445,27.61955],[-114.8444,27.61911],[-114.84407,27.61872],[-114.84429,27.61823],[-114.84425,27.61788],[-114.84467,27.6176],[-114.8452,27.61795],[-114.8458,27.6177],[-114.84615,27.61788],[-114.84673,27.6174],[-114.84709,27.61733],[-114.84795,27.61771],[-114.84759,27.61801],[-114.84768,27.61887],[-114.84857,27.61907],[-114.84931,27.61942],[-114.84982,27.61991],[-114.85083,27.62023],[-114.8512,27.62106],[-114.85155,27.62104],[-114.85215,27.62132],[-114.85225,27.62176],[-114.85164,27.62204],[-114.85143,27.62235],[-114.85259,27.62365],[-114.85319,27.62376],[-114.85316,27.62403],[-114.85351,27.62442],[-114.85434,27.62488],[-114.85574,27.62521],[-114.85638,27.62446],[-114.8577,27.62511],[-114.85815,27.62552],[-114.85897,27.62682],[-114.86004,27.62672],[-114.86058,27.62707],[-114.86099,27.62779],[-114.86154,27.62968],[-114.86207,27.63065],[-114.86226,27.63134],[-114.86263,27.63153],[-114.8632,27.63142],[-114.86348,27.6317],[-114.86372,27.6316],[-114.86404,27.63172],[-114.86402,27.63222],[-114.86314,27.63203],[-114.86247,27.63227],[-114.86148,27.63358],[-114.86184,27.63508],[-114.86235,27.63541],[-114.86271,27.6359],[-114.86328,27.63595],[-114.86258,27.63714],[-114.86315,27.63795],[-114.86402,27.63813],[-114.86435,27.63894],[-114.86476,27.63919],[-114.86495,27.63912],[-114.86491,27.63837],[-114.8651,27.63831],[-114.86546,27.63848],[-114.8655,27.63878],[-114.86583,27.63913],[-114.86645,27.63932],[-114.86742,27.6392],[-114.8677,27.63955],[-114.86794,27.64046],[-114.86885,27.64061],[-114.86892,27.64081],[-114.86872,27.64112],[-114.86933,27.64196],[-114.86989,27.64176],[-114.87062,27.64208],[-114.871,27.64169],[-114.8711,27.64188],[-114.87208,27.64186],[-114.87225,27.64193],[-114.87231,27.64225],[-114.87216,27.64233],[-114.87233,27.64271],[-114.87258,27.64287],[-114.87294,27.64282],[-114.87388,27.64332],[-114.87414,27.64404],[-114.87401,27.64457],[-114.8738,27.64478],[-114.87398,27.64488],[-114.87393,27.64502],[-114.87366,27.64499],[-114.87357,27.6453],[-114.87396,27.64538],[-114.87401,27.64585],[-114.87372,27.64644],[-114.87324,27.64684],[-114.8738,27.64713],[-114.87376,27.64794],[-114.87322,27.64845],[-114.8724,27.64868],[-114.87188,27.64863],[-114.87169,27.64913],[-114.87185,27.64965],[-114.87166,27.64999],[-114.87146,27.65],[-114.8692,27.64792],[-114.86709,27.64635],[-114.86631,27.64617],[-114.8654,27.64627],[-114.86487,27.64607],[-114.86334,27.6444],[-114.86245,27.6443],[-114.86142,27.6439],[-114.86113,27.64343],[-114.86172,27.64313],[-114.86155,27.64192],[-114.86037,27.64075],[-114.85992,27.63977],[-114.85921,27.63904],[-114.85825,27.63859],[-114.85779,27.63768],[-114.85674,27.63775],[-114.85529,27.63807],[-114.85313,27.63898],[-114.85166,27.63997],[-114.85017,27.64159],[-114.8483,27.64477],[-114.84723,27.64816],[-114.84739,27.65048],[-114.84684,27.65236],[-114.84687,27.6555],[-114.84741,27.65727],[-114.84809,27.65726],[-114.84867,27.6576],[-114.84832,27.65839],[-114.84761,27.65881],[-114.84731,27.65921],[-114.84708,27.65985],[-114.84636,27.66378],[-114.8458,27.66548],[-114.84555,27.66716],[-114.84552,27.66942],[-114.84584,27.67241],[-114.84623,27.6744],[-114.849,27.68009],[-114.85042,27.68235],[-114.85156,27.68375],[-114.85392,27.68613],[-114.85582,27.68776],[-114.86106,27.69159],[-114.86904,27.69644],[-114.87467,27.69853],[-114.87612,27.69888],[-114.87785,27.69884],[-114.87921,27.69843],[-114.87936,27.69825],[-114.8793,27.69794],[-114.87996,27.69736],[-114.8798,27.69664],[-114.87947,27.69617],[-114.87949,27.69564],[-114.88202,27.69588],[-114.88545,27.69543],[-114.88694,27.69497],[-114.88742,27.6945],[-114.88751,27.69405],[-114.888,27.69369],[-114.88808,27.6926],[-114.88997,27.69212],[-114.89091,27.69173],[-114.8923,27.69091],[-114.89374,27.6897],[-114.8941,27.6892],[-114.89423,27.6889],[-114.89386,27.68846],[-114.89373,27.6879],[-114.89411,27.68744],[-114.89439,27.68669],[-114.89402,27.68643],[-114.894,27.68617],[-114.89339,27.68554],[-114.89286,27.68525],[-114.89278,27.68509],[-114.89291,27.68497],[-114.89252,27.6844],[-114.89308,27.68345],[-114.89285,27.68312],[-114.89302,27.68262],[-114.89354,27.68215],[-114.89352,27.6815],[-114.89314,27.68131],[-114.89311,27.68115],[-114.89332,27.681],[-114.89331,27.68079],[-114.89447,27.68083],[-114.89795,27.67969],[-114.90164,27.6764],[-114.90249,27.67485],[-114.90256,27.67359],[-114.90176,27.6728],[-114.90081,27.67282],[-114.90076,27.67246],[-114.9013,27.67246],[-114.90147,27.67184],[-114.90088,27.67098],[-114.90045,27.67001],[-114.8996,27.66896],[-114.89969,27.66864],[-114.89919,27.66824],[-114.8992,27.66809],[-114.89957,27.66798],[-114.8992,27.66757],[-114.8992,27.66716],[-114.89968,27.66725],[-114.90014,27.66692],[-114.90039,27.66646],[-114.90034,27.66606],[-114.8999,27.66545],[-114.90016,27.66509],[-114.89991,27.66459],[-114.90005,27.66428],[-114.90024,27.66416],[-114.90056,27.66439],[-114.90134,27.66447],[-114.90151,27.66506],[-114.9025,27.66617],[-114.90355,27.66604],[-114.90381,27.66575],[-114.90457,27.66538],[-114.90467,27.66602],[-114.90519,27.66658],[-114.90665,27.66686],[-114.90721,27.66681],[-114.90774,27.66644],[-114.90786,27.66611],[-114.90751,27.66549],[-114.90759,27.66536],[-114.90803,27.66588],[-114.90892,27.6665],[-114.90929,27.66647],[-114.90989,27.6667],[-114.91,27.66751],[-114.90988,27.66801],[-114.91077,27.6685],[-114.91055,27.66897],[-114.91067,27.66938],[-114.91244,27.67058],[-114.91466,27.67118],[-114.91645,27.67108],[-114.91711,27.67081],[-114.91788,27.67124],[-114.91862,27.67128],[-114.91906,27.67103],[-114.91946,27.67108],[-114.92014,27.67087],[-114.92052,27.67124],[-114.9216,27.67141],[-114.92213,27.67197],[-114.92326,27.67218],[-114.92341,27.67243],[-114.92395,27.67274],[-114.92444,27.67284],[-114.92423,27.67318],[-114.92478,27.67351],[-114.92572,27.67348],[-114.92567,27.67379],[-114.92615,27.67419],[-114.92716,27.67421],[-114.92748,27.67406],[-114.92815,27.6747],[-114.92884,27.67469],[-114.92873,27.67518],[-114.92894,27.67553],[-114.93022,27.67594],[-114.93068,27.6765],[-114.93111,27.67674],[-114.93123,27.67772],[-114.93139,27.67793],[-114.93256,27.67803],[-114.93304,27.67838],[-114.93338,27.679],[-114.933,27.68044],[-114.93326,27.68075],[-114.93337,27.68142],[-114.93384,27.68196],[-114.93339,27.6825],[-114.93366,27.6827],[-114.93439,27.68274],[-114.93453,27.68291],[-114.93447,27.68333],[-114.93404,27.68374],[-114.93408,27.68413],[-114.93375,27.68434],[-114.93366,27.68466],[-114.93321,27.68476],[-114.93303,27.68548],[-114.93403,27.68636],[-114.93536,27.68603],[-114.9354,27.68646],[-114.93592,27.68656],[-114.93609,27.68687],[-114.93732,27.68642],[-114.93756,27.6866],[-114.93751,27.68676],[-114.93701,27.687],[-114.93683,27.68739],[-114.93583,27.68755],[-114.93546,27.68817],[-114.93544,27.68911],[-114.93568,27.68977],[-114.93593,27.68992],[-114.93562,27.68988],[-114.93542,27.69018],[-114.93534,27.69117],[-114.93547,27.69161],[-114.93583,27.69183],[-114.9355,27.69209],[-114.93509,27.69212],[-114.93498,27.69254],[-114.93527,27.69319],[-114.93514,27.69466],[-114.93547,27.69481],[-114.93586,27.696],[-114.93576,27.69692],[-114.9359,27.69751],[-114.93966,27.70385],[-114.94225,27.70764],[-114.94398,27.70954],[-114.94829,27.71313],[-114.9504,27.71446],[-114.95212,27.71529],[-114.95268,27.71587],[-114.95352,27.71636],[-114.95482,27.71687],[-114.95584,27.71659],[-114.95692,27.71778],[-114.95897,27.71869],[-114.95941,27.71878],[-114.95972,27.71864],[-114.96,27.71926],[-114.96372,27.72091],[-114.96456,27.72091],[-114.96477702971629,27.721063063063063],[-114.82180331667671,27.721063063063063],[-114.82180331667671,27.630165216197337],[-114.82335,27.63053]]]},"properties":{"name":"baja-north-pacific"}},{"type":"Feature","geometry":{"type":"Polygon","coordinates":[[[-114.87474,27.65472],[-114.87472,27.65491],[-114.87514,27.65507],[-114.87546,27.656],[-114.87539,27.65628],[-114.8756,27.65637],[-114.87559,27.65652],[-114.87542,27.65654],[-114.87444,27.65551],[-114.87422,27.65481],[-114.87456,27.65464],[-114.87474,27.65472]]]},"properties":{"name":"unnamed-land"}},{"type":"Feature","geometry":{"type":"Polygon","coordinates":[[[-114.87362,27.65181],[-114.87352,27.65224],[-114.87328,27.65237],[-114.87251,27.65166],[-114.87247,27.65145],[-114.87257,27.65099],[-114.87283,27.65088],[-114.8732,27.65098],[-114.87362,27.65181]]]},"properties":{"name":"unnamed-land"}}]}