{"type":"FeatureCollection","features":[{"type":"Feature","properties":{"id":"bahia-tort-kelp-former","name":"Bahia Tortugas former kelp extent (pre-decline)","className":"Kelp Former"},"geometry":{"type":"MultiPolygon","coordinates":[[[[-114.88081,27.66603],[-114.8772,27.66285],[-114.87481,27.65755],[-114.8754078506214,27.65652723075513],[-114.87542,27.65654],[-114.87559,27.65652],[-114.8756,27.65637],[-114.87551983995584,27.65633564569536],[-114.87602,27.65548],[-114.87306,27.65343],[-114.87424,27.65236],[-114.87282,27.64983],[-114.87498,27.64699],[-114.87472,27.64409],[-114.87262,27.64185],[-114.87104045584046,27.641766866096866],[-114.871,27.64169],[-114.87093073170732,27.64176109114249],[-114.86977,27.6417],[-114.86723,27.63853],[-114.86371,27.63776],[-114.8631894972067,27.636103854748608],[-114.86328,27.63595],[-114.86313720618557,27.635937474226804],[-114.8625,27.63391],[-114.86526,27.63214],[-114.86321,27.63123],[-114.86222,27.62742],[-114.85775144579262,27.62515687283328],[-114.8577,27.62511],[-114.85638,27.62446],[-114.85637863224117,27.624461602842374],[-114.85525,27.62389],[-114.84779,27.61708],[-114.84418,27.61736],[-114.84296,27.61914],[-114.84364,27.62168],[-114.84161,27.62179],[-114.83878,27.61879],[-114.84081,27.61391],[-114.84401,27.612],[-114.84725,27.61204],[-114.86484,27.62271],[-114.86988,27.63181],[-114.86993,27.63444],[-114.87821,27.64084],[-114.88362,27.66225],[-114.88081,27.66603]]],[[[-114.88583,27.66337],[-114.8851,27.66153],[-114.88648,27.6614],[-114.88583,27.66337]]],[[[-114.88862475806452,27.692461648745518],[-114.88808,27.6926],[-114.88800174130995,27.69366627465207],[-114.88668,27.69391],[-114.88671,27.69153],[-114.88908,27.69145],[-114.88862475806452,27.692461648745518]]],[[[-114.89368234225621,27.680802839388143],[-114.89331,27.68079],[-114.89332,27.681],[-114.89311,27.68115],[-114.89314,27.68131],[-114.89324850356294,27.681364251781474],[-114.89258160947838,27.684295483920614],[-114.89252,27.6844],[-114.8925483903482,27.684441493585823],[-114.89246,27.68483],[-114.89018,27.68336],[-114.89004,27.67908],[-114.89335,27.6788],[-114.89483,27.68002],[-114.89368234225621,27.680802839388143]]],[[[-114.9425,27.6801],[-114.9404,27.68006],[-114.93735,27.68256],[-114.94419,27.68978],[-114.93963,27.68937],[-114.93647,27.69151],[-114.93596,27.68859],[-114.93821,27.68682],[-114.93753593250445,27.686677015985794],[-114.93756,27.6866],[-114.93732,27.68642],[-114.93695456521739,27.686553695652172],[-114.93537759884975,27.686219187634794],[-114.93536,27.68603],[-114.93495704950494,27.68612998019802],[-114.93392,27.68591],[-114.93512,27.6835],[-114.93426,27.67884],[-114.92855,27.67351],[-114.92045,27.67027],[-114.91519,27.67004],[-114.91349,27.66523],[-114.91201,27.66814],[-114.90803,27.66459],[-114.90669,27.66588],[-114.90477,27.66451],[-114.90264,27.66556],[-114.90134756971747,27.664496271372407],[-114.90134,27.66447],[-114.90131218365553,27.664467147041595],[-114.90021,27.66356],[-114.89838,27.66766],[-114.89595,27.6645],[-114.89728,27.66088],[-114.89991,27.65889],[-114.90261,27.65892],[-114.90541,27.66134],[-114.90541,27.65735],[-114.91291,27.65798],[-114.91438,27.65939],[-114.91338,27.66218],[-114.92322,27.66248],[-114.92432,27.66414],[-114.92354,27.66644],[-114.93012,27.66609],[-114.93231,27.66959],[-114.93555,27.66834],[-114.94451,27.67399],[-114.9425,27.6801]]],[[[-114.90095624203822,27.67246],[-114.90076,27.67246],[-114.90081,27.67282],[-114.90117835836698,27.672812245087012],[-114.90223,27.67448],[-114.89903,27.6736],[-114.89796,27.67178],[-114.90025,27.67134],[-114.90095624203822,27.67246]]],[[[-114.90064,27.67694],[-114.89771,27.67954],[-114.89663,27.67744],[-114.90004,27.67447],[-114.90064,27.67694]]],[[[-114.94932,27.70565],[-114.94703,27.70623],[-114.9446,27.69976],[-114.94944,27.70331],[-114.94932,27.70565]]],[[[-114.94483,27.69458],[-114.9447,27.69356],[-114.94548,27.69342],[-114.94483,27.69458]]],[[[-114.94984,27.70171],[-114.94759,27.70064],[-114.94877,27.69859],[-114.95042,27.6998],[-114.94984,27.70171]]],[[[-114.95153,27.70716],[-114.95052,27.70661],[-114.9511,27.70566],[-114.95153,27.70716]]],[[[-114.95394,27.71204],[-114.95351,27.71048],[-114.95456,27.71033],[-114.95394,27.71204]]],[[[-114.96037,27.71452],[-114.95865,27.715],[-114.95903,27.71262],[-114.96037,27.71452]]],[[[-114.96352,27.71654],[-114.961,27.71543],[-114.96219,27.71449],[-114.96352,27.71654]]]]}},{"type":"Feature","properties":{"id":"bahia-tort-kelp-canopy","name":"Bahia Tortugas recent kelp canopy","className":"Kelp Canopy"},"geometry":{"type":"MultiPolygon","coordinates":[[[[-114.91518,27.6635],[-114.91487,27.6635],[-114.91518,27.66323],[-114.91518,27.6635]]],[[[-114.91577,27.66405],[-114.91547,27.66324],[-114.91639,27.66324],[-114.91669,27.66379],[-114.91577,27.66405]]],[[[-114.91573,27.66594],[-114.91543,27.66594],[-114.91573,27.66567],[-114.91573,27.66594]]],[[[-114.92908,27.66777],[-114.92907,27.66831],[-114.92847,27.66776],[-114.92908,27.66777]]],[[[-114.92998,27.66833],[-114.92998,27.66806],[-114.93028,27.66833],[-114.92998,27.66833]]],[[[-114.91536,27.66973],[-114.91506,27.66919],[-114.91628,27.6692],[-114.91596,27.66974],[-114.91536,27.66973]]],[[[-114.93843,27.6717],[-114.93813,27.6717],[-114.93843,27.67143],[-114.93843,27.6717]]],[[[-114.92776,27.67316],[-114.92746,27.67316],[-114.92776,27.67289],[-114.92776,27.67316]]],[[[-114.94022,27.67335],[-114.94083,27.67336],[-114.94083,27.6739],[-114.94022,27.67389],[-114.94022,27.67335]]],[[[-114.94203,27.67446],[-114.94203,27.67419],[-114.94234,27.67446],[-114.94203,27.67446]]],[[[-114.9405,27.67498],[-114.94112,27.67391],[-114.94203,27.67392],[-114.94141,27.67445],[-114.94141,27.67526],[-114.9405,27.67498]]],[[[-114.94089,27.6869],[-114.93997,27.68661],[-114.93996,27.68742],[-114.93905,27.68741],[-114.93937,27.68633],[-114.93876,27.6866],[-114.93816,27.68604],[-114.93664,27.68602],[-114.93636,27.68493],[-114.93544,27.68492],[-114.93543,27.68573],[-114.93422,27.68545],[-114.93514,27.68492],[-114.93546,27.68411],[-114.93518,27.68248],[-114.93552,27.68113],[-114.93462,27.68058],[-114.93465,27.67841],[-114.93436,27.67759],[-114.93376,27.67759],[-114.93377,27.67704],[-114.93255,27.6773],[-114.93256,27.67648],[-114.93196,27.67621],[-114.93168,27.67512],[-114.93017,27.67456],[-114.93048,27.67402],[-114.92987,27.67428],[-114.92989,27.67319],[-114.92808,27.67262],[-114.92685,27.67315],[-114.92626,27.67206],[-114.92505,27.67177],[-114.92506,27.67123],[-114.92384,27.67121],[-114.92385,27.67067],[-114.92325,27.67039],[-114.92112,27.67063],[-114.92053,27.66953],[-114.91808,27.67059],[-114.91779,27.66949],[-114.91688,27.66975],[-114.91599,27.66812],[-114.91661,27.66786],[-114.91632,27.66703],[-114.9157,27.66784],[-114.9154,27.6673],[-114.91602,27.66703],[-114.91602,27.66649],[-114.91754,27.66678],[-114.91726,27.66543],[-114.91847,27.66571],[-114.91758,27.66435],[-114.91913,27.66329],[-114.91914,27.66275],[-114.92096,27.66277],[-114.92247,27.66334],[-114.92336,27.6647],[-114.92304,27.66551],[-114.92212,27.66577],[-114.9221,27.66685],[-114.9227,27.66741],[-114.92422,27.66742],[-114.92422,27.66689],[-114.92484,27.66689],[-114.92695,27.66747],[-114.92724,27.66829],[-114.92785,27.66829],[-114.92751,27.66991],[-114.92812,27.66992],[-114.92841,27.67074],[-114.92933,27.67075],[-114.92876,27.66858],[-114.93059,27.66833],[-114.93114,27.67132],[-114.93052,27.67158],[-114.93051,27.67212],[-114.93174,27.67187],[-114.93176,27.67052],[-114.93237,27.67026],[-114.93449,27.67083],[-114.93448,27.67137],[-114.9351,27.67057],[-114.93571,27.67057],[-114.93752,27.67141],[-114.9387,27.67332],[-114.94021,27.67389],[-114.94018,27.67552],[-114.94077,27.67633],[-114.94043,27.67822],[-114.94073,27.67904],[-114.93888,27.68037],[-114.93767,27.67954],[-114.93795,27.68117],[-114.9364,27.68223],[-114.93669,27.68331],[-114.93607,27.68358],[-114.93759,27.68387],[-114.93848,27.68524],[-114.93939,27.68525],[-114.93967,27.68634],[-114.94119,27.68636],[-114.94089,27.6869]],[[-114.92989,27.67266],[-114.9299,27.67266],[-114.92989,27.67265],[-114.92989,27.67266]],[[-114.9299,27.67212],[-114.92991,27.67212],[-114.9299,27.67211],[-114.9299,27.67212]],[[-114.92749,27.67154],[-114.92749,27.67153],[-114.92748,27.67154],[-114.92749,27.67154]],[[-114.92535,27.67151],[-114.92536,27.67151],[-114.92535,27.6715],[-114.92535,27.67151]],[[-114.92536,27.67097],[-114.92537,27.67097],[-114.92536,27.67096],[-114.92536,27.67097]],[[-114.92448,27.66959],[-114.92477,27.67014],[-114.92539,27.66961],[-114.92448,27.66959]],[[-114.92541,27.66853],[-114.92542,27.66853],[-114.92541,27.66852],[-114.92541,27.66853]],[[-114.93695,27.68576],[-114.93695,27.68575],[-114.93694,27.68576],[-114.93695,27.68576]],[[-114.93696,27.68549],[-114.93696,27.68548],[-114.93695,27.68549],[-114.93696,27.68549]],[[-114.93697,27.68495],[-114.93697,27.68494],[-114.93696,27.68495],[-114.93697,27.68495]],[[-114.93576,27.68438],[-114.93575,27.68438],[-114.93576,27.68439],[-114.93576,27.68438]],[[-114.93557,27.67843],[-114.93557,27.67842],[-114.93556,27.67843],[-114.93557,27.67843]],[[-114.93563,27.67518],[-114.93563,27.67517],[-114.93562,27.67518],[-114.93563,27.67518]],[[-114.93565,27.67437],[-114.93565,27.67436],[-114.93564,27.67437],[-114.93565,27.67437]],[[-114.93535,27.67355],[-114.93566,27.67356],[-114.93536,27.67301],[-114.93535,27.67355]],[[-114.93538,27.67246],[-114.93537,27.67246],[-114.93538,27.67247],[-114.93538,27.67246]],[[-114.93539,27.67193],[-114.93539,27.67192],[-114.93538,27.67193],[-114.93539,27.67193]],[[-114.93541,27.67085],[-114.93541,27.67084],[-114.9354,27.67085],[-114.93541,27.67085]],[[-114.9383,27.67873],[-114.93829,27.67873],[-114.9383,27.67874],[-114.9383,27.67873]],[[-114.93832,27.67792],[-114.93831,27.67792],[-114.93832,27.67793],[-114.93832,27.67792]],[[-114.93684,27.67573],[-114.93683,27.67573],[-114.93684,27.67574],[-114.93684,27.67573]],[[-114.93685,27.67492],[-114.93684,27.67492],[-114.93685,27.67493],[-114.93685,27.67492]],[[-114.93691,27.67167],[-114.9369,27.67167],[-114.93691,27.67168],[-114.93691,27.67167]],[[-114.9395,27.6793],[-114.93951,27.6793],[-114.9395,27.67929],[-114.9395,27.6793]],[[-114.93929,27.67469],[-114.93837,27.67495],[-114.93958,27.6755],[-114.93929,27.67469]],[[-114.93837,27.67467],[-114.93837,27.67468],[-114.93838,27.67467],[-114.93837,27.67467]],[[-114.94017,27.67633],[-114.94017,27.67632],[-114.94016,27.67633],[-114.94017,27.67633]],[[-114.93929,27.67442],[-114.9396,27.67443],[-114.93929,27.67415],[-114.93929,27.67442]],[[-114.93899,27.67414],[-114.93899,27.67415],[-114.939,27.67414],[-114.93899,27.67414]],[[-114.93838,27.67413],[-114.93838,27.67414],[-114.93839,27.67413],[-114.93838,27.67413]],[[-114.93865,27.67576],[-114.93865,27.67577],[-114.93866,27.67576],[-114.93865,27.67576]],[[-114.93925,27.67605],[-114.93926,27.67605],[-114.93925,27.67604],[-114.93925,27.67605]],[[-114.93927,27.67578],[-114.93927,27.67577],[-114.93926,27.67578],[-114.93927,27.67578]],[[-114.93865,27.67631],[-114.93865,27.6763],[-114.93864,27.67631],[-114.93865,27.67631]],[[-114.93984,27.67767],[-114.93983,27.67767],[-114.93984,27.67768],[-114.93984,27.67767]],[[-114.93984,27.67713],[-114.93984,27.67714],[-114.93985,27.67713],[-114.93984,27.67713]],[[-114.93863,27.67711],[-114.93863,27.67712],[-114.93864,27.67711],[-114.93863,27.67711]],[[-114.94046,27.67661],[-114.94047,27.67661],[-114.94046,27.6766],[-114.94046,27.67661]],[[-114.93924,27.67686],[-114.93925,27.67686],[-114.93924,27.67685],[-114.93924,27.67686]],[[-114.93986,27.67687],[-114.93986,27.67686],[-114.93985,27.67687],[-114.93986,27.67687]],[[-114.94044,27.67742],[-114.94045,27.67742],[-114.94044,27.67741],[-114.94044,27.67742]],[[-114.93923,27.6774],[-114.93924,27.6774],[-114.93923,27.67739],[-114.93923,27.6774]],[[-114.94046,27.67715],[-114.94046,27.67714],[-114.94045,27.67715],[-114.94046,27.67715]],[[-114.93951,27.67848],[-114.93951,27.67849],[-114.93952,27.67848],[-114.93951,27.67848]],[[-114.93891,27.67821],[-114.93892,27.67821],[-114.93891,27.6782],[-114.93891,27.67821]],[[-114.93888,27.67983],[-114.93889,27.67983],[-114.93888,27.67982],[-114.93888,27.67983]],[[-114.93781,27.67278],[-114.93781,27.67277],[-114.9378,27.67278],[-114.93781,27.67278]],[[-114.93716,27.67411],[-114.93716,27.67412],[-114.93717,27.67411],[-114.93716,27.67411]],[[-114.93717,27.67358],[-114.93718,27.67358],[-114.93717,27.67357],[-114.93717,27.67358]],[[-114.9378,27.67305],[-114.9378,27.67304],[-114.93779,27.67305],[-114.9378,27.67305]],[[-114.93719,27.6733],[-114.93718,27.6733],[-114.93719,27.67331],[-114.93719,27.6733]],[[-114.93779,27.67359],[-114.93779,27.67358],[-114.93778,27.67359],[-114.93779,27.67359]],[[-114.93778,27.67385],[-114.93777,27.67385],[-114.93778,27.67386],[-114.93778,27.67385]],[[-114.93803,27.67629],[-114.93803,27.6763],[-114.93804,27.67629],[-114.93803,27.67629]],[[-114.93712,27.67655],[-114.93712,27.67656],[-114.93713,27.67655],[-114.93712,27.67655]],[[-114.93743,27.67602],[-114.93744,27.67602],[-114.93743,27.67601],[-114.93743,27.67602]],[[-114.93806,27.67549],[-114.93806,27.67548],[-114.93805,27.67549],[-114.93806,27.67549]],[[-114.93805,27.67603],[-114.93805,27.67602],[-114.93804,27.67603],[-114.93805,27.67603]],[[-114.93803,27.67711],[-114.93803,27.6771],[-114.93802,27.67711],[-114.93803,27.67711]],[[-114.93712,27.67683],[-114.93712,27.67682],[-114.93711,27.67683],[-114.93712,27.67683]],[[-114.93711,27.67737],[-114.93711,27.67736],[-114.9371,27.67737],[-114.93711,27.67737]],[[-114.93908,27.68551],[-114.93908,27.68552],[-114.93909,27.68551],[-114.93908,27.68551]],[[-114.93847,27.6855],[-114.93847,27.68551],[-114.93848,27.6855],[-114.93847,27.6855]],[[-114.93675,27.67979],[-114.93675,27.6798],[-114.93676,27.67979],[-114.93675,27.67979]],[[-114.93677,27.67898],[-114.93677,27.67899],[-114.93678,27.67898],[-114.93677,27.67898]],[[-114.93768,27.67872],[-114.93768,27.67873],[-114.93769,27.67872],[-114.93768,27.67872]],[[-114.93709,27.67818],[-114.9371,27.67818],[-114.93709,27.67817],[-114.93709,27.67818]],[[-114.93771,27.67792],[-114.93771,27.67791],[-114.9377,27.67792],[-114.93771,27.67792]],[[-114.9377,27.67846],[-114.9377,27.67845],[-114.93769,27.67846],[-114.9377,27.67846]],[[-114.93798,27.67928],[-114.93799,27.67928],[-114.93798,27.67927],[-114.93798,27.67928]],[[-114.93737,27.67927],[-114.93738,27.67927],[-114.93737,27.67926],[-114.93737,27.67927]],[[-114.93703,27.68089],[-114.93704,27.68089],[-114.93703,27.68088],[-114.93703,27.68089]],[[-114.93729,27.68414],[-114.93729,27.68413],[-114.93728,27.68414],[-114.93729,27.68414]],[[-114.93788,27.68496],[-114.93788,27.68495],[-114.93787,27.68496],[-114.93788,27.68496]],[[-114.93756,27.68577],[-114.93756,27.68576],[-114.93755,27.68577],[-114.93756,27.68577]],[[-114.93597,27.67275],[-114.93598,27.67275],[-114.93597,27.67274],[-114.93597,27.67275]],[[-114.93631,27.67139],[-114.9363,27.67139],[-114.93631,27.6714],[-114.93631,27.67139]],[[-114.9366,27.67222],[-114.9366,27.67221],[-114.93659,27.67222],[-114.9366,27.67222]],[[-114.93598,27.67221],[-114.93599,27.67221],[-114.93598,27.6722],[-114.93598,27.67221]],[[-114.936,27.67194],[-114.936,27.67193],[-114.93599,27.67194],[-114.936,27.67194]],[[-114.93659,27.67248],[-114.93658,27.67248],[-114.93659,27.67249],[-114.93659,27.67248]],[[-114.93657,27.6733],[-114.93658,27.6733],[-114.93657,27.67329],[-114.93657,27.6733]],[[-114.93625,27.67464],[-114.93624,27.67464],[-114.93625,27.67465],[-114.93625,27.67464]],[[-114.93593,27.67545],[-114.93592,27.67545],[-114.93593,27.67546],[-114.93593,27.67545]],[[-114.93589,27.67707],[-114.93589,27.67708],[-114.9359,27.67707],[-114.93589,27.67707]],[[-114.93652,27.67655],[-114.93652,27.67654],[-114.93651,27.67655],[-114.93652,27.67655]],[[-114.93591,27.6768],[-114.9359,27.6768],[-114.93591,27.67681],[-114.93591,27.6768]],[[-114.93651,27.67709],[-114.93651,27.67708],[-114.9365,27.67709],[-114.93651,27.67709]],[[-114.9365,27.67735],[-114.93649,27.67735],[-114.9365,27.67736],[-114.9365,27.67735]],[[-114.93643,27.68114],[-114.93642,27.68114],[-114.93643,27.68115],[-114.93643,27.68114]],[[-114.93582,27.68113],[-114.93581,27.68113],[-114.93582,27.68114],[-114.93582,27.68113]],[[-114.93617,27.67871],[-114.93617,27.6787],[-114.93616,27.67871],[-114.93617,27.67871]],[[-114.93616,27.67951],[-114.93615,27.67951],[-114.93616,27.67952],[-114.93616,27.67951]],[[-114.93644,27.68034],[-114.93645,27.68034],[-114.93644,27.68033],[-114.93644,27.68034]],[[-114.93583,27.68033],[-114.93584,27.68033],[-114.93583,27.68032],[-114.93583,27.68033]],[[-114.93583,27.68087],[-114.93583,27.68086],[-114.93582,27.68087],[-114.93583,27.68087]],[[-114.93609,27.68277],[-114.9361,27.68277],[-114.93609,27.68276],[-114.93609,27.68277]],[[-114.93611,27.68196],[-114.93611,27.68195],[-114.9361,27.68196],[-114.93611,27.68196]],[[-114.93349,27.67595],[-114.93348,27.67595],[-114.93349,27.67596],[-114.93349,27.67595]],[[-114.9335,27.67514],[-114.93349,27.67514],[-114.9335,27.67515],[-114.9335,27.67514]],[[-114.93324,27.67324],[-114.93323,27.67324],[-114.93324,27.67325],[-114.93324,27.67324]],[[-114.93325,27.67243],[-114.93324,27.67243],[-114.93325,27.67244],[-114.93325,27.67243]],[[-114.93327,27.67162],[-114.93326,27.67162],[-114.93327,27.67163],[-114.93327,27.67162]],[[-114.93265,27.67161],[-114.93265,27.67162],[-114.93266,27.67161],[-114.93265,27.67161]],[[-114.93531,27.67572],[-114.93532,27.67572],[-114.93531,27.67571],[-114.93531,27.67572]],[[-114.9347,27.67571],[-114.93471,27.67571],[-114.9347,27.6757],[-114.9347,27.67571]],[[-114.93507,27.67274],[-114.93506,27.673],[-114.93537,27.67274],[-114.93507,27.67274]],[[-114.93507,27.67273],[-114.93507,27.67246],[-114.93476,27.67273],[-114.93507,27.67273]],[[-114.93385,27.67299],[-114.93385,27.67298],[-114.93384,27.67299],[-114.93385,27.67299]],[[-114.93358,27.67109],[-114.93358,27.67108],[-114.93357,27.67109],[-114.93358,27.67109]],[[-114.93417,27.67191],[-114.93416,27.67218],[-114.93447,27.67191],[-114.93417,27.67191]],[[-114.93418,27.67137],[-114.93418,27.67136],[-114.93417,27.67137],[-114.93418,27.67137]],[[-114.93478,27.67219],[-114.93478,27.67218],[-114.93477,27.67219],[-114.93478,27.67219]],[[-114.93352,27.67433],[-114.93351,27.67433],[-114.93352,27.67434],[-114.93352,27.67433]],[[-114.93383,27.67352],[-114.93383,27.67353],[-114.93384,27.67352],[-114.93383,27.67352]],[[-114.93382,27.6738],[-114.93383,27.6738],[-114.93382,27.67379],[-114.93382,27.6738]],[[-114.93444,27.67327],[-114.93445,27.67327],[-114.93444,27.67326],[-114.93444,27.67327]],[[-114.93446,27.673],[-114.93446,27.67299],[-114.93445,27.673],[-114.93446,27.673]],[[-114.93443,27.67381],[-114.93444,27.67381],[-114.93443,27.6738],[-114.93443,27.67381]],[[-114.93502,27.67489],[-114.93502,27.6749],[-114.93503,27.67489],[-114.93502,27.67489]],[[-114.93411,27.67462],[-114.93412,27.67462],[-114.93411,27.67461],[-114.93411,27.67462]],[[-114.93471,27.67544],[-114.93472,27.67544],[-114.93471,27.67543],[-114.93471,27.67544]],[[-114.93498,27.67733],[-114.93497,27.67733],[-114.93498,27.67734],[-114.93498,27.67733]],[[-114.93468,27.67651],[-114.93468,27.67652],[-114.93469,27.67651],[-114.93468,27.67651]],[[-114.93469,27.67625],[-114.9347,27.67625],[-114.93469,27.67624],[-114.93469,27.67625]],[[-114.93531,27.67599],[-114.93531,27.67598],[-114.9353,27.67599],[-114.93531,27.67599]],[[-114.93529,27.6768],[-114.9353,27.6768],[-114.93529,27.67679],[-114.93529,27.6768]],[[-114.93437,27.67706],[-114.93438,27.67706],[-114.93437,27.67705],[-114.93437,27.67706]],[[-114.93437,27.67733],[-114.93437,27.67732],[-114.93436,27.67733],[-114.93437,27.67733]],[[-114.93496,27.67815],[-114.93497,27.67815],[-114.93496,27.67814],[-114.93496,27.67815]],[[-114.93523,27.67978],[-114.93524,27.67978],[-114.93523,27.67977],[-114.93523,27.67978]],[[-114.93523,27.68058],[-114.93522,27.68058],[-114.93523,27.68059],[-114.93523,27.68058]],[[-114.93297,27.6708],[-114.93297,27.67081],[-114.93298,27.6708],[-114.93297,27.6708]],[[-114.93204,27.67134],[-114.93205,27.67134],[-114.93204,27.67133],[-114.93204,27.67134]],[[-114.92964,27.67021],[-114.92963,27.67021],[-114.92964,27.67022],[-114.92964,27.67021]],[[-114.93025,27.67022],[-114.93024,27.67022],[-114.93025,27.67023],[-114.93025,27.67022]],[[-114.92996,27.66886],[-114.92996,27.66887],[-114.92997,27.66886],[-114.92996,27.66886]],[[-114.92996,27.66941],[-114.92996,27.6694],[-114.92995,27.66941],[-114.92996,27.66941]],[[-114.93083,27.67132],[-114.93084,27.67132],[-114.93083,27.67131],[-114.93083,27.67132]],[[-114.93022,27.67131],[-114.93023,27.67131],[-114.93022,27.6713],[-114.93022,27.67131]],[[-114.93231,27.67378],[-114.93231,27.67377],[-114.9323,27.67378],[-114.93231,27.67378]],[[-114.93049,27.67375],[-114.93049,27.67374],[-114.93048,27.67375],[-114.93049,27.67375]],[[-114.93203,27.67268],[-114.93202,27.67268],[-114.93203,27.67269],[-114.93203,27.67268]],[[-114.93264,27.67215],[-114.93264,27.67216],[-114.93265,27.67215],[-114.93264,27.67215]],[[-114.93203,27.67214],[-114.93203,27.67215],[-114.93204,27.67214],[-114.93203,27.67214]],[[-114.93111,27.6724],[-114.93111,27.67241],[-114.93112,27.6724],[-114.93111,27.6724]],[[-114.9305,27.67239],[-114.9305,27.6724],[-114.93051,27.67239],[-114.9305,27.67239]],[[-114.93263,27.67243],[-114.93264,27.67243],[-114.93263,27.67242],[-114.93263,27.67243]],[[-114.9311,27.67321],[-114.9311,27.67322],[-114.93111,27.67321],[-114.9311,27.67321]],[[-114.93262,27.67297],[-114.93263,27.67297],[-114.93262,27.67296],[-114.93262,27.67297]],[[-114.93201,27.67296],[-114.93202,27.67296],[-114.93201,27.67295],[-114.93201,27.67296]],[[-114.93049,27.67321],[-114.9305,27.67321],[-114.93049,27.6732],[-114.93049,27.67321]],[[-114.9317,27.6735],[-114.93171,27.6735],[-114.9317,27.67349],[-114.9317,27.6735]],[[-114.9329,27.67486],[-114.93289,27.67486],[-114.9329,27.67487],[-114.9329,27.67486]],[[-114.93108,27.67403],[-114.93109,27.67403],[-114.93108,27.67402],[-114.93108,27.67403]],[[-114.93229,27.67459],[-114.9323,27.67459],[-114.93229,27.67458],[-114.93229,27.67459]],[[-114.93197,27.6754],[-114.93198,27.6754],[-114.93197,27.67539],[-114.93197,27.6754]],[[-114.93257,27.67622],[-114.93257,27.67621],[-114.93256,27.67622],[-114.93257,27.67622]],[[-114.93317,27.67676],[-114.93316,27.67676],[-114.93317,27.67677],[-114.93317,27.67676]],[[-114.92543,27.66745],[-114.92544,27.66745],[-114.92543,27.66744],[-114.92543,27.66745]],[[-114.92722,27.66991],[-114.92722,27.6699],[-114.92721,27.66991],[-114.92722,27.66991]],[[-114.92569,27.67016],[-114.92569,27.67015],[-114.92568,27.67016],[-114.92569,27.67016]],[[-114.92663,27.66881],[-114.92662,27.66881],[-114.92663,27.66882],[-114.92663,27.66881]],[[-114.92604,27.66773],[-114.92604,27.66772],[-114.92603,27.66773],[-114.92604,27.66773]],[[-114.92543,27.66772],[-114.92543,27.66771],[-114.92542,27.66772],[-114.92543,27.66772]],[[-114.92602,27.66854],[-114.92603,27.66854],[-114.92602,27.66853],[-114.92602,27.66854]],[[-114.92631,27.66935],[-114.92631,27.66936],[-114.92632,27.66935],[-114.92631,27.66935]],[[-114.92722,27.6691],[-114.92723,27.6691],[-114.92722,27.66909],[-114.92722,27.6691]],[[-114.9257,27.66908],[-114.92571,27.66908],[-114.9257,27.66907],[-114.9257,27.66908]],[[-114.9263,27.66963],[-114.92631,27.66963],[-114.9263,27.66962],[-114.9263,27.66963]],[[-114.92937,27.66858],[-114.92936,27.66858],[-114.92937,27.66859],[-114.92937,27.66858]],[[-114.92936,27.66913],[-114.92936,27.66912],[-114.92935,27.66913],[-114.92936,27.66913]],[[-114.9281,27.671],[-114.9281,27.67101],[-114.92811,27.671],[-114.9281,27.671]],[[-114.9275,27.67099],[-114.92749,27.67099],[-114.9275,27.671],[-114.9275,27.67099]],[[-114.92811,27.67046],[-114.92811,27.67047],[-114.92812,27.67046],[-114.92811,27.67046]],[[-114.92628,27.67043],[-114.92628,27.67044],[-114.92629,27.67043],[-114.92628,27.67043]],[[-114.92629,27.67017],[-114.9263,27.67017],[-114.92629,27.67016],[-114.92629,27.67017]],[[-114.9275,27.67073],[-114.92751,27.67073],[-114.9275,27.67072],[-114.9275,27.67073]],[[-114.92689,27.67072],[-114.9269,27.67072],[-114.92689,27.67071],[-114.92689,27.67072]],[[-114.9287,27.67128],[-114.9287,27.67129],[-114.92871,27.67128],[-114.9287,27.67128]],[[-114.92809,27.67127],[-114.92809,27.67128],[-114.9281,27.67127],[-114.92809,27.67127]],[[-114.92688,27.67125],[-114.92688,27.67126],[-114.92689,27.67125],[-114.92688,27.67125]],[[-114.92596,27.67124],[-114.92596,27.67125],[-114.92597,27.67124],[-114.92596,27.67124]],[[-114.92962,27.67103],[-114.92963,27.67103],[-114.92962,27.67102],[-114.92962,27.67103]],[[-114.92687,27.67153],[-114.92688,27.67153],[-114.92687,27.67152],[-114.92687,27.67153]],[[-114.9293,27.67237],[-114.92929,27.67237],[-114.9293,27.67238],[-114.9293,27.67237]],[[-114.92869,27.67236],[-114.92868,27.67236],[-114.92869,27.67237],[-114.92869,27.67236]],[[-114.9293,27.67183],[-114.9293,27.67184],[-114.92931,27.67183],[-114.9293,27.67183]],[[-114.92869,27.6721],[-114.9287,27.6721],[-114.92869,27.67209],[-114.92869,27.6721]],[[-114.92808,27.67208],[-114.92808,27.67209],[-114.92809,27.67208],[-114.92808,27.67208]],[[-114.92656,27.67206],[-114.92656,27.67207],[-114.92657,27.67206],[-114.92656,27.67206]],[[-114.92747,27.67181],[-114.92748,27.67181],[-114.92747,27.6718],[-114.92747,27.67181]],[[-114.92716,27.67235],[-114.92717,27.67235],[-114.92716,27.67234],[-114.92716,27.67235]],[[-114.92655,27.67234],[-114.92656,27.67234],[-114.92655,27.67233],[-114.92655,27.67234]],[[-114.92928,27.67265],[-114.92929,27.67265],[-114.92928,27.67264],[-114.92928,27.67265]],[[-114.91874,27.66789],[-114.91874,27.66788],[-114.91873,27.66789],[-114.91874,27.66789]],[[-114.91815,27.66679],[-114.91814,27.66679],[-114.91815,27.6668],[-114.91815,27.66679]],[[-114.91693,27.66704],[-114.91692,27.66704],[-114.91693,27.66705],[-114.91693,27.66704]],[[-114.92147,27.66819],[-114.92146,27.66819],[-114.92147,27.6682],[-114.92147,27.66819]],[[-114.92149,27.66738],[-114.92148,27.66738],[-114.92149,27.66739],[-114.92149,27.66738]],[[-114.9206,27.66548],[-114.92122,27.66521],[-114.92062,27.66494],[-114.9206,27.66548]],[[-114.92002,27.66411],[-114.92002,27.66412],[-114.92003,27.66411],[-114.92002,27.66411]],[[-114.91941,27.6641],[-114.91941,27.66411],[-114.91942,27.6641],[-114.91941,27.6641]],[[-114.92481,27.66798],[-114.92482,27.66798],[-114.92481,27.66797],[-114.92481,27.66798]],[[-114.9242,27.66797],[-114.92421,27.66797],[-114.9242,27.66796],[-114.9242,27.66797]],[[-114.92156,27.66332],[-114.92155,27.66332],[-114.92156,27.66333],[-114.92156,27.66332]],[[-114.92155,27.66414],[-114.92155,27.66413],[-114.92154,27.66414],[-114.92155,27.66414]],[[-114.92243,27.66523],[-114.92243,27.66524],[-114.92244,27.66523],[-114.92243,27.66523]],[[-114.92182,27.66522],[-114.92182,27.66523],[-114.92183,27.66522],[-114.92182,27.66522]],[[-114.92274,27.6647],[-114.92275,27.6647],[-114.92274,27.66469],[-114.92274,27.6647]],[[-114.92184,27.66496],[-114.92184,27.66495],[-114.92183,27.66496],[-114.92184,27.66496]],[[-114.92181,27.66577],[-114.92182,27.66577],[-114.92181,27.66576],[-114.92181,27.66577]],[[-114.92181,27.66658],[-114.92181,27.66657],[-114.9218,27.66658],[-114.92181,27.66658]],[[-114.92482,27.66743],[-114.92482,27.66744],[-114.92483,27.66743],[-114.92482,27.66743]],[[-114.92421,27.66769],[-114.92421,27.6677],[-114.92422,27.66769],[-114.92421,27.66769]],[[-114.9236,27.66768],[-114.9236,27.66769],[-114.92361,27.66768],[-114.9236,27.66768]],[[-114.92208,27.66766],[-114.92208,27.66767],[-114.92209,27.66766],[-114.92208,27.66766]],[[-114.92484,27.66717],[-114.92484,27.66716],[-114.92483,27.66717],[-114.92484,27.66717]],[[-114.92268,27.66795],[-114.92269,27.66795],[-114.92268,27.66794],[-114.92268,27.66795]],[[-114.92357,27.66986],[-114.92357,27.66985],[-114.92356,27.66986],[-114.92357,27.66986]],[[-114.92296,27.66985],[-114.92296,27.66984],[-114.92295,27.66985],[-114.92296,27.66985]],[[-114.92174,27.6701],[-114.92174,27.67009],[-114.92173,27.6701],[-114.92174,27.6701]],[[-114.9245,27.66878],[-114.92449,27.66878],[-114.9245,27.66879],[-114.9245,27.66878]],[[-114.92328,27.66903],[-114.92327,27.66903],[-114.92328,27.66904],[-114.92328,27.66903]],[[-114.92176,27.66901],[-114.92175,27.66901],[-114.92176,27.66902],[-114.92176,27.66901]],[[-114.92389,27.6685],[-114.92389,27.66851],[-114.9239,27.6685],[-114.92389,27.6685]],[[-114.92267,27.66876],[-114.92268,27.66876],[-114.92267,27.66875],[-114.92267,27.66876]],[[-114.92387,27.66931],[-114.92387,27.66932],[-114.92388,27.66931],[-114.92387,27.66931]],[[-114.92235,27.66956],[-114.92235,27.66957],[-114.92236,27.66956],[-114.92235,27.66956]],[[-114.92509,27.66907],[-114.9251,27.66907],[-114.92509,27.66906],[-114.92509,27.66907]],[[-114.92175,27.66983],[-114.92175,27.66982],[-114.92174,27.66983],[-114.92175,27.66983]],[[-114.92416,27.67014],[-114.92417,27.67014],[-114.92416,27.67013],[-114.92416,27.67014]],[[-114.92355,27.67013],[-114.92356,27.67013],[-114.92355,27.67012],[-114.92355,27.67013]],[[-114.92234,27.67011],[-114.92235,27.67011],[-114.92234,27.6701],[-114.92234,27.67011]],[[-114.92507,27.67069],[-114.92507,27.67068],[-114.92506,27.67069],[-114.92507,27.67069]],[[-114.92416,27.67095],[-114.92416,27.67094],[-114.92415,27.67095],[-114.92416,27.67095]],[[-114.92003,27.66358],[-114.92004,27.66358],[-114.92003,27.66357],[-114.92003,27.66358]],[[-114.91942,27.66384],[-114.91943,27.66384],[-114.91942,27.66383],[-114.91942,27.66384]],[[-114.91881,27.66383],[-114.91882,27.66383],[-114.91881,27.66382],[-114.91881,27.66383]],[[-114.92114,27.66901],[-114.92115,27.66901],[-114.92114,27.669],[-114.92114,27.66901]],[[-114.91992,27.66926],[-114.91993,27.66926],[-114.91992,27.66925],[-114.91992,27.66926]],[[-114.91846,27.66599],[-114.91908,27.66599],[-114.91847,27.66572],[-114.91846,27.66599]],[[-114.91848,27.66518],[-114.91849,27.66518],[-114.91848,27.66517],[-114.91848,27.66518]],[[-114.92028,27.66682],[-114.92027,27.66682],[-114.92028,27.66683],[-114.92028,27.66682]],[[-114.91967,27.66682],[-114.91967,27.66681],[-114.91966,27.66682],[-114.91967,27.66682]],[[-114.91909,27.66545],[-114.91908,27.66545],[-114.91909,27.66546],[-114.91909,27.66545]],[[-114.9194,27.66464],[-114.9194,27.66465],[-114.91941,27.66464],[-114.9194,27.66464]],[[-114.91879,27.66463],[-114.91879,27.66464],[-114.9188,27.66463],[-114.91879,27.66463]],[[-114.92062,27.6644],[-114.92063,27.6644],[-114.92062,27.66439],[-114.92062,27.6644]],[[-114.92001,27.66439],[-114.92002,27.66439],[-114.92001,27.66438],[-114.92001,27.66439]],[[-114.91909,27.66492],[-114.9191,27.66492],[-114.91909,27.66491],[-114.91909,27.66492]],[[-114.9197,27.6652],[-114.9197,27.66519],[-114.91969,27.6652],[-114.9197,27.6652]],[[-114.92091,27.66575],[-114.9209,27.66603],[-114.92121,27.66575],[-114.92091,27.66575]],[[-114.92029,27.66601],[-114.92029,27.66602],[-114.9203,27.66601],[-114.92029,27.66601]],[[-114.91968,27.666],[-114.91968,27.66601],[-114.91969,27.666],[-114.91968,27.666]],[[-114.91907,27.66626],[-114.91907,27.66627],[-114.91908,27.66626],[-114.91907,27.66626]],[[-114.92121,27.66549],[-114.92122,27.66549],[-114.92121,27.66548],[-114.92121,27.66549]],[[-114.92089,27.6663],[-114.9209,27.6663],[-114.92089,27.66629],[-114.92089,27.6663]],[[-114.92028,27.66629],[-114.92029,27.66629],[-114.92028,27.66628],[-114.92028,27.66629]],[[-114.91968,27.66655],[-114.91968,27.66654],[-114.91967,27.66655],[-114.91968,27.66655]],[[-114.91906,27.66654],[-114.91907,27.66654],[-114.91906,27.66653],[-114.91906,27.66654]],[[-114.92087,27.66738],[-114.92088,27.66738],[-114.92087,27.66737],[-114.92087,27.66738]],[[-114.91965,27.66735],[-114.91965,27.66736],[-114.91966,27.66735],[-114.91965,27.66735]],[[-114.92026,27.66764],[-114.92027,27.66764],[-114.92026,27.66763],[-114.92026,27.66764]],[[-114.91933,27.66817],[-114.91934,27.66817],[-114.91933,27.66816],[-114.91933,27.66817]],[[-114.92054,27.66873],[-114.92055,27.66873],[-114.92054,27.66872],[-114.92054,27.66873]],[[-114.91932,27.66898],[-114.91933,27.66898],[-114.91932,27.66897],[-114.91932,27.66898]],[[-114.91961,27.66979],[-114.91961,27.6698],[-114.91962,27.66979],[-114.91961,27.66979]],[[-114.919,27.66978],[-114.919,27.66979],[-114.91901,27.66978],[-114.919,27.66978]],[[-114.91632,27.66677],[-114.91633,27.66677],[-114.91632,27.66676],[-114.91632,27.66677]],[[-114.91752,27.66813],[-114.91751,27.66813],[-114.91752,27.66814],[-114.91752,27.66813]],[[-114.91813,27.66761],[-114.91814,27.66761],[-114.91813,27.6676],[-114.91813,27.66761]],[[-114.91841,27.66869],[-114.91841,27.6687],[-114.91842,27.66869],[-114.91841,27.66869]],[[-114.9178,27.66895],[-114.9178,27.66896],[-114.91781,27.66895],[-114.9178,27.66895]],[[-114.91719,27.66894],[-114.91719,27.66895],[-114.9172,27.66894],[-114.91719,27.66894]],[[-114.91781,27.66842],[-114.91782,27.66842],[-114.91781,27.66841],[-114.91781,27.66842]],[[-114.9172,27.66868],[-114.91721,27.66868],[-114.9172,27.66867],[-114.9172,27.66868]],[[-114.9184,27.66924],[-114.91841,27.66924],[-114.9184,27.66923],[-114.9184,27.66924]],[[-114.91779,27.66923],[-114.9178,27.66923],[-114.91779,27.66922],[-114.91779,27.66923]],[[-114.9184,27.67004],[-114.91839,27.67004],[-114.9184,27.67005],[-114.9184,27.67004]]],[[[-114.93875,27.68714],[-114.93875,27.68687],[-114.93906,27.68714],[-114.93875,27.68714]]],[[[-114.93655,27.69117],[-114.93628,27.68873],[-114.93813,27.68767],[-114.93873,27.68794],[-114.93842,27.68848],[-114.9387,27.69011],[-114.93655,27.69117]],[[-114.93686,27.69063],[-114.93686,27.69062],[-114.93685,27.69063],[-114.93686,27.69063]],[[-114.93687,27.69036],[-114.93687,27.69035],[-114.93686,27.69036],[-114.93687,27.69036]],[[-114.93688,27.68955],[-114.93688,27.68954],[-114.93687,27.68955],[-114.93688,27.68955]],[[-114.93842,27.68876],[-114.93842,27.68875],[-114.93841,27.68876],[-114.93842,27.68876]],[[-114.9384,27.68929],[-114.9384,27.6893],[-114.93841,27.68929],[-114.9384,27.68929]],[[-114.93748,27.69009],[-114.93747,27.69009],[-114.93748,27.6901],[-114.93748,27.69009]],[[-114.93782,27.68821],[-114.93782,27.6882],[-114.93781,27.68821],[-114.93782,27.68821]],[[-114.93748,27.68929],[-114.93749,27.68929],[-114.93748,27.68928],[-114.93748,27.68929]],[[-114.93781,27.68902],[-114.93781,27.68901],[-114.9378,27.68902],[-114.93781,27.68902]]],[[[-114.94724,27.70459],[-114.94724,27.70432],[-114.94755,27.70459],[-114.94724,27.70459]]],[[[-114.91128,27.66019],[-114.91219,27.65993],[-114.91188,27.66047],[-114.91249,27.66048],[-114.91157,27.66101],[-114.91128,27.66019]],[[-114.91188,27.66074],[-114.91187,27.66074],[-114.91188,27.66075],[-114.91188,27.66074]]],[[[-114.90183,27.6614],[-114.9015,27.66248],[-114.90211,27.66303],[-114.90058,27.66328],[-114.90119,27.66302],[-114.90121,27.66248],[-114.90059,27.66247],[-114.90059,27.66301],[-114.89967,27.663],[-114.89967,27.66353],[-114.89783,27.66378],[-114.89816,27.66216],[-114.89968,27.66245],[-114.9,27.66192],[-114.8997,27.6611],[-114.90063,27.66084],[-114.90063,27.66031],[-114.90154,27.66059],[-114.90123,27.66113],[-114.90183,27.6614]],[[-114.89814,27.66351],[-114.89814,27.66352],[-114.89815,27.66351],[-114.89814,27.66351]],[[-114.90062,27.66138],[-114.90061,27.66138],[-114.90062,27.66139],[-114.90062,27.66138]],[[-114.90122,27.66167],[-114.90122,27.66166],[-114.90121,27.66167],[-114.90122,27.66167]],[[-114.90029,27.6622],[-114.9003,27.6622],[-114.90029,27.66219],[-114.90029,27.6622]],[[-114.89967,27.66273],[-114.89968,27.66273],[-114.89967,27.66272],[-114.89967,27.66273]]],[[[-114.90572,27.66525],[-114.90543,27.66389],[-114.9036,27.66414],[-114.90298,27.66521],[-114.90238,27.66466],[-114.90301,27.66332],[-114.90362,27.66332],[-114.90395,27.66171],[-114.90456,27.66171],[-114.90575,27.66282],[-114.90607,27.66201],[-114.90729,27.6623],[-114.90791,27.66176],[-114.90854,27.66042],[-114.90733,27.66014],[-114.90765,27.65933],[-114.91098,27.65991],[-114.91067,27.66073],[-114.90975,27.66044],[-114.90883,27.66097],[-114.91035,27.66126],[-114.91154,27.66263],[-114.91152,27.66344],[-114.91059,27.66424],[-114.91058,27.66479],[-114.91119,27.66507],[-114.9121,27.6648],[-114.91148,27.66534],[-114.91147,27.66642],[-114.90966,27.66558],[-114.90937,27.66476],[-114.90876,27.66476],[-114.90817,27.66393],[-114.90694,27.66419],[-114.90724,27.66473],[-114.90662,27.66499],[-114.90662,27.66553],[-114.90572,27.66525]],[[-114.91031,27.66343],[-114.91031,27.66342],[-114.9103,27.66343],[-114.91031,27.66343]],[[-114.91032,27.66316],[-114.91032,27.66315],[-114.91031,27.66316],[-114.91032,27.66316]],[[-114.91033,27.66235],[-114.91033,27.66234],[-114.91032,27.66235],[-114.91033,27.66235]],[[-114.91093,27.66289],[-114.91092,27.66289],[-114.91093,27.6629],[-114.91093,27.66289]],[[-114.91091,27.66344],[-114.91092,27.66344],[-114.91091,27.66343],[-114.91091,27.66344]],[[-114.91119,27.66533],[-114.91118,27.66533],[-114.91119,27.66534],[-114.91119,27.66533]],[[-114.90484,27.66334],[-114.90483,27.66334],[-114.90484,27.66335],[-114.90484,27.66334]],[[-114.90456,27.66225],[-114.90455,27.66225],[-114.90456,27.66226],[-114.90456,27.66225]],[[-114.90971,27.66234],[-114.90972,27.66234],[-114.90971,27.66233],[-114.90971,27.66234]],[[-114.9085,27.66232],[-114.90851,27.66232],[-114.9085,27.66231],[-114.9085,27.66232]],[[-114.90824,27.65987],[-114.90824,27.65988],[-114.90825,27.65987],[-114.90824,27.65987]],[[-114.90884,27.66016],[-114.90885,27.66016],[-114.90884,27.66015],[-114.90884,27.66016]],[[-114.90912,27.66178],[-114.90912,27.66179],[-114.90913,27.66178],[-114.90912,27.66178]],[[-114.90851,27.66177],[-114.90851,27.66178],[-114.90852,27.66177],[-114.90851,27.66177]],[[-114.9079,27.66204],[-114.90791,27.66204],[-114.9079,27.66203],[-114.9079,27.66204]],[[-114.90974,27.66153],[-114.90974,27.66152],[-114.90973,27.66153],[-114.90974,27.66153]],[[-114.90972,27.66207],[-114.90973,27.66207],[-114.90972,27.66206],[-114.90972,27.66207]],[[-114.90911,27.66206],[-114.90912,27.66206],[-114.90911,27.66205],[-114.90911,27.66206]],[[-114.90637,27.66229],[-114.90638,27.66229],[-114.90637,27.66228],[-114.90637,27.66229]],[[-114.90879,27.66341],[-114.90879,27.6634],[-114.90878,27.66341],[-114.90879,27.66341]],[[-114.90757,27.66366],[-114.90757,27.66365],[-114.90756,27.66366],[-114.90757,27.66366]],[[-114.90696,27.66365],[-114.90696,27.66364],[-114.90695,27.66365],[-114.90696,27.66365]],[[-114.90544,27.66363],[-114.90544,27.66362],[-114.90543,27.66363],[-114.90544,27.66363]],[[-114.90759,27.66284],[-114.90758,27.66284],[-114.90759,27.66285],[-114.90759,27.66284]],[[-114.9091,27.66259],[-114.9091,27.6626],[-114.90911,27.66259],[-114.9091,27.66259]],[[-114.90849,27.66258],[-114.90849,27.66259],[-114.9085,27.66258],[-114.90849,27.66258]],[[-114.90697,27.66256],[-114.90697,27.66257],[-114.90698,27.66256],[-114.90697,27.66256]],[[-114.90636,27.66255],[-114.90636,27.66256],[-114.90637,27.66255],[-114.90636,27.66255]],[[-114.90818,27.66312],[-114.90818,27.66313],[-114.90819,27.66312],[-114.90818,27.66312]],[[-114.90757,27.66311],[-114.90757,27.66312],[-114.90758,27.66311],[-114.90757,27.66311]],[[-114.90696,27.66338],[-114.90697,27.66338],[-114.90696,27.66337],[-114.90696,27.66338]],[[-114.90635,27.66336],[-114.90635,27.66337],[-114.90636,27.66336],[-114.90635,27.66336]],[[-114.90878,27.66421],[-114.90877,27.66421],[-114.90878,27.66422],[-114.90878,27.66421]],[[-114.90665,27.66418],[-114.90664,27.66418],[-114.90665,27.66419],[-114.90665,27.66418]],[[-114.90603,27.66445],[-114.90602,27.66472],[-114.90664,27.66445],[-114.90603,27.66445]],[[-114.90999,27.66397],[-114.91,27.66397],[-114.90999,27.66396],[-114.90999,27.66397]],[[-114.90997,27.66477],[-114.90997,27.66478],[-114.90998,27.66477],[-114.90997,27.66477]],[[-114.90937,27.6645],[-114.90938,27.6645],[-114.90937,27.66449],[-114.90937,27.6645]],[[-114.90362,27.66359],[-114.90361,27.66359],[-114.90362,27.6636],[-114.90362,27.66359]],[[-114.90423,27.66307],[-114.90424,27.66307],[-114.90423,27.66306],[-114.90423,27.66307]],[[-114.903,27.66386],[-114.90298,27.6644],[-114.9036,27.66413],[-114.90361,27.66386],[-114.903,27.66386]]],[[[-114.91546,27.66459],[-114.91454,27.66485],[-114.91425,27.66349],[-114.91486,27.66349],[-114.91546,27.66459]],[[-114.91485,27.66431],[-114.91486,27.66431],[-114.91485,27.6643],[-114.91485,27.66431]]],[[[-114.91363,27.66483],[-114.91363,27.66429],[-114.91393,27.66483],[-114.91363,27.66483]]],[[[-114.89874,27.66433],[-114.89841,27.66487],[-114.89902,27.66542],[-114.89962,27.66543],[-114.89961,27.66624],[-114.89781,27.66513],[-114.89782,27.66432],[-114.89874,27.66433]],[[-114.89902,27.66569],[-114.89901,27.66569],[-114.89902,27.6657],[-114.89902,27.66569]]],[[[-114.89839,27.66623],[-114.8987,27.66623],[-114.89899,27.66731],[-114.89838,27.66731],[-114.89839,27.66623]]],[[[-114.90012,27.67166],[-114.90041,27.67221],[-114.90102,27.67222],[-114.90106764705882,27.67246],[-114.90076,27.67246],[-114.90081,27.67282],[-114.9011377478033,27.67281310004625],[-114.90129,27.67358],[-114.9019,27.67358],[-114.9022,27.67413],[-114.89827,27.67272],[-114.89828,27.67191],[-114.8992,27.67165],[-114.90012,27.67166]],[[-114.90039,27.67303],[-114.9004,27.67303],[-114.90039,27.67302],[-114.90039,27.67303]],[[-114.89978,27.67302],[-114.89979,27.67302],[-114.89978,27.67301],[-114.89978,27.67302]],[[-114.9001,27.6722],[-114.9001,27.67221],[-114.90011,27.6722],[-114.9001,27.6722]],[[-114.89857,27.67245],[-114.89857,27.67246],[-114.89858,27.67245],[-114.89857,27.67245]],[[-114.8995,27.67193],[-114.89951,27.67193],[-114.8995,27.67192],[-114.8995,27.67193]],[[-114.89859,27.67219],[-114.89859,27.67218],[-114.89858,27.67219],[-114.89859,27.67219]],[[-114.9007,27.67249],[-114.90071,27.67249],[-114.9007,27.67248],[-114.9007,27.67249]],[[-114.89918,27.67274],[-114.89919,27.67274],[-114.89918,27.67273],[-114.89918,27.67274]],[[-114.90099,27.67331],[-114.901,27.67331],[-114.90099,27.6733],[-114.90099,27.67331]],[[-114.90039,27.67329],[-114.90038,27.67329],[-114.90039,27.6733],[-114.90039,27.67329]]],[[[-114.89975,27.67518],[-114.89944,27.67518],[-114.89975,27.67491],[-114.89975,27.67518]]],[[[-114.89881,27.67624],[-114.89882,27.67571],[-114.89943,27.67571],[-114.90032,27.67681],[-114.89941,27.6768],[-114.8994,27.67734],[-114.89816,27.6784],[-114.89696,27.67785],[-114.89787,27.67759],[-114.89759,27.67623],[-114.8982,27.67651],[-114.89881,27.67624]],[[-114.89788,27.67704],[-114.89788,27.67705],[-114.89789,27.67704],[-114.89788,27.67704]],[[-114.89911,27.67679],[-114.8991,27.67679],[-114.89911,27.6768],[-114.89911,27.67679]],[[-114.8985,27.67678],[-114.89849,27.67678],[-114.8985,27.67679],[-114.8985,27.67678]],[[-114.89942,27.67599],[-114.89943,27.67599],[-114.89942,27.67598],[-114.89942,27.67599]],[[-114.8985,27.67652],[-114.89851,27.67652],[-114.8985,27.67651],[-114.8985,27.67652]],[[-114.89942,27.67626],[-114.89942,27.67625],[-114.89941,27.67626],[-114.89942,27.67626]],[[-114.89848,27.67733],[-114.89849,27.67733],[-114.89848,27.67732],[-114.89848,27.67733]],[[-114.8991,27.67707],[-114.8991,27.67706],[-114.89909,27.67707],[-114.8991,27.67707]]],[[[-114.89448,27.68024],[-114.89417,27.68024],[-114.89448,27.67997],[-114.89448,27.68024]]],[[[-114.89328,27.67914],[-114.89418,27.67997],[-114.89265,27.68021],[-114.89264,27.68102],[-114.89203,27.68102],[-114.89263,27.6813],[-114.89262,27.68184],[-114.89201,27.6821],[-114.89229,27.68346],[-114.89017,27.68262],[-114.8905,27.681],[-114.89112,27.68101],[-114.89113,27.68046],[-114.89023,27.67964],[-114.89174,27.6802],[-114.89175,27.67939],[-114.89236,27.67912],[-114.89328,27.67914]],[[-114.89111,27.68182],[-114.89111,27.68181],[-114.8911,27.68182],[-114.89111,27.68182]],[[-114.89266,27.67995],[-114.89266,27.67994],[-114.89265,27.67995],[-114.89266,27.67995]],[[-114.89204,27.67994],[-114.89205,27.67994],[-114.89204,27.67993],[-114.89204,27.67994]],[[-114.89206,27.67967],[-114.89206,27.67966],[-114.89205,27.67967],[-114.89206,27.67967]],[[-114.89204,27.68075],[-114.89204,27.68074],[-114.89203,27.68075],[-114.89204,27.68075]],[[-114.89233,27.68157],[-114.89233,27.68156],[-114.89232,27.68157],[-114.89233,27.68157]],[[-114.8905,27.68181],[-114.8905,27.6818],[-114.89049,27.68181],[-114.8905,27.68181]],[[-114.89108,27.68262],[-114.89108,27.68263],[-114.89109,27.68262],[-114.89108,27.68262]],[[-114.8917,27.6821],[-114.89171,27.6821],[-114.8917,27.68209],[-114.8917,27.6821]],[[-114.8917,27.68237],[-114.8917,27.68236],[-114.89169,27.68237],[-114.8917,27.68237]]],[[[-114.89228,27.68373],[-114.89227,27.68454],[-114.89167,27.68372],[-114.89228,27.68373]],[[-114.89197,27.684],[-114.89198,27.684],[-114.89197,27.68399],[-114.89197,27.684]]],[[[-114.88757,27.69178],[-114.88757,27.69151],[-114.88787,27.69178],[-114.88757,27.69178]]],[[[-114.88786,27.69233],[-114.88786,27.69206],[-114.88817,27.69233],[-114.88786,27.69233]]],[[[-114.84654,27.61263],[-114.84624,27.61263],[-114.84654,27.61236],[-114.84654,27.61263]]],[[[-114.84211,27.6215],[-114.84151,27.62041],[-114.84245,27.61988],[-114.84123,27.6196],[-114.84275,27.61988],[-114.84333,27.62152],[-114.84211,27.6215]],[[-114.84242,27.6207],[-114.84243,27.6207],[-114.84242,27.62069],[-114.84242,27.6207]],[[-114.84244,27.62043],[-114.84244,27.62042],[-114.84243,27.62043],[-114.84244,27.62043]],[[-114.84242,27.62123],[-114.84241,27.62123],[-114.84242,27.62124],[-114.84242,27.62123]]],[[[-114.86397,27.62293],[-114.86397,27.62266],[-114.86427,27.62293],[-114.86397,27.62293]]],[[[-114.86633,27.62675],[-114.86633,27.62648],[-114.86663,27.62675],[-114.86633,27.62675]]],[[[-114.86837,27.63111],[-114.86837,27.63084],[-114.86868,27.63111],[-114.86837,27.63111]]],[[[-114.87759,27.65752],[-114.8773,27.6567],[-114.87638,27.65696],[-114.87641,27.65506],[-114.87581,27.65478],[-114.87582,27.65424],[-114.87341,27.65339],[-114.87463,27.65287],[-114.87466,27.65178],[-114.87346,27.65042],[-114.87439,27.64961],[-114.87473,27.648],[-114.87534,27.64746],[-114.87511,27.64367],[-114.87421,27.64339],[-114.87392,27.64257],[-114.87331,27.64256],[-114.87303,27.6412],[-114.86999,27.64143],[-114.86942,27.63979],[-114.8685,27.63978],[-114.86762,27.63814],[-114.8652,27.63783],[-114.86521,27.63675],[-114.86583,27.63649],[-114.86584,27.63594],[-114.86491,27.63647],[-114.86491,27.63728],[-114.86398,27.63754],[-114.86432,27.63592],[-114.86403,27.63538],[-114.86342,27.63537],[-114.86283,27.63401],[-114.86375,27.63402],[-114.86407,27.63294],[-114.86559,27.63296],[-114.86562,27.63161],[-114.86533,27.63106],[-114.8635,27.63104],[-114.86267,27.62696],[-114.86206,27.62696],[-114.86147,27.62613],[-114.85965,27.62611],[-114.85966,27.62529],[-114.85905,27.62529],[-114.85877,27.6242],[-114.85545,27.62333],[-114.85396,27.62195],[-114.85335,27.62195],[-114.85337,27.62059],[-114.85216,27.62058],[-114.85157,27.61948],[-114.85006,27.61919],[-114.85007,27.61838],[-114.85068,27.61838],[-114.8504,27.6173],[-114.84978,27.6181],[-114.84886,27.61809],[-114.84888,27.61727],[-114.84828,27.61672],[-114.84371,27.61692],[-114.84308,27.61854],[-114.84156,27.61852],[-114.84155,27.61933],[-114.84063,27.61959],[-114.84003,27.61904],[-114.84005,27.61795],[-114.84161,27.61635],[-114.84162,27.61527],[-114.84469,27.61369],[-114.84529,27.61424],[-114.84467,27.61505],[-114.8465,27.61453],[-114.84679,27.61508],[-114.84771,27.61482],[-114.84891,27.61565],[-114.85285,27.61598],[-114.85313,27.61761],[-114.85373,27.61762],[-114.85493,27.61872],[-114.85614,27.61874],[-114.85642,27.61983],[-114.85764,27.61984],[-114.85943,27.62177],[-114.86063,27.62206],[-114.86092,27.62315],[-114.86214,27.62316],[-114.86243,27.62371],[-114.86394,27.624],[-114.86423,27.62482],[-114.86514,27.6251],[-114.86542,27.6262],[-114.86632,27.62702],[-114.86629,27.62838],[-114.86719,27.62893],[-114.86687,27.63001],[-114.86777,27.63002],[-114.86807,27.63056],[-114.86803,27.63219],[-114.86864,27.63274],[-114.86862,27.63382],[-114.868,27.63409],[-114.86799,27.63463],[-114.8686,27.63463],[-114.86977,27.63682],[-114.87098,27.63711],[-114.87156,27.63874],[-114.87247,27.63848],[-114.87459,27.63933],[-114.87488,27.64042],[-114.87456,27.64096],[-114.87578,27.6407],[-114.87727,27.64235],[-114.87754,27.64398],[-114.87689,27.64586],[-114.87717,27.64695],[-114.87778,27.64723],[-114.87746,27.64776],[-114.87775,27.64859],[-114.87836,27.64886],[-114.878,27.65157],[-114.8795,27.6524],[-114.8798,27.65322],[-114.87949,27.65322],[-114.88064,27.65702],[-114.88032,27.65755],[-114.87971,27.65755],[-114.87939,27.65835],[-114.87997,27.66026],[-114.87935,27.66052],[-114.88056,27.66054],[-114.88086,27.66108],[-114.87994,27.66107],[-114.87994,27.66161],[-114.87903,27.66133],[-114.87902,27.66187],[-114.87811,27.66213],[-114.87781,27.66158],[-114.8769,27.66157],[-114.87723,27.66021],[-114.87602,27.65966],[-114.87664,27.65912],[-114.87636,27.65777],[-114.87759,27.65752]],[[-114.87903,27.66105],[-114.87903,27.66106],[-114.87904,27.66105],[-114.87903,27.66105]],[[-114.87905,27.65997],[-114.87905,27.65998],[-114.87906,27.65997],[-114.87905,27.65997]],[[-114.8791,27.65726],[-114.8791,27.65727],[-114.87911,27.65726],[-114.8791,27.65726]],[[-114.87911,27.65672],[-114.87911,27.65673],[-114.87912,27.65672],[-114.87911,27.65672]],[[-114.87912,27.65645],[-114.87912,27.65646],[-114.87913,27.65645],[-114.87912,27.65645]],[[-114.87884,27.65536],[-114.87884,27.65537],[-114.87885,27.65536],[-114.87884,27.65536]],[[-114.87885,27.65455],[-114.87885,27.65456],[-114.87886,27.65455],[-114.87885,27.65455]],[[-114.87886,27.65401],[-114.87886,27.65402],[-114.87887,27.65401],[-114.87886,27.65401]],[[-114.87887,27.65374],[-114.87887,27.65375],[-114.87888,27.65374],[-114.87887,27.65374]],[[-114.87888,27.65293],[-114.87888,27.65294],[-114.87889,27.65293],[-114.87888,27.65293]],[[-114.87948,27.65403],[-114.87948,27.65402],[-114.87947,27.65403],[-114.87948,27.65403]],[[-114.87947,27.6543],[-114.87947,27.65429],[-114.87946,27.6543],[-114.87947,27.6543]],[[-114.87973,27.65619],[-114.87973,27.6562],[-114.87974,27.65619],[-114.87973,27.65619]],[[-114.87946,27.65511],[-114.87946,27.6551],[-114.87945,27.65511],[-114.87946,27.65511]],[[-114.87975,27.65593],[-114.87975,27.65592],[-114.87974,27.65593],[-114.87975,27.65593]],[[-114.87914,27.65592],[-114.87914,27.65591],[-114.87913,27.65592],[-114.87914,27.65592]],[[-114.88033,27.65648],[-114.88034,27.65648],[-114.88033,27.65647],[-114.88033,27.65648]],[[-114.87972,27.65674],[-114.87973,27.65674],[-114.87972,27.65673],[-114.87972,27.65674]],[[-114.87972,27.65701],[-114.87972,27.657],[-114.87971,27.65701],[-114.87972,27.65701]],[[-114.87941,27.65755],[-114.87941,27.65754],[-114.8794,27.65755],[-114.87941,27.65755]],[[-114.87938,27.65917],[-114.87938,27.65916],[-114.87937,27.65917],[-114.87938,27.65917]],[[-114.87964,27.66107],[-114.87965,27.66107],[-114.87964,27.66106],[-114.87964,27.66107]],[[-114.87964,27.66133],[-114.87963,27.66133],[-114.87964,27.66134],[-114.87964,27.66133]],[[-114.86705,27.63597],[-114.86706,27.63597],[-114.86705,27.63596],[-114.86705,27.63597]],[[-114.86706,27.6357],[-114.86707,27.6357],[-114.86706,27.63569],[-114.86706,27.6357]],[[-114.86678,27.63407],[-114.86679,27.63407],[-114.86678,27.63406],[-114.86678,27.63407]],[[-114.86679,27.6338],[-114.8668,27.6338],[-114.86679,27.63379],[-114.86679,27.6338]],[[-114.8668,27.63326],[-114.86681,27.63326],[-114.8668,27.63325],[-114.8668,27.63326]],[[-114.87612,27.65451],[-114.87611,27.65451],[-114.87612,27.65452],[-114.87612,27.65451]],[[-114.87613,27.65425],[-114.87613,27.65424],[-114.87612,27.65425],[-114.87613,27.65425]],[[-114.87619,27.651],[-114.87619,27.65099],[-114.87618,27.651],[-114.87619,27.651]],[[-114.8762,27.65073],[-114.8762,27.65072],[-114.87619,27.65073],[-114.8762,27.65073]],[[-114.87621,27.65019],[-114.87621,27.65018],[-114.8762,27.65019],[-114.87621,27.65019]],[[-114.87628,27.6464],[-114.87628,27.64639],[-114.87627,27.6464],[-114.87628,27.6464]],[[-114.8763,27.64559],[-114.8763,27.64558],[-114.87629,27.64559],[-114.8763,27.64559]],[[-114.87483,27.64259],[-114.87483,27.64258],[-114.87482,27.64259],[-114.87483,27.64259]],[[-114.87843,27.6605],[-114.87843,27.66051],[-114.87844,27.6605],[-114.87843,27.6605]],[[-114.87731,27.65588],[-114.8773,27.65588],[-114.87731,27.65589],[-114.87731,27.65588]],[[-114.87732,27.65561],[-114.87731,27.65561],[-114.87732,27.65562],[-114.87732,27.65561]],[[-114.87733,27.65507],[-114.87732,27.65507],[-114.87733,27.65508],[-114.87733,27.65507]],[[-114.87738,27.65236],[-114.87737,27.65236],[-114.87738,27.65237],[-114.87738,27.65236]],[[-114.8774,27.65155],[-114.87739,27.65155],[-114.8774,27.65156],[-114.8774,27.65155]],[[-114.87741,27.65074],[-114.8774,27.65074],[-114.87741,27.65075],[-114.87741,27.65074]],[[-114.87859,27.65212],[-114.8786,27.65212],[-114.87859,27.65211],[-114.87859,27.65212]],[[-114.87774,27.64913],[-114.87775,27.64913],[-114.87774,27.64912],[-114.87774,27.64913]],[[-114.87773,27.64994],[-114.87773,27.64993],[-114.87772,27.64994],[-114.87773,27.64994]],[[-114.87773,27.64966],[-114.87773,27.64967],[-114.87774,27.64966],[-114.87773,27.64966]],[[-114.878,27.65184],[-114.878,27.65183],[-114.87799,27.65184],[-114.878,27.65184]],[[-114.87852,27.65645],[-114.87852,27.65644],[-114.87851,27.65645],[-114.87852,27.65645]],[[-114.8776,27.65671],[-114.8776,27.6567],[-114.87759,27.65671],[-114.8776,27.65671]],[[-114.87826,27.65427],[-114.87825,27.65427],[-114.87826,27.65428],[-114.87826,27.65427]],[[-114.87766,27.65318],[-114.87766,27.65319],[-114.87767,27.65318],[-114.87766,27.65318]],[[-114.87767,27.65265],[-114.87768,27.65265],[-114.87767,27.65264],[-114.87767,27.65265]],[[-114.87799,27.65238],[-114.87799,27.65237],[-114.87798,27.65238],[-114.87799,27.65238]],[[-114.87828,27.65293],[-114.87828,27.65292],[-114.87827,27.65293],[-114.87828,27.65293]],[[-114.87826,27.65374],[-114.87827,27.65374],[-114.87826,27.65373],[-114.87826,27.65374]],[[-114.87766,27.654],[-114.87766,27.65399],[-114.87765,27.654],[-114.87766,27.654]],[[-114.87765,27.65426],[-114.87764,27.65426],[-114.87765,27.65427],[-114.87765,27.65426]],[[-114.87792,27.65535],[-114.87792,27.65536],[-114.87793,27.65535],[-114.87792,27.65535]],[[-114.87794,27.65509],[-114.87794,27.65508],[-114.87793,27.65509],[-114.87794,27.65509]],[[-114.87825,27.65455],[-114.87825,27.65454],[-114.87824,27.65455],[-114.87825,27.65455]],[[-114.87791,27.6559],[-114.87792,27.6559],[-114.87791,27.65589],[-114.87791,27.6559]],[[-114.87853,27.65564],[-114.87853,27.65563],[-114.87852,27.65564],[-114.87853,27.65564]],[[-114.8785,27.65699],[-114.87851,27.65699],[-114.8785,27.65698],[-114.8785,27.65699]],[[-114.87818,27.6578],[-114.87819,27.6578],[-114.87818,27.65779],[-114.87818,27.6578]],[[-114.87818,27.65807],[-114.87818,27.65806],[-114.87817,27.65807],[-114.87818,27.65807]],[[-114.87758,27.65779],[-114.87758,27.65778],[-114.87757,27.65779],[-114.87758,27.65779]],[[-114.87879,27.65808],[-114.87879,27.65807],[-114.87878,27.65808],[-114.87879,27.65808]],[[-114.87877,27.65889],[-114.87878,27.65889],[-114.87877,27.65888],[-114.87877,27.65889]],[[-114.87816,27.65888],[-114.87817,27.65888],[-114.87816,27.65887],[-114.87816,27.65888]],[[-114.87877,27.65916],[-114.87877,27.65915],[-114.87876,27.65916],[-114.87877,27.65916]],[[-114.87784,27.66023],[-114.87784,27.66022],[-114.87783,27.66023],[-114.87784,27.66023]],[[-114.87846,27.6597],[-114.87846,27.65969],[-114.87845,27.6597],[-114.87846,27.6597]],[[-114.87783,27.66049],[-114.87782,27.66049],[-114.87783,27.6605],[-114.87783,27.66049]],[[-114.87751,27.66103],[-114.87751,27.66104],[-114.87752,27.66103],[-114.87751,27.66103]],[[-114.87812,27.66132],[-114.87812,27.66131],[-114.87811,27.66132],[-114.87812,27.66132]],[[-114.87697,27.65805],[-114.87697,27.65804],[-114.87696,27.65805],[-114.87697,27.65805]],[[-114.87725,27.65914],[-114.87725,27.65913],[-114.87724,27.65914],[-114.87725,27.65914]],[[-114.87724,27.65994],[-114.87723,27.65994],[-114.87724,27.65995],[-114.87724,27.65994]],[[-114.87645,27.6529],[-114.87646,27.6529],[-114.87645,27.65289],[-114.87645,27.6529]],[[-114.87635,27.64233],[-114.87635,27.64234],[-114.87636,27.64233],[-114.87635,27.64233]],[[-114.87636,27.64206],[-114.87636,27.64207],[-114.87637,27.64206],[-114.87636,27.64206]],[[-114.87695,27.64342],[-114.87694,27.64342],[-114.87695,27.64343],[-114.87695,27.64342]],[[-114.87696,27.64262],[-114.87696,27.64261],[-114.87695,27.64262],[-114.87696,27.64262]],[[-114.8766,27.64504],[-114.8766,27.64505],[-114.87661,27.64504],[-114.8766,27.64504]],[[-114.87662,27.64424],[-114.87663,27.64424],[-114.87662,27.64423],[-114.87662,27.64424]],[[-114.87662,27.64477],[-114.87661,27.64477],[-114.87662,27.64478],[-114.87662,27.64477]],[[-114.87688,27.64614],[-114.87689,27.64614],[-114.87688,27.64613],[-114.87688,27.64614]],[[-114.87688,27.64694],[-114.87687,27.64694],[-114.87688,27.64695],[-114.87688,27.64694]],[[-114.87714,27.64858],[-114.87715,27.64858],[-114.87714,27.64857],[-114.87714,27.64858]],[[-114.87653,27.64856],[-114.87653,27.64857],[-114.87654,27.64856],[-114.87653,27.64856]],[[-114.87685,27.64776],[-114.87686,27.64776],[-114.87685,27.64775],[-114.87685,27.64776]],[[-114.87687,27.64749],[-114.87687,27.64748],[-114.87686,27.64749],[-114.87687,27.64749]],[[-114.87716,27.64804],[-114.87716,27.64803],[-114.87715,27.64804],[-114.87716,27.64804]],[[-114.87655,27.6483],[-114.87655,27.64829],[-114.87654,27.6483],[-114.87655,27.6483]],[[-114.87653,27.64938],[-114.87653,27.64937],[-114.87652,27.64938],[-114.87653,27.64938]],[[-114.87714,27.64939],[-114.87714,27.64938],[-114.87713,27.64939],[-114.87714,27.64939]],[[-114.87713,27.64965],[-114.87712,27.64965],[-114.87713,27.64966],[-114.87713,27.64965]],[[-114.8768,27.65047],[-114.87681,27.65047],[-114.8768,27.65046],[-114.8768,27.65047]],[[-114.87682,27.6502],[-114.87682,27.65019],[-114.87681,27.6502],[-114.87682,27.6502]],[[-114.8768,27.65101],[-114.8768,27.651],[-114.87679,27.65101],[-114.8768,27.65101]],[[-114.87648,27.65182],[-114.87648,27.65181],[-114.87647,27.65182],[-114.87648,27.65182]],[[-114.87644,27.65344],[-114.87645,27.65344],[-114.87644,27.65343],[-114.87644,27.65344]],[[-114.87707,27.65291],[-114.87707,27.6529],[-114.87706,27.65291],[-114.87707,27.65291]],[[-114.87706,27.65317],[-114.87705,27.65317],[-114.87706,27.65318],[-114.87706,27.65317]],[[-114.87705,27.65372],[-114.87705,27.65371],[-114.87704,27.65372],[-114.87705,27.65372]],[[-114.87673,27.65453],[-114.87673,27.65452],[-114.87672,27.65453],[-114.87673,27.65453]],[[-114.87672,27.65534],[-114.87672,27.65533],[-114.87671,27.65534],[-114.87672,27.65534]],[[-114.87671,27.6556],[-114.8767,27.6556],[-114.87671,27.65561],[-114.87671,27.6556]],[[-114.877,27.65642],[-114.87699,27.65642],[-114.877,27.65643],[-114.877,27.65642]],[[-114.87575,27.64259],[-114.87574,27.64259],[-114.87575,27.6426],[-114.87575,27.64259]],[[-114.87515,27.6415],[-114.87515,27.64151],[-114.87516,27.6415],[-114.87515,27.6415]],[[-114.87517,27.64097],[-114.87517,27.64096],[-114.87516,27.64097],[-114.87517,27.64097]],[[-114.87575,27.64206],[-114.87576,27.64206],[-114.87575,27.64205],[-114.87575,27.64206]],[[-114.87515,27.64178],[-114.87515,27.64177],[-114.87514,27.64178],[-114.87515,27.64178]],[[-114.87602,27.64368],[-114.87602,27.64369],[-114.87603,27.64368],[-114.87602,27.64368]],[[-114.87541,27.64367],[-114.87541,27.64368],[-114.87542,27.64367],[-114.87541,27.64367]],[[-114.87574,27.64287],[-114.87574,27.64286],[-114.87573,27.64287],[-114.87574,27.64287]],[[-114.87543,27.64341],[-114.87543,27.6434],[-114.87542,27.64341],[-114.87543,27.64341]],[[-114.87602,27.64396],[-114.87602,27.64395],[-114.87601,27.64396],[-114.87602,27.64396]],[[-114.87541,27.64422],[-114.87541,27.64421],[-114.8754,27.64422],[-114.87541,27.64422]],[[-114.87601,27.64477],[-114.87601,27.64476],[-114.876,27.64477],[-114.87601,27.64477]],[[-114.87559,27.65072],[-114.87559,27.65071],[-114.87558,27.65072],[-114.87559,27.65072]],[[-114.87594,27.64828],[-114.87593,27.64828],[-114.87594,27.64829],[-114.87594,27.64828]],[[-114.87533,27.64854],[-114.87532,27.64854],[-114.87533,27.64855],[-114.87533,27.64854]],[[-114.87567,27.64612],[-114.87568,27.64612],[-114.87567,27.64611],[-114.87567,27.64612]],[[-114.87569,27.64558],[-114.87569,27.64557],[-114.87568,27.64558],[-114.87569,27.64558]],[[-114.87567,27.64638],[-114.87566,27.64638],[-114.87567,27.64639],[-114.87567,27.64638]],[[-114.87534,27.64801],[-114.87534,27.648],[-114.87533,27.64801],[-114.87534,27.64801]],[[-114.87596,27.6472],[-114.87595,27.6472],[-114.87596,27.64721],[-114.87596,27.6472]],[[-114.87595,27.64802],[-114.87595,27.64801],[-114.87594,27.64802],[-114.87595,27.64802]],[[-114.8756,27.64964],[-114.87561,27.64964],[-114.8756,27.64963],[-114.8756,27.64964]],[[-114.87499,27.64962],[-114.87499,27.64963],[-114.875,27.64962],[-114.87499,27.64962]],[[-114.87592,27.64883],[-114.87593,27.64883],[-114.87592,27.64882],[-114.87592,27.64883]],[[-114.87498,27.65017],[-114.87499,27.65017],[-114.87498,27.65016],[-114.87498,27.65017]],[[-114.8756,27.65044],[-114.87559,27.65044],[-114.8756,27.65045],[-114.8756,27.65044]],[[-114.87587,27.65153],[-114.87587,27.65154],[-114.87588,27.65153],[-114.87587,27.65153]],[[-114.87557,27.65126],[-114.87558,27.65126],[-114.87557,27.65125],[-114.87557,27.65126]],[[-114.87498,27.65098],[-114.87498,27.65097],[-114.87497,27.65098],[-114.87498,27.65098]],[[-114.87586,27.65235],[-114.87586,27.65234],[-114.87585,27.65235],[-114.87586,27.65235]],[[-114.87524,27.65234],[-114.87525,27.65234],[-114.87524,27.65233],[-114.87524,27.65234]],[[-114.87526,27.65207],[-114.87526,27.65206],[-114.87525,27.65207],[-114.87526,27.65207]],[[-114.87585,27.65316],[-114.87585,27.65315],[-114.87584,27.65316],[-114.87585,27.65316]],[[-114.87524,27.65315],[-114.87524,27.65314],[-114.87523,27.65315],[-114.87524,27.65315]],[[-114.87438,27.64989],[-114.87439,27.64989],[-114.87438,27.64988],[-114.87438,27.64989]],[[-114.87438,27.65016],[-114.87438,27.65015],[-114.87437,27.65016],[-114.87438,27.65016]],[[-114.87431,27.65341],[-114.87432,27.65341],[-114.87431,27.6534],[-114.87431,27.65341]],[[-114.87454,27.64149],[-114.87454,27.6415],[-114.87455,27.64149],[-114.87454,27.64149]],[[-114.87393,27.64175],[-114.87393,27.64176],[-114.87394,27.64175],[-114.87393,27.64175]],[[-114.86975,27.6379],[-114.86975,27.63791],[-114.86976,27.6379],[-114.86975,27.6379]],[[-114.87007,27.63737],[-114.87007,27.63736],[-114.87006,27.63737],[-114.87007,27.63737]],[[-114.87367,27.63986],[-114.87367,27.63985],[-114.87366,27.63986],[-114.87367,27.63986]],[[-114.87215,27.6401],[-114.87214,27.6401],[-114.87215,27.64011],[-114.87215,27.6401]],[[-114.87308,27.63903],[-114.87307,27.63903],[-114.87308,27.63904],[-114.87308,27.63903]],[[-114.87216,27.63929],[-114.87215,27.63929],[-114.87216,27.6393],[-114.87216,27.63929]],[[-114.87034,27.63926],[-114.87033,27.63926],[-114.87034,27.63927],[-114.87034,27.63926]],[[-114.87125,27.63873],[-114.87125,27.63874],[-114.87126,27.63873],[-114.87125,27.63873]],[[-114.87126,27.6382],[-114.87127,27.6382],[-114.87126,27.63819],[-114.87126,27.6382]],[[-114.87067,27.63792],[-114.87067,27.63791],[-114.87066,27.63792],[-114.87067,27.63792]],[[-114.87066,27.63846],[-114.87066,27.63845],[-114.87065,27.63846],[-114.87066,27.63846]],[[-114.87155,27.63902],[-114.87156,27.63902],[-114.87155,27.63901],[-114.87155,27.63902]],[[-114.87093,27.63954],[-114.87093,27.63955],[-114.87094,27.63954],[-114.87093,27.63954]],[[-114.87367,27.63932],[-114.87368,27.63932],[-114.87367,27.63931],[-114.87367,27.63932]],[[-114.87335,27.64066],[-114.87334,27.64066],[-114.87335,27.64067],[-114.87335,27.64066]],[[-114.87274,27.64065],[-114.87273,27.64065],[-114.87274,27.64066],[-114.87274,27.64065]],[[-114.87153,27.64063],[-114.87152,27.64063],[-114.87153,27.64064],[-114.87153,27.64063]],[[-114.87092,27.64062],[-114.87091,27.64062],[-114.87092,27.64063],[-114.87092,27.64062]],[[-114.87427,27.64013],[-114.87427,27.64014],[-114.87428,27.64013],[-114.87427,27.64013]],[[-114.87274,27.64038],[-114.87274,27.64039],[-114.87275,27.64038],[-114.87274,27.64038]],[[-114.87213,27.64037],[-114.87213,27.64038],[-114.87214,27.64037],[-114.87213,27.64037]],[[-114.87092,27.64035],[-114.87092,27.64036],[-114.87093,27.64035],[-114.87092,27.64035]],[[-114.87031,27.64034],[-114.87031,27.64035],[-114.87032,27.64034],[-114.87031,27.64034]],[[-114.87335,27.64013],[-114.87336,27.64013],[-114.87335,27.64012],[-114.87335,27.64013]],[[-114.87395,27.64041],[-114.87396,27.64041],[-114.87395,27.6404],[-114.87395,27.64041]],[[-114.87212,27.64092],[-114.87213,27.64092],[-114.87212,27.64091],[-114.87212,27.64092]],[[-114.87455,27.64123],[-114.87456,27.64123],[-114.87455,27.64122],[-114.87455,27.64123]],[[-114.87394,27.64122],[-114.87395,27.64122],[-114.87394,27.64121],[-114.87394,27.64122]],[[-114.87334,27.64148],[-114.87334,27.64147],[-114.87333,27.64148],[-114.87334,27.64148]],[[-114.87454,27.64203],[-114.87453,27.64203],[-114.87454,27.64204],[-114.87454,27.64203]],[[-114.87393,27.64203],[-114.87393,27.64202],[-114.87392,27.64203],[-114.87393,27.64203]],[[-114.86888,27.636],[-114.86888,27.63599],[-114.86887,27.636],[-114.86888,27.636]],[[-114.86766,27.63598],[-114.86767,27.63598],[-114.86766,27.63597],[-114.86766,27.63598]],[[-114.86775,27.63111],[-114.86776,27.63111],[-114.86775,27.6311],[-114.86775,27.63111]],[[-114.86715,27.63137],[-114.86715,27.63136],[-114.86714,27.63137],[-114.86715,27.63137]],[[-114.86716,27.63083],[-114.86716,27.63082],[-114.86715,27.63083],[-114.86716,27.63083]],[[-114.86714,27.63164],[-114.86714,27.63163],[-114.86713,27.63164],[-114.86714,27.63164]],[[-114.86775,27.63164],[-114.86774,27.63164],[-114.86775,27.63165],[-114.86775,27.63164]],[[-114.86801,27.63381],[-114.868,27.63381],[-114.86801,27.63382],[-114.86801,27.63381]],[[-114.86802,27.633],[-114.86802,27.63301],[-114.86803,27.633],[-114.86802,27.633]],[[-114.86712,27.63245],[-114.86713,27.63245],[-114.86712,27.63244],[-114.86712,27.63245]],[[-114.86773,27.63273],[-114.86773,27.63272],[-114.86772,27.63273],[-114.86773,27.63273]],[[-114.86802,27.63355],[-114.86802,27.63354],[-114.86801,27.63355],[-114.86802,27.63355]],[[-114.8674,27.63354],[-114.86741,27.63354],[-114.8674,27.63353],[-114.8674,27.63354]],[[-114.86742,27.63327],[-114.86742,27.63326],[-114.86741,27.63327],[-114.86742,27.63327]],[[-114.86708,27.63489],[-114.86708,27.63488],[-114.86707,27.63489],[-114.86708,27.63489]],[[-114.86767,27.63544],[-114.86768,27.63544],[-114.86767,27.63543],[-114.86767,27.63544]],[[-114.86828,27.63572],[-114.86828,27.63571],[-114.86827,27.63572],[-114.86828,27.63572]],[[-114.86853,27.63843],[-114.86853,27.63842],[-114.86852,27.63843],[-114.86853,27.63843]],[[-114.86947,27.63708],[-114.86946,27.63708],[-114.86947,27.63709],[-114.86947,27.63708]],[[-114.86825,27.63733],[-114.86824,27.63733],[-114.86825,27.63734],[-114.86825,27.63733]],[[-114.86734,27.63678],[-114.86734,27.63679],[-114.86735,27.63678],[-114.86734,27.63678]],[[-114.86765,27.63625],[-114.86766,27.63625],[-114.86765,27.63624],[-114.86765,27.63625]],[[-114.86886,27.63681],[-114.86887,27.63681],[-114.86886,27.6368],[-114.86886,27.63681]],[[-114.86914,27.6379],[-114.86915,27.6379],[-114.86914,27.63789],[-114.86914,27.6379]],[[-114.86793,27.63787],[-114.86793,27.63788],[-114.86794,27.63787],[-114.86793,27.63787]],[[-114.86854,27.63762],[-114.86855,27.63762],[-114.86854,27.63761],[-114.86854,27.63762]],[[-114.86732,27.6376],[-114.86733,27.6376],[-114.86732,27.63759],[-114.86732,27.6376]],[[-114.86853,27.63816],[-114.86854,27.63816],[-114.86853,27.63815],[-114.86853,27.63816]],[[-114.86792,27.63815],[-114.86793,27.63815],[-114.86792,27.63814],[-114.86792,27.63815]],[[-114.86975,27.63818],[-114.86975,27.63817],[-114.86974,27.63818],[-114.86975,27.63818]],[[-114.86974,27.63899],[-114.86974,27.63898],[-114.86973,27.63899],[-114.86974,27.63899]],[[-114.86912,27.63952],[-114.86912,27.63951],[-114.86911,27.63952],[-114.86912,27.63952]],[[-114.86628,27.62918],[-114.86627,27.62918],[-114.86628,27.62919],[-114.86628,27.62918]],[[-114.86567,27.62918],[-114.86567,27.62917],[-114.86566,27.62918],[-114.86567,27.62918]],[[-114.86506,27.6289],[-114.86507,27.6289],[-114.86506,27.62889],[-114.86506,27.6289]],[[-114.86507,27.62809],[-114.86508,27.62809],[-114.86507,27.62808],[-114.86507,27.62809]],[[-114.86508,27.62782],[-114.86509,27.62782],[-114.86508,27.62781],[-114.86508,27.62782]],[[-114.86542,27.62646],[-114.86541,27.62646],[-114.86542,27.62647],[-114.86542,27.62646]],[[-114.86568,27.6281],[-114.86569,27.6281],[-114.86568,27.62809],[-114.86568,27.6281]],[[-114.86541,27.627],[-114.8654,27.627],[-114.86541,27.62701],[-114.86541,27.627]],[[-114.86629,27.62865],[-114.86629,27.62864],[-114.86628,27.62865],[-114.86629,27.62865]],[[-114.86568,27.62891],[-114.86568,27.6289],[-114.86567,27.62891],[-114.86568,27.62891]],[[-114.85758,27.62309],[-114.85757,27.62309],[-114.85758,27.6231],[-114.85758,27.62309]],[[-114.8576,27.62229],[-114.8576,27.62228],[-114.85759,27.62229],[-114.8576,27.62229]],[[-114.86498,27.63322],[-114.86497,27.63322],[-114.86498,27.63323],[-114.86498,27.63322]],[[-114.86413,27.62996],[-114.86413,27.62997],[-114.86414,27.62996],[-114.86413,27.62996]],[[-114.86612,27.63704],[-114.86613,27.63704],[-114.86612,27.63703],[-114.86612,27.63704]],[[-114.86505,27.62943],[-114.86505,27.62944],[-114.86506,27.62943],[-114.86505,27.62943]],[[-114.86559,27.6335],[-114.86558,27.6335],[-114.86559,27.63351],[-114.86559,27.6335]],[[-114.86593,27.63107],[-114.86593,27.63108],[-114.86594,27.63107],[-114.86593,27.63107]],[[-114.86595,27.62999],[-114.86595,27.63],[-114.86596,27.62999],[-114.86595,27.62999]],[[-114.86534,27.62998],[-114.86534,27.62999],[-114.86535,27.62998],[-114.86534,27.62998]],[[-114.86626,27.62946],[-114.86627,27.62946],[-114.86626,27.62945],[-114.86626,27.62946]],[[-114.86566,27.62972],[-114.86566,27.62971],[-114.86565,27.62972],[-114.86566,27.62972]],[[-114.86655,27.63028],[-114.86656,27.63028],[-114.86655,27.63027],[-114.86655,27.63028]],[[-114.86533,27.63053],[-114.86534,27.63053],[-114.86533,27.63052],[-114.86533,27.63053]],[[-114.86595,27.63027],[-114.86595,27.63026],[-114.86594,27.63027],[-114.86595,27.63027]],[[-114.86653,27.63136],[-114.86654,27.63136],[-114.86653,27.63135],[-114.86653,27.63136]],[[-114.86593,27.63162],[-114.86593,27.63161],[-114.86592,27.63162],[-114.86593,27.63162]],[[-114.86655,27.63109],[-114.86655,27.63108],[-114.86654,27.63109],[-114.86655,27.63109]],[[-114.86623,27.63189],[-114.86622,27.63189],[-114.86623,27.6319],[-114.86623,27.63189]],[[-114.8662,27.63271],[-114.86621,27.63271],[-114.8662,27.6327],[-114.8662,27.63271]],[[-114.86586,27.63513],[-114.86585,27.63513],[-114.86586,27.63514],[-114.86586,27.63513]],[[-114.86525,27.63512],[-114.86524,27.63512],[-114.86525,27.63513],[-114.86525,27.63512]],[[-114.86587,27.63432],[-114.86587,27.63433],[-114.86588,27.63432],[-114.86587,27.63432]],[[-114.8662,27.63352],[-114.8662,27.63351],[-114.86619,27.63352],[-114.8662,27.63352]],[[-114.86558,27.63405],[-114.86558,27.63404],[-114.86557,27.63405],[-114.86558,27.63405]],[[-114.86647,27.63461],[-114.86648,27.63461],[-114.86647,27.6346],[-114.86647,27.63461]],[[-114.86586,27.6346],[-114.86587,27.6346],[-114.86586,27.63459],[-114.86586,27.6346]],[[-114.86525,27.63486],[-114.86526,27.63486],[-114.86525,27.63485],[-114.86525,27.63486]],[[-114.86647,27.63488],[-114.86647,27.63487],[-114.86646,27.63488],[-114.86647,27.63488]],[[-114.86646,27.63569],[-114.86646,27.63568],[-114.86645,27.63569],[-114.86646,27.63569]],[[-114.86523,27.63567],[-114.86524,27.63567],[-114.86523,27.63566],[-114.86523,27.63567]],[[-114.86585,27.63541],[-114.86585,27.6354],[-114.86584,27.63541],[-114.86585,27.63541]],[[-114.86674,27.63678],[-114.86674,27.63677],[-114.86673,27.63678],[-114.86674,27.63678]],[[-114.86552,27.63703],[-114.86552,27.63702],[-114.86551,27.63703],[-114.86552,27.63703]],[[-114.86671,27.63759],[-114.86672,27.63759],[-114.86671,27.63758],[-114.86671,27.63759]],[[-114.8655,27.63757],[-114.86551,27.63757],[-114.8655,27.63756],[-114.8655,27.63757]],[[-114.86673,27.63732],[-114.86673,27.63731],[-114.86672,27.63732],[-114.86673,27.63732]],[[-114.86612,27.63731],[-114.86612,27.6373],[-114.86611,27.63731],[-114.86612,27.63731]],[[-114.86481,27.62673],[-114.86481,27.62672],[-114.8648,27.62673],[-114.86481,27.62673]],[[-114.8642,27.62672],[-114.8642,27.62671],[-114.86419,27.62672],[-114.8642,27.62672]],[[-114.86328,27.62698],[-114.86328,27.62697],[-114.86327,27.62698],[-114.86328,27.62698]],[[-114.86361,27.62535],[-114.86361,27.62536],[-114.86362,27.62535],[-114.86361,27.62535]],[[-114.86303,27.62427],[-114.86303,27.62426],[-114.86302,27.62427],[-114.86303,27.62427]],[[-114.86393,27.62482],[-114.86393,27.62481],[-114.86392,27.62482],[-114.86393,27.62482]],[[-114.86481,27.62591],[-114.86481,27.62592],[-114.86482,27.62591],[-114.86481,27.62591]],[[-114.86359,27.62617],[-114.8636,27.62617],[-114.86359,27.62616],[-114.86359,27.62617]],[[-114.86421,27.62564],[-114.86422,27.62564],[-114.86421,27.62563],[-114.86421,27.62564]],[[-114.86447,27.62834],[-114.86446,27.62834],[-114.86447,27.62835],[-114.86447,27.62834]],[[-114.86386,27.62833],[-114.86385,27.62833],[-114.86386,27.62834],[-114.86386,27.62833]],[[-114.86448,27.62753],[-114.86448,27.62754],[-114.86449,27.62753],[-114.86448,27.62753]],[[-114.86326,27.62779],[-114.86327,27.62779],[-114.86326,27.62778],[-114.86326,27.62779]],[[-114.86386,27.62807],[-114.86387,27.62807],[-114.86386,27.62806],[-114.86386,27.62807]],[[-114.86354,27.62888],[-114.86355,27.62888],[-114.86354,27.62887],[-114.86354,27.62888]],[[-114.86472,27.63052],[-114.86473,27.63052],[-114.86472,27.63051],[-114.86472,27.63052]],[[-114.86474,27.63025],[-114.86474,27.63024],[-114.86473,27.63025],[-114.86474,27.63025]],[[-114.86413,27.63024],[-114.86413,27.63023],[-114.86412,27.63024],[-114.86413,27.63024]],[[-114.86412,27.63078],[-114.86412,27.63077],[-114.86411,27.63078],[-114.86412,27.63078]],[[-114.86466,27.63403],[-114.86465,27.63403],[-114.86466,27.63404],[-114.86466,27.63403]],[[-114.86405,27.63429],[-114.86404,27.63429],[-114.86405,27.6343],[-114.86405,27.63429]],[[-114.86344,27.63428],[-114.86343,27.63428],[-114.86344,27.63429],[-114.86344,27.63428]],[[-114.86467,27.63377],[-114.86467,27.63376],[-114.86466,27.63377],[-114.86467,27.63377]],[[-114.86407,27.63349],[-114.86407,27.63348],[-114.86406,27.63349],[-114.86407,27.63349]],[[-114.86372,27.6351],[-114.86372,27.63511],[-114.86373,27.6351],[-114.86372,27.6351]],[[-114.86465,27.63485],[-114.86465,27.63484],[-114.86464,27.63485],[-114.86465,27.63485]],[[-114.86153,27.62343],[-114.86153,27.62342],[-114.86152,27.62343],[-114.86153,27.62343]],[[-114.86,27.62341],[-114.86001,27.62341],[-114.86,27.6234],[-114.86,27.62341]],[[-114.85939,27.6234],[-114.8594,27.6234],[-114.85939,27.62339],[-114.85939,27.6234]],[[-114.85973,27.62231],[-114.85972,27.62231],[-114.85973,27.62232],[-114.85973,27.62231]],[[-114.85912,27.6223],[-114.85911,27.6223],[-114.85912,27.62231],[-114.85912,27.6223]],[[-114.85851,27.62175],[-114.85851,27.62176],[-114.85852,27.62175],[-114.85851,27.62175]],[[-114.8579,27.62174],[-114.8579,27.62175],[-114.85791,27.62174],[-114.8579,27.62174]],[[-114.85792,27.62148],[-114.85792,27.62147],[-114.85791,27.62148],[-114.85792,27.62148]],[[-114.86032,27.6226],[-114.86033,27.6226],[-114.86032,27.62259],[-114.86032,27.6226]],[[-114.85819,27.62257],[-114.8582,27.62257],[-114.85819,27.62256],[-114.85819,27.62257]],[[-114.8594,27.62313],[-114.85941,27.62313],[-114.8594,27.62312],[-114.8594,27.62313]],[[-114.86241,27.6248],[-114.86241,27.62479],[-114.8624,27.6248],[-114.86241,27.6248]],[[-114.86119,27.62505],[-114.86119,27.62504],[-114.86118,27.62505],[-114.86119,27.62505]],[[-114.85998,27.62503],[-114.85998,27.62502],[-114.85997,27.62503],[-114.85998,27.62503]],[[-114.86243,27.62398],[-114.86242,27.62398],[-114.86243,27.62399],[-114.86243,27.62398]],[[-114.8609,27.62396],[-114.8609,27.62423],[-114.86121,27.62396],[-114.8609,27.62396]],[[-114.86212,27.6237],[-114.86212,27.62371],[-114.86213,27.6237],[-114.86212,27.6237]],[[-114.8606,27.62368],[-114.8606,27.62369],[-114.86061,27.62368],[-114.8606,27.62368]],[[-114.85999,27.62367],[-114.85999,27.62368],[-114.86,27.62367],[-114.85999,27.62367]],[[-114.85878,27.62365],[-114.85878,27.62366],[-114.85879,27.62365],[-114.85878,27.62365]],[[-114.85877,27.62393],[-114.85878,27.62393],[-114.85877,27.62392],[-114.85877,27.62393]],[[-114.85817,27.62365],[-114.85818,27.62365],[-114.85817,27.62364],[-114.85817,27.62365]],[[-114.85938,27.62394],[-114.85939,27.62394],[-114.85938,27.62393],[-114.85938,27.62394]],[[-114.8618,27.62451],[-114.8618,27.62452],[-114.86181,27.62451],[-114.8618,27.62451]],[[-114.86059,27.62449],[-114.86059,27.6245],[-114.8606,27.62449],[-114.86059,27.62449]],[[-114.85998,27.62448],[-114.85998,27.62449],[-114.85999,27.62448],[-114.85998,27.62448]],[[-114.86181,27.62425],[-114.86182,27.62425],[-114.86181,27.62424],[-114.86181,27.62425]],[[-114.86119,27.62478],[-114.8612,27.62478],[-114.86119,27.62477],[-114.86119,27.62478]],[[-114.86058,27.62477],[-114.86059,27.62477],[-114.86058,27.62476],[-114.86058,27.62477]],[[-114.85937,27.62475],[-114.85938,27.62475],[-114.85937,27.62474],[-114.85937,27.62475]],[[-114.86148,27.62586],[-114.86147,27.62586],[-114.86148,27.62587],[-114.86148,27.62586]],[[-114.86087,27.62585],[-114.86086,27.62585],[-114.86087,27.62586],[-114.86087,27.62585]],[[-114.86026,27.62557],[-114.86026,27.62558],[-114.86027,27.62557],[-114.86026,27.62557]],[[-114.86027,27.62531],[-114.86028,27.62531],[-114.86027,27.6253],[-114.86027,27.62531]],[[-114.86239,27.62561],[-114.8624,27.62561],[-114.86239,27.6256],[-114.86239,27.62561]],[[-114.86087,27.62559],[-114.86088,27.62559],[-114.86087,27.62558],[-114.86087,27.62559]],[[-114.86208,27.62642],[-114.86208,27.62641],[-114.86207,27.62642],[-114.86208,27.62642]],[[-114.86268,27.62669],[-114.86267,27.62669],[-114.86268,27.6267],[-114.86268,27.62669]],[[-114.85311,27.61815],[-114.85311,27.61816],[-114.85312,27.61815],[-114.85311,27.61815]],[[-114.85252,27.61788],[-114.85252,27.61787],[-114.85251,27.61788],[-114.85252,27.61788]],[[-114.85284,27.61707],[-114.85284,27.61706],[-114.85283,27.61707],[-114.85284,27.61707]],[[-114.8525,27.61868],[-114.85249,27.61868],[-114.8525,27.61869],[-114.8525,27.61868]],[[-114.85455,27.62224],[-114.85456,27.62224],[-114.85455,27.62223],[-114.85455,27.62224]],[[-114.85673,27.62011],[-114.85673,27.6201],[-114.85672,27.62011],[-114.85673,27.62011]],[[-114.85581,27.62009],[-114.85398,27.62033],[-114.85397,27.62115],[-114.85609,27.62145],[-114.85581,27.62009]],[[-114.85369,27.62006],[-114.85369,27.62005],[-114.85368,27.62006],[-114.85369,27.62006]],[[-114.85553,27.61927],[-114.85552,27.61927],[-114.85553,27.61928],[-114.85553,27.61927]],[[-114.85492,27.61926],[-114.85491,27.61926],[-114.85492,27.61927],[-114.85492,27.61926]],[[-114.85371,27.61924],[-114.8537,27.61924],[-114.85371,27.61925],[-114.85371,27.61924]],[[-114.8531,27.61923],[-114.85309,27.61923],[-114.8531,27.61924],[-114.8531,27.61923]],[[-114.85492,27.619],[-114.85493,27.619],[-114.85492,27.61899],[-114.85492,27.619]],[[-114.85431,27.61899],[-114.85432,27.61899],[-114.85431,27.61898],[-114.85431,27.61899]],[[-114.85612,27.61955],[-114.85612,27.61956],[-114.85613,27.61955],[-114.85612,27.61955]],[[-114.85551,27.61954],[-114.85551,27.61955],[-114.85552,27.61954],[-114.85551,27.61954]],[[-114.8549,27.6198],[-114.8549,27.61981],[-114.85491,27.6198],[-114.8549,27.6198]],[[-114.85429,27.61979],[-114.85429,27.6198],[-114.8543,27.61979],[-114.85429,27.61979]],[[-114.8543,27.61953],[-114.85431,27.61953],[-114.8543,27.61952],[-114.8543,27.61953]],[[-114.85369,27.61952],[-114.8537,27.61952],[-114.85369,27.61951],[-114.85369,27.61952]],[[-114.85458,27.62142],[-114.85457,27.62142],[-114.85458,27.62143],[-114.85458,27.62142]],[[-114.85397,27.62141],[-114.85396,27.62141],[-114.85397,27.62142],[-114.85397,27.62141]],[[-114.85732,27.62119],[-114.85731,27.62119],[-114.85732,27.6212],[-114.85732,27.62119]],[[-114.85732,27.62038],[-114.85732,27.62039],[-114.85733,27.62038],[-114.85732,27.62038]],[[-114.8567,27.62092],[-114.85671,27.62092],[-114.8567,27.62091],[-114.8567,27.62092]],[[-114.85638,27.62172],[-114.85638,27.62173],[-114.85639,27.62172],[-114.85638,27.62172]],[[-114.85517,27.6217],[-114.85517,27.62171],[-114.85518,27.6217],[-114.85517,27.6217]],[[-114.85456,27.62169],[-114.85456,27.6217],[-114.85457,27.62169],[-114.85456,27.62169]],[[-114.85577,27.62199],[-114.85578,27.62199],[-114.85577,27.62198],[-114.85577,27.62199]],[[-114.85516,27.62198],[-114.85517,27.62198],[-114.85516,27.62197],[-114.85516,27.62198]],[[-114.85637,27.62253],[-114.85637,27.62254],[-114.85638,27.62253],[-114.85637,27.62253]],[[-114.85545,27.62279],[-114.85545,27.6228],[-114.85546,27.62279],[-114.85545,27.62279]],[[-114.85697,27.62282],[-114.85698,27.62282],[-114.85697,27.62281],[-114.85697,27.62282]],[[-114.85162,27.6165],[-114.85162,27.61651],[-114.85163,27.6165],[-114.85162,27.6165]],[[-114.84888,27.61673],[-114.84888,27.61674],[-114.84889,27.61673],[-114.84888,27.61673]],[[-114.84526,27.61586],[-114.84525,27.61586],[-114.84526,27.61587],[-114.84526,27.61586]],[[-114.84527,27.61559],[-114.84526,27.61559],[-114.84527,27.6156],[-114.84527,27.61559]],[[-114.84861,27.61565],[-114.84861,27.61564],[-114.8486,27.61565],[-114.84861,27.61565]],[[-114.848,27.61564],[-114.848,27.61563],[-114.84799,27.61564],[-114.848,27.61564]],[[-114.84709,27.61563],[-114.84709,27.61562],[-114.84708,27.61563],[-114.84709,27.61563]],[[-114.84648,27.61562],[-114.84648,27.61561],[-114.84647,27.61562],[-114.84648,27.61562]],[[-114.84587,27.61587],[-114.84586,27.61587],[-114.84587,27.61588],[-114.84587,27.61587]],[[-114.84587,27.61533],[-114.84587,27.61534],[-114.84588,27.61533],[-114.84587,27.61533]],[[-114.84589,27.61507],[-114.84589,27.61506],[-114.84588,27.61507],[-114.84589,27.61507]],[[-114.848,27.61537],[-114.84801,27.61537],[-114.848,27.61536],[-114.848,27.61537]],[[-114.84648,27.61535],[-114.84649,27.61535],[-114.84648,27.61534],[-114.84648,27.61535]],[[-114.85164,27.61623],[-114.85163,27.61623],[-114.85164,27.61624],[-114.85164,27.61623]],[[-114.85103,27.61622],[-114.85102,27.61622],[-114.85103,27.61623],[-114.85103,27.61622]],[[-114.84951,27.6162],[-114.8495,27.6162],[-114.84951,27.61621],[-114.84951,27.6162]],[[-114.84769,27.61617],[-114.84768,27.61617],[-114.84769,27.61618],[-114.84769,27.61617]],[[-114.85042,27.61594],[-114.85042,27.61595],[-114.85043,27.61594],[-114.85042,27.61594]],[[-114.84828,27.61645],[-114.84828,27.61646],[-114.84829,27.61645],[-114.84828,27.61645]],[[-114.84646,27.61642],[-114.84646,27.61643],[-114.84647,27.61642],[-114.84646,27.61642]],[[-114.85097,27.61921],[-114.85127,27.61921],[-114.85097,27.61893],[-114.85097,27.61921]],[[-114.85131,27.61731],[-114.8513,27.61731],[-114.85131,27.61732],[-114.85131,27.61731]],[[-114.84948,27.61729],[-114.84949,27.61729],[-114.84948,27.61728],[-114.84948,27.61729]],[[-114.85129,27.61813],[-114.8513,27.61813],[-114.85129,27.61812],[-114.85129,27.61813]],[[-114.85189,27.61841],[-114.8519,27.61841],[-114.85189,27.6184],[-114.85189,27.61841]],[[-114.85068,27.61866],[-114.85068,27.61865],[-114.85067,27.61866],[-114.85068,27.61866]],[[-114.84947,27.61783],[-114.84948,27.61783],[-114.84947,27.61782],[-114.84947,27.61783]],[[-114.85217,27.61949],[-114.85217,27.6195],[-114.85218,27.61949],[-114.85217,27.61949]],[[-114.85157,27.61922],[-114.85158,27.61922],[-114.85157,27.61921],[-114.85157,27.61922]],[[-114.84465,27.61559],[-114.84466,27.61559],[-114.84465,27.61558],[-114.84465,27.61559]],[[-114.84405,27.61557],[-114.84374,27.61557],[-114.84405,27.61585],[-114.84405,27.61557]],[[-114.84192,27.61555],[-114.84193,27.61555],[-114.84192,27.61554],[-114.84192,27.61555]],[[-114.84192,27.61582],[-114.84192,27.61581],[-114.84191,27.61582],[-114.84192,27.61582]],[[-114.84408,27.61423],[-114.84408,27.61422],[-114.84407,27.61423],[-114.84408,27.61423]],[[-114.84283,27.61529],[-114.84284,27.61529],[-114.84283,27.61528],[-114.84283,27.61529]],[[-114.84345,27.61476],[-114.84346,27.61476],[-114.84345,27.61475],[-114.84345,27.61476]],[[-114.84468,27.61451],[-114.84468,27.6145],[-114.84467,27.61451],[-114.84468,27.61451]],[[-114.84466,27.61532],[-114.84467,27.61532],[-114.84466,27.61531],[-114.84466,27.61532]],[[-114.84405,27.61531],[-114.84406,27.61531],[-114.84405,27.6153],[-114.84405,27.61531]],[[-114.84311,27.61719],[-114.84311,27.61718],[-114.8431,27.61719],[-114.84311,27.61719]],[[-114.8431,27.61745],[-114.84309,27.61745],[-114.8431,27.61746],[-114.8431,27.61745]],[[-114.84495,27.6164],[-114.84494,27.6164],[-114.84495,27.61641],[-114.84495,27.6164]],[[-114.84434,27.61612],[-114.84434,27.61613],[-114.84435,27.61612],[-114.84434,27.61612]],[[-114.84251,27.61609],[-114.84251,27.6161],[-114.84252,27.61609],[-114.84251,27.61609]],[[-114.8425,27.6169],[-114.8425,27.61691],[-114.84251,27.6169],[-114.8425,27.6169]],[[-114.84372,27.61666],[-114.84373,27.61666],[-114.84372,27.61665],[-114.84372,27.61666]],[[-114.84249,27.61718],[-114.8425,27.61718],[-114.84249,27.61717],[-114.84249,27.61718]],[[-114.84097,27.61716],[-114.84098,27.61716],[-114.84097,27.61715],[-114.84097,27.61716]],[[-114.84035,27.61849],[-114.84034,27.61849],[-114.84035,27.6185],[-114.84035,27.61849]],[[-114.84278,27.61799],[-114.84278,27.618],[-114.84279,27.61799],[-114.84278,27.61799]],[[-114.84096,27.61796],[-114.84096,27.61797],[-114.84097,27.61796],[-114.84096,27.61796]],[[-114.84218,27.61772],[-114.84219,27.61772],[-114.84218,27.61771],[-114.84218,27.61772]],[[-114.84156,27.61825],[-114.84157,27.61825],[-114.84156,27.61824],[-114.84156,27.61825]],[[-114.84095,27.61878],[-114.84095,27.61877],[-114.84094,27.61878],[-114.84095,27.61878]]],[[[-114.87872,27.64589],[-114.87872,27.64562],[-114.87903,27.64589],[-114.87872,27.64589]]],[[[-114.87347,27.65014],[-114.87317,27.65014],[-114.87347,27.64987],[-114.87347,27.65014]]],[[[-114.87546,27.65748],[-114.87515,27.65748],[-114.87546,27.65721],[-114.87546,27.65748]]],[[[-114.88695,27.69231],[-114.88696,27.69177],[-114.88725,27.69231],[-114.88695,27.69231]]],[[[-114.88694,27.69285],[-114.88694,27.69258],[-114.88725,27.69285],[-114.88694,27.69285]]],[[[-114.88754,27.69313],[-114.88724,27.69313],[-114.88754,27.69286],[-114.88754,27.69313]]],[[[-114.88692,27.69367],[-114.88692,27.6934],[-114.88723,27.69367],[-114.88692,27.69367]]]]}}]}