{"type":"FeatureCollection","features":[{"type":"Feature","geometry":{"type":"Polygon","coordinates":[[[-114.507,27.82],[-114.252,28.0],[-113.0,28.002],[-112.715,28.001],[-112.709,27.872],[-112.608,27.744],[-112.398,27.633],[-112.286,27.54],[-112.251,27.4],[-112.295,27.379],[-112.291,27.367],[-112.271,27.356],[-112.265,27.336],[-112.246,27.323],[-112.246,27.275],[-112.252,27.276],[-112.27,27.265],[-112.288,27.261],[-112.296,27.264],[-112.328,27.254],[-112.351,27.26],[-112.356,27.302],[-112.371,27.307],[-112.39,27.305],[-112.398,27.308],[-112.404,27.319],[-112.458,27.371],[-112.463,27.384],[-112.505,27.397],[-112.518,27.403],[-112.549,27.408],[-112.561,27.407],[-112.569,27.412],[-112.592,27.411],[-112.598,27.416],[-112.614,27.418],[-112.653,27.4],[-112.694,27.371],[-112.744,27.345],[-112.752,27.34],[-112.784,27.328],[-112.8,27.318],[-112.82,27.317],[-112.838,27.314],[-112.848,27.307],[-112.865,27.299],[-112.886,27.301],[-112.899,27.3],[-112.896,27.283],[-112.887,27.275],[-112.874,27.247],[-112.86,27.234],[-112.857,27.228],[-112.861,27.221],[-112.856,27.191],[-112.867,27.18],[-112.884,27.156],[-112.905,27.138],[-112.913,27.135],[-112.915,27.126],[-112.933,27.122],[-112.95,27.116],[-112.961,27.117],[-112.998,27.078],[-113.006,27.044],[-113.017,27.029],[-113.022,27.006],[-113.081,26.938],[-113.043,26.852],[-113.084,26.787],[-113.008,26.72],[-112.998,26.687],[-112.879,26.588],[-112.807,26.482],[-112.811,26.453],[-112.806,26.426],[-112.84,26.382],[-113.215,26.646],[-113.284,26.662],[-113.342,26.736],[-113.414,26.757],[-113.473,26.742],[-113.51,26.692],[-113.6,26.665],[-113.684,26.71],[-113.778,26.779],[-113.826,26.89],[-113.892,26.94],[-113.94,26.954],[-114.002,26.928],[-114.1,27.007],[-114.139,27.065],[-114.224,27.101],[-114.277,27.055],[-114.313,27.058],[-114.314,27.096],[-114.345,27.095],[-114.462,27.138],[-114.533,27.21],[-114.539,27.356],[-114.566,27.399],[-114.763,27.486],[-114.805,27.534],[-114.818,27.573],[-114.885,27.588],[-114.961,27.644],[-114.987,27.682],[-115.04,27.688],[-115.12,27.818],[-115.209,27.823],[-115.253,27.864],[-115.248,27.932],[-115.187,27.943],[-115.122,27.909],[-115.051,27.908],[-114.963,27.871],[-114.861,27.875],[-114.507,27.82]]]},"properties":{"id":"el-vizca-no","name":"El Vizca\u00edno","type":"Reserva de la Biosfera","shortName":"El Vizca\u00edno","areaKm2":25467.9,"ccrCitation":null}},{"type":"Feature","geometry":{"type":"Polygon","coordinates":[[[-114.105,28.239],[-114.1,28.239],[-114.096,28.241],[-114.094,28.242],[-114.093,28.246],[-114.086,28.247],[-114.085,28.247],[-114.076,28.241],[-114.072,28.237],[-114.068,28.222],[-114.071,28.194],[-114.09,28.159],[-114.138,28.085],[-114.186,28.022],[-114.205,28.0],[-114.252,28.0],[-114.507,27.82],[-114.861,27.875],[-114.963,27.871],[-115.051,27.908],[-115.122,27.909],[-115.187,27.943],[-115.248,27.932],[-115.253,27.864],[-115.209,27.823],[-115.12,27.818],[-115.111,27.803],[-115.126,27.795],[-115.278,27.721],[-115.581,27.896],[-115.833,28.333],[-115.562,28.672],[-115.282,28.596],[-114.124,28.255],[-114.12,28.253],[-114.116,28.249],[-114.116,28.245],[-114.115,28.243],[-114.105,28.239]]]},"properties":{"id":"islas-del-pac-fico-de-la-pen-nsula-de-baja-california-3","name":"Islas del Pac\u00edfico de la Pen\u00ednsula de Baja California","type":"Reserva de la Biosfera","shortName":"Islas del Pac\u00edfico de la Pen\u00ednsula de Baja California","areaKm2":11612.2,"ccrCitation":null}}]}