{"type":"FeatureCollection","features":[{"type":"Feature","geometry":{"type":"Point","coordinates":[-114.98174,27.71742]},"properties":{"depth_ft":23,"depth_m":6.9}},{"type":"Feature","geometry":{"type":"Point","coordinates":[-114.96405,27.71742]},"properties":{"depth_ft":5,"depth_m":1.5}},{"type":"Feature","geometry":{"type":"Point","coordinates":[-114.98174,27.70958]},"properties":{"depth_ft":63,"depth_m":19.2}},{"type":"Feature","geometry":{"type":"Point","coordinates":[-114.97289,27.70958]},"properties":{"depth_ft":43,"depth_m":13.0}},{"type":"Feature","geometry":{"type":"Point","coordinates":[-114.96405,27.70958]},"properties":{"depth_ft":49,"depth_m":14.8}},{"type":"Feature","geometry":{"type":"Point","coordinates":[-114.9552,27.70958]},"properties":{"depth_ft":37,"depth_m":11.3}},{"type":"Feature","geometry":{"type":"Point","coordinates":[-114.94635,27.70958]},"properties":{"depth_ft":7,"depth_m":2.3}},{"type":"Feature","geometry":{"type":"Point","coordinates":[-114.98174,27.70175]},"properties":{"depth_ft":94,"depth_m":28.7}},{"type":"Feature","geometry":{"type":"Point","coordinates":[-114.97289,27.70175]},"properties":{"depth_ft":73,"depth_m":22.3}},{"type":"Feature","geometry":{"type":"Point","coordinates":[-114.96405,27.70175]},"properties":{"depth_ft":77,"depth_m":23.4}},{"type":"Feature","geometry":{"type":"Point","coordinates":[-114.9552,27.70175]},"properties":{"depth_ft":67,"depth_m":20.6}},{"type":"Feature","geometry":{"type":"Point","coordinates":[-114.94635,27.70175]},"properties":{"depth_ft":41,"depth_m":12.4}},{"type":"Feature","geometry":{"type":"Point","coordinates":[-114.98174,27.69392]},"properties":{"depth_ft":122,"depth_m":37.2}},{"type":"Feature","geometry":{"type":"Point","coordinates":[-114.97289,27.69392]},"properties":{"depth_ft":101,"depth_m":30.8}},{"type":"Feature","geometry":{"type":"Point","coordinates":[-114.96405,27.69392]},"properties":{"depth_ft":97,"depth_m":29.5}},{"type":"Feature","geometry":{"type":"Point","coordinates":[-114.9552,27.69392]},"properties":{"depth_ft":82,"depth_m":25.1}},{"type":"Feature","geometry":{"type":"Point","coordinates":[-114.94635,27.69392]},"properties":{"depth_ft":55,"depth_m":16.8}},{"type":"Feature","geometry":{"type":"Point","coordinates":[-114.88442,27.69392]},"properties":{"depth_ft":4,"depth_m":1.2}},{"type":"Feature","geometry":{"type":"Point","coordinates":[-114.87558,27.69392]},"properties":{"depth_ft":18,"depth_m":5.6}},{"type":"Feature","geometry":{"type":"Point","coordinates":[-114.86673,27.69392]},"properties":{"depth_ft":8,"depth_m":2.6}},{"type":"Feature","geometry":{"type":"Point","coordinates":[-114.98174,27.68608]},"properties":{"depth_ft":155,"depth_m":47.2}},{"type":"Feature","geometry":{"type":"Point","coordinates":[-114.97289,27.68608]},"properties":{"depth_ft":141,"depth_m":42.9}},{"type":"Feature","geometry":{"type":"Point","coordinates":[-114.96405,27.68608]},"properties":{"depth_ft":114,"depth_m":34.8}},{"type":"Feature","geometry":{"type":"Point","coordinates":[-114.9552,27.68608]},"properties":{"depth_ft":83,"depth_m":25.2}},{"type":"Feature","geometry":{"type":"Point","coordinates":[-114.94635,27.68608]},"properties":{"depth_ft":49,"depth_m":14.8}},{"type":"Feature","geometry":{"type":"Point","coordinates":[-114.88442,27.68608]},"properties":{"depth_ft":28,"depth_m":8.6}},{"type":"Feature","geometry":{"type":"Point","coordinates":[-114.87558,27.68608]},"properties":{"depth_ft":28,"depth_m":8.6}},{"type":"Feature","geometry":{"type":"Point","coordinates":[-114.86673,27.68608]},"properties":{"depth_ft":27,"depth_m":8.1}},{"type":"Feature","geometry":{"type":"Point","coordinates":[-114.85788,27.68608]},"properties":{"depth_ft":15,"depth_m":4.7}},{"type":"Feature","geometry":{"type":"Point","coordinates":[-114.98174,27.67825]},"properties":{"depth_ft":198,"depth_m":60.4}},{"type":"Feature","geometry":{"type":"Point","coordinates":[-114.97289,27.67825]},"properties":{"depth_ft":182,"depth_m":55.3}},{"type":"Feature","geometry":{"type":"Point","coordinates":[-114.96405,27.67825]},"properties":{"depth_ft":139,"depth_m":42.3}},{"type":"Feature","geometry":{"type":"Point","coordinates":[-114.9552,27.67825]},"properties":{"depth_ft":85,"depth_m":26.0}},{"type":"Feature","geometry":{"type":"Point","coordinates":[-114.94635,27.67825]},"properties":{"depth_ft":33,"depth_m":10.1}},{"type":"Feature","geometry":{"type":"Point","coordinates":[-114.89327,27.67825]},"properties":{"depth_ft":18,"depth_m":5.4}},{"type":"Feature","geometry":{"type":"Point","coordinates":[-114.88442,27.67825]},"properties":{"depth_ft":40,"depth_m":12.3}},{"type":"Feature","geometry":{"type":"Point","coordinates":[-114.87558,27.67825]},"properties":{"depth_ft":34,"depth_m":10.5}},{"type":"Feature","geometry":{"type":"Point","coordinates":[-114.86673,27.67825]},"properties":{"depth_ft":32,"depth_m":9.9}},{"type":"Feature","geometry":{"type":"Point","coordinates":[-114.85788,27.67825]},"properties":{"depth_ft":33,"depth_m":10.0}},{"type":"Feature","geometry":{"type":"Point","coordinates":[-114.98174,27.67042]},"properties":{"depth_ft":248,"depth_m":75.5}},{"type":"Feature","geometry":{"type":"Point","coordinates":[-114.97289,27.67042]},"properties":{"depth_ft":213,"depth_m":65.1}},{"type":"Feature","geometry":{"type":"Point","coordinates":[-114.96405,27.67042]},"properties":{"depth_ft":165,"depth_m":50.3}},{"type":"Feature","geometry":{"type":"Point","coordinates":[-114.9552,27.67042]},"properties":{"depth_ft":106,"depth_m":32.4}},{"type":"Feature","geometry":{"type":"Point","coordinates":[-114.94635,27.67042]},"properties":{"depth_ft":49,"depth_m":15.0}},{"type":"Feature","geometry":{"type":"Point","coordinates":[-114.93751,27.67042]},"properties":{"depth_ft":64,"depth_m":19.5}},{"type":"Feature","geometry":{"type":"Point","coordinates":[-114.92866,27.67042]},"properties":{"depth_ft":38,"depth_m":11.5}},{"type":"Feature","geometry":{"type":"Point","coordinates":[-114.89327,27.67042]},"properties":{"depth_ft":48,"depth_m":14.5}},{"type":"Feature","geometry":{"type":"Point","coordinates":[-114.88442,27.67042]},"properties":{"depth_ft":39,"depth_m":12.0}},{"type":"Feature","geometry":{"type":"Point","coordinates":[-114.87558,27.67042]},"properties":{"depth_ft":35,"depth_m":10.6}},{"type":"Feature","geometry":{"type":"Point","coordinates":[-114.86673,27.67042]},"properties":{"depth_ft":32,"depth_m":9.7}},{"type":"Feature","geometry":{"type":"Point","coordinates":[-114.85788,27.67042]},"properties":{"depth_ft":31,"depth_m":9.4}},{"type":"Feature","geometry":{"type":"Point","coordinates":[-114.84904,27.67042]},"properties":{"depth_ft":14,"depth_m":4.3}},{"type":"Feature","geometry":{"type":"Point","coordinates":[-114.98174,27.66258]},"properties":{"depth_ft":292,"depth_m":88.9}},{"type":"Feature","geometry":{"type":"Point","coordinates":[-114.97289,27.66258]},"properties":{"depth_ft":235,"depth_m":71.7}},{"type":"Feature","geometry":{"type":"Point","coordinates":[-114.96405,27.66258]},"properties":{"depth_ft":190,"depth_m":58.0}},{"type":"Feature","geometry":{"type":"Point","coordinates":[-114.9552,27.66258]},"properties":{"depth_ft":147,"depth_m":44.9}},{"type":"Feature","geometry":{"type":"Point","coordinates":[-114.94635,27.66258]},"properties":{"depth_ft":113,"depth_m":34.5}},{"type":"Feature","geometry":{"type":"Point","coordinates":[-114.93751,27.66258]},"properties":{"depth_ft":120,"depth_m":36.5}},{"type":"Feature","geometry":{"type":"Point","coordinates":[-114.92866,27.66258]},"properties":{"depth_ft":125,"depth_m":38.0}},{"type":"Feature","geometry":{"type":"Point","coordinates":[-114.91981,27.66258]},"properties":{"depth_ft":91,"depth_m":27.8}},{"type":"Feature","geometry":{"type":"Point","coordinates":[-114.91096,27.66258]},"properties":{"depth_ft":47,"depth_m":14.3}},{"type":"Feature","geometry":{"type":"Point","coordinates":[-114.90212,27.66258]},"properties":{"depth_ft":51,"depth_m":15.7}},{"type":"Feature","geometry":{"type":"Point","coordinates":[-114.89327,27.66258]},"properties":{"depth_ft":58,"depth_m":17.5}},{"type":"Feature","geometry":{"type":"Point","coordinates":[-114.88442,27.66258]},"properties":{"depth_ft":47,"depth_m":14.3}},{"type":"Feature","geometry":{"type":"Point","coordinates":[-114.87558,27.66258]},"properties":{"depth_ft":32,"depth_m":9.9}},{"type":"Feature","geometry":{"type":"Point","coordinates":[-114.86673,27.66258]},"properties":{"depth_ft":33,"depth_m":10.0}},{"type":"Feature","geometry":{"type":"Point","coordinates":[-114.85788,27.66258]},"properties":{"depth_ft":21,"depth_m":6.2}},{"type":"Feature","geometry":{"type":"Point","coordinates":[-114.97289,27.65475]},"properties":{"depth_ft":247,"depth_m":75.3}},{"type":"Feature","geometry":{"type":"Point","coordinates":[-114.96405,27.65475]},"properties":{"depth_ft":205,"depth_m":62.5}},{"type":"Feature","geometry":{"type":"Point","coordinates":[-114.9552,27.65475]},"properties":{"depth_ft":180,"depth_m":54.9}},{"type":"Feature","geometry":{"type":"Point","coordinates":[-114.94635,27.65475]},"properties":{"depth_ft":155,"depth_m":47.2}},{"type":"Feature","geometry":{"type":"Point","coordinates":[-114.93751,27.65475]},"properties":{"depth_ft":160,"depth_m":48.6}},{"type":"Feature","geometry":{"type":"Point","coordinates":[-114.92866,27.65475]},"properties":{"depth_ft":186,"depth_m":56.6}},{"type":"Feature","geometry":{"type":"Point","coordinates":[-114.91981,27.65475]},"properties":{"depth_ft":160,"depth_m":48.9}},{"type":"Feature","geometry":{"type":"Point","coordinates":[-114.91096,27.65475]},"properties":{"depth_ft":112,"depth_m":34.0}},{"type":"Feature","geometry":{"type":"Point","coordinates":[-114.90212,27.65475]},"properties":{"depth_ft":92,"depth_m":28.1}},{"type":"Feature","geometry":{"type":"Point","coordinates":[-114.89327,27.65475]},"properties":{"depth_ft":95,"depth_m":28.8}},{"type":"Feature","geometry":{"type":"Point","coordinates":[-114.88442,27.65475]},"properties":{"depth_ft":72,"depth_m":21.9}},{"type":"Feature","geometry":{"type":"Point","coordinates":[-114.87558,27.65475]},"properties":{"depth_ft":36,"depth_m":11.0}},{"type":"Feature","geometry":{"type":"Point","coordinates":[-114.86673,27.65475]},"properties":{"depth_ft":18,"depth_m":5.6}},{"type":"Feature","geometry":{"type":"Point","coordinates":[-114.85788,27.65475]},"properties":{"depth_ft":6,"depth_m":1.9}},{"type":"Feature","geometry":{"type":"Point","coordinates":[-114.97289,27.64691]},"properties":{"depth_ft":299,"depth_m":91.1}},{"type":"Feature","geometry":{"type":"Point","coordinates":[-114.96405,27.64691]},"properties":{"depth_ft":248,"depth_m":75.5}},{"type":"Feature","geometry":{"type":"Point","coordinates":[-114.9552,27.64691]},"properties":{"depth_ft":216,"depth_m":65.8}},{"type":"Feature","geometry":{"type":"Point","coordinates":[-114.94635,27.64691]},"properties":{"depth_ft":188,"depth_m":57.3}},{"type":"Feature","geometry":{"type":"Point","coordinates":[-114.93751,27.64691]},"properties":{"depth_ft":178,"depth_m":54.3}},{"type":"Feature","geometry":{"type":"Point","coordinates":[-114.92866,27.64691]},"properties":{"depth_ft":190,"depth_m":57.9}},{"type":"Feature","geometry":{"type":"Point","coordinates":[-114.91981,27.64691]},"properties":{"depth_ft":186,"depth_m":56.7}},{"type":"Feature","geometry":{"type":"Point","coordinates":[-114.91096,27.64691]},"properties":{"depth_ft":171,"depth_m":52.3}},{"type":"Feature","geometry":{"type":"Point","coordinates":[-114.90212,27.64691]},"properties":{"depth_ft":152,"depth_m":46.4}},{"type":"Feature","geometry":{"type":"Point","coordinates":[-114.89327,27.64691]},"properties":{"depth_ft":130,"depth_m":39.5}},{"type":"Feature","geometry":{"type":"Point","coordinates":[-114.88442,27.64691]},"properties":{"depth_ft":95,"depth_m":29.0}},{"type":"Feature","geometry":{"type":"Point","coordinates":[-114.87558,27.64691]},"properties":{"depth_ft":5,"depth_m":1.6}},{"type":"Feature","geometry":{"type":"Point","coordinates":[-114.96405,27.63908]},"properties":{"depth_ft":314,"depth_m":95.8}},{"type":"Feature","geometry":{"type":"Point","coordinates":[-114.9552,27.63908]},"properties":{"depth_ft":262,"depth_m":79.8}},{"type":"Feature","geometry":{"type":"Point","coordinates":[-114.94635,27.63908]},"properties":{"depth_ft":221,"depth_m":67.5}},{"type":"Feature","geometry":{"type":"Point","coordinates":[-114.93751,27.63908]},"properties":{"depth_ft":198,"depth_m":60.4}},{"type":"Feature","geometry":{"type":"Point","coordinates":[-114.92866,27.63908]},"properties":{"depth_ft":198,"depth_m":60.3}},{"type":"Feature","geometry":{"type":"Point","coordinates":[-114.91981,27.63908]},"properties":{"depth_ft":192,"depth_m":58.6}},{"type":"Feature","geometry":{"type":"Point","coordinates":[-114.91096,27.63908]},"properties":{"depth_ft":191,"depth_m":58.3}},{"type":"Feature","geometry":{"type":"Point","coordinates":[-114.90212,27.63908]},"properties":{"depth_ft":179,"depth_m":54.5}},{"type":"Feature","geometry":{"type":"Point","coordinates":[-114.89327,27.63908]},"properties":{"depth_ft":151,"depth_m":46.1}},{"type":"Feature","geometry":{"type":"Point","coordinates":[-114.88442,27.63908]},"properties":{"depth_ft":127,"depth_m":38.8}},{"type":"Feature","geometry":{"type":"Point","coordinates":[-114.87558,27.63908]},"properties":{"depth_ft":75,"depth_m":22.7}},{"type":"Feature","geometry":{"type":"Point","coordinates":[-114.9552,27.63125]},"properties":{"depth_ft":314,"depth_m":95.6}},{"type":"Feature","geometry":{"type":"Point","coordinates":[-114.94635,27.63125]},"properties":{"depth_ft":262,"depth_m":79.8}},{"type":"Feature","geometry":{"type":"Point","coordinates":[-114.93751,27.63125]},"properties":{"depth_ft":224,"depth_m":68.2}},{"type":"Feature","geometry":{"type":"Point","coordinates":[-114.92866,27.63125]},"properties":{"depth_ft":211,"depth_m":64.4}},{"type":"Feature","geometry":{"type":"Point","coordinates":[-114.91981,27.63125]},"properties":{"depth_ft":208,"depth_m":63.3}},{"type":"Feature","geometry":{"type":"Point","coordinates":[-114.91096,27.63125]},"properties":{"depth_ft":204,"depth_m":62.0}},{"type":"Feature","geometry":{"type":"Point","coordinates":[-114.90212,27.63125]},"properties":{"depth_ft":197,"depth_m":60.1}},{"type":"Feature","geometry":{"type":"Point","coordinates":[-114.89327,27.63125]},"properties":{"depth_ft":182,"depth_m":55.6}},{"type":"Feature","geometry":{"type":"Point","coordinates":[-114.88442,27.63125]},"properties":{"depth_ft":148,"depth_m":45.2}},{"type":"Feature","geometry":{"type":"Point","coordinates":[-114.87558,27.63125]},"properties":{"depth_ft":108,"depth_m":33.1}},{"type":"Feature","geometry":{"type":"Point","coordinates":[-114.86673,27.63125]},"properties":{"depth_ft":5,"depth_m":1.6}},{"type":"Feature","geometry":{"type":"Point","coordinates":[-114.94635,27.62341]},"properties":{"depth_ft":299,"depth_m":91.1}},{"type":"Feature","geometry":{"type":"Point","coordinates":[-114.93751,27.62341]},"properties":{"depth_ft":244,"depth_m":74.4}},{"type":"Feature","geometry":{"type":"Point","coordinates":[-114.92866,27.62341]},"properties":{"depth_ft":222,"depth_m":67.6}},{"type":"Feature","geometry":{"type":"Point","coordinates":[-114.91981,27.62341]},"properties":{"depth_ft":217,"depth_m":66.1}},{"type":"Feature","geometry":{"type":"Point","coordinates":[-114.91096,27.62341]},"properties":{"depth_ft":210,"depth_m":64.0}},{"type":"Feature","geometry":{"type":"Point","coordinates":[-114.90212,27.62341]},"properties":{"depth_ft":203,"depth_m":62.0}},{"type":"Feature","geometry":{"type":"Point","coordinates":[-114.89327,27.62341]},"properties":{"depth_ft":189,"depth_m":57.6}},{"type":"Feature","geometry":{"type":"Point","coordinates":[-114.88442,27.62341]},"properties":{"depth_ft":168,"depth_m":51.1}},{"type":"Feature","geometry":{"type":"Point","coordinates":[-114.87558,27.62341]},"properties":{"depth_ft":139,"depth_m":42.4}},{"type":"Feature","geometry":{"type":"Point","coordinates":[-114.86673,27.62341]},"properties":{"depth_ft":84,"depth_m":25.5}},{"type":"Feature","geometry":{"type":"Point","coordinates":[-114.85788,27.62341]},"properties":{"depth_ft":25,"depth_m":7.5}},{"type":"Feature","geometry":{"type":"Point","coordinates":[-114.84019,27.62341]},"properties":{"depth_ft":11,"depth_m":3.4}},{"type":"Feature","geometry":{"type":"Point","coordinates":[-114.83134,27.62341]},"properties":{"depth_ft":12,"depth_m":3.8}},{"type":"Feature","geometry":{"type":"Point","coordinates":[-114.82249,27.62341]},"properties":{"depth_ft":22,"depth_m":6.6}},{"type":"Feature","geometry":{"type":"Point","coordinates":[-114.81365,27.62341]},"properties":{"depth_ft":9,"depth_m":2.7}},{"type":"Feature","geometry":{"type":"Point","coordinates":[-114.93751,27.61558]},"properties":{"depth_ft":260,"depth_m":79.1}},{"type":"Feature","geometry":{"type":"Point","coordinates":[-114.92866,27.61558]},"properties":{"depth_ft":246,"depth_m":74.9}},{"type":"Feature","geometry":{"type":"Point","coordinates":[-114.91981,27.61558]},"properties":{"depth_ft":240,"depth_m":73.1}},{"type":"Feature","geometry":{"type":"Point","coordinates":[-114.91096,27.61558]},"properties":{"depth_ft":221,"depth_m":67.4}},{"type":"Feature","geometry":{"type":"Point","coordinates":[-114.90212,27.61558]},"properties":{"depth_ft":209,"depth_m":63.8}},{"type":"Feature","geometry":{"type":"Point","coordinates":[-114.89327,27.61558]},"properties":{"depth_ft":204,"depth_m":62.1}},{"type":"Feature","geometry":{"type":"Point","coordinates":[-114.88442,27.61558]},"properties":{"depth_ft":195,"depth_m":59.5}},{"type":"Feature","geometry":{"type":"Point","coordinates":[-114.87558,27.61558]},"properties":{"depth_ft":174,"depth_m":53.0}},{"type":"Feature","geometry":{"type":"Point","coordinates":[-114.86673,27.61558]},"properties":{"depth_ft":138,"depth_m":42.0}},{"type":"Feature","geometry":{"type":"Point","coordinates":[-114.85788,27.61558]},"properties":{"depth_ft":87,"depth_m":26.6}},{"type":"Feature","geometry":{"type":"Point","coordinates":[-114.84904,27.61558]},"properties":{"depth_ft":29,"depth_m":8.9}},{"type":"Feature","geometry":{"type":"Point","coordinates":[-114.84019,27.61558]},"properties":{"depth_ft":43,"depth_m":13.1}},{"type":"Feature","geometry":{"type":"Point","coordinates":[-114.83134,27.61558]},"properties":{"depth_ft":58,"depth_m":17.8}},{"type":"Feature","geometry":{"type":"Point","coordinates":[-114.82249,27.61558]},"properties":{"depth_ft":74,"depth_m":22.4}},{"type":"Feature","geometry":{"type":"Point","coordinates":[-114.81365,27.61558]},"properties":{"depth_ft":43,"depth_m":13.2}},{"type":"Feature","geometry":{"type":"Point","coordinates":[-114.8048,27.61558]},"properties":{"depth_ft":15,"depth_m":4.5}},{"type":"Feature","geometry":{"type":"Point","coordinates":[-114.93751,27.60774]},"properties":{"depth_ft":307,"depth_m":93.7}},{"type":"Feature","geometry":{"type":"Point","coordinates":[-114.92866,27.60774]},"properties":{"depth_ft":319,"depth_m":97.3}},{"type":"Feature","geometry":{"type":"Point","coordinates":[-114.91981,27.60774]},"properties":{"depth_ft":302,"depth_m":92.0}},{"type":"Feature","geometry":{"type":"Point","coordinates":[-114.91096,27.60774]},"properties":{"depth_ft":248,"depth_m":75.5}},{"type":"Feature","geometry":{"type":"Point","coordinates":[-114.90212,27.60774]},"properties":{"depth_ft":214,"depth_m":65.3}},{"type":"Feature","geometry":{"type":"Point","coordinates":[-114.89327,27.60774]},"properties":{"depth_ft":212,"depth_m":64.5}},{"type":"Feature","geometry":{"type":"Point","coordinates":[-114.88442,27.60774]},"properties":{"depth_ft":214,"depth_m":65.2}},{"type":"Feature","geometry":{"type":"Point","coordinates":[-114.87558,27.60774]},"properties":{"depth_ft":208,"depth_m":63.2}},{"type":"Feature","geometry":{"type":"Point","coordinates":[-114.86673,27.60774]},"properties":{"depth_ft":186,"depth_m":56.6}},{"type":"Feature","geometry":{"type":"Point","coordinates":[-114.85788,27.60774]},"properties":{"depth_ft":159,"depth_m":48.6}},{"type":"Feature","geometry":{"type":"Point","coordinates":[-114.84904,27.60774]},"properties":{"depth_ft":116,"depth_m":35.4}},{"type":"Feature","geometry":{"type":"Point","coordinates":[-114.84019,27.60774]},"properties":{"depth_ft":94,"depth_m":28.6}},{"type":"Feature","geometry":{"type":"Point","coordinates":[-114.83134,27.60774]},"properties":{"depth_ft":96,"depth_m":29.1}},{"type":"Feature","geometry":{"type":"Point","coordinates":[-114.82249,27.60774]},"properties":{"depth_ft":92,"depth_m":28.0}},{"type":"Feature","geometry":{"type":"Point","coordinates":[-114.81365,27.60774]},"properties":{"depth_ft":67,"depth_m":20.5}},{"type":"Feature","geometry":{"type":"Point","coordinates":[-114.8048,27.60774]},"properties":{"depth_ft":47,"depth_m":14.2}},{"type":"Feature","geometry":{"type":"Point","coordinates":[-114.79595,27.60774]},"properties":{"depth_ft":29,"depth_m":8.8}},{"type":"Feature","geometry":{"type":"Point","coordinates":[-114.91096,27.59991]},"properties":{"depth_ft":309,"depth_m":94.3}},{"type":"Feature","geometry":{"type":"Point","coordinates":[-114.90212,27.59991]},"properties":{"depth_ft":244,"depth_m":74.4}},{"type":"Feature","geometry":{"type":"Point","coordinates":[-114.89327,27.59991]},"properties":{"depth_ft":233,"depth_m":71.0}},{"type":"Feature","geometry":{"type":"Point","coordinates":[-114.88442,27.59991]},"properties":{"depth_ft":234,"depth_m":71.2}},{"type":"Feature","geometry":{"type":"Point","coordinates":[-114.87558,27.59991]},"properties":{"depth_ft":231,"depth_m":70.3}},{"type":"Feature","geometry":{"type":"Point","coordinates":[-114.86673,27.59991]},"properties":{"depth_ft":206,"depth_m":62.8}},{"type":"Feature","geometry":{"type":"Point","coordinates":[-114.85788,27.59991]},"properties":{"depth_ft":184,"depth_m":56.0}},{"type":"Feature","geometry":{"type":"Point","coordinates":[-114.84904,27.59991]},"properties":{"depth_ft":157,"depth_m":47.7}},{"type":"Feature","geometry":{"type":"Point","coordinates":[-114.84019,27.59991]},"properties":{"depth_ft":125,"depth_m":38.0}},{"type":"Feature","geometry":{"type":"Point","coordinates":[-114.83134,27.59991]},"properties":{"depth_ft":123,"depth_m":37.6}},{"type":"Feature","geometry":{"type":"Point","coordinates":[-114.82249,27.59991]},"properties":{"depth_ft":121,"depth_m":36.9}},{"type":"Feature","geometry":{"type":"Point","coordinates":[-114.81365,27.59991]},"properties":{"depth_ft":101,"depth_m":30.7}},{"type":"Feature","geometry":{"type":"Point","coordinates":[-114.8048,27.59991]},"properties":{"depth_ft":83,"depth_m":25.3}},{"type":"Feature","geometry":{"type":"Point","coordinates":[-114.79595,27.59991]},"properties":{"depth_ft":71,"depth_m":21.8}},{"type":"Feature","geometry":{"type":"Point","coordinates":[-114.78711,27.59991]},"properties":{"depth_ft":37,"depth_m":11.2}}]}