{"type":"FeatureCollection","features":[{"type":"Feature","geometry":{"type":"Polygon","coordinates":[[[-120.01703,34.4616],[-120.01801,34.46158],[-120.01976,34.461],[-120.02042,34.46053],[-120.02074,34.46011],[-120.02125,34.45843],[-120.02193,34.45784],[-120.02266,34.45763],[-120.02389,34.45773],[-120.0245,34.45788],[-120.02757,34.45965],[-120.03292,34.46214],[-120.03538,34.46291],[-120.03887,34.46339],[-120.04184,34.46324],[-120.0435,34.463],[-120.04661,34.46236],[-120.04707,34.46201],[-120.04904,34.46179],[-120.04947,34.46156],[-120.0495,34.46139],[-120.0536,34.46184],[-120.05456,34.46168],[-120.05568,34.46121],[-120.05736,34.46119],[-120.05751,34.46103],[-120.06256,34.46178],[-120.06599,34.4621],[-120.06809,34.46254],[-120.06992,34.46265],[-120.07157,34.46237],[-120.07322,34.46178],[-120.07358,34.46133],[-120.07332,34.46073],[-120.07424,34.46037],[-120.07565,34.46042],[-120.07596,34.46026],[-120.07882,34.46046],[-120.0808,34.46031],[-120.08301,34.46043],[-120.08379,34.4603],[-120.08462,34.46042],[-120.08622,34.46022],[-120.08881,34.46019],[-120.09313,34.46096],[-120.09396,34.46095],[-120.0974,34.46185],[-120.10105,34.46382],[-120.10157,34.46394],[-120.10207,34.46368],[-120.10247,34.46371],[-120.10428,34.46462],[-120.10973,34.46664],[-120.1133,34.46821],[-120.11874,34.47005],[-120.12094,34.47038],[-120.12617,34.47168],[-120.12763436435458,34.47189062774963],[-120.12763436435458,34.51204504504504],[-120.01236563564541,34.51204504504504],[-120.01236563564541,34.46086222707924],[-120.01703,34.4616]]]},"properties":{"name":"ca-mainland"}}]}