{"type":"FeatureCollection","features":[{"type":"Feature","geometry":{"type":"MultiLineString","coordinates":[[[-120.10078,34.4636],[-120.10051,34.46349],[-120.10078,34.4634]],[[-120.1005,34.46348],[-120.10063,34.46337],[-120.10036,34.46328],[-120.1005,34.46348]],[[-120.10036,34.46337],[-120.10036,34.46337]],[[-120.0396,34.46337],[-120.03851,34.46337],[-120.03849,34.46326],[-120.0396,34.46323],[-120.0396,34.46337]],[[-120.10023,34.46326],[-120.10034,34.46326],[-120.10012,34.46326],[-120.10023,34.46326]],[[-120.04179,34.46326],[-120.04106,34.46326],[-120.04106,34.46315],[-120.04179,34.46313],[-120.04179,34.46326]],[[-120.04261,34.46315],[-120.04238,34.46315],[-120.04238,34.46303],[-120.0427,34.46303],[-120.04261,34.46315]],[[-120.09954,34.46292],[-120.09954,34.46292]],[[-120.09941,34.46284],[-120.09927,34.46272],[-120.09941,34.46284]],[[-120.09927,34.46281],[-120.09927,34.46281]],[[-120.04426,34.46281],[-120.04412,34.4627],[-120.04535,34.46227],[-120.04616,34.46236],[-120.04426,34.46281]],[[-120.09913,34.4627],[-120.09925,34.4627],[-120.09902,34.4627],[-120.09913,34.4627]],[[-120.07039,34.46258],[-120.07018,34.46258],[-120.07018,34.46247],[-120.07039,34.4624],[-120.07039,34.46258]],[[-120.09872,34.46247],[-120.09845,34.46231],[-120.09872,34.46247]],[[-120.09859,34.46247],[-120.09859,34.46247]],[[-120.07108,34.46247],[-120.0708,34.46247],[-120.0708,34.46236],[-120.07108,34.46232],[-120.07108,34.46247]],[[-120.09845,34.46236],[-120.09845,34.46236]],[[-120.04658,34.46236],[-120.04635,34.46236],[-120.04635,34.46224],[-120.04678,34.46213],[-120.04658,34.46236]],[[-120.09831,34.46224],[-120.09831,34.46224]],[[-120.06684,34.46224],[-120.06689,34.46213],[-120.06656,34.462],[-120.06596,34.46202],[-120.06684,34.46224]],[[-120.06656,34.46224],[-120.06656,34.46224]],[[-120.06602,34.46213],[-120.06602,34.46213]],[[-120.07286,34.46191],[-120.07253,34.46191],[-120.07313,34.46134],[-120.07313,34.46071],[-120.0735,34.46044],[-120.07387,34.46044],[-120.07327,34.46078],[-120.07341,34.46157],[-120.07286,34.46191]],[[-120.06533,34.46191],[-120.06506,34.46175],[-120.06376,34.46179],[-120.06376,34.46191],[-120.06533,34.46191]],[[-120.09694,34.46168],[-120.09706,34.46168],[-120.09699,34.46157],[-120.09612,34.46128],[-120.09531,34.46123],[-120.09694,34.46168]],[[-120.09681,34.46168],[-120.09681,34.46168]],[[-120.06259,34.46172],[-120.06232,34.46152],[-120.06183,34.46157],[-120.06259,34.46172]],[[-120.05219,34.46168],[-120.05219,34.46155],[-120.0519,34.46157],[-120.05219,34.46168]],[[-120.05192,34.46168],[-120.05192,34.46168]],[[-120.0964,34.46157],[-120.0964,34.46157]],[[-120.09599,34.46145],[-120.09599,34.46145]],[[-120.06082,34.46145],[-120.06054,34.46126],[-120.05938,34.46123],[-120.05945,34.46134],[-120.06082,34.46145]],[[-120.06027,34.46145],[-120.06027,34.46145]],[[-120.09544,34.46134],[-120.09544,34.46134]],[[-120.05945,34.46134],[-120.05945,34.46134]],[[-120.09489,34.46112],[-120.09458,34.461],[-120.09489,34.46112]],[[-120.09462,34.46112],[-120.09462,34.46112]],[[-120.05849,34.46112],[-120.05856,34.461],[-120.05807,34.461],[-120.05808,34.46112],[-120.05849,34.46112]],[[-120.05808,34.46112],[-120.05808,34.46112]],[[-120.09297,34.46089],[-120.09303,34.46078],[-120.0929,34.46078],[-120.09297,34.46089]],[[-120.07341,34.461],[-120.07341,34.461]],[[-120.09106,34.46055],[-120.09117,34.46044],[-120.09071,34.46044],[-120.09106,34.46055]],[[-120.09079,34.46055],[-120.09079,34.46055]],[[-120.08285,34.46044],[-120.08292,34.46033],[-120.08275,34.46021],[-120.08242,34.46021],[-120.08285,34.46044]],[[-120.08353,34.46033],[-120.08339,34.46021],[-120.08353,34.46033]],[[-120.07573,34.46033],[-120.07573,34.46033]]]},"properties":{"depth_m":1}},{"type":"Feature","geometry":{"type":"MultiLineString","coordinates":[[[-120.10078,34.4636],[-120.09749,34.46179],[-120.09407,34.46089],[-120.0927,34.46089],[-120.09013,34.46033],[-120.09106,34.46024],[-120.09229,34.46058],[-120.0938,34.46057],[-120.0953,34.46103],[-120.09626,34.46114],[-120.09763,34.4616],[-120.09804,34.46194],[-120.09872,34.46202],[-120.09958,34.4627],[-120.10078,34.46317]],[[-120.03522,34.46266],[-120.03878,34.46312],[-120.04084,34.46306],[-120.04344,34.46273],[-120.04508,34.46203],[-120.04617,34.46203],[-120.04727,34.46161],[-120.04918,34.4614],[-120.04932,34.46151],[-120.04891,34.46179],[-120.04727,34.46191],[-120.04658,34.46236],[-120.04179,34.46326],[-120.03851,34.46337],[-120.03522,34.46281]],[[-120.04001,34.46303],[-120.04001,34.46303]],[[-120.07039,34.46258],[-120.06974,34.46258],[-120.06974,34.46247],[-120.07026,34.46227],[-120.07125,34.46224],[-120.07108,34.46247],[-120.07039,34.46258]],[[-120.06889,34.46258],[-120.06894,34.46247],[-120.06875,34.46236],[-120.06821,34.46227],[-120.06752,34.46235],[-120.06656,34.46165],[-120.06602,34.46175],[-120.06492,34.46141],[-120.06369,34.4616],[-120.06328,34.46138],[-120.06273,34.46151],[-120.06232,34.46132],[-120.06109,34.4613],[-120.06054,34.4611],[-120.05849,34.46087],[-120.05753,34.46082],[-120.05709,34.461],[-120.05712,34.46112],[-120.0578,34.461],[-120.06027,34.46145],[-120.06136,34.46148],[-120.06259,34.46179],[-120.06588,34.46202],[-120.06766,34.46247],[-120.06889,34.46258]],[[-120.06848,34.46258],[-120.06848,34.46258]],[[-120.06766,34.46247],[-120.06766,34.46247]],[[-120.06711,34.46236],[-120.06711,34.46236]],[[-120.06656,34.46224],[-120.06656,34.46224]],[[-120.07231,34.46213],[-120.07185,34.46213],[-120.0723,34.46191],[-120.07271,34.46145],[-120.07304,34.46044],[-120.07341,34.46011],[-120.07395,34.46022],[-120.07491,34.45998],[-120.07628,34.45993],[-120.07956,34.46033],[-120.07861,34.46044],[-120.07655,34.46021],[-120.07423,34.46033],[-120.07327,34.46078],[-120.07341,34.46157],[-120.07231,34.46213]],[[-120.06602,34.46213],[-120.06602,34.46213]],[[-120.09872,34.46202],[-120.09872,34.46202]],[[-120.06369,34.46191],[-120.06369,34.46191]],[[-120.06259,34.46179],[-120.06259,34.46179]],[[-120.05384,34.46179],[-120.05452,34.46168],[-120.05548,34.46123],[-120.05655,34.46112],[-120.05655,34.461],[-120.05616,34.46091],[-120.05479,34.46109],[-120.05397,34.46164],[-120.05296,34.46168],[-120.05302,34.46179],[-120.05384,34.46179]],[[-120.05302,34.46179],[-120.05302,34.46179]],[[-120.05247,34.46168],[-120.05251,34.46157],[-120.05219,34.46139],[-120.05031,34.46134],[-120.05031,34.46145],[-120.05096,34.46157],[-120.05247,34.46168]],[[-120.05192,34.46168],[-120.05192,34.46168]],[[-120.05096,34.46157],[-120.05096,34.46157]],[[-120.06027,34.46145],[-120.06027,34.46145]],[[-120.05945,34.46134],[-120.05945,34.46134]],[[-120.04891,34.46145],[-120.04891,34.46145]],[[-120.05876,34.46123],[-120.05876,34.46123]],[[-120.0964,34.46123],[-120.0964,34.46123]],[[-120.09612,34.46112],[-120.09612,34.46112]],[[-120.05712,34.46112],[-120.05712,34.46112]],[[-120.07341,34.461],[-120.07341,34.461]],[[-120.05726,34.46089],[-120.05726,34.46089]],[[-120.08298,34.46044],[-120.08087,34.46033],[-120.08087,34.46021],[-120.08257,34.46002],[-120.08517,34.46009],[-120.08586,34.45998],[-120.08627,34.4596],[-120.08668,34.45984],[-120.08764,34.45991],[-120.08798,34.4601],[-120.08785,34.46021],[-120.08682,34.46014],[-120.08545,34.46033],[-120.08394,34.46033],[-120.08381,34.46021],[-120.08298,34.46044]],[[-120.09161,34.46033],[-120.09161,34.46033]],[[-120.08901,34.46021],[-120.08914,34.46021],[-120.08901,34.46001],[-120.08825,34.4601],[-120.08825,34.46021],[-120.08873,34.4601],[-120.08901,34.46021]],[[-120.08887,34.46021],[-120.08887,34.46021]]]},"properties":{"depth_m":2}},{"type":"Feature","geometry":{"type":"MultiLineString","coordinates":[[[-120.10078,34.4636],[-120.09749,34.46179],[-120.09407,34.46089],[-120.0927,34.46089],[-120.08873,34.4601],[-120.0886,34.46021],[-120.08558,34.46021],[-120.08545,34.46033],[-120.08394,34.46033],[-120.08381,34.46021],[-120.08298,34.46044],[-120.08271,34.46033],[-120.07984,34.46033],[-120.07833,34.46044],[-120.07655,34.46021],[-120.07423,34.46033],[-120.07327,34.46078],[-120.07341,34.46157],[-120.07313,34.46179],[-120.07163,34.46236],[-120.07039,34.46258],[-120.06848,34.46258],[-120.06588,34.46202],[-120.06259,34.46179],[-120.05753,34.461],[-120.05548,34.46123],[-120.05397,34.46179],[-120.04946,34.46134],[-120.04891,34.46179],[-120.04727,34.46191],[-120.04658,34.46236],[-120.04179,34.46326],[-120.03851,34.46337],[-120.03522,34.46281]],[[-120.03522,34.46243],[-120.03892,34.46293],[-120.04001,34.46251],[-120.0407,34.46276],[-120.04125,34.46244],[-120.0433,34.46243],[-120.04467,34.46177],[-120.04645,34.46159],[-120.04713,34.46127],[-120.04781,34.4613],[-120.04891,34.46108],[-120.04987,34.46117],[-120.05083,34.46097],[-120.05206,34.46102],[-120.05343,34.46156],[-120.05466,34.46077],[-120.0563,34.46047],[-120.05698,34.46066],[-120.05808,34.4607],[-120.05945,34.46052],[-120.06218,34.46105],[-120.06314,34.46098],[-120.06355,34.46126],[-120.06547,34.46119],[-120.06629,34.46151],[-120.06684,34.46153],[-120.06738,34.46214],[-120.06777,34.46213],[-120.06807,34.46191],[-120.06862,34.46217],[-120.06985,34.46196],[-120.07053,34.46217],[-120.07108,34.46202],[-120.07163,34.46218],[-120.07227,34.46168],[-120.0728,34.46021],[-120.07327,34.45984],[-120.07409,34.4599],[-120.07573,34.45961],[-120.08066,34.45997],[-120.08134,34.45981],[-120.08312,34.45987],[-120.08476,34.45964],[-120.08572,34.45974],[-120.08627,34.45937],[-120.08668,34.45961],[-120.0875,34.45952],[-120.08969,34.45997],[-120.09161,34.46008],[-120.09229,34.46036],[-120.09311,34.4602],[-120.09544,34.46082],[-120.0964,34.46092],[-120.09735,34.46117],[-120.09818,34.46162],[-120.099,34.46174],[-120.09973,34.46247],[-120.10078,34.46285]],[[-120.07341,34.461],[-120.07341,34.461]],[[-120.09366,34.46033],[-120.09366,34.46033]],[[-120.09202,34.46021],[-120.09202,34.46021]],[[-120.08832,34.45976],[-120.08832,34.45976]]]},"properties":{"depth_m":3}},{"type":"Feature","geometry":{"type":"MultiLineString","coordinates":[[[-120.10078,34.4636],[-120.09749,34.46179],[-120.09407,34.46089],[-120.0927,34.46089],[-120.08873,34.4601],[-120.0886,34.46021],[-120.08558,34.46021],[-120.08545,34.46033],[-120.08394,34.46033],[-120.08381,34.46021],[-120.08298,34.46044],[-120.08271,34.46033],[-120.07956,34.46033],[-120.07833,34.46044],[-120.07655,34.46021],[-120.07423,34.46033],[-120.07327,34.46078],[-120.07341,34.46157],[-120.07313,34.46179],[-120.07163,34.46236],[-120.07039,34.46258],[-120.06848,34.46258],[-120.06588,34.46202],[-120.06259,34.46179],[-120.05753,34.461],[-120.05548,34.46123],[-120.05397,34.46179],[-120.04946,34.46134],[-120.04891,34.46179],[-120.04727,34.46191],[-120.04658,34.46236],[-120.04179,34.46326],[-120.03851,34.46337],[-120.03522,34.46281]],[[-120.10078,34.46263],[-120.09989,34.46224],[-120.099,34.46139],[-120.09763,34.4611],[-120.09653,34.46066],[-120.09503,34.46043],[-120.09462,34.46021],[-120.09297,34.45993],[-120.09215,34.46006],[-120.09051,34.45967],[-120.08969,34.45975],[-120.08887,34.45931],[-120.08846,34.45949],[-120.08777,34.45927],[-120.08682,34.45948],[-120.08627,34.45928],[-120.08558,34.45953],[-120.0849,34.45924],[-120.0834,34.45954],[-120.08257,34.45944],[-120.0797,34.45963],[-120.07669,34.45949],[-120.07628,34.45933],[-120.07546,34.45935],[-120.07409,34.45965],[-120.07341,34.45962],[-120.07263,34.45999],[-120.07245,34.46055],[-120.07204,34.46088],[-120.07163,34.46096],[-120.07149,34.4614],[-120.07053,34.46199],[-120.07012,34.46175],[-120.06848,34.4619],[-120.06779,34.46152],[-120.06725,34.46151],[-120.0667,34.46108],[-120.06629,34.46139],[-120.06533,34.46094],[-120.06478,34.4611],[-120.06314,34.46078],[-120.06218,34.46088],[-120.06027,34.46043],[-120.05794,34.46046],[-120.05644,34.46013],[-120.05589,34.46034],[-120.05466,34.4604],[-120.05343,34.46118],[-120.05192,34.46038],[-120.05,34.46093],[-120.04864,34.46068],[-120.04809,34.46091],[-120.04727,34.46094],[-120.04658,34.46128],[-120.04453,34.46142],[-120.04385,34.46171],[-120.04261,34.46188],[-120.04207,34.46181],[-120.04166,34.46206],[-120.04097,34.46204],[-120.04056,34.46235],[-120.03988,34.46227],[-120.03919,34.46247],[-120.03755,34.46254],[-120.03714,34.46241],[-120.03605,34.46245],[-120.03522,34.4622]],[[-120.0407,34.46224],[-120.0407,34.46224]],[[-120.07341,34.461],[-120.07341,34.461]],[[-120.08695,34.45942],[-120.08695,34.45942]],[[-120.08873,34.45931],[-120.08873,34.45931]]]},"properties":{"depth_m":4}},{"type":"Feature","geometry":{"type":"MultiLineString","coordinates":[[[-120.10078,34.4636],[-120.09749,34.46179],[-120.09407,34.46089],[-120.0927,34.46089],[-120.08873,34.4601],[-120.0886,34.46021],[-120.08558,34.46021],[-120.08545,34.46033],[-120.08394,34.46033],[-120.08381,34.46021],[-120.08298,34.46044],[-120.08271,34.46033],[-120.07956,34.46033],[-120.07833,34.46044],[-120.07655,34.46021],[-120.07423,34.46033],[-120.07327,34.46078],[-120.07341,34.46157],[-120.07313,34.46179],[-120.07163,34.46236],[-120.07039,34.46258],[-120.06848,34.46258],[-120.06588,34.46202],[-120.06259,34.46179],[-120.05753,34.461],[-120.05548,34.46123],[-120.05397,34.46179],[-120.04946,34.46134],[-120.04891,34.46179],[-120.04727,34.46191],[-120.04658,34.46236],[-120.04179,34.46326],[-120.03851,34.46337],[-120.03522,34.46281]],[[-120.03522,34.46192],[-120.03646,34.46225],[-120.037,34.4621],[-120.03782,34.46232],[-120.03933,34.46222],[-120.04097,34.46179],[-120.04166,34.4618],[-120.04207,34.46159],[-120.04371,34.46146],[-120.04535,34.461],[-120.04672,34.46099],[-120.04727,34.46069],[-120.0485,34.4604],[-120.05,34.46072],[-120.05083,34.46055],[-120.05124,34.46012],[-120.05206,34.46004],[-120.05384,34.46075],[-120.05452,34.46018],[-120.05603,34.46011],[-120.05644,34.4599],[-120.05972,34.46031],[-120.06013,34.4602],[-120.06109,34.46049],[-120.0641,34.46078],[-120.06588,34.46066],[-120.06629,34.46095],[-120.06697,34.46097],[-120.06862,34.46162],[-120.06971,34.46166],[-120.07026,34.4613],[-120.07094,34.46112],[-120.07135,34.46073],[-120.07197,34.46044],[-120.07258,34.45958],[-120.07341,34.45931],[-120.07655,34.45904],[-120.07956,34.45939],[-120.08285,34.45918],[-120.0834,34.45931],[-120.0849,34.45901],[-120.08545,34.45931],[-120.08887,34.4591],[-120.08969,34.45957],[-120.09037,34.45939],[-120.09202,34.4597],[-120.0927,34.45963],[-120.09599,34.46039],[-120.09653,34.46038],[-120.09763,34.46084],[-120.09818,34.46071],[-120.09928,34.46123],[-120.09995,34.46191],[-120.10078,34.46223]],[[-120.10064,34.46213],[-120.10064,34.46213]],[[-120.09995,34.46191],[-120.09995,34.46191]],[[-120.04111,34.46179],[-120.04111,34.46179]],[[-120.04097,34.46179],[-120.04097,34.46179]],[[-120.07341,34.461],[-120.07341,34.461]],[[-120.06588,34.46066],[-120.06588,34.46066]],[[-120.06574,34.46066],[-120.06574,34.46066]],[[-120.04836,34.46044],[-120.04836,34.46044]],[[-120.09243,34.45965],[-120.09243,34.45965]],[[-120.09174,34.45965],[-120.09174,34.45965]],[[-120.0901,34.45942],[-120.0901,34.45942]],[[-120.0875,34.45908],[-120.0875,34.45908]]]},"properties":{"depth_m":5}},{"type":"Feature","geometry":{"type":"MultiLineString","coordinates":[[[-120.10078,34.4636],[-120.09749,34.46179],[-120.09407,34.46089],[-120.0927,34.46089],[-120.08873,34.4601],[-120.0886,34.46021],[-120.08558,34.46021],[-120.08545,34.46033],[-120.08394,34.46033],[-120.08381,34.46021],[-120.08298,34.46044],[-120.08271,34.46033],[-120.07943,34.46033],[-120.07833,34.46044],[-120.07655,34.46021],[-120.07423,34.46033],[-120.07327,34.46078],[-120.07341,34.46157],[-120.07313,34.46179],[-120.07163,34.46236],[-120.07039,34.46258],[-120.06848,34.46258],[-120.06588,34.46202],[-120.06259,34.46179],[-120.05753,34.461],[-120.05548,34.46123],[-120.05397,34.46179],[-120.04946,34.46134],[-120.04891,34.46179],[-120.04727,34.46191],[-120.04658,34.46236],[-120.04179,34.46326],[-120.03851,34.46337],[-120.03522,34.46281]],[[-120.03522,34.46156],[-120.03824,34.46207],[-120.04029,34.46175],[-120.04097,34.46147],[-120.04152,34.46152],[-120.04207,34.46126],[-120.04371,34.46122],[-120.04535,34.46072],[-120.04672,34.46068],[-120.04836,34.46023],[-120.04987,34.46032],[-120.05192,34.45981],[-120.05356,34.46024],[-120.0563,34.45973],[-120.05835,34.45978],[-120.05972,34.46013],[-120.06082,34.45997],[-120.06123,34.46032],[-120.06164,34.46003],[-120.06205,34.46035],[-120.0641,34.46056],[-120.06451,34.46042],[-120.06533,34.46051],[-120.06602,34.4604],[-120.0667,34.46051],[-120.06725,34.46083],[-120.06807,34.46076],[-120.0685,34.46123],[-120.06875,34.46127],[-120.07053,34.4607],[-120.07104,34.46033],[-120.0718,34.4601],[-120.07198,34.45987],[-120.07186,34.45954],[-120.07204,34.45934],[-120.07341,34.45909],[-120.07696,34.45885],[-120.0797,34.45917],[-120.08353,34.45902],[-120.08422,34.45882],[-120.08504,34.45887],[-120.08572,34.45914],[-120.08764,34.45892],[-120.08887,34.45897],[-120.08955,34.4593],[-120.09037,34.45915],[-120.09188,34.4595],[-120.09256,34.45945],[-120.09352,34.45972],[-120.09421,34.45971],[-120.09653,34.46022],[-120.09694,34.46045],[-120.09831,34.46061],[-120.09927,34.461],[-120.10023,34.46171],[-120.10078,34.46192]],[[-120.07341,34.461],[-120.07341,34.461]],[[-120.09872,34.46078],[-120.09872,34.46078]],[[-120.06355,34.46044],[-120.06355,34.46044]],[[-120.07149,34.46021],[-120.07149,34.46021]],[[-120.05958,34.4601],[-120.05958,34.4601]],[[-120.09599,34.4601],[-120.09599,34.4601]],[[-120.05274,34.45999],[-120.05274,34.45999]],[[-120.09448,34.45987],[-120.09448,34.45987]],[[-120.08394,34.45886],[-120.08394,34.45886]]]},"properties":{"depth_m":6}},{"type":"Feature","geometry":{"type":"MultiLineString","coordinates":[[[-120.10078,34.4636],[-120.09749,34.46179],[-120.09407,34.46089],[-120.0927,34.46089],[-120.08873,34.4601],[-120.0886,34.46021],[-120.08558,34.46021],[-120.08545,34.46033],[-120.08394,34.46033],[-120.08381,34.46021],[-120.08298,34.46044],[-120.08271,34.46033],[-120.07943,34.46033],[-120.07833,34.46044],[-120.07655,34.46021],[-120.07423,34.46033],[-120.07327,34.46078],[-120.07341,34.46157],[-120.07313,34.46179],[-120.07163,34.46236],[-120.07039,34.46258],[-120.06848,34.46258],[-120.06588,34.46202],[-120.06259,34.46179],[-120.05753,34.461],[-120.05548,34.46123],[-120.05397,34.46179],[-120.04946,34.46134],[-120.04891,34.46179],[-120.04727,34.46191],[-120.04658,34.46236],[-120.04179,34.46326],[-120.03851,34.46337],[-120.03522,34.46281]],[[-120.03522,34.46132],[-120.03824,34.4617],[-120.04015,34.46141],[-120.04097,34.46114],[-120.04166,34.46117],[-120.0422,34.46071],[-120.04275,34.46095],[-120.04303,34.46084],[-120.04398,34.46093],[-120.04535,34.46045],[-120.05178,34.45962],[-120.05302,34.45966],[-120.0537,34.45992],[-120.0563,34.45956],[-120.05822,34.45956],[-120.05972,34.45993],[-120.06082,34.45974],[-120.06177,34.45984],[-120.06218,34.46016],[-120.06369,34.46016],[-120.06424,34.45987],[-120.06478,34.46022],[-120.06656,34.46009],[-120.06725,34.46048],[-120.06779,34.46036],[-120.06889,34.46055],[-120.06944,34.4604],[-120.07039,34.46042],[-120.07081,34.46015],[-120.07128,34.4601],[-120.07146,34.45976],[-120.07135,34.45956],[-120.07089,34.45954],[-120.07081,34.45942],[-120.07094,34.45931],[-120.07135,34.45942],[-120.0719,34.45915],[-120.07313,34.45893],[-120.0771,34.4587],[-120.07956,34.45896],[-120.08203,34.45893],[-120.08408,34.45868],[-120.08504,34.45869],[-120.08586,34.45892],[-120.08641,34.45873],[-120.08887,34.45882],[-120.08955,34.4591],[-120.09024,34.45897],[-120.09448,34.45975],[-120.09585,34.45982],[-120.09708,34.46027],[-120.099,34.46065],[-120.10078,34.46164]],[[-120.10023,34.46134],[-120.10023,34.46134]],[[-120.09968,34.461],[-120.09968,34.461]],[[-120.07341,34.461],[-120.07341,34.461]],[[-120.06424,34.45987],[-120.06424,34.45987]],[[-120.06109,34.45976],[-120.06109,34.45976]],[[-120.05548,34.45965],[-120.05548,34.45965]]]},"properties":{"depth_m":7}},{"type":"Feature","geometry":{"type":"MultiLineString","coordinates":[[[-120.10078,34.4636],[-120.09749,34.46179],[-120.09407,34.46089],[-120.0927,34.46089],[-120.08873,34.4601],[-120.0886,34.46021],[-120.08558,34.46021],[-120.08545,34.46033],[-120.08394,34.46033],[-120.08381,34.46021],[-120.08298,34.46044],[-120.08271,34.46033],[-120.07943,34.46033],[-120.07833,34.46044],[-120.07655,34.46021],[-120.07423,34.46033],[-120.07327,34.46078],[-120.07341,34.46157],[-120.07313,34.46179],[-120.07163,34.46236],[-120.07039,34.46258],[-120.06848,34.46258],[-120.06588,34.46202],[-120.06259,34.46179],[-120.05753,34.461],[-120.05548,34.46123],[-120.05397,34.46179],[-120.04946,34.46134],[-120.04891,34.46179],[-120.04727,34.46191],[-120.04658,34.46236],[-120.04179,34.46326],[-120.03851,34.46337],[-120.03522,34.46281]],[[-120.10078,34.46136],[-120.09913,34.4605],[-120.09763,34.46024],[-120.09599,34.45963],[-120.09475,34.45965],[-120.09256,34.45919],[-120.09188,34.45921],[-120.0912,34.4589],[-120.08736,34.45856],[-120.08641,34.45856],[-120.086,34.45871],[-120.08504,34.45849],[-120.08203,34.45878],[-120.07943,34.45874],[-120.07874,34.45852],[-120.0782,34.45865],[-120.07724,34.45856],[-120.07368,34.45869],[-120.07258,34.45893],[-120.07094,34.45899],[-120.07026,34.45989],[-120.06971,34.46001],[-120.06889,34.45973],[-120.06834,34.46027],[-120.06793,34.46],[-120.06725,34.46006],[-120.06643,34.45964],[-120.0641,34.45967],[-120.06342,34.45984],[-120.06218,34.45979],[-120.06095,34.45948],[-120.05945,34.45977],[-120.05822,34.45933],[-120.05493,34.45942],[-120.05411,34.45959],[-120.05302,34.45938],[-120.04987,34.45957],[-120.04412,34.46036],[-120.0422,34.4604],[-120.04152,34.46074],[-120.04029,34.46095],[-120.03947,34.46129],[-120.03632,34.46128],[-120.0355,34.46118],[-120.03522,34.46099]],[[-120.07341,34.461],[-120.07341,34.461]],[[-120.04097,34.46078],[-120.04097,34.46078]],[[-120.04699,34.45999],[-120.04699,34.45999]],[[-120.06875,34.45976],[-120.06875,34.45976]],[[-120.05493,34.45942],[-120.05493,34.45942]],[[-120.05178,34.45942],[-120.05178,34.45942]],[[-120.07464,34.45863],[-120.07464,34.45863]]]},"properties":{"depth_m":8}},{"type":"Feature","geometry":{"type":"MultiLineString","coordinates":[[[-120.10078,34.4636],[-120.09749,34.46179],[-120.09407,34.46089],[-120.0927,34.46089],[-120.08873,34.4601],[-120.0886,34.46021],[-120.08558,34.46021],[-120.08545,34.46033],[-120.08394,34.46033],[-120.08381,34.46021],[-120.08298,34.46044],[-120.08271,34.46033],[-120.07943,34.46033],[-120.07833,34.46044],[-120.07655,34.46021],[-120.07423,34.46033],[-120.07327,34.46078],[-120.07341,34.46157],[-120.07313,34.46179],[-120.07163,34.46236],[-120.07039,34.46258],[-120.06848,34.46258],[-120.06588,34.46202],[-120.06259,34.46179],[-120.05753,34.461],[-120.05548,34.46123],[-120.05397,34.46179],[-120.04946,34.46134],[-120.04891,34.46179],[-120.04727,34.46191],[-120.04658,34.46236],[-120.04179,34.46326],[-120.03851,34.46337],[-120.03522,34.46281]],[[-120.10078,34.46111],[-120.09913,34.46028],[-120.09763,34.46002],[-120.09599,34.45944],[-120.09475,34.45953],[-120.09188,34.45897],[-120.09133,34.45871],[-120.08723,34.45828],[-120.08668,34.45838],[-120.08545,34.45826],[-120.08216,34.45857],[-120.07929,34.45852],[-120.07874,34.45826],[-120.0782,34.45849],[-120.07655,34.45838],[-120.07368,34.4585],[-120.07286,34.4586],[-120.07258,34.45878],[-120.07081,34.45877],[-120.06985,34.45942],[-120.06862,34.45948],[-120.06615,34.45926],[-120.06342,34.45947],[-120.06095,34.45915],[-120.05945,34.45945],[-120.05876,34.45916],[-120.05808,34.4591],[-120.05438,34.45931],[-120.05151,34.45922],[-120.04823,34.45949],[-120.04727,34.45974],[-120.04617,34.45971],[-120.04508,34.45995],[-120.04371,34.45983],[-120.04261,34.45994],[-120.04138,34.46038],[-120.04029,34.46044],[-120.03947,34.46081],[-120.03851,34.46099],[-120.03659,34.46097],[-120.03522,34.4607]],[[-120.07341,34.461],[-120.07341,34.461]],[[-120.03974,34.46066],[-120.03974,34.46066]],[[-120.05288,34.4592],[-120.05288,34.4592]],[[-120.08011,34.45852],[-120.08011,34.45852]]]},"properties":{"depth_m":9}},{"type":"Feature","geometry":{"type":"MultiLineString","coordinates":[[[-120.10078,34.4636],[-120.09749,34.46179],[-120.09407,34.46089],[-120.0927,34.46089],[-120.08873,34.4601],[-120.0886,34.46021],[-120.08558,34.46021],[-120.08545,34.46033],[-120.08394,34.46033],[-120.08381,34.46021],[-120.08298,34.46044],[-120.08271,34.46033],[-120.07943,34.46033],[-120.07833,34.46044],[-120.07655,34.46021],[-120.07423,34.46033],[-120.07327,34.46078],[-120.07341,34.46157],[-120.07313,34.46179],[-120.07163,34.46236],[-120.07039,34.46258],[-120.06848,34.46258],[-120.06588,34.46202],[-120.06259,34.46179],[-120.05753,34.461],[-120.05548,34.46123],[-120.05397,34.46179],[-120.04946,34.46134],[-120.04891,34.46179],[-120.04727,34.46191],[-120.04658,34.46236],[-120.04179,34.46326],[-120.03851,34.46337],[-120.03522,34.46281]],[[-120.07341,34.461],[-120.07341,34.461]],[[-120.10078,34.46087],[-120.09886,34.45994],[-120.09653,34.45954],[-120.09585,34.45925],[-120.09475,34.4594],[-120.0912,34.45849],[-120.08777,34.45824],[-120.08641,34.45794],[-120.08312,34.4582],[-120.08244,34.45798],[-120.08189,34.4583],[-120.07929,34.45831],[-120.07861,34.45808],[-120.0782,34.45829],[-120.07696,34.45819],[-120.07354,34.45831],[-120.07245,34.45861],[-120.07217,34.45849],[-120.07081,34.45855],[-120.06875,34.45916],[-120.06588,34.45898],[-120.06506,34.45903],[-120.06465,34.45928],[-120.06437,34.45909],[-120.06232,34.45911],[-120.06095,34.4589],[-120.05917,34.45903],[-120.05808,34.45887],[-120.05493,34.45907],[-120.04959,34.45907],[-120.04781,34.4592],[-120.04727,34.45955],[-120.04645,34.45925],[-120.04508,34.45966],[-120.04234,34.45961],[-120.04138,34.45998],[-120.04001,34.46001],[-120.03851,34.46057],[-120.03522,34.46024]],[[-120.05958,34.45897],[-120.05958,34.45897]],[[-120.08038,34.45829],[-120.08038,34.45829]]]},"properties":{"depth_m":10}},{"type":"Feature","geometry":{"type":"MultiLineString","coordinates":[[[-120.10078,34.4636],[-120.09749,34.46179],[-120.09407,34.46089],[-120.0927,34.46089],[-120.08873,34.4601],[-120.0886,34.46021],[-120.08558,34.46021],[-120.08545,34.46033],[-120.08394,34.46033],[-120.08381,34.46021],[-120.08298,34.46044],[-120.08271,34.46033],[-120.07943,34.46033],[-120.07833,34.46044],[-120.07655,34.46021],[-120.07423,34.46033],[-120.07327,34.46078],[-120.07341,34.46157],[-120.07313,34.46179],[-120.07163,34.46236],[-120.07039,34.46258],[-120.06848,34.46258],[-120.06588,34.46202],[-120.06259,34.46179],[-120.05753,34.461],[-120.05548,34.46123],[-120.05397,34.46179],[-120.04946,34.46134],[-120.04891,34.46179],[-120.04727,34.46191],[-120.04658,34.46236],[-120.04179,34.46326],[-120.03851,34.46337],[-120.03522,34.46281]],[[-120.07341,34.461],[-120.07341,34.461]],[[-120.10078,34.46087],[-120.09886,34.45994],[-120.09653,34.45954],[-120.09585,34.45925],[-120.09475,34.4594],[-120.0912,34.45849],[-120.08777,34.45824],[-120.08641,34.45794],[-120.08312,34.4582],[-120.08244,34.45798],[-120.08189,34.4583],[-120.07929,34.45831],[-120.07861,34.45808],[-120.0782,34.45829],[-120.07696,34.45819],[-120.07354,34.45831],[-120.07245,34.45861],[-120.07217,34.45849],[-120.07081,34.45855],[-120.06875,34.45916],[-120.06588,34.45898],[-120.06506,34.45903],[-120.06465,34.45928],[-120.06437,34.45909],[-120.06232,34.45911],[-120.06095,34.4589],[-120.05917,34.45903],[-120.05808,34.45887],[-120.05493,34.45907],[-120.04959,34.45907],[-120.04781,34.4592],[-120.04727,34.45955],[-120.04645,34.45925],[-120.04508,34.45966],[-120.04234,34.45961],[-120.04138,34.45998],[-120.04001,34.46001],[-120.03851,34.46057],[-120.03522,34.46024]],[[-120.05958,34.45897],[-120.05958,34.45897]],[[-120.08038,34.45829],[-120.08038,34.45829]]]},"properties":{"depth_m":10}},{"type":"Feature","geometry":{"type":"MultiLineString","coordinates":[[[-120.10078,34.4636],[-120.09749,34.46179],[-120.09407,34.46089],[-120.0927,34.46089],[-120.08873,34.4601],[-120.0886,34.46021],[-120.08558,34.46021],[-120.08545,34.46033],[-120.08394,34.46033],[-120.08381,34.46021],[-120.08298,34.46044],[-120.08271,34.46033],[-120.07943,34.46033],[-120.07833,34.46044],[-120.07655,34.46021],[-120.07423,34.46033],[-120.07327,34.46078],[-120.07344,34.46134],[-120.07313,34.46179],[-120.07163,34.46236],[-120.07039,34.46258],[-120.06848,34.46258],[-120.06588,34.46202],[-120.06259,34.46179],[-120.05753,34.461],[-120.05548,34.46123],[-120.05397,34.46179],[-120.04946,34.46134],[-120.04891,34.46179],[-120.04727,34.46191],[-120.04658,34.46236],[-120.04179,34.46326],[-120.03851,34.46337],[-120.03522,34.46281]],[[-120.07341,34.461],[-120.07341,34.461]],[[-120.10078,34.45916],[-120.09997,34.45875],[-120.09831,34.45828],[-120.0964,34.45825],[-120.09571,34.45808],[-120.0953,34.4577],[-120.09421,34.45779],[-120.09065,34.4572],[-120.08736,34.45718],[-120.08613,34.45675],[-120.0849,34.45695],[-120.08422,34.45674],[-120.08244,34.45672],[-120.08121,34.45701],[-120.08052,34.45688],[-120.07929,34.457],[-120.07847,34.45679],[-120.07792,34.45699],[-120.07573,34.45715],[-120.07436,34.45684],[-120.07368,34.45714],[-120.07231,34.45739],[-120.06821,34.45766],[-120.06533,34.45762],[-120.06437,34.45747],[-120.06328,34.45769],[-120.06109,34.45748],[-120.05753,34.45764],[-120.05698,34.45744],[-120.05589,34.45743],[-120.05548,34.45727],[-120.05493,34.45751],[-120.0537,34.45763],[-120.05288,34.45737],[-120.05042,34.45764],[-120.04918,34.45745],[-120.04549,34.45737],[-120.04453,34.45771],[-120.04371,34.45767],[-120.04043,34.45798],[-120.03687,34.4577],[-120.03632,34.45734],[-120.03522,34.45727]],[[-120.0448,34.45762],[-120.0448,34.45762]]]},"properties":{"depth_m":15}},{"type":"Feature","geometry":{"type":"MultiLineString","coordinates":[[[-120.10078,34.4636],[-120.09749,34.46179],[-120.09407,34.46089],[-120.0927,34.46089],[-120.08873,34.4601],[-120.0886,34.46021],[-120.08558,34.46021],[-120.08545,34.46033],[-120.08394,34.46033],[-120.08381,34.46021],[-120.08298,34.46044],[-120.08271,34.46033],[-120.07943,34.46033],[-120.07833,34.46044],[-120.07655,34.46021],[-120.0756,34.46036],[-120.07423,34.46033],[-120.07327,34.46078],[-120.07345,34.46134],[-120.07313,34.46179],[-120.07163,34.46236],[-120.07039,34.46258],[-120.06848,34.46258],[-120.06588,34.46202],[-120.06259,34.46179],[-120.05753,34.461],[-120.05548,34.46123],[-120.05397,34.46179],[-120.04946,34.46134],[-120.04891,34.46179],[-120.04727,34.46191],[-120.04658,34.46236],[-120.04179,34.46326],[-120.03851,34.46337],[-120.03522,34.46281]],[[-120.07341,34.461],[-120.07341,34.461]],[[-120.10078,34.45734],[-120.09831,34.45697],[-120.09708,34.45656],[-120.09612,34.45662],[-120.09366,34.45637],[-120.09024,34.45579],[-120.08709,34.45592],[-120.08641,34.45577],[-120.08463,34.45587],[-120.08257,34.4557],[-120.08025,34.45591],[-120.07847,34.45583],[-120.07765,34.45606],[-120.07601,34.45613],[-120.07464,34.45596],[-120.07272,34.45608],[-120.07122,34.45655],[-120.07053,34.45638],[-120.06985,34.4567],[-120.06903,34.45669],[-120.06848,34.45644],[-120.06725,34.45656],[-120.06478,34.4562],[-120.06287,34.45631],[-120.05972,34.45616],[-120.05863,34.4563],[-120.05712,34.45608],[-120.05644,34.45628],[-120.05329,34.4561],[-120.0526,34.45626],[-120.05124,34.45628],[-120.04672,34.4561],[-120.04508,34.45618],[-120.04439,34.45647],[-120.04138,34.45643],[-120.04056,34.45611],[-120.03906,34.45617],[-120.0381,34.45579],[-120.03728,34.45585],[-120.03605,34.45543],[-120.03522,34.45537]]]},"properties":{"depth_m":20}},{"type":"Feature","geometry":{"type":"MultiLineString","coordinates":[[[-120.10078,34.4636],[-120.09749,34.46179],[-120.09407,34.46089],[-120.0927,34.46089],[-120.08873,34.4601],[-120.0886,34.46021],[-120.08558,34.46021],[-120.08545,34.46033],[-120.08394,34.46033],[-120.08381,34.46021],[-120.08298,34.46044],[-120.08271,34.46033],[-120.07943,34.46033],[-120.07833,34.46044],[-120.07655,34.46021],[-120.0756,34.46037],[-120.07423,34.46033],[-120.07327,34.46078],[-120.07346,34.46134],[-120.07313,34.46179],[-120.07163,34.46236],[-120.07039,34.46258],[-120.06848,34.46258],[-120.06588,34.46202],[-120.06259,34.46179],[-120.05753,34.461],[-120.05548,34.46123],[-120.05397,34.46179],[-120.04946,34.46134],[-120.04891,34.46179],[-120.04727,34.46191],[-120.04658,34.46236],[-120.04179,34.46326],[-120.03851,34.46337],[-120.03522,34.46281]],[[-120.07341,34.461],[-120.07341,34.461]],[[-120.10078,34.45642],[-120.10023,34.4564],[-120.09859,34.45587],[-120.09708,34.45566],[-120.09599,34.45569],[-120.09421,34.45509],[-120.09284,34.45508],[-120.09215,34.45523],[-120.09037,34.4549],[-120.08873,34.45517],[-120.08736,34.45501],[-120.08394,34.4551],[-120.08257,34.45497],[-120.08066,34.45517],[-120.07888,34.45507],[-120.07765,34.45528],[-120.07642,34.45515],[-120.07464,34.45519],[-120.07012,34.45569],[-120.06957,34.45555],[-120.06779,34.45559],[-120.06561,34.45522],[-120.0589,34.45531],[-120.05835,34.45503],[-120.05726,34.45531],[-120.05315,34.45513],[-120.0526,34.45552],[-120.05206,34.45528],[-120.05124,34.45534],[-120.05055,34.45505],[-120.04905,34.45525],[-120.04604,34.45512],[-120.04467,34.4553],[-120.04371,34.4552],[-120.04303,34.45537],[-120.0422,34.45513],[-120.04138,34.4553],[-120.04029,34.45494],[-120.03906,34.45508],[-120.03755,34.45457],[-120.03618,34.45446],[-120.03522,34.45421]],[[-120.07573,34.45525],[-120.07573,34.45525]],[[-120.09393,34.45513],[-120.09393,34.45513]],[[-120.05315,34.45513],[-120.05315,34.45513]],[[-120.0422,34.45513],[-120.0422,34.45513]]]},"properties":{"depth_m":25}},{"type":"Feature","geometry":{"type":"MultiLineString","coordinates":[[[-120.10078,34.4636],[-120.09749,34.46179],[-120.09407,34.46089],[-120.0927,34.46089],[-120.08873,34.4601],[-120.0886,34.46021],[-120.08558,34.46021],[-120.08545,34.46033],[-120.08394,34.46033],[-120.08381,34.46021],[-120.08298,34.46044],[-120.08271,34.46033],[-120.07943,34.46033],[-120.07833,34.46044],[-120.07655,34.46021],[-120.0756,34.46038],[-120.07423,34.46033],[-120.07327,34.46078],[-120.07348,34.46134],[-120.07313,34.46179],[-120.07163,34.46236],[-120.07039,34.46258],[-120.06848,34.46258],[-120.06588,34.46202],[-120.06259,34.46179],[-120.05753,34.461],[-120.05548,34.46123],[-120.05397,34.46179],[-120.04946,34.46134],[-120.04891,34.46179],[-120.04727,34.46191],[-120.04658,34.46236],[-120.04179,34.46326],[-120.03851,34.46337],[-120.03522,34.46281]],[[-120.07341,34.461],[-120.07341,34.461]],[[-120.10078,34.45552],[-120.09557,34.45484],[-120.09448,34.45447],[-120.0938,34.45452],[-120.0927,34.45432],[-120.09202,34.45448],[-120.09051,34.45426],[-120.0886,34.45448],[-120.0875,34.45428],[-120.08504,34.45423],[-120.08422,34.45446],[-120.08312,34.45426],[-120.08148,34.45423],[-120.07997,34.45452],[-120.07778,34.45453],[-120.07696,34.45433],[-120.0745,34.45455],[-120.07382,34.45433],[-120.07039,34.45451],[-120.0698,34.45401],[-120.06944,34.45394],[-120.06862,34.45422],[-120.06396,34.45424],[-120.06287,34.45442],[-120.06232,34.45426],[-120.05876,34.4544],[-120.0563,34.45426],[-120.0552,34.45447],[-120.05452,34.45423],[-120.05302,34.45436],[-120.05219,34.45425],[-120.0511,34.45461],[-120.05055,34.45425],[-120.05014,34.45419],[-120.04891,34.45437],[-120.04672,34.45401],[-120.04234,34.45394],[-120.04111,34.45412],[-120.04001,34.45392],[-120.03919,34.45396],[-120.03769,34.45346],[-120.03522,34.45319]],[[-120.07354,34.45434],[-120.07354,34.45434]],[[-120.05712,34.45434],[-120.05712,34.45434]],[[-120.08148,34.45423],[-120.08148,34.45423]]]},"properties":{"depth_m":30}},{"type":"Feature","geometry":{"type":"MultiLineString","coordinates":[[[-120.10078,34.4636],[-120.09749,34.46179],[-120.09407,34.46089],[-120.0927,34.46089],[-120.08873,34.4601],[-120.0886,34.46021],[-120.08558,34.46021],[-120.08545,34.46033],[-120.08394,34.46033],[-120.08381,34.46021],[-120.08298,34.46044],[-120.08271,34.46033],[-120.07943,34.46033],[-120.07833,34.46044],[-120.07655,34.46021],[-120.07601,34.46021],[-120.0756,34.46039],[-120.07423,34.46033],[-120.07327,34.46078],[-120.07349,34.46134],[-120.07313,34.46179],[-120.07163,34.46236],[-120.07039,34.46258],[-120.06848,34.46258],[-120.06588,34.46202],[-120.06259,34.46179],[-120.05753,34.461],[-120.05548,34.46123],[-120.05397,34.46179],[-120.04946,34.46134],[-120.04891,34.46179],[-120.04727,34.46191],[-120.04658,34.46236],[-120.04179,34.46326],[-120.03851,34.46337],[-120.03522,34.46281]],[[-120.07341,34.461],[-120.07341,34.461]],[[-120.10078,34.45416],[-120.09886,34.45403],[-120.09776,34.45416],[-120.09448,34.45373],[-120.09407,34.45352],[-120.09339,34.45371],[-120.09215,34.45371],[-120.09037,34.45349],[-120.08819,34.45358],[-120.08723,34.45339],[-120.08613,34.45349],[-120.08504,34.45333],[-120.08381,34.45351],[-120.08216,34.45351],[-120.08107,34.45323],[-120.08025,34.45361],[-120.07724,34.45345],[-120.07477,34.45372],[-120.07395,34.45352],[-120.07258,34.45359],[-120.07149,34.45344],[-120.06957,34.45277],[-120.06807,34.45247],[-120.06574,34.45275],[-120.06383,34.45279],[-120.06273,34.45333],[-120.06082,34.45347],[-120.06027,34.4533],[-120.05931,34.45359],[-120.05794,34.4535],[-120.05698,34.45322],[-120.05548,34.45336],[-120.05384,34.45288],[-120.05288,34.45309],[-120.05192,34.45287],[-120.05096,34.45332],[-120.05,34.45287],[-120.04699,34.45286],[-120.04549,34.45245],[-120.0422,34.45244],[-120.04138,34.45269],[-120.03947,34.45277],[-120.0381,34.45208],[-120.037,34.45218],[-120.03522,34.452]]]},"properties":{"depth_m":35}},{"type":"Feature","geometry":{"type":"MultiLineString","coordinates":[[[-120.10078,34.4636],[-120.09749,34.46179],[-120.09407,34.46089],[-120.0927,34.46089],[-120.08873,34.4601],[-120.0886,34.46021],[-120.08558,34.46021],[-120.08545,34.46033],[-120.08394,34.46033],[-120.08381,34.46021],[-120.08298,34.46044],[-120.08271,34.46033],[-120.07943,34.46033],[-120.07833,34.46044],[-120.07655,34.46021],[-120.07601,34.46021],[-120.0756,34.4604],[-120.07423,34.46033],[-120.07327,34.46078],[-120.0735,34.46134],[-120.07313,34.46179],[-120.07163,34.46236],[-120.07039,34.46258],[-120.06848,34.46258],[-120.06588,34.46202],[-120.06259,34.46179],[-120.05753,34.461],[-120.05548,34.46123],[-120.05397,34.46179],[-120.04946,34.46134],[-120.04891,34.46179],[-120.04727,34.46191],[-120.04658,34.46236],[-120.04179,34.46326],[-120.03851,34.46337],[-120.03522,34.46281]],[[-120.07341,34.461],[-120.07341,34.461]],[[-120.10078,34.45218],[-120.09612,34.45214],[-120.09557,34.45166],[-120.0953,34.45161],[-120.09407,34.45211],[-120.09256,34.45232],[-120.09092,34.45159],[-120.0901,34.45199],[-120.08873,34.45214],[-120.08723,34.45161],[-120.08654,34.45174],[-120.08545,34.4513],[-120.08449,34.45166],[-120.08326,34.45137],[-120.08257,34.45184],[-120.08134,34.45132],[-120.08038,34.45187],[-120.07956,34.45134],[-120.07861,34.45166],[-120.07778,34.45132],[-120.07655,34.45161],[-120.0756,34.45132],[-120.07464,34.45146],[-120.07382,34.45131],[-120.07231,34.45138],[-120.07012,34.45061],[-120.06916,34.45045],[-120.0667,34.45063],[-120.06465,34.45054],[-120.06109,34.45186],[-120.06056,34.45164],[-120.06027,34.4511],[-120.05945,34.4516],[-120.05904,34.45168],[-120.05849,34.4513],[-120.05712,34.45157],[-120.05657,34.45133],[-120.05534,34.45143],[-120.05356,34.45132],[-120.05247,34.45093],[-120.0511,34.4513],[-120.05014,34.45132],[-120.04959,34.45125],[-120.04795,34.45061],[-120.04699,34.45083],[-120.04617,34.4508],[-120.04467,34.45015],[-120.04316,34.45055],[-120.0422,34.45057],[-120.04179,34.45053],[-120.04125,34.45013],[-120.04084,34.4501],[-120.0396,34.45096],[-120.03906,34.45097],[-120.03755,34.45051],[-120.03659,34.45041],[-120.03522,34.45061]],[[-120.05178,34.45107],[-120.05178,34.45107]],[[-120.06684,34.45062],[-120.06684,34.45062]]]},"properties":{"depth_m":40}},{"type":"Feature","geometry":{"type":"MultiLineString","coordinates":[[[-120.10078,34.4636],[-120.09749,34.46179],[-120.09407,34.46089],[-120.0927,34.46089],[-120.08873,34.4601],[-120.0886,34.46021],[-120.08558,34.46021],[-120.08545,34.46033],[-120.08394,34.46033],[-120.08381,34.46021],[-120.08298,34.46044],[-120.08271,34.46033],[-120.07943,34.46033],[-120.07833,34.46044],[-120.07655,34.46021],[-120.07601,34.46021],[-120.0756,34.46041],[-120.07423,34.46033],[-120.07327,34.46078],[-120.07351,34.46134],[-120.07313,34.46179],[-120.07163,34.46236],[-120.07039,34.46258],[-120.06848,34.46258],[-120.06588,34.46202],[-120.06259,34.46179],[-120.05753,34.461],[-120.05548,34.46123],[-120.05397,34.46179],[-120.04946,34.46134],[-120.04891,34.46179],[-120.04727,34.46191],[-120.04658,34.46236],[-120.04179,34.46326],[-120.03851,34.46337],[-120.03522,34.46281]],[[-120.07341,34.461],[-120.07341,34.461]],[[-120.03522,34.44845],[-120.03687,34.44827],[-120.03919,34.4492],[-120.04084,34.44808],[-120.04303,34.44865],[-120.04467,34.44826],[-120.04672,34.44872],[-120.04781,34.44854],[-120.04877,34.44863],[-120.04959,34.44881],[-120.05069,34.44931],[-120.05178,34.44902],[-120.0537,34.44908],[-120.05493,34.4493],[-120.0578,34.44923],[-120.05904,34.44965],[-120.06013,34.44917],[-120.06232,34.44912],[-120.06506,34.44849],[-120.06656,34.44859],[-120.06697,34.44841],[-120.06793,34.44849],[-120.0693,34.44826],[-120.07039,34.44856],[-120.07258,34.44843],[-120.07341,34.44903],[-120.07669,34.44859],[-120.07737,34.4489],[-120.07833,34.44902],[-120.07888,34.44939],[-120.08052,34.44912],[-120.08257,34.44921],[-120.08312,34.44937],[-120.08531,34.44917],[-120.08723,34.4499],[-120.08942,34.4496],[-120.09051,34.4497],[-120.09215,34.4496],[-120.09373,34.44983],[-120.09434,34.4501],[-120.09544,34.45008],[-120.09681,34.45033],[-120.09804,34.45021],[-120.09886,34.44981],[-120.10078,34.44984]],[[-120.08257,34.44985],[-120.08273,34.44972],[-120.08257,34.44958],[-120.0824,34.44972],[-120.08257,34.44985]],[[-120.09872,34.44983],[-120.09872,34.44983]],[[-120.03618,34.44836],[-120.03618,34.44836]]]},"properties":{"depth_m":45}},{"type":"Feature","geometry":{"type":"MultiLineString","coordinates":[[[-120.10078,34.4636],[-120.09749,34.46179],[-120.09407,34.46089],[-120.0927,34.46089],[-120.08873,34.4601],[-120.0886,34.46021],[-120.08558,34.46021],[-120.08545,34.46033],[-120.08394,34.46033],[-120.08381,34.46021],[-120.08298,34.46044],[-120.08271,34.46033],[-120.07943,34.46033],[-120.07833,34.46044],[-120.07655,34.46021],[-120.07601,34.46021],[-120.0756,34.46042],[-120.07423,34.46033],[-120.07327,34.46078],[-120.07352,34.46134],[-120.07313,34.46179],[-120.07163,34.46236],[-120.07039,34.46258],[-120.06848,34.46258],[-120.06588,34.46202],[-120.06259,34.46179],[-120.05753,34.461],[-120.05548,34.46123],[-120.05397,34.46179],[-120.04946,34.46134],[-120.04891,34.46179],[-120.04727,34.46191],[-120.04658,34.46236],[-120.04179,34.46326],[-120.03851,34.46337],[-120.03522,34.46281]],[[-120.07341,34.461],[-120.07341,34.461]],[[-120.03522,34.44572],[-120.03564,34.44582],[-120.03714,34.4454],[-120.03892,34.44571],[-120.03947,34.44551],[-120.04152,34.44527],[-120.04234,34.44537],[-120.04344,34.44585],[-120.04439,34.44535],[-120.04549,34.44528],[-120.04617,34.44543],[-120.04713,34.44626],[-120.04932,34.44623],[-120.05233,34.447],[-120.05411,34.44695],[-120.0552,34.44713],[-120.05644,34.44632],[-120.05712,34.44622],[-120.0578,34.44637],[-120.05876,34.44714],[-120.06095,34.4473],[-120.06177,34.44714],[-120.06301,34.44662],[-120.06492,34.4464],[-120.06629,34.44652],[-120.06697,34.44583],[-120.06725,34.44576],[-120.07094,34.44581],[-120.07176,34.4462],[-120.07217,34.44581],[-120.07245,34.44579],[-120.07313,34.44635],[-120.07409,34.44652],[-120.07655,34.44641],[-120.07833,34.44667],[-120.08093,34.44657],[-120.08326,34.44719],[-120.08449,34.44734],[-120.08572,34.44723],[-120.08695,34.44758],[-120.08942,34.44724],[-120.09079,34.4479],[-120.09174,34.44773],[-120.0938,34.44771],[-120.09462,34.44791],[-120.09694,34.44772],[-120.0979,34.44814],[-120.10078,34.44813]],[[-120.03947,34.44612],[-120.03931,34.44611],[-120.03947,34.44612]]]},"properties":{"depth_m":50}},{"type":"Feature","geometry":{"type":"MultiLineString","coordinates":[[[-120.10078,34.4636],[-120.09749,34.46179],[-120.09407,34.46089],[-120.0927,34.46089],[-120.08873,34.4601],[-120.0886,34.46021],[-120.08558,34.46021],[-120.08545,34.46033],[-120.08394,34.46033],[-120.08381,34.46021],[-120.08298,34.46044],[-120.08271,34.46033],[-120.07943,34.46033],[-120.07833,34.46044],[-120.07655,34.46021],[-120.07601,34.46021],[-120.0756,34.46042],[-120.07423,34.46033],[-120.07327,34.46078],[-120.07352,34.46134],[-120.07313,34.46179],[-120.07163,34.46236],[-120.07039,34.46258],[-120.06848,34.46258],[-120.06588,34.46202],[-120.06259,34.46179],[-120.05753,34.461],[-120.05548,34.46123],[-120.05397,34.46179],[-120.04946,34.46134],[-120.04891,34.46179],[-120.04727,34.46191],[-120.04658,34.46236],[-120.04179,34.46326],[-120.03851,34.46337],[-120.03522,34.46281]],[[-120.07341,34.461],[-120.07341,34.461]],[[-120.03522,34.44572],[-120.03564,34.44582],[-120.03714,34.4454],[-120.03892,34.44571],[-120.03947,34.44551],[-120.04152,34.44527],[-120.04234,34.44537],[-120.04344,34.44585],[-120.04439,34.44535],[-120.04549,34.44528],[-120.04617,34.44543],[-120.04713,34.44626],[-120.04932,34.44623],[-120.05233,34.447],[-120.05411,34.44695],[-120.0552,34.44713],[-120.05644,34.44632],[-120.05712,34.44622],[-120.0578,34.44637],[-120.05876,34.44714],[-120.06095,34.4473],[-120.06177,34.44714],[-120.06301,34.44662],[-120.06492,34.4464],[-120.06629,34.44652],[-120.06697,34.44583],[-120.06725,34.44576],[-120.07094,34.44581],[-120.07176,34.4462],[-120.07217,34.44581],[-120.07245,34.44579],[-120.07313,34.44635],[-120.07409,34.44652],[-120.07655,34.44641],[-120.07833,34.44667],[-120.08093,34.44657],[-120.08326,34.44719],[-120.08449,34.44734],[-120.08572,34.44723],[-120.08695,34.44758],[-120.08942,34.44724],[-120.09079,34.4479],[-120.09174,34.44773],[-120.0938,34.44771],[-120.09462,34.44791],[-120.09694,34.44772],[-120.0979,34.44814],[-120.10078,34.44813]],[[-120.03947,34.44612],[-120.03931,34.44611],[-120.03947,34.44612]]]},"properties":{"depth_m":50}},{"type":"Feature","geometry":{"type":"MultiLineString","coordinates":[[[-120.10078,34.4636],[-120.09749,34.46179],[-120.09407,34.46089],[-120.0927,34.46089],[-120.08873,34.4601],[-120.0886,34.46021],[-120.08558,34.46021],[-120.08545,34.46033],[-120.08394,34.46033],[-120.08381,34.46021],[-120.08298,34.46044],[-120.08271,34.46033],[-120.07943,34.46033],[-120.07833,34.46044],[-120.07655,34.46021],[-120.07601,34.46021],[-120.0756,34.46044],[-120.07546,34.46033],[-120.07423,34.46033],[-120.07327,34.46078],[-120.07354,34.46134],[-120.07313,34.46179],[-120.07163,34.46236],[-120.07039,34.46258],[-120.06848,34.46258],[-120.06588,34.46202],[-120.06259,34.46179],[-120.05753,34.461],[-120.05548,34.46123],[-120.05397,34.46179],[-120.04946,34.46134],[-120.04891,34.46179],[-120.04727,34.46191],[-120.04658,34.46236],[-120.04179,34.46326],[-120.03851,34.46337],[-120.03522,34.46281]],[[-120.07354,34.46134],[-120.07354,34.46134]],[[-120.07341,34.461],[-120.07341,34.461]],[[-120.06623,34.42297],[-120.0667,34.42313],[-120.06779,34.42315],[-120.06862,34.42422],[-120.06971,34.4249],[-120.07135,34.42552],[-120.07258,34.42558],[-120.07368,34.42615],[-120.07423,34.42605],[-120.0756,34.42522],[-120.07737,34.42569],[-120.07943,34.42553],[-120.07984,34.42586],[-120.07989,34.4267],[-120.08052,34.42733],[-120.08148,34.4274],[-120.08271,34.42684],[-120.08405,34.42828],[-120.08476,34.42867],[-120.08608,34.42839],[-120.08643,34.42805],[-120.08661,34.42726],[-120.08777,34.42685],[-120.08901,34.42728],[-120.08996,34.42697],[-120.0912,34.42747],[-120.09284,34.42713],[-120.09407,34.4276],[-120.09462,34.4275],[-120.0953,34.4271],[-120.09626,34.4275],[-120.09708,34.42761],[-120.09804,34.42708],[-120.09886,34.42688],[-120.10078,34.42703]],[[-120.08517,34.42707],[-120.08531,34.4269],[-120.08503,34.42692],[-120.08517,34.42707]],[[-120.07504,34.42297],[-120.07489,34.42331],[-120.07497,34.42388],[-120.0756,34.42456],[-120.07586,34.42365],[-120.07557,34.42297]],[[-120.06975,34.42297],[-120.06966,34.42331],[-120.06985,34.42354],[-120.07037,34.42331],[-120.07061,34.42297]],[[-120.07109,34.42297],[-120.07163,34.42332],[-120.07191,34.4232],[-120.07201,34.42297]]]},"properties":{"depth_m":75}}]}