{"type":"FeatureCollection","features":[{"type":"Feature","properties":{"id":"refugio-kelp-extent","name":"Refugio surveyed kelp extent","className":"Kelp Subsurface","years":"2003-2016","areaKm2":0.58},"geometry":{"type":"MultiPolygon","coordinates":[[[[-120.08630333333333,34.459263333333325],[-120.08631,34.45927],[-120.0863,34.45927],[-120.08630333333333,34.459263333333325]]],[[[-120.09599157894736,34.45935473684211],[-120.09599,34.4593543902439],[-120.09599,34.45935],[-120.09599157894736,34.45935473684211]]],[[[-120.07944,34.45966],[-120.07951,34.45951],[-120.07956,34.45964],[-120.07944,34.45995],[-120.07969,34.4597],[-120.07991,34.45983],[-120.07976,34.45995],[-120.07989,34.46009],[-120.07952,34.46027],[-120.07835,34.4603],[-120.07823,34.46023],[-120.0785,34.46016],[-120.07831,34.45984],[-120.07927,34.45946],[-120.07941,34.45952],[-120.07924,34.45962],[-120.07944,34.45966]],[[-120.07921,34.45963],[-120.07923,34.45963],[-120.07924,34.45962],[-120.07921,34.45963]],[[-120.07913,34.4596],[-120.07916,34.45959],[-120.07914,34.45956],[-120.07913,34.4596]],[[-120.07952,34.45959],[-120.0795,34.45959],[-120.07952,34.45961],[-120.07952,34.45959]],[[-120.07943,34.45976],[-120.07942,34.45976],[-120.07942,34.45977],[-120.07943,34.45976]],[[-120.07945,34.46002],[-120.07946,34.46001],[-120.07941,34.45998],[-120.07945,34.46002]],[[-120.07949,34.45995],[-120.07946,34.45995],[-120.07948,34.45996],[-120.07949,34.45995]],[[-120.0798,34.46004],[-120.07977,34.46],[-120.07973,34.45998],[-120.0798,34.46004]],[[-120.07917,34.46025],[-120.0792,34.46024],[-120.07918,34.46023],[-120.07917,34.46025]],[[-120.0787,34.46015],[-120.07876,34.46018],[-120.0788,34.46016],[-120.0787,34.46015]],[[-120.07845,34.46028],[-120.07848,34.46028],[-120.07846,34.46026],[-120.07845,34.46028]],[[-120.07859,34.4598],[-120.07857,34.4598],[-120.07859,34.45982],[-120.07859,34.4598]],[[-120.07869,34.45989],[-120.07869,34.45985],[-120.07857,34.45987],[-120.07869,34.45989]],[[-120.07863,34.45976],[-120.07863,34.4598],[-120.0788,34.4598],[-120.07863,34.45976]],[[-120.07923,34.46024],[-120.07921,34.46025],[-120.07923,34.46026],[-120.07923,34.46024]],[[-120.07962,34.45994],[-120.07979,34.45991],[-120.07973,34.45981],[-120.07962,34.45994]],[[-120.0787,34.46005],[-120.07874,34.46009],[-120.07878,34.46007],[-120.0787,34.46005]],[[-120.07877,34.46008],[-120.07878,34.4601],[-120.0788,34.46008],[-120.07877,34.46008]],[[-120.07852,34.46006],[-120.07867,34.46012],[-120.07861,34.45999],[-120.07852,34.46006]],[[-120.07888,34.4598],[-120.07886,34.4598],[-120.07888,34.45985],[-120.07888,34.4598]],[[-120.07942,34.45985],[-120.07942,34.45986],[-120.07943,34.45986],[-120.07942,34.45985]],[[-120.07867,34.45995],[-120.07865,34.45995],[-120.07866,34.45997],[-120.07867,34.45995]],[[-120.0787,34.45993],[-120.07867,34.45993],[-120.07867,34.45995],[-120.0787,34.45993]],[[-120.07897,34.45984],[-120.07894,34.45982],[-120.07893,34.45985],[-120.07897,34.45984]],[[-120.07941,34.45983],[-120.07942,34.45978],[-120.07938,34.45982],[-120.07941,34.45983]],[[-120.07971,34.46002],[-120.0797,34.45999],[-120.07968,34.46001],[-120.07971,34.46002]],[[-120.07972,34.46015],[-120.07971,34.46012],[-120.07967,34.4601],[-120.07972,34.46015]],[[-120.07965,34.46012],[-120.07963,34.4601],[-120.07961,34.46012],[-120.07965,34.46012]],[[-120.07945,34.46019],[-120.07947,34.46021],[-120.07946,34.46019],[-120.07945,34.46019]]],[[[-120.07362,34.45981],[-120.07395,34.45957],[-120.07453,34.45964],[-120.07461,34.45982],[-120.07442,34.45983],[-120.07476,34.46004],[-120.07431,34.46004],[-120.07441,34.46026],[-120.07396,34.46003],[-120.07394,34.45982],[-120.07362,34.45981]],[[-120.0743,34.46019],[-120.07431,34.46019],[-120.07432,34.46017],[-120.0743,34.46019]]],[[[-120.08123,34.45978],[-120.08135,34.45984],[-120.08125,34.46006],[-120.08154,34.45983],[-120.08242,34.46011],[-120.08182,34.46006],[-120.08194,34.46027],[-120.08143,34.46026],[-120.08111,34.46022],[-120.08117,34.46003],[-120.08103,34.46004],[-120.08109,34.46023],[-120.08078,34.46026],[-120.07978,34.45975],[-120.0805,34.45957],[-120.08102,34.45985],[-120.08093,34.45993],[-120.08123,34.45978]],[[-120.08093,34.45991],[-120.08081,34.45988],[-120.08093,34.45993],[-120.08093,34.45991]],[[-120.08067,34.46018],[-120.08069,34.46019],[-120.08068,34.46017],[-120.08067,34.46018]],[[-120.08057,34.46006],[-120.08062,34.46007],[-120.08063,34.46007],[-120.08057,34.46006]],[[-120.08066,34.46001],[-120.08063,34.46001],[-120.08062,34.46003],[-120.08066,34.46001]],[[-120.08038,34.45993],[-120.08047,34.46001],[-120.08043,34.45984],[-120.08038,34.45993]],[[-120.08053,34.4598],[-120.08048,34.4598],[-120.08053,34.45981],[-120.08053,34.4598]],[[-120.08059,34.45982],[-120.08059,34.4598],[-120.08057,34.4598],[-120.08059,34.45982]],[[-120.08072,34.46012],[-120.08074,34.46009],[-120.08071,34.46008],[-120.08072,34.46012]],[[-120.08114,34.4602],[-120.08115,34.46018],[-120.08112,34.46019],[-120.08114,34.4602]],[[-120.08125,34.45988],[-120.08113,34.45996],[-120.08118,34.46001],[-120.08125,34.45988]],[[-120.08124,34.45984],[-120.0812,34.45986],[-120.08125,34.45988],[-120.08124,34.45984]],[[-120.08077,34.46004],[-120.08078,34.46004],[-120.08078,34.46003],[-120.08077,34.46004]],[[-120.08078,34.46002],[-120.08077,34.46002],[-120.08078,34.46003],[-120.08078,34.46002]],[[-120.08082,34.46001],[-120.08083,34.46002],[-120.08085,34.46001],[-120.08082,34.46001]],[[-120.08164,34.45999],[-120.08165,34.45993],[-120.08158,34.45995],[-120.08164,34.45999]],[[-120.08135,34.46006],[-120.0817,34.46015],[-120.08178,34.46007],[-120.08135,34.46006]],[[-120.08136,34.46011],[-120.08137,34.46011],[-120.08136,34.46008],[-120.08136,34.46011]],[[-120.08057,34.45979],[-120.08057,34.45978],[-120.08055,34.45978],[-120.08057,34.45979]]],[[[-120.08539,34.45886],[-120.08518,34.45871],[-120.08556,34.45875],[-120.08556,34.45881],[-120.08567,34.45878],[-120.0857,34.45885],[-120.08596,34.45889],[-120.0855,34.45856],[-120.08589,34.45852],[-120.08583,34.45864],[-120.08609,34.4587],[-120.0861,34.45849],[-120.08643,34.45854],[-120.0865,34.45837],[-120.08681,34.45828],[-120.0869,34.45839],[-120.08681,34.45823],[-120.08708,34.45821],[-120.08708230769231,34.45815],[-120.08709,34.45795],[-120.08735,34.45823],[-120.08792,34.45816],[-120.08779,34.45803],[-120.0884,34.45806],[-120.08833,34.45818],[-120.08848,34.45822],[-120.08854,34.45805],[-120.08881,34.45804],[-120.08898,34.45808],[-120.08888,34.45795],[-120.08903,34.45776],[-120.08903,34.45804],[-120.08924,34.45812],[-120.08955,34.45793],[-120.08966,34.45809],[-120.08981,34.45796],[-120.08999,34.45795],[-120.08997,34.45806],[-120.09007,34.45807],[-120.08996,34.45789],[-120.09004,34.45781],[-120.09019,34.45804],[-120.0903,34.458],[-120.09056,34.45808],[-120.09024,34.45807],[-120.09041,34.45823],[-120.09052,34.45814],[-120.0906,34.45813],[-120.09094,34.45829],[-120.09077,34.45848],[-120.09097,34.45845],[-120.09123,34.4586],[-120.09105,34.45904],[-120.0914,34.45923],[-120.092,34.45907],[-120.09305,34.45922],[-120.09316,34.45908],[-120.09297,34.45903],[-120.09287,34.45867],[-120.09307,34.45858],[-120.09338,34.45862],[-120.09336,34.45877],[-120.09393,34.45868],[-120.09431,34.45884],[-120.09434,34.4587],[-120.0945,34.45886],[-120.09488,34.45875],[-120.0957,34.45892],[-120.09564,34.45906],[-120.09603,34.45925],[-120.09562,34.45915],[-120.09556,34.45926],[-120.09599,34.4593543902439],[-120.09599,34.45938],[-120.096,34.45938],[-120.09599157894736,34.45935473684211],[-120.09638,34.45944],[-120.09669,34.45964],[-120.09674,34.4597],[-120.0967,34.45976],[-120.09762,34.46014],[-120.09744,34.46021],[-120.09755,34.46041],[-120.09895,34.46098],[-120.0989,34.46118],[-120.09855,34.46127],[-120.09844,34.46119],[-120.09845,34.46104],[-120.09825,34.46117],[-120.09817,34.46099],[-120.09819,34.46126],[-120.09791,34.46124],[-120.09742,34.46119],[-120.09813,34.46153],[-120.0982,34.46149],[-120.0983,34.46151],[-120.09831,34.46149],[-120.0982,34.46135],[-120.09867,34.46139],[-120.0986,34.46149],[-120.09865,34.46148],[-120.09872,34.46131],[-120.09876,34.46146],[-120.09889,34.46147],[-120.09873,34.4613],[-120.09884,34.4612],[-120.09945,34.46136],[-120.09947,34.46155],[-120.09974,34.46137],[-120.10017,34.46162],[-120.10003,34.46183],[-120.0999,34.46183],[-120.10002,34.4616],[-120.09948,34.46172],[-120.09987,34.46194],[-120.09993,34.46204],[-120.09951,34.46193],[-120.09929,34.46204],[-120.09934,34.46219],[-120.099,34.46221],[-120.09893035294117,34.462179882352935],[-120.09896,34.46217],[-120.09894,34.46217],[-120.09893018867925,34.46217981132075],[-120.09826,34.46189],[-120.09786,34.46156],[-120.09755,34.46155],[-120.09763,34.46162],[-120.09765,34.4617],[-120.09763,34.4617],[-120.09731,34.46145],[-120.09709,34.4615],[-120.09664,34.46136],[-120.09662,34.46122],[-120.09635,34.46141],[-120.096,34.46135],[-120.09562,34.46103],[-120.09543,34.46114],[-120.09504,34.46088],[-120.09495,34.46092],[-120.09447,34.46082],[-120.09447,34.46063],[-120.09349,34.46067],[-120.09375,34.46085],[-120.0931,34.46081],[-120.09279,34.46065],[-120.092934,34.460554],[-120.09296,34.46058],[-120.09295,34.46055],[-120.09294,34.46055],[-120.09231,34.46048],[-120.09221,34.46016],[-120.09218,34.46042],[-120.09184,34.46054],[-120.09165,34.46017],[-120.09196,34.46028],[-120.09199,34.4601],[-120.09179,34.46004],[-120.09196,34.45986],[-120.09126,34.45988],[-120.09113,34.45969],[-120.09103,34.45998],[-120.09087,34.45999],[-120.09119,34.46027],[-120.09089,34.46044],[-120.08974,34.46032],[-120.08993,34.46025],[-120.08976,34.45999],[-120.08923,34.46024],[-120.08948,34.45985],[-120.08892,34.46014],[-120.08859,34.4599],[-120.08871,34.45961],[-120.08855,34.45985],[-120.08807,34.45985],[-120.08809,34.45991],[-120.08793,34.46006],[-120.08772,34.46007],[-120.08771,34.45989],[-120.08724,34.45999],[-120.08701,34.4598],[-120.08643,34.46014],[-120.086,34.46009],[-120.08573,34.45985],[-120.08575,34.46011],[-120.08541,34.45984],[-120.08479,34.4599],[-120.08478,34.45971],[-120.08509,34.45965],[-120.08511,34.45946],[-120.08581,34.45957],[-120.08584,34.45938],[-120.08611,34.45959],[-120.08667,34.45932],[-120.08734,34.4595],[-120.08686,34.4593],[-120.08687,34.45921],[-120.08634,34.4593],[-120.08631,34.45927],[-120.08634,34.45927],[-120.08632,34.45923],[-120.08630333333333,34.459263333333325],[-120.08619,34.45915],[-120.08553,34.45944],[-120.08571,34.45914],[-120.08592,34.45913],[-120.08569,34.45901],[-120.08573,34.45899],[-120.0857,34.45896],[-120.08535,34.45906],[-120.0856,34.45908],[-120.08557,34.45923],[-120.08488,34.45925],[-120.08492,34.45909],[-120.08507,34.45909],[-120.08513,34.45894],[-120.08539,34.45886]],[[-120.0885,34.45824],[-120.0885,34.45821],[-120.08848,34.45822],[-120.0885,34.45824]],[[-120.08852,34.45821],[-120.08852,34.4582],[-120.0885,34.45821],[-120.08852,34.45821]],[[-120.08994,34.45808],[-120.08997,34.45808],[-120.08997,34.45806],[-120.08994,34.45808]],[[-120.09016,34.45805],[-120.09019,34.45805],[-120.09019,34.45804],[-120.09016,34.45805]],[[-120.09076,34.45845],[-120.09074,34.45847],[-120.09077,34.45848],[-120.09076,34.45845]],[[-120.08581,34.45959],[-120.08583,34.45959],[-120.08581,34.45957],[-120.08581,34.45959]],[[-120.08636,34.45923],[-120.08636,34.4592],[-120.08632,34.45923],[-120.08636,34.45923]],[[-120.09758,34.46118],[-120.09764,34.46119],[-120.09766,34.46113],[-120.09758,34.46118]],[[-120.09924,34.46143],[-120.09924,34.46139],[-120.09919,34.46143],[-120.09924,34.46143]],[[-120.09917,34.46141],[-120.09919,34.46141],[-120.09917,34.46139],[-120.09917,34.46141]],[[-120.09938,34.46149],[-120.09938,34.46145],[-120.09932,34.46149],[-120.09938,34.46149]],[[-120.09839,34.46189],[-120.0984,34.46192],[-120.09846,34.46189],[-120.09839,34.46189]],[[-120.09845,34.4619],[-120.09845,34.46193],[-120.09847,34.46191],[-120.09845,34.4619]],[[-120.0971,34.46145],[-120.09709,34.46143],[-120.09707,34.46144],[-120.0971,34.46145]],[[-120.09552,34.46102],[-120.09549,34.46108],[-120.09556,34.46103],[-120.09552,34.46102]],[[-120.09485,34.46086],[-120.09485,34.46088],[-120.09493,34.46086],[-120.09485,34.46086]],[[-120.09366,34.4608],[-120.09363,34.46081],[-120.09365,34.46082],[-120.09366,34.4608]],[[-120.09289,34.46062],[-120.0929,34.46064],[-120.09292,34.46063],[-120.09289,34.46062]],[[-120.09095,34.45993],[-120.09093,34.45994],[-120.09095,34.45995],[-120.09095,34.45993]],[[-120.09094,34.46019],[-120.09095,34.46013],[-120.09091,34.46017],[-120.09094,34.46019]],[[-120.091,34.46025],[-120.09098,34.46026],[-120.091,34.46027],[-120.091,34.46025]],[[-120.09086,34.4604],[-120.09087,34.4604],[-120.09085,34.46038],[-120.09086,34.4604]],[[-120.0908,34.4604],[-120.09082,34.46039],[-120.0908,34.46036],[-120.0908,34.4604]],[[-120.0891,34.45993],[-120.08912,34.45993],[-120.0891,34.45989],[-120.0891,34.45993]],[[-120.08896,34.45998],[-120.08897,34.45998],[-120.08896,34.45997],[-120.08896,34.45998]],[[-120.08889,34.45997],[-120.08889,34.46002],[-120.08893,34.45999],[-120.08889,34.45997]],[[-120.08864,34.45962],[-120.08865,34.45962],[-120.08864,34.45961],[-120.08864,34.45962]],[[-120.08863,34.45958],[-120.08863,34.45962],[-120.08864,34.45962],[-120.08863,34.45958]],[[-120.0861,34.46003],[-120.08603,34.46],[-120.08605,34.46005],[-120.0861,34.46003]],[[-120.0864,34.45953],[-120.08634,34.45953],[-120.0864,34.45955],[-120.0864,34.45953]],[[-120.08644,34.45951],[-120.0864,34.45951],[-120.0864,34.45953],[-120.08644,34.45951]],[[-120.08705,34.45934],[-120.08705,34.45936],[-120.0871,34.45934],[-120.08705,34.45934]],[[-120.08695,34.4593],[-120.08695,34.45932],[-120.08697,34.4593],[-120.08695,34.4593]],[[-120.08572,34.45932],[-120.08573,34.45932],[-120.08572,34.4593],[-120.08572,34.45932]],[[-120.08576,34.45902],[-120.08577,34.45902],[-120.08576,34.45901],[-120.08576,34.45902]],[[-120.08535,34.4589],[-120.08535,34.45889],[-120.08534,34.4589],[-120.08535,34.4589]],[[-120.08567,34.45883],[-120.08567,34.45882],[-120.08566,34.45883],[-120.08567,34.45883]],[[-120.08589,34.45879],[-120.08593,34.45878],[-120.0859,34.45874],[-120.08589,34.45879]],[[-120.08654,34.45848],[-120.08651,34.45846],[-120.08652,34.4585],[-120.08654,34.45848]],[[-120.08857,34.45808],[-120.08855,34.45808],[-120.08857,34.4581],[-120.08857,34.45808]],[[-120.08894,34.45797],[-120.08894,34.45795],[-120.08892,34.45797],[-120.08894,34.45797]],[[-120.08907,34.45808],[-120.08907,34.45806],[-120.08905,34.45808],[-120.08907,34.45808]],[[-120.08948,34.45803],[-120.08945,34.45802],[-120.08947,34.45805],[-120.08948,34.45803]],[[-120.08945,34.45808],[-120.08946,34.45805],[-120.08944,34.45807],[-120.08945,34.45808]],[[-120.08987,34.45798],[-120.08981,34.45798],[-120.08986,34.45802],[-120.08987,34.45798]],[[-120.09005,34.458],[-120.09005,34.45801],[-120.09009,34.45799],[-120.09005,34.458]],[[-120.09061,34.45823],[-120.09054,34.45818],[-120.09052,34.45822],[-120.09061,34.45823]],[[-120.09099,34.45847],[-120.09096,34.45848],[-120.09098,34.45849],[-120.09099,34.45847]],[[-120.09115,34.45863],[-120.09104,34.45863],[-120.09098,34.4587],[-120.09115,34.45863]],[[-120.09108,34.45881],[-120.09109,34.45881],[-120.09108,34.45879],[-120.09108,34.45881]],[[-120.09102,34.45886],[-120.09104,34.45886],[-120.09103,34.45885],[-120.09102,34.45886]],[[-120.09361,34.45903],[-120.09469,34.4591],[-120.09445,34.4589],[-120.09407,34.45896],[-120.09422,34.45883],[-120.09411,34.45879],[-120.09391,34.45897],[-120.09382,34.45879],[-120.09361,34.45903]],[[-120.09655,34.45957],[-120.09658,34.45959],[-120.09653,34.45955],[-120.09655,34.45957]],[[-120.09665,34.45966],[-120.09665,34.45965],[-120.09663,34.45966],[-120.09665,34.45966]],[[-120.09877,34.46101],[-120.09875,34.46098],[-120.09873,34.46101],[-120.09877,34.46101]],[[-120.09855,34.46108],[-120.09849,34.46108],[-120.09856,34.46113],[-120.09855,34.46108]],[[-120.0886,34.45965],[-120.08856,34.45965],[-120.0886,34.45967],[-120.0886,34.45965]],[[-120.08794,34.45998],[-120.08805,34.4599],[-120.08786,34.45987],[-120.08794,34.45998]],[[-120.08777,34.45995],[-120.08776,34.45994],[-120.08775,34.45996],[-120.08777,34.45995]],[[-120.08629,34.45984],[-120.0863,34.4599],[-120.08676,34.45978],[-120.08629,34.45984]],[[-120.086,34.45993],[-120.08615,34.45991],[-120.086,34.45987],[-120.086,34.45993]],[[-120.08591,34.45998],[-120.08598,34.45993],[-120.08587,34.45991],[-120.08591,34.45998]],[[-120.08518,34.45981],[-120.08518,34.45976],[-120.08516,34.4598],[-120.08518,34.45981]],[[-120.08515,34.45983],[-120.08517,34.45983],[-120.08515,34.45982],[-120.08515,34.45983]],[[-120.08502,34.45977],[-120.08501,34.45982],[-120.08511,34.45974],[-120.08502,34.45977]],[[-120.08499,34.4598],[-120.08496,34.45982],[-120.08497,34.45983],[-120.08499,34.4598]],[[-120.086,34.45898],[-120.086,34.45897],[-120.08599,34.45898],[-120.086,34.45898]],[[-120.08617,34.45897],[-120.0861,34.45891],[-120.08602,34.459],[-120.08617,34.45897]],[[-120.08598,34.45902],[-120.08602,34.45902],[-120.08602,34.459],[-120.08598,34.45902]],[[-120.08954,34.45823],[-120.08954,34.4582],[-120.08945,34.45824],[-120.08954,34.45823]],[[-120.08954,34.45809],[-120.08952,34.45818],[-120.0896,34.45816],[-120.08954,34.45809]],[[-120.08962,34.45813],[-120.0896,34.45815],[-120.08965,34.45816],[-120.08962,34.45813]],[[-120.08935,34.45826],[-120.08943,34.45826],[-120.08937,34.45823],[-120.08935,34.45826]],[[-120.08939,34.4581],[-120.0894,34.4581],[-120.0894,34.45809],[-120.08939,34.4581]],[[-120.08955,34.45802],[-120.08953,34.45803],[-120.08955,34.45803],[-120.08955,34.45802]],[[-120.08957,34.45808],[-120.08957,34.45805],[-120.08956,34.45805],[-120.08957,34.45808]],[[-120.09057,34.45835],[-120.09054,34.45835],[-120.09057,34.45839],[-120.09057,34.45835]],[[-120.0908,34.45862],[-120.0908,34.45864],[-120.09081,34.45862],[-120.0908,34.45862]],[[-120.0912,34.45919],[-120.09121,34.45919],[-120.09125,34.45917],[-120.0912,34.45919]],[[-120.08515,34.4597],[-120.08514,34.45968],[-120.08513,34.4597],[-120.08515,34.4597]],[[-120.08629,34.45892],[-120.0863,34.45898],[-120.08632,34.45892],[-120.08629,34.45892]],[[-120.08992,34.4581],[-120.08992,34.45807],[-120.08988,34.4581],[-120.08992,34.4581]],[[-120.09547,34.46097],[-120.09544,34.46096],[-120.09544,34.46099],[-120.09547,34.46097]],[[-120.09359,34.46063],[-120.09362,34.46065],[-120.09364,34.46063],[-120.09359,34.46063]],[[-120.09349,34.4606],[-120.09356,34.46063],[-120.09355,34.46062],[-120.09349,34.4606]],[[-120.09337,34.4606],[-120.09336,34.46058],[-120.09336,34.4606],[-120.09337,34.4606]],[[-120.09325,34.4604],[-120.09323,34.46042],[-120.09326,34.46042],[-120.09325,34.4604]],[[-120.09205,34.46018],[-120.09202,34.4602],[-120.09205,34.46019],[-120.09205,34.46018]],[[-120.09177,34.45922],[-120.09175,34.45922],[-120.09177,34.45923],[-120.09177,34.45922]],[[-120.09732,34.4603],[-120.09732,34.46031],[-120.09736,34.4603],[-120.09732,34.4603]],[[-120.09702,34.46104],[-120.09696,34.46107],[-120.09701,34.4611],[-120.09702,34.46104]],[[-120.09702,34.46103],[-120.097,34.46104],[-120.09702,34.46104],[-120.09702,34.46103]],[[-120.09704,34.46109],[-120.09706,34.46109],[-120.09706,34.46107],[-120.09704,34.46109]],[[-120.09628,34.45955],[-120.0963,34.45955],[-120.09626,34.45952],[-120.09628,34.45955]],[[-120.0964,34.45955],[-120.09638,34.45956],[-120.09639,34.45958],[-120.0964,34.45955]],[[-120.09636,34.4595],[-120.09636,34.45952],[-120.09638,34.4595],[-120.09636,34.4595]],[[-120.0923,34.45997],[-120.0922,34.45992],[-120.09218,34.45997],[-120.09223,34.46001],[-120.0923,34.45997]],[[-120.09219,34.46001],[-120.09219,34.45999],[-120.09218,34.46001],[-120.09219,34.46001]],[[-120.09231,34.45995],[-120.09232,34.45995],[-120.09231,34.45994],[-120.09231,34.45995]],[[-120.09471,34.45906],[-120.09476,34.45918],[-120.09479,34.4591],[-120.09471,34.45906]],[[-120.09551,34.45926],[-120.09556,34.45909],[-120.09484,34.45921],[-120.09551,34.45926]],[[-120.09407,34.45879],[-120.09409,34.45879],[-120.09408,34.45877],[-120.09407,34.45879]],[[-120.09403,34.45879],[-120.09405,34.45881],[-120.09407,34.45879],[-120.09403,34.45879]],[[-120.09402,34.45875],[-120.094,34.45878],[-120.09403,34.45879],[-120.09402,34.45875]],[[-120.09317,34.45902],[-120.09312,34.45901],[-120.09313,34.45905],[-120.09317,34.45902]],[[-120.09574,34.46109],[-120.09581,34.46112],[-120.0958,34.46107],[-120.09574,34.46109]],[[-120.09594,34.46114],[-120.09591,34.46111],[-120.09589,34.46115],[-120.09594,34.46114]],[[-120.09581,34.46116],[-120.09581,34.46114],[-120.0958,34.46116],[-120.09581,34.46116]],[[-120.0956,34.46102],[-120.0956,34.46101],[-120.09558,34.46101],[-120.0956,34.46102]],[[-120.09465,34.45882],[-120.09508,34.45906],[-120.09487,34.45886],[-120.09465,34.45882]],[[-120.09502,34.45889],[-120.09496,34.45887],[-120.09502,34.45891],[-120.09502,34.45889]],[[-120.09441,34.45881],[-120.09442,34.45879],[-120.0944,34.45879],[-120.09441,34.45881]],[[-120.0951,34.45891],[-120.0951,34.45889],[-120.09508,34.45891],[-120.0951,34.45891]],[[-120.09518,34.45892],[-120.09518,34.45896],[-120.09543,34.45891],[-120.09518,34.45892]],[[-120.09516,34.45903],[-120.09518,34.45903],[-120.09517,34.459],[-120.09516,34.45903]],[[-120.09538,34.45887],[-120.09537,34.45889],[-120.09539,34.45888],[-120.09538,34.45887]],[[-120.09463,34.45903],[-120.09467,34.45903],[-120.09463,34.45901],[-120.09463,34.45903]],[[-120.09481,34.45906],[-120.09479,34.45906],[-120.09481,34.45908],[-120.09481,34.45906]],[[-120.0939,34.46062],[-120.09364,34.46054],[-120.09376,34.46065],[-120.0939,34.46062]],[[-120.09404,34.46043],[-120.09391,34.46042],[-120.09396,34.4605],[-120.09404,34.46043]],[[-120.09753,34.46114],[-120.09752,34.46115],[-120.09754,34.46115],[-120.09753,34.46114]],[[-120.09751,34.46115],[-120.09751,34.46114],[-120.0975,34.46115],[-120.09751,34.46115]],[[-120.09401,34.45915],[-120.09402,34.45915],[-120.09402,34.45914],[-120.09401,34.45915]],[[-120.09804,34.46096],[-120.09801,34.46094],[-120.09802,34.46096],[-120.09804,34.46096]],[[-120.09809,34.46103],[-120.09813,34.46102],[-120.09798,34.46097],[-120.09809,34.46103]],[[-120.09836,34.46107],[-120.09835,34.46106],[-120.09831,34.46106],[-120.09836,34.46107]],[[-120.09201,34.46033],[-120.09198,34.46034],[-120.09199,34.46035],[-120.09201,34.46033]],[[-120.09203,34.46031],[-120.09197,34.4603],[-120.09197,34.46033],[-120.09201,34.46033],[-120.09203,34.46031]],[[-120.09202,34.46037],[-120.09202,34.46035],[-120.09199,34.46035],[-120.09202,34.46037]],[[-120.09129,34.45974],[-120.09132,34.45975],[-120.09133,34.4597],[-120.09129,34.45974]],[[-120.0906,34.4598],[-120.09062,34.45979],[-120.0906,34.45979],[-120.0906,34.4598]],[[-120.09057,34.45986],[-120.09063,34.45985],[-120.09055,34.45981],[-120.09057,34.45986]],[[-120.08991,34.46014],[-120.08991,34.46015],[-120.08992,34.46015],[-120.08991,34.46014]],[[-120.09345,34.46077],[-120.09345,34.46078],[-120.09346,34.46078],[-120.09345,34.46077]],[[-120.09309,34.46071],[-120.09309,34.46073],[-120.0931,34.46072],[-120.09309,34.46071]],[[-120.09168,34.4597],[-120.09165,34.45975],[-120.09172,34.45973],[-120.09168,34.4597]],[[-120.09325,34.46059],[-120.09313,34.46058],[-120.09311,34.46057],[-120.09312,34.46058],[-120.09325,34.46059]],[[-120.0895,34.45808],[-120.08953,34.45808],[-120.0895,34.45807],[-120.0895,34.45808]],[[-120.09038,34.45827],[-120.09037,34.45826],[-120.09037,34.45827],[-120.09038,34.45827]],[[-120.09019,34.45846],[-120.09019,34.45845],[-120.09016,34.45845],[-120.09019,34.45846]],[[-120.0902,34.45847],[-120.0902,34.45846],[-120.09019,34.45846],[-120.0902,34.45847]],[[-120.09021,34.45848],[-120.09021,34.45847],[-120.0902,34.45847],[-120.09021,34.45848]],[[-120.09008,34.45842],[-120.09013,34.45843],[-120.09008,34.4584],[-120.09008,34.45842]],[[-120.08995,34.46027],[-120.09006,34.46021],[-120.08997,34.46017],[-120.08995,34.46027]],[[-120.08951,34.45812],[-120.08951,34.45813],[-120.08952,34.45812],[-120.08951,34.45812]],[[-120.0894,34.45815],[-120.0894,34.45818],[-120.08941,34.45819],[-120.0894,34.45815]],[[-120.0895,34.45815],[-120.0895,34.45816],[-120.08952,34.45816],[-120.0895,34.45815]],[[-120.09065,34.45823],[-120.09065,34.45824],[-120.09067,34.45824],[-120.09065,34.45823]],[[-120.08911,34.45826],[-120.08917,34.45831],[-120.08922,34.45826],[-120.08911,34.45826]],[[-120.08619,34.45881],[-120.08623,34.45885],[-120.08635,34.45879],[-120.08619,34.45881]],[[-120.08612,34.45883],[-120.08619,34.45882],[-120.08619,34.45881],[-120.08612,34.45883]],[[-120.08608,34.45878],[-120.08608,34.45874],[-120.08604,34.45878],[-120.08608,34.45878]],[[-120.08623,34.45855],[-120.08624,34.4586],[-120.08634,34.45857],[-120.08623,34.45855]],[[-120.08668,34.45845],[-120.08667,34.45843],[-120.08665,34.45847],[-120.08668,34.45845]],[[-120.0871,34.4583],[-120.08704,34.4583],[-120.08705,34.45831],[-120.0871,34.4583]],[[-120.0873,34.45824],[-120.0872,34.45822],[-120.08726,34.45825],[-120.0873,34.45824]],[[-120.08743,34.45829],[-120.08744,34.45825],[-120.08737,34.45827],[-120.08743,34.45829]],[[-120.08598,34.45876],[-120.08597,34.45874],[-120.08595,34.45875],[-120.08598,34.45876]],[[-120.08655,34.46001],[-120.08655,34.46],[-120.08654,34.46001],[-120.08655,34.46001]]],[[[-120.07141,34.4596],[-120.0715,34.45941],[-120.07187,34.45937],[-120.07268,34.45985],[-120.07261,34.45962],[-120.07297,34.45942],[-120.07397,34.45951],[-120.07361,34.45953],[-120.0734,34.45987],[-120.07371,34.45984],[-120.07402,34.4603],[-120.07275,34.46043],[-120.07303,34.46048],[-120.07305,34.46086],[-120.07284,34.46073],[-120.0729,34.46095],[-120.07236,34.46057],[-120.07231,34.46019],[-120.07255,34.46048],[-120.07235,34.46],[-120.07226,34.4602],[-120.07191,34.46007],[-120.07145,34.45981],[-120.07157,34.4597],[-120.07141,34.4596]],[[-120.07286,34.46069],[-120.07283,34.46068],[-120.07284,34.46073],[-120.07286,34.46069]],[[-120.07369,34.45952],[-120.07371,34.45952],[-120.0737,34.4595],[-120.07369,34.45952]],[[-120.07394,34.46028],[-120.07395,34.46025],[-120.07393,34.46025],[-120.07394,34.46028]],[[-120.0739,34.46023],[-120.07389,34.46026],[-120.07393,34.46025],[-120.0739,34.46023]],[[-120.07374,34.46032],[-120.07372,34.46029],[-120.07371,34.46031],[-120.07374,34.46032]],[[-120.07348,34.46027],[-120.07345,34.46029],[-120.07348,34.4603],[-120.07348,34.46027]],[[-120.07296,34.46079],[-120.07299,34.4608],[-120.07298,34.46076],[-120.07296,34.46079]],[[-120.07364,34.4595],[-120.0736,34.45948],[-120.07361,34.45952],[-120.07364,34.4595]],[[-120.07323,34.45955],[-120.07327,34.4595],[-120.07322,34.45948],[-120.07323,34.45955]],[[-120.07288,34.45999],[-120.07269,34.45989],[-120.07269,34.45999],[-120.07288,34.45999]],[[-120.07262,34.45998],[-120.0726,34.45999],[-120.07264,34.46002],[-120.07262,34.45998]],[[-120.07261,34.46014],[-120.07276,34.46016],[-120.07268,34.46014],[-120.07261,34.46014]],[[-120.07324,34.46024],[-120.07333,34.46025],[-120.07322,34.46007],[-120.07289,34.46011],[-120.07283,34.46018],[-120.07298,34.46011],[-120.07324,34.46024]],[[-120.073,34.46016],[-120.07301,34.46014],[-120.07298,34.46014],[-120.073,34.46016]],[[-120.07304,34.46023],[-120.07301,34.46024],[-120.07305,34.46024],[-120.07304,34.46023]],[[-120.07301,34.46022],[-120.073,34.46022],[-120.07303,34.46023],[-120.07301,34.46022]],[[-120.073,34.46024],[-120.073,34.46023],[-120.07299,34.46024],[-120.073,34.46024]],[[-120.07283,34.46024],[-120.07284,34.46023],[-120.07273,34.4602],[-120.07283,34.46024]],[[-120.0724,34.46006],[-120.0724,34.46007],[-120.07241,34.46006],[-120.0724,34.46006]],[[-120.07217,34.45994],[-120.0723,34.45992],[-120.07221,34.45988],[-120.07217,34.45994]],[[-120.07201,34.4599],[-120.07202,34.45983],[-120.07196,34.45984],[-120.072,34.45988],[-120.07201,34.4599]],[[-120.07177,34.45971],[-120.07178,34.45972],[-120.07178,34.45971],[-120.07177,34.45971]],[[-120.07166,34.45964],[-120.07168,34.45965],[-120.07162,34.45961],[-120.07166,34.45964]],[[-120.07228,34.45986],[-120.07228,34.45988],[-120.07231,34.45988],[-120.07228,34.45986]],[[-120.07224,34.45978],[-120.07223,34.45976],[-120.07222,34.45979],[-120.07224,34.45978]],[[-120.07203,34.45987],[-120.07206,34.45987],[-120.07206,34.45985],[-120.07203,34.45987]],[[-120.07208,34.45988],[-120.07211,34.45988],[-120.07208,34.45986],[-120.07208,34.45988]],[[-120.07215,34.45993],[-120.07216,34.45994],[-120.07216,34.45989],[-120.07215,34.45993]],[[-120.07207,34.45992],[-120.07202,34.45992],[-120.0721,34.45996],[-120.07207,34.45992]],[[-120.07381,34.46026],[-120.07381,34.4603],[-120.07382,34.46026],[-120.07386,34.46024],[-120.07381,34.46026]],[[-120.07298,34.4607],[-120.07297,34.46074],[-120.073,34.46072],[-120.07298,34.4607]]],[[[-120.09294,34.46055],[-120.092934,34.460554],[-120.09293,34.46055],[-120.09294,34.46055]]],[[[-120.09893018867925,34.46217981132075],[-120.09893035294117,34.462179882352935],[-120.09893,34.46218],[-120.09893018867925,34.46217981132075]]],[[[-120.04523,34.45949],[-120.04569,34.45955],[-120.04554,34.46012],[-120.04503,34.46009],[-120.04523,34.45949]],[[-120.04562,34.45961],[-120.04563,34.45963],[-120.04564,34.45963],[-120.04562,34.45961]],[[-120.0456,34.45959],[-120.04561,34.4596],[-120.04561,34.45957],[-120.0456,34.45959]]],[[[-120.05592,34.46104],[-120.05562,34.4611],[-120.05573,34.46118],[-120.05519,34.46097],[-120.05506,34.46109],[-120.05495,34.46088],[-120.05513,34.4607],[-120.0549,34.46059],[-120.05507,34.46063],[-120.0551,34.46045],[-120.0546,34.4605],[-120.05454,34.46033],[-120.05478,34.46023],[-120.05438,34.46027],[-120.05433,34.46018],[-120.05459,34.45999],[-120.05452,34.45978],[-120.05559,34.45967],[-120.05576,34.46001],[-120.05634,34.46034],[-120.05639,34.46022],[-120.05608,34.46006],[-120.05623,34.45989],[-120.05583,34.45974],[-120.05571,34.45955],[-120.05642,34.45951],[-120.05602,34.45947],[-120.0564,34.45925],[-120.05674,34.45949],[-120.05758,34.45932],[-120.05786,34.45968],[-120.05822,34.45955],[-120.05773,34.45999],[-120.05808,34.46004],[-120.05777,34.46033],[-120.05784,34.4605],[-120.05759,34.46066],[-120.05716,34.46065],[-120.05702,34.4608],[-120.05715,34.46074],[-120.05726,34.46088],[-120.05699,34.46104],[-120.05627,34.4611],[-120.05625,34.46092],[-120.0566,34.46084],[-120.05651,34.46069],[-120.056,34.46079],[-120.05603,34.4609],[-120.05592,34.46104]],[[-120.0548,34.46027],[-120.05482,34.46023],[-120.05478,34.46023],[-120.0548,34.46027]],[[-120.05771,34.45951],[-120.05767,34.45951],[-120.05771,34.45953],[-120.05771,34.45951]],[[-120.05716,34.46082],[-120.05713,34.46083],[-120.05715,34.46084],[-120.05716,34.46082]],[[-120.0564,34.46096],[-120.05633,34.46095],[-120.05637,34.461],[-120.0564,34.46096]],[[-120.05633,34.46099],[-120.0563,34.46099],[-120.05632,34.46101],[-120.05633,34.46099]],[[-120.05599,34.4608],[-120.05585,34.46084],[-120.0558,34.46089],[-120.05579,34.46092],[-120.05599,34.4608]],[[-120.05578,34.46092],[-120.05578,34.46093],[-120.05579,34.46092],[-120.05578,34.46092]],[[-120.05514,34.4608],[-120.05511,34.4608],[-120.05514,34.46082],[-120.05514,34.4608]],[[-120.05465,34.4601],[-120.05467,34.46016],[-120.05469,34.4601],[-120.05465,34.4601]],[[-120.05452,34.46023],[-120.05454,34.46023],[-120.05452,34.46022],[-120.05452,34.46023]],[[-120.05551,34.45975],[-120.05547,34.45971],[-120.05544,34.45974],[-120.05551,34.45975]],[[-120.05608,34.45978],[-120.05608,34.45982],[-120.05609,34.45978],[-120.05608,34.45978]],[[-120.05769,34.46],[-120.05766,34.46],[-120.05767,34.46001],[-120.05769,34.46]],[[-120.05763,34.46006],[-120.05762,34.46003],[-120.05758,34.46006],[-120.05763,34.46006]],[[-120.05759,34.46002],[-120.05761,34.46002],[-120.0576,34.46],[-120.05759,34.46002]],[[-120.05759,34.46001],[-120.05756,34.46002],[-120.05759,34.46002],[-120.05759,34.46001]],[[-120.05735,34.46006],[-120.0573,34.46008],[-120.05735,34.46008],[-120.05735,34.46006]],[[-120.05758,34.4606],[-120.05757,34.46057],[-120.05756,34.4606],[-120.05758,34.4606]],[[-120.05743,34.46058],[-120.05742,34.4606],[-120.05745,34.4606],[-120.05743,34.46058]],[[-120.05737,34.46054],[-120.05737,34.46056],[-120.05739,34.46054],[-120.05737,34.46054]],[[-120.05737,34.46046],[-120.05726,34.46051],[-120.05721,34.46051],[-120.05731,34.46055],[-120.05737,34.46046]],[[-120.05692,34.46084],[-120.05699,34.4608],[-120.05696,34.46077],[-120.05692,34.46084]],[[-120.05668,34.46084],[-120.05673,34.46077],[-120.05664,34.46079],[-120.05668,34.46084]],[[-120.05554,34.46104],[-120.05556,34.46107],[-120.05557,34.46105],[-120.05554,34.46104]],[[-120.05522,34.46089],[-120.05523,34.46088],[-120.05522,34.46088],[-120.05522,34.46089]],[[-120.05513,34.46092],[-120.05519,34.46094],[-120.05513,34.4609],[-120.05513,34.46092]],[[-120.05589,34.46073],[-120.05589,34.46074],[-120.05598,34.46071],[-120.05589,34.46073]],[[-120.05563,34.46095],[-120.05566,34.46099],[-120.05566,34.46094],[-120.05563,34.46095]],[[-120.05469,34.45982],[-120.05469,34.4598],[-120.05465,34.45982],[-120.05469,34.45982]],[[-120.05478,34.45985],[-120.05476,34.45985],[-120.05482,34.45987],[-120.05478,34.45985]],[[-120.05475,34.45984],[-120.05475,34.45985],[-120.05476,34.45985],[-120.05475,34.45984]],[[-120.05486,34.45997],[-120.05484,34.45997],[-120.05486,34.45999],[-120.05486,34.45997]],[[-120.0553,34.45982],[-120.05526,34.45982],[-120.0553,34.45984],[-120.0553,34.45982]],[[-120.05532,34.45982],[-120.05535,34.45984],[-120.05529,34.45978],[-120.05523,34.4598],[-120.05532,34.45982]],[[-120.05538,34.45978],[-120.05543,34.45979],[-120.05543,34.45977],[-120.05538,34.45978]],[[-120.0564,34.46012],[-120.05639,34.46014],[-120.05642,34.46012],[-120.0564,34.46012]]],[[[-120.06319,34.46137],[-120.06303,34.46113],[-120.06312,34.46094],[-120.06248,34.46086],[-120.06237,34.46077],[-120.06253,34.46062],[-120.06232,34.46072],[-120.06232,34.46091],[-120.06288,34.46098],[-120.06263,34.46118],[-120.06269,34.46136],[-120.06204,34.4612],[-120.06214,34.46107],[-120.06141,34.46107],[-120.06149,34.46122],[-120.06073,34.46107],[-120.0606,34.46101],[-120.06054,34.46052],[-120.06039,34.46065],[-120.0605,34.4608],[-120.06022,34.46095],[-120.06009,34.46089],[-120.0604,34.46059],[-120.06032,34.4604],[-120.06017,34.46063],[-120.05976,34.4607],[-120.0601,34.46073],[-120.05998,34.46088],[-120.05971,34.46094],[-120.05963,34.46076],[-120.05959,34.46099],[-120.05945,34.46102],[-120.05951,34.46084],[-120.05832,34.46091],[-120.05832,34.46081],[-120.0586,34.4608],[-120.05868,34.46073],[-120.05831,34.46073],[-120.05803,34.46048],[-120.0584,34.46045],[-120.05823,34.46037],[-120.05803,34.46046],[-120.05786,34.46045],[-120.0582,34.46013],[-120.05825,34.46019],[-120.05839,34.46025],[-120.05845,34.46023],[-120.05824,34.46001],[-120.05875,34.45991],[-120.05862,34.45957],[-120.05902,34.45959],[-120.05877,34.45976],[-120.0594,34.46003],[-120.05934,34.45989],[-120.0598,34.45984],[-120.06005,34.45959],[-120.06007,34.45976],[-120.06035,34.45965],[-120.06037,34.45987],[-120.06126,34.45985],[-120.06157,34.46016],[-120.06208,34.46006],[-120.06214,34.45988],[-120.06274,34.45992],[-120.06274,34.45963],[-120.06317,34.45982],[-120.06368,34.45971],[-120.0644,34.45991],[-120.06476,34.45964],[-120.0652,34.45996],[-120.06524,34.45974],[-120.06547,34.45977],[-120.06592,34.46048],[-120.06628,34.46032],[-120.0666,34.46061],[-120.06691,34.46058],[-120.067,34.46124],[-120.06732,34.46132],[-120.06678,34.46158],[-120.06678,34.46181],[-120.06662,34.46186],[-120.0653,34.46177],[-120.06512,34.46161],[-120.06405,34.46169],[-120.06392,34.46157],[-120.06386,34.46164],[-120.06383,34.46157],[-120.06372,34.46163],[-120.0636,34.46156],[-120.06367,34.46142],[-120.06294,34.46149],[-120.06319,34.46137]],[[-120.06058,34.46048],[-120.06054,34.46048],[-120.06054,34.46052],[-120.06058,34.46048]],[[-120.05848,34.46029],[-120.05855,34.46023],[-120.05845,34.46023],[-120.05848,34.46029]],[[-120.05877,34.45993],[-120.05877,34.45991],[-120.05875,34.45991],[-120.05877,34.45993]],[[-120.06005,34.45978],[-120.06007,34.45978],[-120.06007,34.45976],[-120.06005,34.45978]],[[-120.06681,34.46063],[-120.06679,34.46063],[-120.06681,34.46065],[-120.06681,34.46063]],[[-120.0667,34.46182],[-120.06669,34.4618],[-120.06667,34.46182],[-120.0667,34.46182]],[[-120.0653,34.46173],[-120.0653,34.46175],[-120.06532,34.46173],[-120.0653,34.46173]],[[-120.06419,34.46162],[-120.06419,34.46163],[-120.06423,34.46162],[-120.06419,34.46162]],[[-120.06359,34.46142],[-120.06363,34.46141],[-120.0636,34.4614],[-120.06359,34.46142]],[[-120.06319,34.46104],[-120.06334,34.46106],[-120.06347,34.46128],[-120.06336,34.46098],[-120.06319,34.46104]],[[-120.06265,34.46132],[-120.06265,34.46128],[-120.06263,34.46132],[-120.06265,34.46132]],[[-120.06261,34.46134],[-120.06263,34.46134],[-120.06263,34.46132],[-120.06261,34.46134]],[[-120.06062,34.46084],[-120.0606,34.46092],[-120.06069,34.46084],[-120.06062,34.46084]],[[-120.06067,34.46058],[-120.06065,34.46058],[-120.06069,34.46061],[-120.06067,34.46058]],[[-120.06043,34.46052],[-120.06043,34.46055],[-120.06045,34.46054],[-120.06043,34.46052]],[[-120.06043,34.46073],[-120.06029,34.46071],[-120.06038,34.46079],[-120.06043,34.46073]],[[-120.06003,34.4608],[-120.06001,34.4608],[-120.06001,34.46081],[-120.06003,34.4608]],[[-120.05866,34.45963],[-120.05866,34.45965],[-120.05868,34.45963],[-120.05866,34.45963]],[[-120.05944,34.46001],[-120.05944,34.46003],[-120.05946,34.46002],[-120.05944,34.46001]],[[-120.05942,34.45993],[-120.05942,34.45991],[-120.0594,34.45993],[-120.05942,34.45993]],[[-120.06128,34.45999],[-120.06126,34.45997],[-120.06124,34.45999],[-120.06128,34.45999]],[[-120.06113,34.46001],[-120.06124,34.46003],[-120.06119,34.45997],[-120.06113,34.46001]],[[-120.06132,34.46005],[-120.06134,34.46004],[-120.06132,34.46003],[-120.06132,34.46005]],[[-120.06588,34.46044],[-120.06581,34.46043],[-120.06584,34.46044],[-120.06588,34.46044]],[[-120.06672,34.46071],[-120.06668,34.46071],[-120.06672,34.46072],[-120.06672,34.46071]],[[-120.06675,34.46071],[-120.06677,34.46073],[-120.0668,34.46073],[-120.06675,34.46071]],[[-120.06685,34.46073],[-120.06682,34.46073],[-120.06685,34.46074],[-120.06685,34.46073]],[[-120.06696,34.46121],[-120.06694,34.46121],[-120.06696,34.46122],[-120.06696,34.46121]],[[-120.06698,34.46124],[-120.06698,34.46122],[-120.06696,34.46122],[-120.06698,34.46124]],[[-120.06648,34.46166],[-120.06651,34.46171],[-120.06652,34.46164],[-120.06648,34.46166]],[[-120.06388,34.46153],[-120.06386,34.46153],[-120.06387,34.46155],[-120.06388,34.46153]],[[-120.06426,34.46153],[-120.06478,34.46145],[-120.06427,34.4615],[-120.06412,34.46139],[-120.0637,34.46139],[-120.06395,34.46143],[-120.06426,34.46153]],[[-120.0622,34.4601],[-120.06217,34.4601],[-120.06219,34.46012],[-120.0622,34.4601]],[[-120.06464,34.45998],[-120.06457,34.45994],[-120.06447,34.45989],[-120.06464,34.45998]],[[-120.06636,34.46048],[-120.06639,34.46048],[-120.0664,34.46046],[-120.06636,34.46048]],[[-120.06485,34.46149],[-120.06495,34.46149],[-120.06486,34.46147],[-120.06485,34.46149]],[[-120.06539,34.46147],[-120.0651,34.46151],[-120.06532,34.46154],[-120.06539,34.46147]],[[-120.06457,34.45985],[-120.06457,34.45984],[-120.06455,34.45985],[-120.06457,34.45985]],[[-120.06223,34.46004],[-120.06223,34.46006],[-120.0623,34.46005],[-120.06223,34.46004]],[[-120.06219,34.46006],[-120.06219,34.46004],[-120.06217,34.46006],[-120.06219,34.46006]],[[-120.05913,34.45998],[-120.05915,34.45998],[-120.05913,34.45997],[-120.05913,34.45998]],[[-120.05959,34.46001],[-120.05947,34.46004],[-120.05959,34.46003],[-120.05959,34.46001]],[[-120.06417,34.46141],[-120.0643,34.46138],[-120.06426,34.46138],[-120.06417,34.46141]],[[-120.06382,34.46155],[-120.0638,34.46152],[-120.06379,34.46154],[-120.06382,34.46155]],[[-120.06377,34.46155],[-120.06379,34.46156],[-120.06379,34.46154],[-120.06377,34.46155]],[[-120.06133,34.46006],[-120.06134,34.46006],[-120.06134,34.46005],[-120.06133,34.46006]],[[-120.06335,34.46139],[-120.06341,34.46134],[-120.06336,34.46131],[-120.06335,34.46139]],[[-120.06344,34.4613],[-120.06345,34.46131],[-120.06345,34.4613],[-120.06344,34.4613]],[[-120.06227,34.46054],[-120.06226,34.46054],[-120.06227,34.46055],[-120.06227,34.46054]],[[-120.06257,34.4605],[-120.06239,34.4605],[-120.06246,34.46051],[-120.06257,34.4605]],[[-120.06236,34.4606],[-120.06236,34.46063],[-120.06237,34.4606],[-120.06236,34.4606]],[[-120.06257,34.46056],[-120.06255,34.46056],[-120.06257,34.46057],[-120.06257,34.46056]]],[[[-120.05271,34.46117],[-120.05264,34.46142],[-120.05221,34.46143],[-120.0524,34.46134],[-120.05207,34.46121],[-120.05231,34.46115],[-120.05201,34.46103],[-120.05214,34.46089],[-120.05199,34.4608],[-120.05214,34.46075],[-120.05235,34.46084],[-120.05256,34.46056],[-120.05309,34.46058],[-120.05302,34.46077],[-120.05279,34.46077],[-120.05285,34.4609],[-120.0526,34.46077],[-120.05277,34.46105],[-120.0526,34.46094],[-120.05271,34.46117]],[[-120.05233,34.46086],[-120.05235,34.46086],[-120.05235,34.46084],[-120.05233,34.46086]],[[-120.05237,34.46107],[-120.05229,34.46107],[-120.05229,34.46109],[-120.05237,34.46107]],[[-120.05241,34.46111],[-120.05241,34.46109],[-120.05237,34.46109],[-120.05241,34.46111]],[[-120.05226,34.46084],[-120.05228,34.46084],[-120.05228,34.46082],[-120.05226,34.46084]],[[-120.0526,34.46107],[-120.0526,34.46109],[-120.05262,34.46109],[-120.0526,34.46107]],[[-120.05257,34.46134],[-120.05256,34.46135],[-120.05257,34.46135],[-120.05257,34.46134]]],[[[-120.05423,34.46121],[-120.05387,34.46109],[-120.05433,34.46101],[-120.0541,34.46077],[-120.0544,34.46071],[-120.05435,34.46056],[-120.05459,34.46062],[-120.05476,34.46098],[-120.05463,34.46099],[-120.05459,34.46105],[-120.05475,34.46105],[-120.05456,34.46116],[-120.05501,34.46131],[-120.05461,34.46152],[-120.05387,34.46126],[-120.05423,34.46121]],[[-120.05457,34.46075],[-120.05463,34.46082],[-120.05461,34.46075],[-120.05457,34.46075]],[[-120.05438,34.46113],[-120.05438,34.46112],[-120.05437,34.46113],[-120.05438,34.46113]],[[-120.05438,34.46107],[-120.05437,34.46107],[-120.05437,34.46113],[-120.05438,34.46107]],[[-120.05432,34.46117],[-120.05433,34.46111],[-120.05431,34.46113],[-120.05432,34.46117]],[[-120.05423,34.46111],[-120.05425,34.46111],[-120.05423,34.46109],[-120.05423,34.46111]],[[-120.05421,34.46125],[-120.05421,34.46126],[-120.05423,34.46126],[-120.05421,34.46125]]],[[[-120.04598,34.46149],[-120.04613,34.46141],[-120.04582,34.46122],[-120.04539,34.46126],[-120.04541,34.4616],[-120.0456,34.46155],[-120.04558,34.46136],[-120.04578,34.46147],[-120.04591,34.46215],[-120.04565,34.462],[-120.0452,34.46218],[-120.04495,34.46208],[-120.04367,34.46269],[-120.04295,34.46269],[-120.04278,34.46278],[-120.04287,34.46293],[-120.04246,34.46274],[-120.04242,34.46282],[-120.04224,34.46286],[-120.04141,34.4629],[-120.04129,34.46302],[-120.04117,34.4628],[-120.04098,34.46284],[-120.04114,34.46293],[-120.0411,34.46304],[-120.04046,34.46295],[-120.04025,34.46313],[-120.03967,34.46295],[-120.04157,34.46255],[-120.04142,34.4625],[-120.04153,34.46225],[-120.04113,34.46242],[-120.041,34.46217],[-120.04066,34.46213],[-120.04047,34.46225],[-120.04059,34.46243],[-120.04015,34.46255],[-120.04004,34.46234],[-120.04047,34.46223],[-120.03938,34.46198],[-120.03965,34.46185],[-120.03932,34.46167],[-120.03938,34.46149],[-120.03973,34.46155],[-120.04006,34.46165],[-120.04013,34.46186],[-120.04027,34.46163],[-120.04037,34.46179],[-120.04067,34.46176],[-120.04066,34.46206],[-120.04107,34.46206],[-120.04094,34.46191],[-120.04092,34.46166],[-120.04102,34.4616],[-120.04071,34.46156],[-120.04067,34.46139],[-120.0413,34.46141],[-120.04147,34.46126],[-120.04113,34.46109],[-120.04159,34.46073],[-120.04195,34.46072],[-120.04198,34.46063],[-120.04187,34.46061],[-120.04187,34.46054],[-120.04199,34.46058],[-120.04208,34.46051],[-120.04195,34.46049],[-120.0419,34.46035],[-120.04192,34.46049],[-120.0418,34.46047],[-120.04176,34.46041],[-120.0417,34.46043],[-120.04143,34.46023],[-120.04153,34.46004],[-120.04163,34.46008],[-120.04118,34.45987],[-120.04141,34.4598],[-120.04128,34.45968],[-120.04255,34.45992],[-120.04321,34.46017],[-120.04406,34.46004],[-120.04443,34.46019],[-120.04426,34.46034],[-120.04474,34.4606],[-120.04463,34.46086],[-120.04426,34.46056],[-120.0442,34.46124],[-120.04454,34.46096],[-120.04442,34.46134],[-120.04463,34.46158],[-120.04478,34.46141],[-120.04461,34.46136],[-120.04466,34.46109],[-120.04504,34.46109],[-120.0451,34.46067],[-120.04489,34.46063],[-120.04474,34.4605],[-120.04472,34.46035],[-120.0451,34.46031],[-120.04512,34.46058],[-120.04514,34.46029],[-120.04523,34.46049],[-120.04534,34.4603],[-120.04557,34.46021],[-120.04653,34.46058],[-120.04649,34.46069],[-120.04638,34.46073],[-120.04637,34.4608],[-120.04662,34.46064],[-120.0466,34.46086],[-120.04746,34.46139],[-120.04753,34.46165],[-120.04763,34.46152],[-120.04779,34.46167],[-120.04743,34.4618],[-120.04725,34.46153],[-120.04701,34.46171],[-120.04704,34.46193],[-120.04641,34.4617],[-120.0466,34.46187],[-120.04636,34.46172],[-120.04615,34.462],[-120.04598,34.46179],[-120.04598,34.46149]],[[-120.04584,34.4612],[-120.04582,34.4612],[-120.04582,34.46122],[-120.04584,34.4612]],[[-120.0401,34.46191],[-120.04014,34.46191],[-120.04013,34.46186],[-120.0401,34.46191]],[[-120.04211,34.46053],[-120.04211,34.46052],[-120.04208,34.46051],[-120.04211,34.46053]],[[-120.04603,34.46151],[-120.04601,34.46151],[-120.04603,34.46153],[-120.04603,34.46151]],[[-120.04111,34.46295],[-120.0411,34.46293],[-120.04109,34.46295],[-120.04111,34.46295]],[[-120.04039,34.46299],[-120.04038,34.46297],[-120.04036,34.46298],[-120.04039,34.46299]],[[-120.04064,34.46281],[-120.04062,34.4628],[-120.04064,34.46282],[-120.04064,34.46281]],[[-120.04104,34.46191],[-120.04104,34.46194],[-120.04105,34.46191],[-120.04104,34.46191]],[[-120.04096,34.46166],[-120.04096,34.46174],[-120.04102,34.46166],[-120.04096,34.46166]],[[-120.04138,34.46113],[-120.04138,34.46115],[-120.0414,34.46113],[-120.04138,34.46113]],[[-120.04128,34.46103],[-120.04124,34.46103],[-120.04128,34.46105],[-120.04128,34.46103]],[[-120.04161,34.46083],[-120.04159,34.46084],[-120.04161,34.46085],[-120.04161,34.46083]],[[-120.04189,34.46061],[-120.04194,34.4606],[-120.0419,34.46058],[-120.04189,34.46061]],[[-120.04182,34.46046],[-120.04189,34.46046],[-120.04183,34.46045],[-120.04182,34.46046]],[[-120.04153,34.4602],[-120.04151,34.4602],[-120.04153,34.46022],[-120.04153,34.4602]],[[-120.04156,34.46023],[-120.04156,34.46022],[-120.04153,34.46022],[-120.04156,34.46023]],[[-120.04157,34.4602],[-120.04156,34.4602],[-120.04156,34.46022],[-120.04157,34.4602]],[[-120.04161,34.46012],[-120.04158,34.4602],[-120.04162,34.46022],[-120.04161,34.46018],[-120.04169,34.46016],[-120.04161,34.46012]],[[-120.04167,34.4602],[-120.04167,34.46018],[-120.04164,34.4602],[-120.04167,34.4602]],[[-120.0416,34.46],[-120.0416,34.46002],[-120.04165,34.46],[-120.0416,34.46]],[[-120.04167,34.46],[-120.04165,34.45998],[-120.04165,34.46],[-120.04167,34.46]],[[-120.04261,34.46],[-120.04256,34.45996],[-120.04258,34.46004],[-120.04261,34.46]],[[-120.04276,34.46005],[-120.04274,34.46004],[-120.04275,34.46007],[-120.04276,34.46005]],[[-120.04272,34.46008],[-120.04275,34.46009],[-120.04275,34.46007],[-120.04272,34.46008]],[[-120.0427,34.46006],[-120.04269,34.46009],[-120.04272,34.46008],[-120.0427,34.46006]],[[-120.04497,34.46113],[-120.04495,34.46113],[-120.04497,34.46115],[-120.04497,34.46113]],[[-120.04501,34.46041],[-120.04499,34.46041],[-120.04501,34.46042],[-120.04501,34.46041]],[[-120.04504,34.46048],[-120.04506,34.46048],[-120.04504,34.46046],[-120.04504,34.46048]],[[-120.04537,34.46039],[-120.04535,34.46039],[-120.04537,34.4604],[-120.04537,34.46039]],[[-120.04371,34.46179],[-120.04383,34.46229],[-120.04371,34.46232],[-120.04368,34.46206],[-120.04337,34.46194],[-120.04267,34.46243],[-120.04354,34.46255],[-120.04396,34.46227],[-120.04398,34.46187],[-120.04371,34.46179]],[[-120.04375,34.46212],[-120.04377,34.46212],[-120.04375,34.4621],[-120.04375,34.46212]],[[-120.04375,34.46223],[-120.04377,34.46219],[-120.04373,34.46223],[-120.04375,34.46223]],[[-120.0429,34.46213],[-120.04288,34.46213],[-120.0429,34.46215],[-120.0429,34.46213]],[[-120.04289,34.46257],[-120.0429,34.46258],[-120.0429,34.46255],[-120.04289,34.46257]],[[-120.0429,34.46261],[-120.04292,34.46265],[-120.04295,34.4626],[-120.0429,34.46261]],[[-120.04208,34.46225],[-120.04185,34.46227],[-120.04191,34.4624],[-120.04159,34.46229],[-120.04181,34.46244],[-120.04164,34.46246],[-120.04172,34.46257],[-120.04187,34.46251],[-120.04208,34.46272],[-120.04194,34.46255],[-120.04206,34.46246],[-120.0421,34.4625],[-120.04223,34.46248],[-120.04202,34.46234],[-120.04208,34.46225]],[[-120.04217,34.46259],[-120.04214,34.46259],[-120.04216,34.4627],[-120.04217,34.46259]],[[-120.04208,34.46253],[-120.04206,34.46261],[-120.0421,34.46261],[-120.0421,34.46259],[-120.04214,34.46259],[-120.04208,34.46253]],[[-120.04206,34.46251],[-120.04206,34.46253],[-120.04208,34.46253],[-120.04206,34.46251]],[[-120.04219,34.46238],[-120.04219,34.46242],[-120.04223,34.46238],[-120.04219,34.46238]],[[-120.04216,34.46236],[-120.04216,34.46238],[-120.04218,34.46236],[-120.04216,34.46236]],[[-120.0418,34.46229],[-120.0418,34.46232],[-120.04181,34.46229],[-120.0418,34.46229]],[[-120.04174,34.46261],[-120.04176,34.46261],[-120.04174,34.4626],[-120.04174,34.46261]],[[-120.04177,34.46258],[-120.04178,34.46259],[-120.04178,34.46258],[-120.04177,34.46258]],[[-120.04164,34.46278],[-120.04162,34.46278],[-120.04164,34.46279],[-120.04164,34.46278]],[[-120.04084,34.46279],[-120.04082,34.4628],[-120.04083,34.46281],[-120.04084,34.46279]],[[-120.03967,34.46188],[-120.03967,34.46194],[-120.03972,34.46193],[-120.03967,34.46188]],[[-120.03974,34.46189],[-120.03974,34.46193],[-120.03978,34.46189],[-120.03974,34.46189]],[[-120.04004,34.46185],[-120.04001,34.46189],[-120.04007,34.46193],[-120.04004,34.46185]],[[-120.04018,34.4619],[-120.04018,34.46193],[-120.04023,34.46191],[-120.04018,34.4619]],[[-120.04059,34.46183],[-120.04031,34.46193],[-120.04055,34.46198],[-120.04059,34.46183]],[[-120.04155,34.46092],[-120.04148,34.46087],[-120.0415,34.46092],[-120.04155,34.46092]],[[-120.04186,34.46076],[-120.04188,34.46079],[-120.04187,34.46075],[-120.04186,34.46076]],[[-120.04208,34.4607],[-120.04206,34.46069],[-120.04207,34.46072],[-120.04208,34.4607]],[[-120.04218,34.46061],[-120.04217,34.46058],[-120.04214,34.46061],[-120.04218,34.46061]],[[-120.04222,34.46056],[-120.04217,34.46057],[-120.04217,34.46058],[-120.04222,34.46056]],[[-120.04211,34.46055],[-120.04211,34.46058],[-120.04213,34.46057],[-120.04211,34.46055]],[[-120.04208,34.46059],[-120.0421,34.46061],[-120.04211,34.46058],[-120.04208,34.46059]],[[-120.04227,34.46043],[-120.04222,34.46043],[-120.04228,34.46051],[-120.04227,34.46043]],[[-120.04217,34.46042],[-120.04221,34.46047],[-120.04222,34.46043],[-120.04217,34.46042]],[[-120.04214,34.4604],[-120.04214,34.46042],[-120.04217,34.46042],[-120.04214,34.4604]],[[-120.04212,34.46037],[-120.04211,34.4604],[-120.04214,34.4604],[-120.04212,34.46037]],[[-120.04211,34.46043],[-120.04215,34.46043],[-120.04214,34.46042],[-120.04211,34.46043]],[[-120.04231,34.46052],[-120.04231,34.46051],[-120.04228,34.46051],[-120.04231,34.46052]],[[-120.04229,34.46045],[-120.04232,34.46051],[-120.04232,34.46045],[-120.04229,34.46045]],[[-120.04216,34.46037],[-120.04217,34.4604],[-120.04219,34.46037],[-120.04216,34.46037]],[[-120.04216,34.46032],[-120.04216,34.46035],[-120.04227,34.46036],[-120.04216,34.46032]],[[-120.04229,34.46034],[-120.04227,34.46034],[-120.04227,34.46036],[-120.04229,34.46034]],[[-120.04204,34.46041],[-120.04196,34.46037],[-120.04192,34.46035],[-120.04196,34.46041],[-120.04204,34.46043],[-120.04204,34.46041]],[[-120.04147,34.46021],[-120.04149,34.46022],[-120.04147,34.4602],[-120.04147,34.46021]],[[-120.0463,34.4608],[-120.04631,34.4608],[-120.0463,34.46079],[-120.0463,34.4608]],[[-120.04639,34.46084],[-120.04643,34.46084],[-120.04639,34.46083],[-120.04639,34.46084]],[[-120.04518,34.46128],[-120.04519,34.46135],[-120.04527,34.46128],[-120.04518,34.46128]],[[-120.04516,34.46144],[-120.04516,34.46147],[-120.04518,34.46145],[-120.04516,34.46144]],[[-120.04459,34.46068],[-120.04458,34.46068],[-120.04458,34.4607],[-120.04459,34.46068]],[[-120.04424,34.46048],[-120.04425,34.46053],[-120.04429,34.46054],[-120.04424,34.46048]],[[-120.0439,34.46111],[-120.04392,34.46111],[-120.0439,34.46108],[-120.0439,34.46111]],[[-120.04394,34.46114],[-120.04392,34.46114],[-120.04394,34.46116],[-120.04394,34.46114]],[[-120.04162,34.46088],[-120.04158,34.46092],[-120.04163,34.4609],[-120.04162,34.46088]],[[-120.04162,34.46094],[-120.04161,34.46096],[-120.04162,34.46096],[-120.04162,34.46094]],[[-120.0442,34.46236],[-120.04419,34.46236],[-120.0442,34.46238],[-120.0442,34.46236]],[[-120.04332,34.46187],[-120.0433,34.46187],[-120.04333,34.46191],[-120.04332,34.46187]],[[-120.04378,34.46135],[-120.04369,34.46143],[-120.0437,34.46159],[-120.04383,34.46172],[-120.04402,34.46136],[-120.04378,34.46135]],[[-120.04389,34.4617],[-120.04385,34.4617],[-120.04389,34.46174],[-120.04389,34.4617]],[[-120.04385,34.46134],[-120.04385,34.46132],[-120.04384,34.46134],[-120.04385,34.46134]],[[-120.04478,34.46144],[-120.0448,34.46144],[-120.04478,34.46143],[-120.04478,34.46144]],[[-120.04497,34.4616],[-120.04478,34.46162],[-120.04495,34.46164],[-120.04497,34.4616]],[[-120.04262,34.46008],[-120.04264,34.46008],[-120.0426,34.46006],[-120.04262,34.46008]],[[-120.04178,34.46019],[-120.04175,34.46026],[-120.04184,34.46024],[-120.04178,34.46019]],[[-120.0418,34.46013],[-120.04179,34.46013],[-120.0418,34.46014],[-120.0418,34.46013]],[[-120.0418,34.46015],[-120.04182,34.46019],[-120.04182,34.46015],[-120.0418,34.46015]],[[-120.04185,34.46013],[-120.04182,34.46013],[-120.04182,34.46015],[-120.04185,34.46013]],[[-120.0418,34.46008],[-120.04178,34.46006],[-120.04178,34.46008],[-120.0418,34.46008]],[[-120.04031,34.46179],[-120.0403,34.46174],[-120.04024,34.46175],[-120.04031,34.46179]],[[-120.04102,34.46295],[-120.04103,34.46295],[-120.04101,34.46293],[-120.04102,34.46295]],[[-120.041,34.46295],[-120.04101,34.46298],[-120.04102,34.46295],[-120.041,34.46295]],[[-120.04081,34.46279],[-120.0408,34.46278],[-120.04079,34.46279],[-120.04081,34.46279]],[[-120.04029,34.46289],[-120.04028,34.46289],[-120.04028,34.46291],[-120.04029,34.46289]]],[[[-120.03646,34.46191],[-120.03652933333333,34.462109333333345],[-120.03651,34.46209],[-120.03648,34.4621],[-120.03652953271029,34.46210990654206],[-120.03654,34.46214],[-120.03615,34.46217],[-120.036,34.46175],[-120.03586,34.4618],[-120.03577,34.46169],[-120.03563,34.46191],[-120.03531,34.46155],[-120.03608,34.46166],[-120.03638,34.46147],[-120.03669,34.46154],[-120.03656,34.46169],[-120.03698,34.46165],[-120.03646,34.46191]],[[-120.03599,34.46174],[-120.03586,34.46174],[-120.03587,34.46177],[-120.036,34.46175],[-120.03599,34.46174]],[[-120.03648,34.46152],[-120.03646,34.46152],[-120.03647,34.46154],[-120.03648,34.46152]],[[-120.03652,34.46169],[-120.03653,34.46166],[-120.03648,34.46167],[-120.03652,34.46169]],[[-120.03647,34.46203],[-120.03648,34.462],[-120.03645,34.46201],[-120.03647,34.46203]],[[-120.03638,34.46213],[-120.03637,34.46215],[-120.0364,34.46214],[-120.03638,34.46213]]],[[[-120.03652953271029,34.46210990654206],[-120.03652933333333,34.462109333333345],[-120.03653,34.46211],[-120.03652953271029,34.46210990654206]]]]}},{"type":"Feature","properties":{"id":"refugio-kelp-canopy-2011","name":"Refugio kelp canopy (2011 survey)","className":"Kelp Canopy","year":2011,"areaKm2":0.37},"geometry":{"type":"MultiPolygon","coordinates":[[[[-120.09273,34.45930333333333],[-120.09272869565217,34.45930260869565],[-120.09273,34.4593],[-120.09273,34.45930333333333]]],[[[-120.07455,34.46014],[-120.07431,34.46004],[-120.07427,34.46012],[-120.07417,34.46],[-120.07401,34.46007],[-120.07394,34.45982],[-120.07382,34.45991],[-120.07374,34.45977],[-120.07362,34.45981],[-120.07365,34.45966],[-120.07418,34.45955],[-120.07445,34.4597],[-120.07453,34.45964],[-120.07461,34.45982],[-120.07442,34.45983],[-120.07455,34.45997],[-120.0747,34.45994],[-120.07476,34.46009],[-120.07455,34.46014]]],[[[-120.08038,34.45985],[-120.08041,34.45999],[-120.08057,34.46006],[-120.08076,34.45996],[-120.08092,34.46003],[-120.08071,34.46003],[-120.0807,34.46016],[-120.08023,34.46003],[-120.0803,34.45999],[-120.08014,34.45994],[-120.08015,34.45982],[-120.07994,34.45981],[-120.0798,34.45974],[-120.07982,34.45967],[-120.07998,34.45972],[-120.08022,34.45955],[-120.08028,34.45965],[-120.08047,34.45959],[-120.08072,34.45976],[-120.08087,34.45974],[-120.08081,34.45989],[-120.08057,34.45978],[-120.08038,34.45985]]],[[[-120.07838,34.46008],[-120.07846,34.46004],[-120.07827,34.45999],[-120.07844,34.45999],[-120.07829,34.45985],[-120.07861,34.45978],[-120.07861,34.45968],[-120.0787,34.45974],[-120.07907,34.45961],[-120.07956,34.45962],[-120.07922,34.45987],[-120.0791,34.4598],[-120.07912,34.45987],[-120.07899,34.45987],[-120.07905,34.45995],[-120.07895,34.45993],[-120.07895,34.45982],[-120.07891,34.45991],[-120.07882,34.45987],[-120.0788,34.45999],[-120.07867,34.45993],[-120.07848,34.46006],[-120.07858,34.46023],[-120.07829,34.46004],[-120.07838,34.46008]],[[-120.07886,34.45985],[-120.07888,34.4598],[-120.07886,34.4598],[-120.07886,34.45985]],[[-120.07857,34.4598],[-120.07859,34.45982],[-120.07859,34.4598],[-120.07857,34.4598]],[[-120.07869,34.45985],[-120.07857,34.45987],[-120.07869,34.45989],[-120.07869,34.45985]],[[-120.07863,34.4598],[-120.0788,34.4598],[-120.07863,34.45976],[-120.07863,34.4598]]],[[[-120.08174,34.46015],[-120.08182,34.46006],[-120.08183,34.4602],[-120.08191,34.46014],[-120.08196,34.46022],[-120.08116,34.46019],[-120.08125,34.45991],[-120.08124,34.45984],[-120.08108,34.45996],[-120.08116,34.4598],[-120.08133,34.45984],[-120.08125,34.46006],[-120.08136,34.45987],[-120.08154,34.45983],[-120.08176,34.45999],[-120.08162,34.46006],[-120.08165,34.45993],[-120.08142,34.45999],[-120.08136,34.46011],[-120.08174,34.46015]]],[[[-120.08472,34.46028],[-120.08449,34.46018],[-120.08438,34.46023],[-120.0844,34.46016],[-120.08421,34.46006],[-120.08423,34.46018],[-120.08411,34.46017],[-120.08436,34.46031],[-120.08401,34.4603],[-120.08393,34.46001],[-120.08433,34.45997],[-120.08449,34.45975],[-120.08456,34.45977],[-120.08445,34.45982],[-120.08454,34.45994],[-120.0844,34.45993],[-120.08435,34.46003],[-120.08473,34.4601],[-120.08464,34.46002],[-120.08475,34.45988],[-120.08492,34.46004],[-120.08487,34.46009],[-120.0848,34.46],[-120.08472,34.46028]]],[[[-120.09288,34.46013],[-120.09318,34.46001],[-120.09366,34.46008],[-120.09367,34.46017],[-120.09404,34.46033],[-120.09411,34.46018],[-120.09394,34.46025],[-120.09387,34.46008],[-120.09444,34.46016],[-120.09455,34.46008],[-120.09484,34.46022],[-120.09489,34.46014],[-120.09499,34.46012],[-120.09536,34.4602],[-120.0952,34.46041],[-120.09534,34.46049],[-120.09533,34.46058],[-120.09536,34.46054],[-120.09531,34.46037],[-120.09546,34.4602],[-120.09565,34.46046],[-120.09578,34.46046],[-120.09573,34.46033],[-120.09584,34.46025],[-120.09611,34.46042],[-120.09677,34.46045],[-120.09688,34.4606],[-120.09682,34.46048],[-120.09698,34.46041],[-120.09706,34.46022],[-120.09738,34.4602],[-120.09778,34.46054],[-120.09816,34.46071],[-120.09829,34.46065],[-120.09833,34.46077],[-120.0986,34.4608],[-120.09854,34.4609],[-120.09895,34.46098],[-120.09894,34.46113],[-120.09855,34.46127],[-120.09844,34.46119],[-120.09845,34.46104],[-120.09831,34.46106],[-120.09833,34.46116],[-120.09825,34.46117],[-120.09819,34.46105],[-120.09829,34.46101],[-120.09801,34.46094],[-120.09819,34.46126],[-120.09761,34.46107],[-120.09751,34.4611],[-120.09729,34.46107],[-120.09723,34.46102],[-120.09706,34.46109],[-120.09811,34.46145],[-120.09813,34.46153],[-120.09831,34.46149],[-120.0982,34.46135],[-120.09852,34.46139],[-120.0986,34.46149],[-120.09872,34.46131],[-120.09876,34.46146],[-120.09889,34.46147],[-120.09873,34.4613],[-120.09884,34.4612],[-120.09924,34.46139],[-120.09945,34.46136],[-120.09943,34.46147],[-120.09962,34.46155],[-120.09974,34.46137],[-120.10017,34.46152],[-120.10017,34.46162],[-120.1001,34.46162],[-120.10003,34.46183],[-120.0999,34.46183],[-120.10002,34.4616],[-120.09976,34.46175],[-120.09948,34.46172],[-120.09987,34.46194],[-120.09993,34.46204],[-120.09974,34.46193],[-120.09943,34.46195],[-120.09929,34.46204],[-120.09934,34.46219],[-120.09921,34.46223],[-120.09886,34.46217],[-120.0985,34.46196],[-120.09854,34.46191],[-120.09826,34.46189],[-120.09778,34.46153],[-120.09755,34.46155],[-120.09763,34.46162],[-120.09765,34.4617],[-120.09763,34.4617],[-120.09721,34.46141],[-120.09683,34.4613],[-120.09666,34.46136],[-120.09672,34.46111],[-120.09657,34.46124],[-120.09645,34.46122],[-120.09659,34.46111],[-120.09656,34.46101],[-120.09633,34.46105],[-120.09634,34.46094],[-120.09614,34.46094],[-120.09623,34.46103],[-120.09598,34.46094],[-120.09578,34.46101],[-120.09569,34.46092],[-120.09546,34.46094],[-120.09552,34.46102],[-120.09545,34.46106],[-120.09516,34.46101],[-120.09501,34.46086],[-120.09495,34.46092],[-120.09447,34.46082],[-120.09451,34.46063],[-120.09398,34.46065],[-120.09389,34.46056],[-120.09406,34.46039],[-120.09371,34.46044],[-120.09364,34.46058],[-120.09349,34.46052],[-120.09348,34.46065],[-120.09339,34.46056],[-120.09231,34.46048],[-120.09237,34.46041],[-120.09223,34.46041],[-120.09221,34.46016],[-120.09218,34.46042],[-120.09206,34.46035],[-120.092,34.46044],[-120.09196,34.46033],[-120.09203,34.46031],[-120.09195,34.4602],[-120.09214,34.46014],[-120.09201,34.46006],[-120.09211,34.46003],[-120.0921,34.45988],[-120.09196,34.46001],[-120.09196,34.45986],[-120.09172,34.45985],[-120.09164,34.45968],[-120.09166,34.45984],[-120.09145,34.45984],[-120.0913,34.45982],[-120.09133,34.4597],[-120.09077,34.45976],[-120.09073,34.45958],[-120.09064,34.45964],[-120.09068,34.45978],[-120.09055,34.45981],[-120.0906,34.45995],[-120.09078,34.45995],[-120.09083,34.46012],[-120.09016,34.46003],[-120.08976,34.46018],[-120.0898,34.46001],[-120.08972,34.45999],[-120.08969,34.46008],[-120.08944,34.46004],[-120.0894,34.46012],[-120.08955,34.46014],[-120.08948,34.4602],[-120.08931,34.46019],[-120.08949,34.45989],[-120.08943,34.45985],[-120.08908,34.45999],[-120.08896,34.45997],[-120.08891,34.46008],[-120.08891,34.45997],[-120.08868,34.45995],[-120.08873,34.45964],[-120.08862,34.45953],[-120.0885,34.4597],[-120.08867,34.45969],[-120.08855,34.45985],[-120.08807,34.45985],[-120.08807,34.45993],[-120.08786,34.45987],[-120.08794,34.46004],[-120.08767,34.45997],[-120.08771,34.45989],[-120.08758,34.45995],[-120.08741,34.45987],[-120.08724,34.45999],[-120.08724,34.45985],[-120.08712,34.45987],[-120.08712,34.4598],[-120.08676,34.45993],[-120.08691,34.45991],[-120.08689,34.45997],[-120.08665,34.45999],[-120.08663,34.4598],[-120.08676,34.45978],[-120.08655,34.45974],[-120.08657,34.45985],[-120.08632,34.4598],[-120.08621,34.46003],[-120.08606,34.45987],[-120.08587,34.45991],[-120.08591,34.45995],[-120.08589,34.45999],[-120.0857,34.45985],[-120.08578,34.46008],[-120.08568,34.46011],[-120.08556,34.46008],[-120.08556,34.45997],[-120.08547,34.45999],[-120.08551,34.45991],[-120.08541,34.45984],[-120.08541,34.45993],[-120.08532,34.45991],[-120.08518,34.45976],[-120.08516,34.45987],[-120.08505,34.45991],[-120.08511,34.4597],[-120.08501,34.45972],[-120.08501,34.45984],[-120.08497,34.45978],[-120.08482,34.45985],[-120.0849,34.45968],[-120.08482,34.45968],[-120.08507,34.45966],[-120.08511,34.45946],[-120.08535,34.45957],[-120.08547,34.4595],[-120.08556,34.45961],[-120.08581,34.45957],[-120.08577,34.4594],[-120.08584,34.45938],[-120.08621,34.45959],[-120.08667,34.45932],[-120.08691,34.45934],[-120.08712,34.45956],[-120.08721,34.45955],[-120.08717,34.45946],[-120.08734,34.4595],[-120.08686,34.4593],[-120.08687,34.45921],[-120.08672,34.45925],[-120.08657,34.45909],[-120.08651,34.45915],[-120.0863,34.45911],[-120.08632,34.45923],[-120.08644,34.45919],[-120.08634,34.4593],[-120.08623,34.45928],[-120.08619,34.45915],[-120.08589,34.45925],[-120.08592,34.45911],[-120.08572,34.45896],[-120.08535,34.45906],[-120.08562,34.45909],[-120.08537,34.45928],[-120.08516,34.45932],[-120.08488,34.45921],[-120.08492,34.45909],[-120.08518,34.45904],[-120.08513,34.45894],[-120.08524,34.45887],[-120.08539,34.45889],[-120.08518,34.45871],[-120.086,34.45889],[-120.08596,34.45898],[-120.08613,34.45902],[-120.08619,34.45889],[-120.0864,34.45885],[-120.08636,34.45879],[-120.08651,34.4587],[-120.08649,34.45885],[-120.08667,34.4589],[-120.08674,34.45906],[-120.0872,34.45892],[-120.08737,34.45909],[-120.08793,34.45915],[-120.08818,34.45936],[-120.0881,34.45944],[-120.08811,34.45952],[-120.08825,34.45939],[-120.08809,34.45925],[-120.08811,34.45913],[-120.08872,34.45919],[-120.08885,34.4593],[-120.08914,34.45928],[-120.08923,34.45936],[-120.09007,34.4593],[-120.09043,34.45941],[-120.09037,34.45919],[-120.09052,34.45894],[-120.09077,34.45908],[-120.09088,34.45904],[-120.09096,34.45915],[-120.0914,34.45923],[-120.09195,34.4592],[-120.09237,34.45936],[-120.09267,34.45927],[-120.09272869565217,34.45930260869565],[-120.09271,34.45934],[-120.09273,34.45934],[-120.09273,34.45930333333333],[-120.09276,34.45932],[-120.09276,34.45936],[-120.09259,34.45954],[-120.09264,34.45966],[-120.0924,34.45972],[-120.09248,34.45982],[-120.09271,34.4598],[-120.09292,34.45986],[-120.09295,34.45999],[-120.09288,34.46013]],[[-120.09529,34.46056],[-120.09529,34.46058],[-120.09533,34.46058],[-120.09529,34.46056]],[[-120.09585,34.46047],[-120.09586,34.46047],[-120.09584,34.46046],[-120.09578,34.46046],[-120.09585,34.46047]],[[-120.09919,34.46143],[-120.09924,34.46143],[-120.09924,34.46139],[-120.09919,34.46143]],[[-120.08515,34.45968],[-120.08511,34.45968],[-120.08511,34.4597],[-120.08515,34.45968]],[[-120.0863,34.45927],[-120.08634,34.45927],[-120.08632,34.45923],[-120.0863,34.45927]],[[-120.09235,34.4594],[-120.09237,34.4594],[-120.09237,34.45936],[-120.09235,34.4594]],[[-120.09238,34.45974],[-120.0924,34.45974],[-120.0924,34.45972],[-120.09238,34.45974]],[[-120.09237,34.45976],[-120.09238,34.45976],[-120.09238,34.45974],[-120.09237,34.45976]],[[-120.09229,34.4598],[-120.09237,34.45984],[-120.09237,34.45976],[-120.09229,34.4598]],[[-120.09854,34.46196],[-120.09856,34.46194],[-120.09854,34.46194],[-120.09854,34.46196]],[[-120.09485,34.46088],[-120.09493,34.46086],[-120.09485,34.46086],[-120.09485,34.46088]],[[-120.09343,34.46048],[-120.09352,34.46048],[-120.09343,34.46044],[-120.09343,34.46048]],[[-120.0933230048077,34.46040519230769],[-120.09341,34.46042],[-120.09351,34.46037],[-120.09337,34.46033],[-120.0933230048077,34.46040519230769]],[[-120.09331861111112,34.46040444444444],[-120.09332,34.46041],[-120.0933230048077,34.46040519230769],[-120.09331861111112,34.46040444444444]],[[-120.09328,34.46025],[-120.09294,34.46034],[-120.09331861111112,34.46040444444444],[-120.09328,34.46025]],[[-120.09297,34.46031],[-120.09295,34.46029],[-120.09295,34.46031],[-120.09297,34.46031]],[[-120.09199,34.46035],[-120.09202,34.46037],[-120.09202,34.46035],[-120.09199,34.46035]],[[-120.08912,34.45993],[-120.0891,34.45989],[-120.0891,34.45993],[-120.08912,34.45993]],[[-120.0849,34.45972],[-120.08494,34.45974],[-120.08494,34.45972],[-120.0849,34.45972]],[[-120.08583,34.45957],[-120.08581,34.45959],[-120.08583,34.45959],[-120.08583,34.45957]],[[-120.08634,34.45953],[-120.0864,34.45955],[-120.0864,34.45953],[-120.08634,34.45953]],[[-120.08644,34.45951],[-120.0864,34.45951],[-120.0864,34.45953],[-120.08644,34.45951]],[[-120.08705,34.45936],[-120.0871,34.45934],[-120.08705,34.45934],[-120.08705,34.45936]],[[-120.08695,34.45932],[-120.08697,34.4593],[-120.08695,34.4593],[-120.08695,34.45932]],[[-120.08646,34.45911],[-120.08648,34.45909],[-120.08646,34.45909],[-120.08646,34.45911]],[[-120.08535,34.45889],[-120.08534,34.4589],[-120.08535,34.4589],[-120.08535,34.45889]],[[-120.08602,34.459],[-120.08598,34.45902],[-120.08602,34.45902],[-120.08602,34.459]],[[-120.08627,34.45892],[-120.0863,34.45898],[-120.08632,34.45892],[-120.08627,34.45892]],[[-120.08862,34.45923],[-120.08866,34.45928],[-120.08864,34.45923],[-120.08862,34.45923]],[[-120.08889,34.4593],[-120.08891,34.45932],[-120.08891,34.4593],[-120.08889,34.4593]],[[-120.09235,34.45984],[-120.09229,34.45989],[-120.09233,34.45989],[-120.09235,34.45984]],[[-120.09229,34.45999],[-120.09227,34.45989],[-120.09219,34.45991],[-120.09216,34.45995],[-120.09229,34.45999]],[[-120.09219,34.45999],[-120.09218,34.46001],[-120.09219,34.46001],[-120.09219,34.45999]],[[-120.09231,34.45995],[-120.09235,34.45993],[-120.09231,34.45993],[-120.09231,34.45995]],[[-120.09259,34.45984],[-120.09267,34.45987],[-120.09273,34.45984],[-120.09259,34.45984]],[[-120.09292,34.46004],[-120.09284,34.46003],[-120.09284,34.46006],[-120.09292,34.46004]],[[-120.09352,34.46008],[-120.09354,34.4601],[-120.09354,34.46008],[-120.09352,34.46008]],[[-120.09394,34.46033],[-120.0939,34.46035],[-120.09394,34.46035],[-120.09394,34.46033]],[[-120.09493,34.46014],[-120.09495,34.46016],[-120.09495,34.46014],[-120.09493,34.46014]],[[-120.09543,34.46063],[-120.09533,34.4606],[-120.0953,34.46068],[-120.09529,34.46073],[-120.09543,34.46063]],[[-120.09622,34.4606],[-120.09589,34.4605],[-120.09595,34.46066],[-120.09598,34.46056],[-120.09622,34.4606]],[[-120.09704,34.46027],[-120.09706,34.46029],[-120.09706,34.46027],[-120.09704,34.46027]],[[-120.09738,34.46029],[-120.09736,34.46027],[-120.09732,34.46031],[-120.09738,34.46029]],[[-120.09875,34.46098],[-120.09873,34.46101],[-120.09877,34.46101],[-120.09875,34.46098]],[[-120.09849,34.46108],[-120.09847,34.46118],[-120.09856,34.46113],[-120.09855,34.46108],[-120.09849,34.46108]],[[-120.09734,34.46105],[-120.09732,34.46103],[-120.09732,34.46105],[-120.09734,34.46105]],[[-120.09702,34.46111],[-120.097,34.46103],[-120.09696,34.46109],[-120.09702,34.46111]],[[-120.09919,34.46141],[-120.09917,34.46139],[-120.09917,34.46141],[-120.09919,34.46141]],[[-120.09938,34.46145],[-120.09932,34.46141],[-120.09932,34.46149],[-120.09938,34.46149],[-120.09938,34.46145]]],[[[-120.05769,34.4606],[-120.05759,34.46066],[-120.05737,34.46054],[-120.05731,34.46061],[-120.05737,34.4605],[-120.05733,34.46046],[-120.05718,34.4605],[-120.05729,34.46056],[-120.05712,34.46066],[-120.05689,34.4606],[-120.05682,34.46076],[-120.05615,34.46073],[-120.056,34.46079],[-120.05603,34.4609],[-120.05592,34.46094],[-120.05592,34.46104],[-120.05575,34.46099],[-120.05574,34.46108],[-120.05561,34.4611],[-120.05519,34.46106],[-120.05534,34.46102],[-120.05526,34.46088],[-120.05513,34.4609],[-120.0552,34.46098],[-120.05507,34.46099],[-120.05506,34.46109],[-120.05495,34.46088],[-120.05513,34.4607],[-120.0549,34.46059],[-120.05507,34.46063],[-120.0551,34.46045],[-120.0546,34.4605],[-120.05454,34.46033],[-120.05478,34.46023],[-120.05459,34.46016],[-120.05459,34.46023],[-120.05438,34.46027],[-120.05431,34.4601],[-120.05454,34.4601],[-120.05448,34.46004],[-120.05459,34.45997],[-120.05452,34.45978],[-120.05469,34.45978],[-120.05476,34.45995],[-120.05484,34.45997],[-120.05476,34.45982],[-120.05486,34.45978],[-120.05545,34.45978],[-120.05551,34.45984],[-120.0556,34.45974],[-120.0558,34.45983],[-120.05571,34.45997],[-120.05585,34.4601],[-120.05609,34.46011],[-120.05634,34.46034],[-120.05642,34.46022],[-120.05608,34.46006],[-120.05623,34.45989],[-120.05583,34.45974],[-120.05571,34.45955],[-120.05642,34.45951],[-120.05636,34.45942],[-120.05602,34.45947],[-120.05602,34.45936],[-120.05623,34.45936],[-120.0564,34.45925],[-120.05655,34.45928],[-120.05642,34.4594],[-120.05661,34.45949],[-120.05704,34.45953],[-120.05714,34.45938],[-120.05739,34.45944],[-120.05758,34.45932],[-120.05773,34.45938],[-120.05758,34.45944],[-120.05763,34.45953],[-120.05767,34.45949],[-120.05777,34.45949],[-120.05792,34.45959],[-120.05786,34.45968],[-120.05798,34.45966],[-120.05798,34.45955],[-120.05822,34.45959],[-120.05801,34.45966],[-120.0579,34.45991],[-120.05746,34.45999],[-120.0572,34.46001],[-120.0572,34.4601],[-120.05754,34.46001],[-120.05808,34.46004],[-120.05798,34.4602],[-120.05767,34.46027],[-120.05786,34.4604],[-120.05775,34.4606],[-120.05756,34.46056],[-120.05769,34.4606]],[[-120.0548,34.46027],[-120.05482,34.46023],[-120.05478,34.46023],[-120.0548,34.46027]],[[-120.05486,34.45999],[-120.05486,34.45997],[-120.05484,34.45997],[-120.05486,34.45999]],[[-120.05552,34.45985],[-120.05552,34.45984],[-120.05551,34.45984],[-120.05552,34.45985]],[[-120.0557,34.45999],[-120.05571,34.45999],[-120.05571,34.45997],[-120.0557,34.45999]],[[-120.05744,34.45995],[-120.05744,34.45999],[-120.05746,34.45999],[-120.05744,34.45995]],[[-120.05706,34.45999],[-120.05697,34.46003],[-120.05703,34.46004],[-120.0572,34.45999],[-120.05706,34.45999]],[[-120.05761,34.46004],[-120.05758,34.46006],[-120.05765,34.46004],[-120.05761,34.46004]],[[-120.05579,34.46092],[-120.056,34.4608],[-120.0559,34.4608],[-120.05598,34.46071],[-120.05585,34.46073],[-120.05579,34.46092]],[[-120.05563,34.46095],[-120.05565,34.46098],[-120.05579,34.46092],[-120.05563,34.46095]],[[-120.05514,34.46082],[-120.05514,34.4608],[-120.05511,34.4608],[-120.05514,34.46082]],[[-120.05469,34.4601],[-120.05465,34.4601],[-120.05467,34.46016],[-120.05469,34.4601]],[[-120.05452,34.46022],[-120.05452,34.46023],[-120.05454,34.46023],[-120.05452,34.46022]],[[-120.05465,34.45982],[-120.05469,34.45982],[-120.05469,34.4598],[-120.05465,34.45982]],[[-120.05522,34.45984],[-120.0553,34.45984],[-120.0553,34.45982],[-120.05522,34.45984]],[[-120.05638,34.46014],[-120.05634,34.46014],[-120.05634,34.46016],[-120.05638,34.46014]],[[-120.05642,34.46012],[-120.05638,34.46012],[-120.05638,34.46014],[-120.05642,34.46012]],[[-120.05609,34.45978],[-120.05608,34.45978],[-120.05608,34.45982],[-120.05609,34.45978]],[[-120.05771,34.45953],[-120.05771,34.45951],[-120.05767,34.45951],[-120.05771,34.45953]]],[[[-120.07218,34.45989],[-120.07195,34.4598],[-120.07203,34.45994],[-120.07235,34.45989],[-120.07272,34.46027],[-120.07287,34.4602],[-120.07315,34.46027],[-120.07305,34.46018],[-120.07336,34.46024],[-120.07324,34.46007],[-120.07273,34.46015],[-120.07262,34.45995],[-120.07288,34.45999],[-120.07249,34.45984],[-120.0727,34.45983],[-120.07275,34.45971],[-120.07261,34.45962],[-120.07297,34.45942],[-120.07325,34.45942],[-120.07316,34.45956],[-120.0736,34.45948],[-120.07357,34.45982],[-120.0734,34.45987],[-120.07371,34.45984],[-120.07358,34.46004],[-120.0739,34.46],[-120.07385,34.46015],[-120.07404,34.46018],[-120.07275,34.46043],[-120.07286,34.46052],[-120.07289,34.46046],[-120.07303,34.46048],[-120.07283,34.46068],[-120.0729,34.46095],[-120.07236,34.46057],[-120.07228,34.46023],[-120.07253,34.46051],[-120.07238,34.45996],[-120.07229,34.45996],[-120.07234,34.4601],[-120.07223,34.4602],[-120.07191,34.46007],[-120.07143,34.45952],[-120.07167,34.45946],[-120.07158,34.45954],[-120.07178,34.45972],[-120.07174,34.45948],[-120.07196,34.45964],[-120.07215,34.45957],[-120.07222,34.45969],[-120.07218,34.45989]]],[[[-120.06539,34.46147],[-120.06527,34.46145],[-120.06501,34.46156],[-120.06495,34.46153],[-120.06504,34.4615],[-120.06486,34.46147],[-120.06488,34.46156],[-120.06478,34.46156],[-120.06484,34.46164],[-120.06474,34.46168],[-120.06482,34.46137],[-120.06437,34.46137],[-120.06425,34.46145],[-120.06416,34.46142],[-120.0643,34.46137],[-120.06375,34.46136],[-120.06337,34.46154],[-120.0633,34.46143],[-120.06294,34.46149],[-120.06319,34.46137],[-120.06303,34.46113],[-120.06314,34.46105],[-120.06312,34.46094],[-120.06299,34.46083],[-120.06248,34.46086],[-120.06237,34.46077],[-120.06254,34.46067],[-120.06257,34.46056],[-120.06244,34.4606],[-120.06257,34.46054],[-120.06254,34.46048],[-120.06225,34.46056],[-120.0624,34.46058],[-120.06229,34.46077],[-120.06236,34.461],[-120.06288,34.46098],[-120.06278,34.46101],[-120.06274,34.4612],[-120.06263,34.46118],[-120.06269,34.46136],[-120.06233,34.46129],[-120.06221,34.46113],[-120.06204,34.4612],[-120.06217,34.46107],[-120.06194,34.46114],[-120.06195,34.46107],[-120.06157,34.46101],[-120.06141,34.46107],[-120.06154,34.46117],[-120.06149,34.46122],[-120.06064,34.46103],[-120.06054,34.4608],[-120.06064,34.46077],[-120.06065,34.46061],[-120.06054,34.46052],[-120.06038,34.46057],[-120.06032,34.4604],[-120.06021,34.46048],[-120.06005,34.46041],[-120.06005,34.46057],[-120.05976,34.4607],[-120.0601,34.46073],[-120.05998,34.46088],[-120.05971,34.46094],[-120.05959,34.46075],[-120.05951,34.46082],[-120.05959,34.46086],[-120.0596,34.46096],[-120.05951,34.46102],[-120.05943,34.46101],[-120.05954,34.46092],[-120.05951,34.46084],[-120.05864,34.46082],[-120.05832,34.46091],[-120.05832,34.46081],[-120.0586,34.4608],[-120.05868,34.46073],[-120.0584,34.46072],[-120.05817,34.46049],[-120.0584,34.46045],[-120.05814,34.46035],[-120.05803,34.46046],[-120.05799,34.46032],[-120.0582,34.46013],[-120.05825,34.46019],[-120.05839,34.46025],[-120.05845,34.46023],[-120.05821,34.4601],[-120.05847,34.45993],[-120.05875,34.45991],[-120.05862,34.45957],[-120.05875,34.45968],[-120.05902,34.45959],[-120.05896,34.45972],[-120.05889,34.45965],[-120.05877,34.45976],[-120.05896,34.45978],[-120.05906,34.45989],[-120.059,34.45995],[-120.05925,34.45985],[-120.05913,34.46004],[-120.05953,34.46006],[-120.05959,34.46001],[-120.05932,34.45997],[-120.05934,34.45989],[-120.0598,34.45984],[-120.06005,34.45959],[-120.06007,34.45976],[-120.06035,34.45965],[-120.06037,34.45987],[-120.06048,34.4598],[-120.06081,34.45982],[-120.0609,34.45993],[-120.06126,34.45985],[-120.06124,34.45995],[-120.06136,34.45997],[-120.06132,34.46006],[-120.06147,34.46003],[-120.06149,34.46016],[-120.06212,34.46001],[-120.06216,34.46012],[-120.06233,34.46008],[-120.06227,34.45999],[-120.0624,34.45993],[-120.06238,34.45985],[-120.06274,34.45995],[-120.06286,34.4598],[-120.06273,34.45965],[-120.06293,34.45963],[-120.06303,34.45982],[-120.06349,34.45982],[-120.06333,34.46004],[-120.06364,34.4602],[-120.06377,34.46039],[-120.06381,34.46027],[-120.06368,34.4602],[-120.06451,34.46012],[-120.06464,34.45999],[-120.06463,34.45982],[-120.06501,34.45976],[-120.0652,34.45984],[-120.06516,34.45993],[-120.06531,34.46004],[-120.06532,34.46022],[-120.06559,34.46037],[-120.06577,34.46035],[-120.0658,34.46046],[-120.06615,34.46052],[-120.0663,34.46044],[-120.06651,34.46052],[-120.06651,34.46061],[-120.06691,34.46058],[-120.06694,34.46075],[-120.06668,34.46071],[-120.06666,34.46082],[-120.06694,34.46094],[-120.06689,34.46118],[-120.06732,34.46132],[-120.06715,34.46132],[-120.06708,34.46139],[-120.06719,34.46147],[-120.06678,34.46158],[-120.06673,34.4617],[-120.06643,34.46164],[-120.06643,34.46172],[-120.0663,34.46172],[-120.06615,34.46164],[-120.06622,34.46158],[-120.06567,34.4616],[-120.06548,34.46151],[-120.06544,34.46166],[-120.06539,34.46147]],[[-120.06058,34.46048],[-120.06054,34.46048],[-120.06054,34.46052],[-120.06058,34.46048]],[[-120.05877,34.45993],[-120.05877,34.45991],[-120.05875,34.45991],[-120.05877,34.45993]],[[-120.06005,34.45978],[-120.06007,34.45978],[-120.06007,34.45976],[-120.06005,34.45978]],[[-120.06332,34.46104],[-120.06328,34.46115],[-120.06339,34.46118],[-120.06335,34.46139],[-120.06347,34.46115],[-120.06336,34.46098],[-120.06319,34.46104],[-120.06332,34.46104]],[[-120.06265,34.46128],[-120.06263,34.46132],[-120.06265,34.46132],[-120.06265,34.46128]],[[-120.06261,34.46134],[-120.06263,34.46134],[-120.06263,34.46132],[-120.06261,34.46134]],[[-120.0606,34.46092],[-120.06069,34.46084],[-120.06062,34.46084],[-120.0606,34.46092]],[[-120.06065,34.46058],[-120.06069,34.46061],[-120.06067,34.46058],[-120.06065,34.46058]],[[-120.06001,34.4608],[-120.06001,34.46081],[-120.06003,34.4608],[-120.06001,34.4608]],[[-120.05896,34.46014],[-120.05845,34.46027],[-120.05889,34.46025],[-120.05883,34.46023],[-120.05896,34.46014]],[[-120.05866,34.45965],[-120.05868,34.45963],[-120.05866,34.45963],[-120.05866,34.45965]],[[-120.05942,34.45991],[-120.0594,34.45993],[-120.05942,34.45993],[-120.05942,34.45991]],[[-120.06126,34.45997],[-120.06115,34.46003],[-120.06128,34.46003],[-120.06126,34.45997]],[[-120.06297,34.45978],[-120.06295,34.4598],[-120.06297,34.4598],[-120.06297,34.45978]],[[-120.06387,34.4602],[-120.06388,34.46022],[-120.06388,34.4602],[-120.06387,34.4602]],[[-120.06411,34.46018],[-120.06413,34.4602],[-120.06413,34.46018],[-120.06411,34.46018]],[[-120.06489,34.4598],[-120.06491,34.45982],[-120.06491,34.4598],[-120.06489,34.4598]],[[-120.06679,34.46063],[-120.06681,34.46065],[-120.06681,34.46063],[-120.06679,34.46063]],[[-120.06696,34.46122],[-120.06698,34.46124],[-120.06698,34.46122],[-120.06696,34.46122]]],[[[-120.05258,34.46071],[-120.05256,34.46056],[-120.05279,34.46056],[-120.05283,34.46063],[-120.05309,34.46058],[-120.05302,34.46077],[-120.05279,34.46077],[-120.05288,34.46082],[-120.05285,34.4609],[-120.05267,34.4608],[-120.05271,34.46071],[-120.0526,34.46077],[-120.05269,34.46084],[-120.05262,34.46092],[-120.05275,34.46096],[-120.05271,34.46107],[-120.0526,34.46094],[-120.05264,34.46105],[-120.05262,34.46111],[-120.05271,34.46113],[-120.05247,34.46141],[-120.05232,34.46124],[-120.05219,34.4613],[-120.05207,34.46121],[-120.0522,34.46122],[-120.05213,34.46114],[-120.05231,34.46115],[-120.05229,34.46109],[-120.05201,34.46103],[-120.05214,34.46089],[-120.05195,34.46087],[-120.05205,34.46076],[-120.05214,34.46075],[-120.05235,34.46084],[-120.05258,34.46071]],[[-120.05237,34.46107],[-120.05229,34.46107],[-120.05229,34.46109],[-120.05237,34.46107]],[[-120.05233,34.46086],[-120.05235,34.46086],[-120.05235,34.46084],[-120.05233,34.46086]],[[-120.05237,34.46109],[-120.05241,34.46111],[-120.05241,34.46109],[-120.05237,34.46109]],[[-120.05228,34.46082],[-120.05226,34.46084],[-120.05228,34.46084],[-120.05228,34.46082]],[[-120.05262,34.46109],[-120.0526,34.46107],[-120.0526,34.46109],[-120.05262,34.46109]]],[[[-120.05423,34.46126],[-120.05418,34.46113],[-120.05387,34.46109],[-120.05408,34.46109],[-120.05416,34.46094],[-120.05433,34.46101],[-120.0541,34.46077],[-120.0544,34.46071],[-120.05435,34.46056],[-120.05459,34.46062],[-120.05469,34.46075],[-120.05465,34.46082],[-120.05476,34.46098],[-120.05459,34.46105],[-120.05473,34.46101],[-120.05482,34.46111],[-120.05425,34.46111],[-120.05435,34.46122],[-120.05444,34.46118],[-120.05453,34.46137],[-120.05455,34.46145],[-120.05442,34.4615],[-120.05422,34.46142],[-120.05448,34.46142],[-120.05441,34.46134],[-120.05419,34.46128],[-120.05402,34.46136],[-120.05387,34.46126],[-120.05423,34.46126]],[[-120.05423,34.46109],[-120.05423,34.46111],[-120.05425,34.46111],[-120.05423,34.46109]],[[-120.05463,34.46082],[-120.05461,34.46075],[-120.05457,34.46075],[-120.05463,34.46082]]],[[[-120.05045,34.46094],[-120.05092,34.46096],[-120.05083,34.46105],[-120.05095,34.46115],[-120.05087,34.46124],[-120.05064,34.4613],[-120.04992,34.46115],[-120.05004,34.46108],[-120.05027,34.46114],[-120.05051,34.46102],[-120.05045,34.46094]]],[[[-120.04701,34.46171],[-120.04711,34.46183],[-120.04704,34.46193],[-120.04676,34.46182],[-120.04667,34.46189],[-120.04668,34.4618],[-120.04651,34.46168],[-120.04641,34.46172],[-120.04658,34.46186],[-120.04636,34.46172],[-120.04618,34.46183],[-120.04615,34.462],[-120.04598,34.46179],[-120.04598,34.46149],[-120.04613,34.46145],[-120.04603,34.46134],[-120.04582,34.46122],[-120.04548,34.46134],[-120.04539,34.46126],[-120.04533,34.46136],[-120.04518,34.46128],[-120.04518,34.46141],[-120.04541,34.4616],[-120.0456,34.46155],[-120.04558,34.46136],[-120.04578,34.46147],[-120.04588,34.46177],[-120.04578,34.46208],[-120.04592,34.46214],[-120.04575,34.46211],[-120.04567,34.46196],[-120.04527,34.46202],[-120.04507,34.46216],[-120.04495,34.46208],[-120.04482,34.46223],[-120.04457,34.46231],[-120.04442,34.46221],[-120.04446,34.46229],[-120.04427,34.46231],[-120.04416,34.46242],[-120.04398,34.4624],[-120.04396,34.46215],[-120.04404,34.46213],[-120.04392,34.46212],[-120.04398,34.46202],[-120.04387,34.46193],[-120.04398,34.46187],[-120.04379,34.46179],[-120.04387,34.46164],[-120.0439,34.46164],[-120.0439,34.46141],[-120.04402,34.46136],[-120.04383,34.46136],[-120.04375,34.46128],[-120.04366,34.46163],[-120.04381,34.46191],[-120.04373,34.46208],[-120.04379,34.46208],[-120.04385,34.46227],[-120.04371,34.46232],[-120.04368,34.46206],[-120.04341,34.46208],[-120.04341,34.46194],[-120.04315,34.46212],[-120.04305,34.46206],[-120.04288,34.46213],[-120.04267,34.46243],[-120.04292,34.46248],[-120.04295,34.46272],[-120.04278,34.46278],[-120.04287,34.46293],[-120.0425,34.46282],[-120.04248,34.46274],[-120.04242,34.46282],[-120.04208,34.46276],[-120.04197,34.46255],[-120.04206,34.46246],[-120.04221,34.46251],[-120.04223,34.46248],[-120.04202,34.46234],[-120.04208,34.46225],[-120.04197,34.46227],[-120.04199,34.46234],[-120.04185,34.46227],[-120.04191,34.4624],[-120.04159,34.46229],[-120.04181,34.46244],[-120.04164,34.46246],[-120.04172,34.46259],[-120.04174,34.4625],[-120.04191,34.46253],[-120.04195,34.46274],[-120.04206,34.46278],[-120.04166,34.46282],[-120.04162,34.46278],[-120.04132,34.46289],[-120.04123,34.46289],[-120.04117,34.4628],[-120.04116,34.46289],[-120.04085,34.46288],[-120.04085,34.46276],[-120.041,34.46276],[-120.04109,34.46265],[-120.04147,34.46269],[-120.04157,34.46251],[-120.04147,34.46244],[-120.04143,34.46253],[-120.04142,34.46244],[-120.04153,34.46225],[-120.04138,34.46221],[-120.04142,34.46236],[-120.04134,34.46244],[-120.04128,34.46234],[-120.04113,34.46242],[-120.04109,34.46231],[-120.04102,34.46234],[-120.041,34.46217],[-120.04096,34.46227],[-120.04092,34.46215],[-120.04081,34.46225],[-120.04066,34.46213],[-120.04054,34.46213],[-120.04048,34.46225],[-120.04024,34.46215],[-120.04014,34.46223],[-120.03997,34.46219],[-120.03993,34.46208],[-120.03938,34.46198],[-120.03953,34.46185],[-120.03972,34.46196],[-120.03971,34.46187],[-120.03976,34.46193],[-120.03986,34.46183],[-120.04003,34.46194],[-120.04043,34.46191],[-120.04066,34.46206],[-120.04107,34.46206],[-120.04094,34.46191],[-120.04092,34.46166],[-120.04102,34.4616],[-120.04071,34.46156],[-120.04067,34.46139],[-120.04088,34.46134],[-120.04088,34.46143],[-120.04115,34.46136],[-120.04107,34.46139],[-120.04113,34.46143],[-120.04119,34.46132],[-120.04123,34.46141],[-120.04124,34.46132],[-120.0413,34.46132],[-120.04128,34.46141],[-120.0413,34.46141],[-120.04147,34.46126],[-120.04113,34.46109],[-120.04124,34.46101],[-120.04132,34.46103],[-120.04149,34.46092],[-120.04178,34.4609],[-120.04178,34.46084],[-120.04199,34.4609],[-120.04202,34.46079],[-120.04214,34.46079],[-120.04221,34.46094],[-120.04238,34.46092],[-120.0424,34.46111],[-120.04256,34.46094],[-120.04273,34.46094],[-120.0428,34.46107],[-120.0428,34.46098],[-120.04311,34.46096],[-120.04356,34.46111],[-120.04383,34.46082],[-120.04392,34.46079],[-120.04394,34.46088],[-120.04402,34.46073],[-120.04411,34.4609],[-120.0439,34.46107],[-120.04392,34.46117],[-120.044,34.46109],[-120.04409,34.46124],[-120.04423,34.46124],[-120.04419,34.46132],[-120.0443,34.4613],[-120.0444,34.46093],[-120.04453,34.46097],[-120.04461,34.46109],[-120.04447,34.46115],[-120.04453,34.46122],[-120.04442,34.46134],[-120.04457,34.46136],[-120.04451,34.46151],[-120.04459,34.46145],[-120.04463,34.46158],[-120.04485,34.46168],[-120.04497,34.4616],[-120.04487,34.4616],[-120.0448,34.46143],[-120.0448,34.46153],[-120.0447,34.46147],[-120.04478,34.46137],[-120.04461,34.46136],[-120.04472,34.46124],[-120.04466,34.46109],[-120.04474,34.46098],[-120.04487,34.46099],[-120.04493,34.46113],[-120.04499,34.46103],[-120.04504,34.46109],[-120.04497,34.4609],[-120.0451,34.46063],[-120.04497,34.46056],[-120.04499,34.46065],[-120.04489,34.46063],[-120.04474,34.4605],[-120.04472,34.46035],[-120.04493,34.46027],[-120.04501,34.46029],[-120.04497,34.46033],[-120.04499,34.46041],[-120.0451,34.46031],[-120.04512,34.46058],[-120.0452,34.46056],[-120.04514,34.46029],[-120.04523,34.46031],[-120.04523,34.46052],[-120.04539,34.46033],[-120.04556,34.46033],[-120.04569,34.46046],[-120.04584,34.46037],[-120.04582,34.46052],[-120.04603,34.46035],[-120.04611,34.46042],[-120.04598,34.46046],[-120.04598,34.46069],[-120.04628,34.46077],[-120.04615,34.46061],[-120.04628,34.46052],[-120.04653,34.46058],[-120.04637,34.46073],[-120.04639,34.46084],[-120.04647,34.46071],[-120.04658,34.46079],[-120.04662,34.46065],[-120.0466,34.46086],[-120.04746,34.46139],[-120.04753,34.46165],[-120.04779,34.46167],[-120.04743,34.4618],[-120.04725,34.46153],[-120.04701,34.46171]],[[-120.04584,34.4612],[-120.04582,34.4612],[-120.04582,34.46122],[-120.04584,34.4612]],[[-120.04516,34.46147],[-120.04518,34.46147],[-120.04518,34.46141],[-120.04516,34.46147]],[[-120.04501,34.46042],[-120.04501,34.46041],[-120.04499,34.46041],[-120.04501,34.46042]],[[-120.0463,34.46079],[-120.0463,34.46077],[-120.04628,34.46077],[-120.0463,34.46079]],[[-120.04632,34.4608],[-120.04632,34.46079],[-120.0463,34.46079],[-120.04632,34.4608]],[[-120.04601,34.46151],[-120.04603,34.46153],[-120.04603,34.46151],[-120.04601,34.46151]],[[-120.04385,34.4617],[-120.04389,34.46174],[-120.04389,34.4617],[-120.04385,34.4617]],[[-120.04383,34.46134],[-120.04385,34.46132],[-120.04383,34.46132],[-120.04383,34.46134]],[[-120.04377,34.46212],[-120.04375,34.4621],[-120.04375,34.46212],[-120.04377,34.46212]],[[-120.04377,34.46219],[-120.04373,34.46223],[-120.04375,34.46223],[-120.04377,34.46219]],[[-120.0433,34.46196],[-120.04333,34.46189],[-120.0433,34.46187],[-120.0433,34.46196]],[[-120.04214,34.46259],[-120.04214,34.46274],[-120.04223,34.46261],[-120.04214,34.46259]],[[-120.04208,34.46253],[-120.04206,34.46261],[-120.0421,34.46261],[-120.0421,34.46259],[-120.04214,34.46259],[-120.04208,34.46253]],[[-120.04206,34.46251],[-120.04206,34.46253],[-120.04208,34.46253],[-120.04206,34.46251]],[[-120.04219,34.46242],[-120.04223,34.46238],[-120.04219,34.46238],[-120.04219,34.46242]],[[-120.04216,34.46238],[-120.04218,34.46236],[-120.04216,34.46236],[-120.04216,34.46238]],[[-120.0418,34.46232],[-120.04181,34.46229],[-120.0418,34.46229],[-120.0418,34.46232]],[[-120.04189,34.46278],[-120.04191,34.46276],[-120.04189,34.46276],[-120.04189,34.46278]],[[-120.04124,34.46286],[-120.04126,34.46284],[-120.04124,34.46284],[-120.04124,34.46286]],[[-120.04104,34.46194],[-120.04105,34.46191],[-120.04104,34.46191],[-120.04104,34.46194]],[[-120.04096,34.46174],[-120.04102,34.46166],[-120.04096,34.46166],[-120.04096,34.46174]],[[-120.04138,34.46115],[-120.0414,34.46113],[-120.04138,34.46113],[-120.04138,34.46115]],[[-120.04124,34.46103],[-120.04128,34.46105],[-120.04128,34.46103],[-120.04124,34.46103]],[[-120.04495,34.46113],[-120.04497,34.46115],[-120.04497,34.46113],[-120.04495,34.46113]],[[-120.04506,34.46048],[-120.04504,34.46046],[-120.04504,34.46048],[-120.04506,34.46048]],[[-120.04535,34.46039],[-120.04537,34.46042],[-120.04537,34.46039],[-120.04535,34.46039]]]]}}]}