{"type":"FeatureCollection","features":[{"type":"Feature","geometry":{"type":"Point","coordinates":[-120.10078,34.46293]},"properties":{"depth_ft":9,"depth_m":2.7}},{"type":"Feature","geometry":{"type":"Point","coordinates":[-120.04377,34.46293]},"properties":{"depth_ft":2,"depth_m":0.6}},{"type":"Feature","geometry":{"type":"Point","coordinates":[-120.04092,34.46293]},"properties":{"depth_ft":8,"depth_m":2.6}},{"type":"Feature","geometry":{"type":"Point","coordinates":[-120.03807,34.46293]},"properties":{"depth_ft":9,"depth_m":2.6}},{"type":"Feature","geometry":{"type":"Point","coordinates":[-120.10078,34.46058]},"properties":{"depth_ft":36,"depth_m":11.0}},{"type":"Feature","geometry":{"type":"Point","coordinates":[-120.09793,34.46058]},"properties":{"depth_ft":19,"depth_m":5.9}},{"type":"Feature","geometry":{"type":"Point","coordinates":[-120.09508,34.46058]},"properties":{"depth_ft":11,"depth_m":3.4}},{"type":"Feature","geometry":{"type":"Point","coordinates":[-120.09223,34.46058]},"properties":{"depth_ft":7,"depth_m":2.2}},{"type":"Feature","geometry":{"type":"Point","coordinates":[-120.07228,34.46058]},"properties":{"depth_ft":14,"depth_m":4.2}},{"type":"Feature","geometry":{"type":"Point","coordinates":[-120.06943,34.46058]},"properties":{"depth_ft":22,"depth_m":6.7}},{"type":"Feature","geometry":{"type":"Point","coordinates":[-120.06657,34.46058]},"properties":{"depth_ft":18,"depth_m":5.6}},{"type":"Feature","geometry":{"type":"Point","coordinates":[-120.06372,34.46058]},"properties":{"depth_ft":18,"depth_m":5.6}},{"type":"Feature","geometry":{"type":"Point","coordinates":[-120.06087,34.46058]},"properties":{"depth_ft":14,"depth_m":4.2}},{"type":"Feature","geometry":{"type":"Point","coordinates":[-120.05802,34.46058]},"properties":{"depth_ft":12,"depth_m":3.7}},{"type":"Feature","geometry":{"type":"Point","coordinates":[-120.05517,34.46058]},"properties":{"depth_ft":11,"depth_m":3.3}},{"type":"Feature","geometry":{"type":"Point","coordinates":[-120.05232,34.46058]},"properties":{"depth_ft":13,"depth_m":3.9}},{"type":"Feature","geometry":{"type":"Point","coordinates":[-120.04947,34.46058]},"properties":{"depth_ft":17,"depth_m":5.2}},{"type":"Feature","geometry":{"type":"Point","coordinates":[-120.04662,34.46058]},"properties":{"depth_ft":21,"depth_m":6.4}},{"type":"Feature","geometry":{"type":"Point","coordinates":[-120.04377,34.46058]},"properties":{"depth_ft":25,"depth_m":7.7}},{"type":"Feature","geometry":{"type":"Point","coordinates":[-120.04092,34.46058]},"properties":{"depth_ft":28,"depth_m":8.5}},{"type":"Feature","geometry":{"type":"Point","coordinates":[-120.03807,34.46058]},"properties":{"depth_ft":33,"depth_m":10.0}},{"type":"Feature","geometry":{"type":"Point","coordinates":[-120.03522,34.46058]},"properties":{"depth_ft":31,"depth_m":9.3}},{"type":"Feature","geometry":{"type":"Point","coordinates":[-120.10078,34.45823]},"properties":{"depth_ft":58,"depth_m":17.8}},{"type":"Feature","geometry":{"type":"Point","coordinates":[-120.09793,34.45823]},"properties":{"depth_ft":51,"depth_m":15.5}},{"type":"Feature","geometry":{"type":"Point","coordinates":[-120.09508,34.45823]},"properties":{"depth_ft":47,"depth_m":14.3}},{"type":"Feature","geometry":{"type":"Point","coordinates":[-120.09223,34.45823]},"properties":{"depth_ft":40,"depth_m":12.3}},{"type":"Feature","geometry":{"type":"Point","coordinates":[-120.08938,34.45823]},"properties":{"depth_ft":35,"depth_m":10.8}},{"type":"Feature","geometry":{"type":"Point","coordinates":[-120.08653,34.45823]},"properties":{"depth_ft":31,"depth_m":9.5}},{"type":"Feature","geometry":{"type":"Point","coordinates":[-120.08368,34.45823]},"properties":{"depth_ft":32,"depth_m":9.9}},{"type":"Feature","geometry":{"type":"Point","coordinates":[-120.08083,34.45823]},"properties":{"depth_ft":34,"depth_m":10.2}},{"type":"Feature","geometry":{"type":"Point","coordinates":[-120.07798,34.45823]},"properties":{"depth_ft":34,"depth_m":10.3}},{"type":"Feature","geometry":{"type":"Point","coordinates":[-120.07513,34.45823]},"properties":{"depth_ft":35,"depth_m":10.7}},{"type":"Feature","geometry":{"type":"Point","coordinates":[-120.07228,34.45823]},"properties":{"depth_ft":37,"depth_m":11.2}},{"type":"Feature","geometry":{"type":"Point","coordinates":[-120.06943,34.45823]},"properties":{"depth_ft":42,"depth_m":12.7}},{"type":"Feature","geometry":{"type":"Point","coordinates":[-120.06657,34.45823]},"properties":{"depth_ft":42,"depth_m":12.9}},{"type":"Feature","geometry":{"type":"Point","coordinates":[-120.06372,34.45823]},"properties":{"depth_ft":44,"depth_m":13.4}},{"type":"Feature","geometry":{"type":"Point","coordinates":[-120.06087,34.45823]},"properties":{"depth_ft":42,"depth_m":12.7}},{"type":"Feature","geometry":{"type":"Point","coordinates":[-120.05802,34.45823]},"properties":{"depth_ft":42,"depth_m":12.7}},{"type":"Feature","geometry":{"type":"Point","coordinates":[-120.05517,34.45823]},"properties":{"depth_ft":42,"depth_m":12.7}},{"type":"Feature","geometry":{"type":"Point","coordinates":[-120.05232,34.45823]},"properties":{"depth_ft":43,"depth_m":13.1}},{"type":"Feature","geometry":{"type":"Point","coordinates":[-120.04947,34.45823]},"properties":{"depth_ft":41,"depth_m":12.6}},{"type":"Feature","geometry":{"type":"Point","coordinates":[-120.04662,34.45823]},"properties":{"depth_ft":43,"depth_m":13.0}},{"type":"Feature","geometry":{"type":"Point","coordinates":[-120.04377,34.45823]},"properties":{"depth_ft":43,"depth_m":13.1}},{"type":"Feature","geometry":{"type":"Point","coordinates":[-120.04092,34.45823]},"properties":{"depth_ft":47,"depth_m":14.4}},{"type":"Feature","geometry":{"type":"Point","coordinates":[-120.03807,34.45823]},"properties":{"depth_ft":47,"depth_m":14.2}},{"type":"Feature","geometry":{"type":"Point","coordinates":[-120.03522,34.45823]},"properties":{"depth_ft":44,"depth_m":13.3}},{"type":"Feature","geometry":{"type":"Point","coordinates":[-120.10078,34.45588]},"properties":{"depth_ft":92,"depth_m":27.9}},{"type":"Feature","geometry":{"type":"Point","coordinates":[-120.09793,34.45588]},"properties":{"depth_ft":80,"depth_m":24.4}},{"type":"Feature","geometry":{"type":"Point","coordinates":[-120.09508,34.45588]},"properties":{"depth_ft":75,"depth_m":22.7}},{"type":"Feature","geometry":{"type":"Point","coordinates":[-120.09223,34.45588]},"properties":{"depth_ft":70,"depth_m":21.4}},{"type":"Feature","geometry":{"type":"Point","coordinates":[-120.08938,34.45588]},"properties":{"depth_ft":65,"depth_m":19.9}},{"type":"Feature","geometry":{"type":"Point","coordinates":[-120.08653,34.45588]},"properties":{"depth_ft":64,"depth_m":19.4}},{"type":"Feature","geometry":{"type":"Point","coordinates":[-120.08368,34.45588]},"properties":{"depth_ft":63,"depth_m":19.2}},{"type":"Feature","geometry":{"type":"Point","coordinates":[-120.08083,34.45588]},"properties":{"depth_ft":65,"depth_m":19.7}},{"type":"Feature","geometry":{"type":"Point","coordinates":[-120.07798,34.45588]},"properties":{"depth_ft":67,"depth_m":20.5}},{"type":"Feature","geometry":{"type":"Point","coordinates":[-120.07513,34.45588]},"properties":{"depth_ft":68,"depth_m":20.7}},{"type":"Feature","geometry":{"type":"Point","coordinates":[-120.07228,34.45588]},"properties":{"depth_ft":71,"depth_m":21.7}},{"type":"Feature","geometry":{"type":"Point","coordinates":[-120.06943,34.45588]},"properties":{"depth_ft":77,"depth_m":23.4}},{"type":"Feature","geometry":{"type":"Point","coordinates":[-120.06657,34.45588]},"properties":{"depth_ft":73,"depth_m":22.2}},{"type":"Feature","geometry":{"type":"Point","coordinates":[-120.06372,34.45588]},"properties":{"depth_ft":71,"depth_m":21.5}},{"type":"Feature","geometry":{"type":"Point","coordinates":[-120.06087,34.45588]},"properties":{"depth_ft":70,"depth_m":21.3}},{"type":"Feature","geometry":{"type":"Point","coordinates":[-120.05802,34.45588]},"properties":{"depth_ft":70,"depth_m":21.2}},{"type":"Feature","geometry":{"type":"Point","coordinates":[-120.05517,34.45588]},"properties":{"depth_ft":70,"depth_m":21.3}},{"type":"Feature","geometry":{"type":"Point","coordinates":[-120.05232,34.45588]},"properties":{"depth_ft":72,"depth_m":22.0}},{"type":"Feature","geometry":{"type":"Point","coordinates":[-120.04947,34.45588]},"properties":{"depth_ft":69,"depth_m":21.2}},{"type":"Feature","geometry":{"type":"Point","coordinates":[-120.04662,34.45588]},"properties":{"depth_ft":69,"depth_m":21.1}},{"type":"Feature","geometry":{"type":"Point","coordinates":[-120.04377,34.45588]},"properties":{"depth_ft":72,"depth_m":22.0}},{"type":"Feature","geometry":{"type":"Point","coordinates":[-120.04092,34.45588]},"properties":{"depth_ft":70,"depth_m":21.3}},{"type":"Feature","geometry":{"type":"Point","coordinates":[-120.03807,34.45588]},"properties":{"depth_ft":64,"depth_m":19.5}},{"type":"Feature","geometry":{"type":"Point","coordinates":[-120.03522,34.45588]},"properties":{"depth_ft":59,"depth_m":18.0}},{"type":"Feature","geometry":{"type":"Point","coordinates":[-120.10078,34.45353]},"properties":{"depth_ft":122,"depth_m":37.0}},{"type":"Feature","geometry":{"type":"Point","coordinates":[-120.09793,34.45353]},"properties":{"depth_ft":122,"depth_m":37.1}},{"type":"Feature","geometry":{"type":"Point","coordinates":[-120.09508,34.45353]},"properties":{"depth_ft":117,"depth_m":35.5}},{"type":"Feature","geometry":{"type":"Point","coordinates":[-120.09223,34.45353]},"properties":{"depth_ft":117,"depth_m":35.5}},{"type":"Feature","geometry":{"type":"Point","coordinates":[-120.08938,34.45353]},"properties":{"depth_ft":115,"depth_m":35.0}},{"type":"Feature","geometry":{"type":"Point","coordinates":[-120.08653,34.45353]},"properties":{"depth_ft":113,"depth_m":34.5}},{"type":"Feature","geometry":{"type":"Point","coordinates":[-120.08368,34.45353]},"properties":{"depth_ft":115,"depth_m":35.0}},{"type":"Feature","geometry":{"type":"Point","coordinates":[-120.08083,34.45353]},"properties":{"depth_ft":112,"depth_m":34.1}},{"type":"Feature","geometry":{"type":"Point","coordinates":[-120.07798,34.45353]},"properties":{"depth_ft":115,"depth_m":34.9}},{"type":"Feature","geometry":{"type":"Point","coordinates":[-120.07513,34.45353]},"properties":{"depth_ft":117,"depth_m":35.7}},{"type":"Feature","geometry":{"type":"Point","coordinates":[-120.07228,34.45353]},"properties":{"depth_ft":115,"depth_m":34.9}},{"type":"Feature","geometry":{"type":"Point","coordinates":[-120.06943,34.45353]},"properties":{"depth_ft":104,"depth_m":31.8}},{"type":"Feature","geometry":{"type":"Point","coordinates":[-120.06657,34.45353]},"properties":{"depth_ft":106,"depth_m":32.2}},{"type":"Feature","geometry":{"type":"Point","coordinates":[-120.06372,34.45353]},"properties":{"depth_ft":110,"depth_m":33.5}},{"type":"Feature","geometry":{"type":"Point","coordinates":[-120.06087,34.45353]},"properties":{"depth_ft":114,"depth_m":34.7}},{"type":"Feature","geometry":{"type":"Point","coordinates":[-120.05802,34.45353]},"properties":{"depth_ft":115,"depth_m":34.9}},{"type":"Feature","geometry":{"type":"Point","coordinates":[-120.05517,34.45353]},"properties":{"depth_ft":112,"depth_m":34.0}},{"type":"Feature","geometry":{"type":"Point","coordinates":[-120.05232,34.45353]},"properties":{"depth_ft":111,"depth_m":33.8}},{"type":"Feature","geometry":{"type":"Point","coordinates":[-120.04947,34.45353]},"properties":{"depth_ft":109,"depth_m":33.2}},{"type":"Feature","geometry":{"type":"Point","coordinates":[-120.04662,34.45353]},"properties":{"depth_ft":108,"depth_m":32.8}},{"type":"Feature","geometry":{"type":"Point","coordinates":[-120.04377,34.45353]},"properties":{"depth_ft":105,"depth_m":32.0}},{"type":"Feature","geometry":{"type":"Point","coordinates":[-120.04092,34.45353]},"properties":{"depth_ft":105,"depth_m":32.0}},{"type":"Feature","geometry":{"type":"Point","coordinates":[-120.03807,34.45353]},"properties":{"depth_ft":99,"depth_m":30.2}},{"type":"Feature","geometry":{"type":"Point","coordinates":[-120.03522,34.45353]},"properties":{"depth_ft":94,"depth_m":28.6}},{"type":"Feature","geometry":{"type":"Point","coordinates":[-120.10078,34.45118]},"properties":{"depth_ft":136,"depth_m":41.6}},{"type":"Feature","geometry":{"type":"Point","coordinates":[-120.09793,34.45118]},"properties":{"depth_ft":139,"depth_m":42.2}},{"type":"Feature","geometry":{"type":"Point","coordinates":[-120.09508,34.45118]},"properties":{"depth_ft":136,"depth_m":41.5}},{"type":"Feature","geometry":{"type":"Point","coordinates":[-120.09223,34.45118]},"properties":{"depth_ft":136,"depth_m":41.6}},{"type":"Feature","geometry":{"type":"Point","coordinates":[-120.08938,34.45118]},"properties":{"depth_ft":139,"depth_m":42.3}},{"type":"Feature","geometry":{"type":"Point","coordinates":[-120.08653,34.45118]},"properties":{"depth_ft":139,"depth_m":42.4}},{"type":"Feature","geometry":{"type":"Point","coordinates":[-120.08368,34.45118]},"properties":{"depth_ft":133,"depth_m":40.6}},{"type":"Feature","geometry":{"type":"Point","coordinates":[-120.08083,34.45118]},"properties":{"depth_ft":134,"depth_m":40.9}},{"type":"Feature","geometry":{"type":"Point","coordinates":[-120.07798,34.45118]},"properties":{"depth_ft":133,"depth_m":40.5}},{"type":"Feature","geometry":{"type":"Point","coordinates":[-120.07513,34.45118]},"properties":{"depth_ft":132,"depth_m":40.3}},{"type":"Feature","geometry":{"type":"Point","coordinates":[-120.07228,34.45118]},"properties":{"depth_ft":133,"depth_m":40.4}},{"type":"Feature","geometry":{"type":"Point","coordinates":[-120.06943,34.45118]},"properties":{"depth_ft":126,"depth_m":38.4}},{"type":"Feature","geometry":{"type":"Point","coordinates":[-120.06657,34.45118]},"properties":{"depth_ft":127,"depth_m":38.7}},{"type":"Feature","geometry":{"type":"Point","coordinates":[-120.06372,34.45118]},"properties":{"depth_ft":128,"depth_m":39.1}},{"type":"Feature","geometry":{"type":"Point","coordinates":[-120.06087,34.45118]},"properties":{"depth_ft":134,"depth_m":40.9}},{"type":"Feature","geometry":{"type":"Point","coordinates":[-120.05802,34.45118]},"properties":{"depth_ft":133,"depth_m":40.6}},{"type":"Feature","geometry":{"type":"Point","coordinates":[-120.05517,34.45118]},"properties":{"depth_ft":134,"depth_m":40.8}},{"type":"Feature","geometry":{"type":"Point","coordinates":[-120.05232,34.45118]},"properties":{"depth_ft":128,"depth_m":39.1}},{"type":"Feature","geometry":{"type":"Point","coordinates":[-120.04947,34.45118]},"properties":{"depth_ft":131,"depth_m":40.0}},{"type":"Feature","geometry":{"type":"Point","coordinates":[-120.04662,34.45118]},"properties":{"depth_ft":128,"depth_m":39.1}},{"type":"Feature","geometry":{"type":"Point","coordinates":[-120.04377,34.45118]},"properties":{"depth_ft":127,"depth_m":38.7}},{"type":"Feature","geometry":{"type":"Point","coordinates":[-120.04092,34.45118]},"properties":{"depth_ft":124,"depth_m":37.7}},{"type":"Feature","geometry":{"type":"Point","coordinates":[-120.03807,34.45118]},"properties":{"depth_ft":125,"depth_m":38.2}},{"type":"Feature","geometry":{"type":"Point","coordinates":[-120.03522,34.45118]},"properties":{"depth_ft":125,"depth_m":38.1}},{"type":"Feature","geometry":{"type":"Point","coordinates":[-120.10078,34.44882]},"properties":{"depth_ft":157,"depth_m":47.9}},{"type":"Feature","geometry":{"type":"Point","coordinates":[-120.09793,34.44882]},"properties":{"depth_ft":159,"depth_m":48.6}},{"type":"Feature","geometry":{"type":"Point","coordinates":[-120.09508,34.44882]},"properties":{"depth_ft":158,"depth_m":48.2}},{"type":"Feature","geometry":{"type":"Point","coordinates":[-120.09223,34.44882]},"properties":{"depth_ft":155,"depth_m":47.1}},{"type":"Feature","geometry":{"type":"Point","coordinates":[-120.08938,34.44882]},"properties":{"depth_ft":155,"depth_m":47.3}},{"type":"Feature","geometry":{"type":"Point","coordinates":[-120.08653,34.44882]},"properties":{"depth_ft":154,"depth_m":46.8}},{"type":"Feature","geometry":{"type":"Point","coordinates":[-120.08368,34.44882]},"properties":{"depth_ft":151,"depth_m":46.0}},{"type":"Feature","geometry":{"type":"Point","coordinates":[-120.08083,34.44882]},"properties":{"depth_ft":150,"depth_m":45.8}},{"type":"Feature","geometry":{"type":"Point","coordinates":[-120.07798,34.44882]},"properties":{"depth_ft":149,"depth_m":45.4}},{"type":"Feature","geometry":{"type":"Point","coordinates":[-120.07513,34.44882]},"properties":{"depth_ft":148,"depth_m":45.0}},{"type":"Feature","geometry":{"type":"Point","coordinates":[-120.07228,34.44882]},"properties":{"depth_ft":146,"depth_m":44.4}},{"type":"Feature","geometry":{"type":"Point","coordinates":[-120.06943,34.44882]},"properties":{"depth_ft":144,"depth_m":43.9}},{"type":"Feature","geometry":{"type":"Point","coordinates":[-120.06657,34.44882]},"properties":{"depth_ft":146,"depth_m":44.4}},{"type":"Feature","geometry":{"type":"Point","coordinates":[-120.06372,34.44882]},"properties":{"depth_ft":147,"depth_m":44.9}},{"type":"Feature","geometry":{"type":"Point","coordinates":[-120.06087,34.44882]},"properties":{"depth_ft":150,"depth_m":45.8}},{"type":"Feature","geometry":{"type":"Point","coordinates":[-120.05802,34.44882]},"properties":{"depth_ft":152,"depth_m":46.4}},{"type":"Feature","geometry":{"type":"Point","coordinates":[-120.05517,34.44882]},"properties":{"depth_ft":151,"depth_m":46.2}},{"type":"Feature","geometry":{"type":"Point","coordinates":[-120.05232,34.44882]},"properties":{"depth_ft":150,"depth_m":45.7}},{"type":"Feature","geometry":{"type":"Point","coordinates":[-120.04947,34.44882]},"properties":{"depth_ft":147,"depth_m":44.9}},{"type":"Feature","geometry":{"type":"Point","coordinates":[-120.04662,34.44882]},"properties":{"depth_ft":147,"depth_m":44.7}},{"type":"Feature","geometry":{"type":"Point","coordinates":[-120.04377,34.44882]},"properties":{"depth_ft":146,"depth_m":44.4}},{"type":"Feature","geometry":{"type":"Point","coordinates":[-120.04092,34.44882]},"properties":{"depth_ft":145,"depth_m":44.1}},{"type":"Feature","geometry":{"type":"Point","coordinates":[-120.03807,34.44882]},"properties":{"depth_ft":148,"depth_m":45.0}},{"type":"Feature","geometry":{"type":"Point","coordinates":[-120.03522,34.44882]},"properties":{"depth_ft":145,"depth_m":44.2}},{"type":"Feature","geometry":{"type":"Point","coordinates":[-120.10078,34.44647]},"properties":{"depth_ft":175,"depth_m":53.4}},{"type":"Feature","geometry":{"type":"Point","coordinates":[-120.09793,34.44647]},"properties":{"depth_ft":176,"depth_m":53.8}},{"type":"Feature","geometry":{"type":"Point","coordinates":[-120.09508,34.44647]},"properties":{"depth_ft":177,"depth_m":54.0}},{"type":"Feature","geometry":{"type":"Point","coordinates":[-120.09223,34.44647]},"properties":{"depth_ft":177,"depth_m":54.0}},{"type":"Feature","geometry":{"type":"Point","coordinates":[-120.08938,34.44647]},"properties":{"depth_ft":170,"depth_m":51.8}},{"type":"Feature","geometry":{"type":"Point","coordinates":[-120.08653,34.44647]},"properties":{"depth_ft":172,"depth_m":52.4}},{"type":"Feature","geometry":{"type":"Point","coordinates":[-120.08368,34.44647]},"properties":{"depth_ft":171,"depth_m":52.0}},{"type":"Feature","geometry":{"type":"Point","coordinates":[-120.08083,34.44647]},"properties":{"depth_ft":165,"depth_m":50.2}},{"type":"Feature","geometry":{"type":"Point","coordinates":[-120.07798,34.44647]},"properties":{"depth_ft":165,"depth_m":50.4}},{"type":"Feature","geometry":{"type":"Point","coordinates":[-120.07513,34.44647]},"properties":{"depth_ft":164,"depth_m":50.1}},{"type":"Feature","geometry":{"type":"Point","coordinates":[-120.07228,34.44647]},"properties":{"depth_ft":161,"depth_m":49.0}},{"type":"Feature","geometry":{"type":"Point","coordinates":[-120.06943,34.44647]},"properties":{"depth_ft":159,"depth_m":48.5}},{"type":"Feature","geometry":{"type":"Point","coordinates":[-120.06657,34.44647]},"properties":{"depth_ft":164,"depth_m":49.9}},{"type":"Feature","geometry":{"type":"Point","coordinates":[-120.06372,34.44647]},"properties":{"depth_ft":165,"depth_m":50.3}},{"type":"Feature","geometry":{"type":"Point","coordinates":[-120.06087,34.44647]},"properties":{"depth_ft":170,"depth_m":51.8}},{"type":"Feature","geometry":{"type":"Point","coordinates":[-120.05802,34.44647]},"properties":{"depth_ft":165,"depth_m":50.3}},{"type":"Feature","geometry":{"type":"Point","coordinates":[-120.05517,34.44647]},"properties":{"depth_ft":168,"depth_m":51.1}},{"type":"Feature","geometry":{"type":"Point","coordinates":[-120.05232,34.44647]},"properties":{"depth_ft":168,"depth_m":51.1}},{"type":"Feature","geometry":{"type":"Point","coordinates":[-120.04947,34.44647]},"properties":{"depth_ft":163,"depth_m":49.6}},{"type":"Feature","geometry":{"type":"Point","coordinates":[-120.04662,34.44647]},"properties":{"depth_ft":162,"depth_m":49.3}},{"type":"Feature","geometry":{"type":"Point","coordinates":[-120.04377,34.44647]},"properties":{"depth_ft":160,"depth_m":48.8}},{"type":"Feature","geometry":{"type":"Point","coordinates":[-120.04092,34.44647]},"properties":{"depth_ft":158,"depth_m":48.1}},{"type":"Feature","geometry":{"type":"Point","coordinates":[-120.03807,34.44647]},"properties":{"depth_ft":159,"depth_m":48.4}},{"type":"Feature","geometry":{"type":"Point","coordinates":[-120.03522,34.44647]},"properties":{"depth_ft":159,"depth_m":48.6}},{"type":"Feature","geometry":{"type":"Point","coordinates":[-120.10078,34.44412]},"properties":{"depth_ft":191,"depth_m":58.3}},{"type":"Feature","geometry":{"type":"Point","coordinates":[-120.09793,34.44412]},"properties":{"depth_ft":192,"depth_m":58.7}},{"type":"Feature","geometry":{"type":"Point","coordinates":[-120.09508,34.44412]},"properties":{"depth_ft":192,"depth_m":58.4}},{"type":"Feature","geometry":{"type":"Point","coordinates":[-120.09223,34.44412]},"properties":{"depth_ft":192,"depth_m":58.5}},{"type":"Feature","geometry":{"type":"Point","coordinates":[-120.08938,34.44412]},"properties":{"depth_ft":191,"depth_m":58.2}},{"type":"Feature","geometry":{"type":"Point","coordinates":[-120.08653,34.44412]},"properties":{"depth_ft":190,"depth_m":58.0}},{"type":"Feature","geometry":{"type":"Point","coordinates":[-120.08368,34.44412]},"properties":{"depth_ft":185,"depth_m":56.3}},{"type":"Feature","geometry":{"type":"Point","coordinates":[-120.08083,34.44412]},"properties":{"depth_ft":184,"depth_m":56.2}},{"type":"Feature","geometry":{"type":"Point","coordinates":[-120.07798,34.44412]},"properties":{"depth_ft":183,"depth_m":55.7}},{"type":"Feature","geometry":{"type":"Point","coordinates":[-120.07513,34.44412]},"properties":{"depth_ft":179,"depth_m":54.6}},{"type":"Feature","geometry":{"type":"Point","coordinates":[-120.07228,34.44412]},"properties":{"depth_ft":178,"depth_m":54.3}},{"type":"Feature","geometry":{"type":"Point","coordinates":[-120.06943,34.44412]},"properties":{"depth_ft":174,"depth_m":53.0}},{"type":"Feature","geometry":{"type":"Point","coordinates":[-120.06657,34.44412]},"properties":{"depth_ft":173,"depth_m":52.7}},{"type":"Feature","geometry":{"type":"Point","coordinates":[-120.06372,34.44412]},"properties":{"depth_ft":179,"depth_m":54.6}},{"type":"Feature","geometry":{"type":"Point","coordinates":[-120.06087,34.44412]},"properties":{"depth_ft":181,"depth_m":55.1}},{"type":"Feature","geometry":{"type":"Point","coordinates":[-120.05802,34.44412]},"properties":{"depth_ft":181,"depth_m":55.1}},{"type":"Feature","geometry":{"type":"Point","coordinates":[-120.05517,34.44412]},"properties":{"depth_ft":180,"depth_m":54.7}},{"type":"Feature","geometry":{"type":"Point","coordinates":[-120.05232,34.44412]},"properties":{"depth_ft":179,"depth_m":54.4}},{"type":"Feature","geometry":{"type":"Point","coordinates":[-120.04947,34.44412]},"properties":{"depth_ft":174,"depth_m":53.1}},{"type":"Feature","geometry":{"type":"Point","coordinates":[-120.04662,34.44412]},"properties":{"depth_ft":173,"depth_m":52.8}},{"type":"Feature","geometry":{"type":"Point","coordinates":[-120.04377,34.44412]},"properties":{"depth_ft":176,"depth_m":53.7}},{"type":"Feature","geometry":{"type":"Point","coordinates":[-120.04092,34.44412]},"properties":{"depth_ft":171,"depth_m":52.2}},{"type":"Feature","geometry":{"type":"Point","coordinates":[-120.03807,34.44412]},"properties":{"depth_ft":173,"depth_m":52.6}},{"type":"Feature","geometry":{"type":"Point","coordinates":[-120.03522,34.44412]},"properties":{"depth_ft":173,"depth_m":52.8}},{"type":"Feature","geometry":{"type":"Point","coordinates":[-120.10078,34.44177]},"properties":{"depth_ft":203,"depth_m":62.0}},{"type":"Feature","geometry":{"type":"Point","coordinates":[-120.09793,34.44177]},"properties":{"depth_ft":204,"depth_m":62.3}},{"type":"Feature","geometry":{"type":"Point","coordinates":[-120.09508,34.44177]},"properties":{"depth_ft":201,"depth_m":61.3}},{"type":"Feature","geometry":{"type":"Point","coordinates":[-120.09223,34.44177]},"properties":{"depth_ft":201,"depth_m":61.3}},{"type":"Feature","geometry":{"type":"Point","coordinates":[-120.08938,34.44177]},"properties":{"depth_ft":204,"depth_m":62.1}},{"type":"Feature","geometry":{"type":"Point","coordinates":[-120.08653,34.44177]},"properties":{"depth_ft":199,"depth_m":60.6}},{"type":"Feature","geometry":{"type":"Point","coordinates":[-120.08368,34.44177]},"properties":{"depth_ft":199,"depth_m":60.7}},{"type":"Feature","geometry":{"type":"Point","coordinates":[-120.08083,34.44177]},"properties":{"depth_ft":197,"depth_m":60.2}},{"type":"Feature","geometry":{"type":"Point","coordinates":[-120.07798,34.44177]},"properties":{"depth_ft":198,"depth_m":60.4}},{"type":"Feature","geometry":{"type":"Point","coordinates":[-120.07513,34.44177]},"properties":{"depth_ft":194,"depth_m":59.1}},{"type":"Feature","geometry":{"type":"Point","coordinates":[-120.07228,34.44177]},"properties":{"depth_ft":189,"depth_m":57.5}},{"type":"Feature","geometry":{"type":"Point","coordinates":[-120.06943,34.44177]},"properties":{"depth_ft":188,"depth_m":57.3}},{"type":"Feature","geometry":{"type":"Point","coordinates":[-120.06657,34.44177]},"properties":{"depth_ft":183,"depth_m":55.8}},{"type":"Feature","geometry":{"type":"Point","coordinates":[-120.06372,34.44177]},"properties":{"depth_ft":189,"depth_m":57.7}},{"type":"Feature","geometry":{"type":"Point","coordinates":[-120.06087,34.44177]},"properties":{"depth_ft":189,"depth_m":57.6}},{"type":"Feature","geometry":{"type":"Point","coordinates":[-120.05802,34.44177]},"properties":{"depth_ft":191,"depth_m":58.3}},{"type":"Feature","geometry":{"type":"Point","coordinates":[-120.05517,34.44177]},"properties":{"depth_ft":190,"depth_m":57.8}},{"type":"Feature","geometry":{"type":"Point","coordinates":[-120.05232,34.44177]},"properties":{"depth_ft":189,"depth_m":57.5}},{"type":"Feature","geometry":{"type":"Point","coordinates":[-120.04947,34.44177]},"properties":{"depth_ft":182,"depth_m":55.6}},{"type":"Feature","geometry":{"type":"Point","coordinates":[-120.04662,34.44177]},"properties":{"depth_ft":185,"depth_m":56.4}},{"type":"Feature","geometry":{"type":"Point","coordinates":[-120.04377,34.44177]},"properties":{"depth_ft":180,"depth_m":55.0}},{"type":"Feature","geometry":{"type":"Point","coordinates":[-120.04092,34.44177]},"properties":{"depth_ft":182,"depth_m":55.4}},{"type":"Feature","geometry":{"type":"Point","coordinates":[-120.03807,34.44177]},"properties":{"depth_ft":181,"depth_m":55.2}},{"type":"Feature","geometry":{"type":"Point","coordinates":[-120.03522,34.44177]},"properties":{"depth_ft":183,"depth_m":55.6}},{"type":"Feature","geometry":{"type":"Point","coordinates":[-120.10078,34.43942]},"properties":{"depth_ft":213,"depth_m":65.0}},{"type":"Feature","geometry":{"type":"Point","coordinates":[-120.09793,34.43942]},"properties":{"depth_ft":213,"depth_m":65.0}},{"type":"Feature","geometry":{"type":"Point","coordinates":[-120.09508,34.43942]},"properties":{"depth_ft":209,"depth_m":63.6}},{"type":"Feature","geometry":{"type":"Point","coordinates":[-120.09223,34.43942]},"properties":{"depth_ft":213,"depth_m":64.8}},{"type":"Feature","geometry":{"type":"Point","coordinates":[-120.08938,34.43942]},"properties":{"depth_ft":209,"depth_m":63.8}},{"type":"Feature","geometry":{"type":"Point","coordinates":[-120.08653,34.43942]},"properties":{"depth_ft":210,"depth_m":64.1}},{"type":"Feature","geometry":{"type":"Point","coordinates":[-120.08368,34.43942]},"properties":{"depth_ft":210,"depth_m":64.0}},{"type":"Feature","geometry":{"type":"Point","coordinates":[-120.08083,34.43942]},"properties":{"depth_ft":209,"depth_m":63.8}},{"type":"Feature","geometry":{"type":"Point","coordinates":[-120.07798,34.43942]},"properties":{"depth_ft":206,"depth_m":62.9}},{"type":"Feature","geometry":{"type":"Point","coordinates":[-120.07513,34.43942]},"properties":{"depth_ft":205,"depth_m":62.6}},{"type":"Feature","geometry":{"type":"Point","coordinates":[-120.07228,34.43942]},"properties":{"depth_ft":203,"depth_m":62.0}},{"type":"Feature","geometry":{"type":"Point","coordinates":[-120.06943,34.43942]},"properties":{"depth_ft":201,"depth_m":61.3}},{"type":"Feature","geometry":{"type":"Point","coordinates":[-120.06657,34.43942]},"properties":{"depth_ft":196,"depth_m":59.7}},{"type":"Feature","geometry":{"type":"Point","coordinates":[-120.06372,34.43942]},"properties":{"depth_ft":196,"depth_m":59.8}},{"type":"Feature","geometry":{"type":"Point","coordinates":[-120.06087,34.43942]},"properties":{"depth_ft":201,"depth_m":61.3}},{"type":"Feature","geometry":{"type":"Point","coordinates":[-120.05802,34.43942]},"properties":{"depth_ft":201,"depth_m":61.2}},{"type":"Feature","geometry":{"type":"Point","coordinates":[-120.05517,34.43942]},"properties":{"depth_ft":201,"depth_m":61.2}},{"type":"Feature","geometry":{"type":"Point","coordinates":[-120.05232,34.43942]},"properties":{"depth_ft":196,"depth_m":59.9}},{"type":"Feature","geometry":{"type":"Point","coordinates":[-120.04947,34.43942]},"properties":{"depth_ft":195,"depth_m":59.4}},{"type":"Feature","geometry":{"type":"Point","coordinates":[-120.04662,34.43942]},"properties":{"depth_ft":191,"depth_m":58.2}},{"type":"Feature","geometry":{"type":"Point","coordinates":[-120.04377,34.43942]},"properties":{"depth_ft":191,"depth_m":58.2}},{"type":"Feature","geometry":{"type":"Point","coordinates":[-120.04092,34.43942]},"properties":{"depth_ft":189,"depth_m":57.7}},{"type":"Feature","geometry":{"type":"Point","coordinates":[-120.03807,34.43942]},"properties":{"depth_ft":191,"depth_m":58.2}},{"type":"Feature","geometry":{"type":"Point","coordinates":[-120.03522,34.43942]},"properties":{"depth_ft":187,"depth_m":56.8}},{"type":"Feature","geometry":{"type":"Point","coordinates":[-120.10078,34.43707]},"properties":{"depth_ft":223,"depth_m":67.9}},{"type":"Feature","geometry":{"type":"Point","coordinates":[-120.09793,34.43707]},"properties":{"depth_ft":223,"depth_m":67.8}},{"type":"Feature","geometry":{"type":"Point","coordinates":[-120.09508,34.43707]},"properties":{"depth_ft":221,"depth_m":67.5}},{"type":"Feature","geometry":{"type":"Point","coordinates":[-120.09223,34.43707]},"properties":{"depth_ft":220,"depth_m":67.0}},{"type":"Feature","geometry":{"type":"Point","coordinates":[-120.08938,34.43707]},"properties":{"depth_ft":220,"depth_m":67.0}},{"type":"Feature","geometry":{"type":"Point","coordinates":[-120.08653,34.43707]},"properties":{"depth_ft":219,"depth_m":66.8}},{"type":"Feature","geometry":{"type":"Point","coordinates":[-120.08368,34.43707]},"properties":{"depth_ft":217,"depth_m":66.0}},{"type":"Feature","geometry":{"type":"Point","coordinates":[-120.08083,34.43707]},"properties":{"depth_ft":215,"depth_m":65.6}},{"type":"Feature","geometry":{"type":"Point","coordinates":[-120.07798,34.43707]},"properties":{"depth_ft":216,"depth_m":65.9}},{"type":"Feature","geometry":{"type":"Point","coordinates":[-120.07513,34.43707]},"properties":{"depth_ft":214,"depth_m":65.3}},{"type":"Feature","geometry":{"type":"Point","coordinates":[-120.07228,34.43707]},"properties":{"depth_ft":212,"depth_m":64.6}},{"type":"Feature","geometry":{"type":"Point","coordinates":[-120.06943,34.43707]},"properties":{"depth_ft":210,"depth_m":64.0}},{"type":"Feature","geometry":{"type":"Point","coordinates":[-120.06657,34.43707]},"properties":{"depth_ft":209,"depth_m":63.7}},{"type":"Feature","geometry":{"type":"Point","coordinates":[-120.06372,34.43707]},"properties":{"depth_ft":209,"depth_m":63.8}},{"type":"Feature","geometry":{"type":"Point","coordinates":[-120.06087,34.43707]},"properties":{"depth_ft":208,"depth_m":63.3}},{"type":"Feature","geometry":{"type":"Point","coordinates":[-120.05802,34.43707]},"properties":{"depth_ft":210,"depth_m":63.9}},{"type":"Feature","geometry":{"type":"Point","coordinates":[-120.05517,34.43707]},"properties":{"depth_ft":207,"depth_m":63.2}},{"type":"Feature","geometry":{"type":"Point","coordinates":[-120.05232,34.43707]},"properties":{"depth_ft":205,"depth_m":62.5}},{"type":"Feature","geometry":{"type":"Point","coordinates":[-120.04947,34.43707]},"properties":{"depth_ft":201,"depth_m":61.4}},{"type":"Feature","geometry":{"type":"Point","coordinates":[-120.04662,34.43707]},"properties":{"depth_ft":200,"depth_m":60.9}},{"type":"Feature","geometry":{"type":"Point","coordinates":[-120.04377,34.43707]},"properties":{"depth_ft":197,"depth_m":60.1}},{"type":"Feature","geometry":{"type":"Point","coordinates":[-120.04092,34.43707]},"properties":{"depth_ft":197,"depth_m":60.2}},{"type":"Feature","geometry":{"type":"Point","coordinates":[-120.03807,34.43707]},"properties":{"depth_ft":195,"depth_m":59.5}},{"type":"Feature","geometry":{"type":"Point","coordinates":[-120.03522,34.43707]},"properties":{"depth_ft":193,"depth_m":58.8}},{"type":"Feature","geometry":{"type":"Point","coordinates":[-120.10078,34.43472]},"properties":{"depth_ft":230,"depth_m":70.0}},{"type":"Feature","geometry":{"type":"Point","coordinates":[-120.09793,34.43472]},"properties":{"depth_ft":228,"depth_m":69.6}},{"type":"Feature","geometry":{"type":"Point","coordinates":[-120.09508,34.43472]},"properties":{"depth_ft":228,"depth_m":69.6}},{"type":"Feature","geometry":{"type":"Point","coordinates":[-120.09223,34.43472]},"properties":{"depth_ft":225,"depth_m":68.7}},{"type":"Feature","geometry":{"type":"Point","coordinates":[-120.08938,34.43472]},"properties":{"depth_ft":224,"depth_m":68.3}},{"type":"Feature","geometry":{"type":"Point","coordinates":[-120.08653,34.43472]},"properties":{"depth_ft":227,"depth_m":69.3}},{"type":"Feature","geometry":{"type":"Point","coordinates":[-120.08368,34.43472]},"properties":{"depth_ft":223,"depth_m":67.9}},{"type":"Feature","geometry":{"type":"Point","coordinates":[-120.08083,34.43472]},"properties":{"depth_ft":223,"depth_m":68.0}},{"type":"Feature","geometry":{"type":"Point","coordinates":[-120.07798,34.43472]},"properties":{"depth_ft":221,"depth_m":67.4}},{"type":"Feature","geometry":{"type":"Point","coordinates":[-120.07513,34.43472]},"properties":{"depth_ft":221,"depth_m":67.4}},{"type":"Feature","geometry":{"type":"Point","coordinates":[-120.07228,34.43472]},"properties":{"depth_ft":220,"depth_m":67.1}},{"type":"Feature","geometry":{"type":"Point","coordinates":[-120.06943,34.43472]},"properties":{"depth_ft":216,"depth_m":65.7}},{"type":"Feature","geometry":{"type":"Point","coordinates":[-120.06657,34.43472]},"properties":{"depth_ft":215,"depth_m":65.6}},{"type":"Feature","geometry":{"type":"Point","coordinates":[-120.06372,34.43472]},"properties":{"depth_ft":216,"depth_m":65.7}},{"type":"Feature","geometry":{"type":"Point","coordinates":[-120.06087,34.43472]},"properties":{"depth_ft":216,"depth_m":65.8}},{"type":"Feature","geometry":{"type":"Point","coordinates":[-120.05802,34.43472]},"properties":{"depth_ft":215,"depth_m":65.6}},{"type":"Feature","geometry":{"type":"Point","coordinates":[-120.05517,34.43472]},"properties":{"depth_ft":210,"depth_m":63.9}},{"type":"Feature","geometry":{"type":"Point","coordinates":[-120.05232,34.43472]},"properties":{"depth_ft":209,"depth_m":63.7}},{"type":"Feature","geometry":{"type":"Point","coordinates":[-120.04947,34.43472]},"properties":{"depth_ft":209,"depth_m":63.6}},{"type":"Feature","geometry":{"type":"Point","coordinates":[-120.04662,34.43472]},"properties":{"depth_ft":203,"depth_m":61.9}},{"type":"Feature","geometry":{"type":"Point","coordinates":[-120.04377,34.43472]},"properties":{"depth_ft":203,"depth_m":61.9}},{"type":"Feature","geometry":{"type":"Point","coordinates":[-120.04092,34.43472]},"properties":{"depth_ft":203,"depth_m":61.8}},{"type":"Feature","geometry":{"type":"Point","coordinates":[-120.03807,34.43472]},"properties":{"depth_ft":201,"depth_m":61.4}},{"type":"Feature","geometry":{"type":"Point","coordinates":[-120.03522,34.43472]},"properties":{"depth_ft":196,"depth_m":59.7}},{"type":"Feature","geometry":{"type":"Point","coordinates":[-120.10078,34.43237]},"properties":{"depth_ft":234,"depth_m":71.3}},{"type":"Feature","geometry":{"type":"Point","coordinates":[-120.09793,34.43237]},"properties":{"depth_ft":235,"depth_m":71.7}},{"type":"Feature","geometry":{"type":"Point","coordinates":[-120.09508,34.43237]},"properties":{"depth_ft":235,"depth_m":71.7}},{"type":"Feature","geometry":{"type":"Point","coordinates":[-120.09223,34.43237]},"properties":{"depth_ft":232,"depth_m":70.8}},{"type":"Feature","geometry":{"type":"Point","coordinates":[-120.08938,34.43237]},"properties":{"depth_ft":232,"depth_m":70.6}},{"type":"Feature","geometry":{"type":"Point","coordinates":[-120.08653,34.43237]},"properties":{"depth_ft":233,"depth_m":71.0}},{"type":"Feature","geometry":{"type":"Point","coordinates":[-120.08368,34.43237]},"properties":{"depth_ft":231,"depth_m":70.3}},{"type":"Feature","geometry":{"type":"Point","coordinates":[-120.08083,34.43237]},"properties":{"depth_ft":228,"depth_m":69.6}},{"type":"Feature","geometry":{"type":"Point","coordinates":[-120.07798,34.43237]},"properties":{"depth_ft":225,"depth_m":68.6}},{"type":"Feature","geometry":{"type":"Point","coordinates":[-120.07513,34.43237]},"properties":{"depth_ft":226,"depth_m":69.0}},{"type":"Feature","geometry":{"type":"Point","coordinates":[-120.07228,34.43237]},"properties":{"depth_ft":225,"depth_m":68.6}},{"type":"Feature","geometry":{"type":"Point","coordinates":[-120.06943,34.43237]},"properties":{"depth_ft":223,"depth_m":68.0}},{"type":"Feature","geometry":{"type":"Point","coordinates":[-120.06657,34.43237]},"properties":{"depth_ft":220,"depth_m":67.0}},{"type":"Feature","geometry":{"type":"Point","coordinates":[-120.06372,34.43237]},"properties":{"depth_ft":224,"depth_m":68.1}},{"type":"Feature","geometry":{"type":"Point","coordinates":[-120.06087,34.43237]},"properties":{"depth_ft":221,"depth_m":67.5}},{"type":"Feature","geometry":{"type":"Point","coordinates":[-120.05802,34.43237]},"properties":{"depth_ft":220,"depth_m":67.2}},{"type":"Feature","geometry":{"type":"Point","coordinates":[-120.05517,34.43237]},"properties":{"depth_ft":217,"depth_m":66.2}},{"type":"Feature","geometry":{"type":"Point","coordinates":[-120.05232,34.43237]},"properties":{"depth_ft":216,"depth_m":65.9}},{"type":"Feature","geometry":{"type":"Point","coordinates":[-120.04947,34.43237]},"properties":{"depth_ft":212,"depth_m":64.7}},{"type":"Feature","geometry":{"type":"Point","coordinates":[-120.04662,34.43237]},"properties":{"depth_ft":210,"depth_m":63.9}},{"type":"Feature","geometry":{"type":"Point","coordinates":[-120.04377,34.43237]},"properties":{"depth_ft":208,"depth_m":63.4}},{"type":"Feature","geometry":{"type":"Point","coordinates":[-120.04092,34.43237]},"properties":{"depth_ft":208,"depth_m":63.3}},{"type":"Feature","geometry":{"type":"Point","coordinates":[-120.03807,34.43237]},"properties":{"depth_ft":203,"depth_m":61.9}},{"type":"Feature","geometry":{"type":"Point","coordinates":[-120.03522,34.43237]},"properties":{"depth_ft":201,"depth_m":61.3}},{"type":"Feature","geometry":{"type":"Point","coordinates":[-120.10078,34.43002]},"properties":{"depth_ft":238,"depth_m":72.6}},{"type":"Feature","geometry":{"type":"Point","coordinates":[-120.09793,34.43002]},"properties":{"depth_ft":240,"depth_m":73.2}},{"type":"Feature","geometry":{"type":"Point","coordinates":[-120.09508,34.43002]},"properties":{"depth_ft":239,"depth_m":72.8}},{"type":"Feature","geometry":{"type":"Point","coordinates":[-120.09223,34.43002]},"properties":{"depth_ft":237,"depth_m":72.3}},{"type":"Feature","geometry":{"type":"Point","coordinates":[-120.08938,34.43002]},"properties":{"depth_ft":236,"depth_m":71.9}},{"type":"Feature","geometry":{"type":"Point","coordinates":[-120.08653,34.43002]},"properties":{"depth_ft":239,"depth_m":72.9}},{"type":"Feature","geometry":{"type":"Point","coordinates":[-120.08368,34.43002]},"properties":{"depth_ft":238,"depth_m":72.5}},{"type":"Feature","geometry":{"type":"Point","coordinates":[-120.08083,34.43002]},"properties":{"depth_ft":235,"depth_m":71.5}},{"type":"Feature","geometry":{"type":"Point","coordinates":[-120.07798,34.43002]},"properties":{"depth_ft":231,"depth_m":70.5}},{"type":"Feature","geometry":{"type":"Point","coordinates":[-120.07513,34.43002]},"properties":{"depth_ft":234,"depth_m":71.4}},{"type":"Feature","geometry":{"type":"Point","coordinates":[-120.07228,34.43002]},"properties":{"depth_ft":231,"depth_m":70.3}},{"type":"Feature","geometry":{"type":"Point","coordinates":[-120.06943,34.43002]},"properties":{"depth_ft":227,"depth_m":69.1}},{"type":"Feature","geometry":{"type":"Point","coordinates":[-120.06657,34.43002]},"properties":{"depth_ft":226,"depth_m":69.0}},{"type":"Feature","geometry":{"type":"Point","coordinates":[-120.06372,34.43002]},"properties":{"depth_ft":227,"depth_m":69.1}},{"type":"Feature","geometry":{"type":"Point","coordinates":[-120.06087,34.43002]},"properties":{"depth_ft":227,"depth_m":69.1}},{"type":"Feature","geometry":{"type":"Point","coordinates":[-120.05802,34.43002]},"properties":{"depth_ft":221,"depth_m":67.3}},{"type":"Feature","geometry":{"type":"Point","coordinates":[-120.05517,34.43002]},"properties":{"depth_ft":221,"depth_m":67.3}},{"type":"Feature","geometry":{"type":"Point","coordinates":[-120.05232,34.43002]},"properties":{"depth_ft":215,"depth_m":65.7}},{"type":"Feature","geometry":{"type":"Point","coordinates":[-120.04947,34.43002]},"properties":{"depth_ft":215,"depth_m":65.5}},{"type":"Feature","geometry":{"type":"Point","coordinates":[-120.04662,34.43002]},"properties":{"depth_ft":214,"depth_m":65.3}},{"type":"Feature","geometry":{"type":"Point","coordinates":[-120.04377,34.43002]},"properties":{"depth_ft":213,"depth_m":65.0}},{"type":"Feature","geometry":{"type":"Point","coordinates":[-120.04092,34.43002]},"properties":{"depth_ft":209,"depth_m":63.8}},{"type":"Feature","geometry":{"type":"Point","coordinates":[-120.03807,34.43002]},"properties":{"depth_ft":208,"depth_m":63.4}},{"type":"Feature","geometry":{"type":"Point","coordinates":[-120.03522,34.43002]},"properties":{"depth_ft":203,"depth_m":61.9}},{"type":"Feature","geometry":{"type":"Point","coordinates":[-120.10078,34.42767]},"properties":{"depth_ft":243,"depth_m":74.2}},{"type":"Feature","geometry":{"type":"Point","coordinates":[-120.09793,34.42767]},"properties":{"depth_ft":243,"depth_m":74.2}},{"type":"Feature","geometry":{"type":"Point","coordinates":[-120.09508,34.42767]},"properties":{"depth_ft":243,"depth_m":74.1}},{"type":"Feature","geometry":{"type":"Point","coordinates":[-120.09223,34.42767]},"properties":{"depth_ft":244,"depth_m":74.2}},{"type":"Feature","geometry":{"type":"Point","coordinates":[-120.08938,34.42767]},"properties":{"depth_ft":244,"depth_m":74.3}},{"type":"Feature","geometry":{"type":"Point","coordinates":[-120.08653,34.42767]},"properties":{"depth_ft":246,"depth_m":74.9}},{"type":"Feature","geometry":{"type":"Point","coordinates":[-120.08368,34.42767]},"properties":{"depth_ft":246,"depth_m":75.1}},{"type":"Feature","geometry":{"type":"Point","coordinates":[-120.08083,34.42767]},"properties":{"depth_ft":245,"depth_m":74.5}},{"type":"Feature","geometry":{"type":"Point","coordinates":[-120.07798,34.42767]},"properties":{"depth_ft":242,"depth_m":73.8}},{"type":"Feature","geometry":{"type":"Point","coordinates":[-120.07513,34.42767]},"properties":{"depth_ft":240,"depth_m":73.1}},{"type":"Feature","geometry":{"type":"Point","coordinates":[-120.07228,34.42767]},"properties":{"depth_ft":240,"depth_m":73.2}},{"type":"Feature","geometry":{"type":"Point","coordinates":[-120.06943,34.42767]},"properties":{"depth_ft":240,"depth_m":73.1}},{"type":"Feature","geometry":{"type":"Point","coordinates":[-120.06657,34.42767]},"properties":{"depth_ft":242,"depth_m":73.7}},{"type":"Feature","geometry":{"type":"Point","coordinates":[-120.06372,34.42767]},"properties":{"depth_ft":240,"depth_m":73.2}},{"type":"Feature","geometry":{"type":"Point","coordinates":[-120.06087,34.42767]},"properties":{"depth_ft":235,"depth_m":71.7}},{"type":"Feature","geometry":{"type":"Point","coordinates":[-120.05802,34.42767]},"properties":{"depth_ft":231,"depth_m":70.5}},{"type":"Feature","geometry":{"type":"Point","coordinates":[-120.05517,34.42767]},"properties":{"depth_ft":228,"depth_m":69.4}},{"type":"Feature","geometry":{"type":"Point","coordinates":[-120.05232,34.42767]},"properties":{"depth_ft":224,"depth_m":68.2}},{"type":"Feature","geometry":{"type":"Point","coordinates":[-120.04947,34.42767]},"properties":{"depth_ft":220,"depth_m":67.0}},{"type":"Feature","geometry":{"type":"Point","coordinates":[-120.04662,34.42767]},"properties":{"depth_ft":221,"depth_m":67.4}},{"type":"Feature","geometry":{"type":"Point","coordinates":[-120.04377,34.42767]},"properties":{"depth_ft":216,"depth_m":65.9}},{"type":"Feature","geometry":{"type":"Point","coordinates":[-120.04092,34.42767]},"properties":{"depth_ft":213,"depth_m":64.8}},{"type":"Feature","geometry":{"type":"Point","coordinates":[-120.03807,34.42767]},"properties":{"depth_ft":213,"depth_m":65.0}},{"type":"Feature","geometry":{"type":"Point","coordinates":[-120.03522,34.42767]},"properties":{"depth_ft":209,"depth_m":63.8}},{"type":"Feature","geometry":{"type":"Point","coordinates":[-120.10078,34.42532]},"properties":{"depth_ft":252,"depth_m":76.7}},{"type":"Feature","geometry":{"type":"Point","coordinates":[-120.09793,34.42532]},"properties":{"depth_ft":256,"depth_m":78.0}},{"type":"Feature","geometry":{"type":"Point","coordinates":[-120.09508,34.42532]},"properties":{"depth_ft":257,"depth_m":78.4}},{"type":"Feature","geometry":{"type":"Point","coordinates":[-120.09223,34.42532]},"properties":{"depth_ft":256,"depth_m":78.1}},{"type":"Feature","geometry":{"type":"Point","coordinates":[-120.08938,34.42532]},"properties":{"depth_ft":251,"depth_m":76.5}},{"type":"Feature","geometry":{"type":"Point","coordinates":[-120.08653,34.42532]},"properties":{"depth_ft":252,"depth_m":76.8}},{"type":"Feature","geometry":{"type":"Point","coordinates":[-120.08368,34.42532]},"properties":{"depth_ft":253,"depth_m":77.0}},{"type":"Feature","geometry":{"type":"Point","coordinates":[-120.08083,34.42532]},"properties":{"depth_ft":248,"depth_m":75.7}},{"type":"Feature","geometry":{"type":"Point","coordinates":[-120.07798,34.42532]},"properties":{"depth_ft":246,"depth_m":75.1}},{"type":"Feature","geometry":{"type":"Point","coordinates":[-120.07513,34.42532]},"properties":{"depth_ft":246,"depth_m":75.0}},{"type":"Feature","geometry":{"type":"Point","coordinates":[-120.07228,34.42532]},"properties":{"depth_ft":246,"depth_m":75.1}},{"type":"Feature","geometry":{"type":"Point","coordinates":[-120.06943,34.42532]},"properties":{"depth_ft":244,"depth_m":74.5}},{"type":"Feature","geometry":{"type":"Point","coordinates":[-120.06657,34.42532]},"properties":{"depth_ft":244,"depth_m":74.4}},{"type":"Feature","geometry":{"type":"Point","coordinates":[-120.06372,34.42532]},"properties":{"depth_ft":243,"depth_m":74.2}},{"type":"Feature","geometry":{"type":"Point","coordinates":[-120.06087,34.42532]},"properties":{"depth_ft":240,"depth_m":73.3}},{"type":"Feature","geometry":{"type":"Point","coordinates":[-120.05802,34.42532]},"properties":{"depth_ft":236,"depth_m":72.0}},{"type":"Feature","geometry":{"type":"Point","coordinates":[-120.05517,34.42532]},"properties":{"depth_ft":233,"depth_m":71.1}},{"type":"Feature","geometry":{"type":"Point","coordinates":[-120.05232,34.42532]},"properties":{"depth_ft":231,"depth_m":70.5}},{"type":"Feature","geometry":{"type":"Point","coordinates":[-120.04947,34.42532]},"properties":{"depth_ft":230,"depth_m":70.2}},{"type":"Feature","geometry":{"type":"Point","coordinates":[-120.04662,34.42532]},"properties":{"depth_ft":226,"depth_m":68.9}},{"type":"Feature","geometry":{"type":"Point","coordinates":[-120.04377,34.42532]},"properties":{"depth_ft":224,"depth_m":68.3}},{"type":"Feature","geometry":{"type":"Point","coordinates":[-120.04092,34.42532]},"properties":{"depth_ft":221,"depth_m":67.4}},{"type":"Feature","geometry":{"type":"Point","coordinates":[-120.03807,34.42532]},"properties":{"depth_ft":217,"depth_m":66.3}},{"type":"Feature","geometry":{"type":"Point","coordinates":[-120.03522,34.42532]},"properties":{"depth_ft":215,"depth_m":65.5}},{"type":"Feature","geometry":{"type":"Point","coordinates":[-120.10078,34.42297]},"properties":{"depth_ft":251,"depth_m":76.4}},{"type":"Feature","geometry":{"type":"Point","coordinates":[-120.09793,34.42297]},"properties":{"depth_ft":252,"depth_m":76.7}},{"type":"Feature","geometry":{"type":"Point","coordinates":[-120.09508,34.42297]},"properties":{"depth_ft":252,"depth_m":76.7}},{"type":"Feature","geometry":{"type":"Point","coordinates":[-120.09223,34.42297]},"properties":{"depth_ft":251,"depth_m":76.6}},{"type":"Feature","geometry":{"type":"Point","coordinates":[-120.08938,34.42297]},"properties":{"depth_ft":251,"depth_m":76.4}},{"type":"Feature","geometry":{"type":"Point","coordinates":[-120.08653,34.42297]},"properties":{"depth_ft":251,"depth_m":76.6}},{"type":"Feature","geometry":{"type":"Point","coordinates":[-120.08368,34.42297]},"properties":{"depth_ft":253,"depth_m":77.2}},{"type":"Feature","geometry":{"type":"Point","coordinates":[-120.08083,34.42297]},"properties":{"depth_ft":251,"depth_m":76.5}},{"type":"Feature","geometry":{"type":"Point","coordinates":[-120.07798,34.42297]},"properties":{"depth_ft":251,"depth_m":76.5}},{"type":"Feature","geometry":{"type":"Point","coordinates":[-120.07513,34.42297]},"properties":{"depth_ft":245,"depth_m":74.8}},{"type":"Feature","geometry":{"type":"Point","coordinates":[-120.07228,34.42297]},"properties":{"depth_ft":251,"depth_m":76.5}},{"type":"Feature","geometry":{"type":"Point","coordinates":[-120.06943,34.42297]},"properties":{"depth_ft":249,"depth_m":75.9}},{"type":"Feature","geometry":{"type":"Point","coordinates":[-120.06657,34.42297]},"properties":{"depth_ft":247,"depth_m":75.1}},{"type":"Feature","geometry":{"type":"Point","coordinates":[-120.06372,34.42297]},"properties":{"depth_ft":245,"depth_m":74.8}},{"type":"Feature","geometry":{"type":"Point","coordinates":[-120.06087,34.42297]},"properties":{"depth_ft":240,"depth_m":73.2}},{"type":"Feature","geometry":{"type":"Point","coordinates":[-120.05802,34.42297]},"properties":{"depth_ft":238,"depth_m":72.6}},{"type":"Feature","geometry":{"type":"Point","coordinates":[-120.05517,34.42297]},"properties":{"depth_ft":234,"depth_m":71.3}},{"type":"Feature","geometry":{"type":"Point","coordinates":[-120.05232,34.42297]},"properties":{"depth_ft":235,"depth_m":71.7}},{"type":"Feature","geometry":{"type":"Point","coordinates":[-120.04947,34.42297]},"properties":{"depth_ft":230,"depth_m":70.0}},{"type":"Feature","geometry":{"type":"Point","coordinates":[-120.04662,34.42297]},"properties":{"depth_ft":228,"depth_m":69.4}},{"type":"Feature","geometry":{"type":"Point","coordinates":[-120.04377,34.42297]},"properties":{"depth_ft":223,"depth_m":67.8}},{"type":"Feature","geometry":{"type":"Point","coordinates":[-120.04092,34.42297]},"properties":{"depth_ft":226,"depth_m":68.7}},{"type":"Feature","geometry":{"type":"Point","coordinates":[-120.03807,34.42297]},"properties":{"depth_ft":218,"depth_m":66.5}},{"type":"Feature","geometry":{"type":"Point","coordinates":[-120.03522,34.42297]},"properties":{"depth_ft":220,"depth_m":67.0}}]}