{"type":"FeatureCollection","features":[{"type":"Feature","geometry":{"type":"MultiPolygon","coordinates":[[[[-110.34742,24.42842],[-110.34774,24.429],[-110.34772,24.4295],[-110.34706,24.43019],[-110.34685,24.43066],[-110.3469,24.43128],[-110.34767,24.43202],[-110.35067,24.43378],[-110.35639,24.43621],[-110.35877,24.4368],[-110.36288,24.43712],[-110.36324,24.43691],[-110.36345,24.43591],[-110.36384,24.43551],[-110.36537,24.4353],[-110.36619,24.43502],[-110.36708,24.43448],[-110.36775,24.43379],[-110.3679,24.43313],[-110.36767,24.43267],[-110.36701,24.43214],[-110.3664,24.43216],[-110.36629,24.43181],[-110.36706,24.43102],[-110.3685,24.43066],[-110.36909,24.43036],[-110.36931,24.42994],[-110.36944,24.42868],[-110.37007,24.42776],[-110.37008,24.42706],[-110.37023,24.42696],[-110.37047,24.42707],[-110.37054,24.42852],[-110.37083,24.42974],[-110.37137,24.43087],[-110.37133,24.43164],[-110.37168,24.43292],[-110.37247,24.43454],[-110.37278,24.43586],[-110.37276,24.43674],[-110.37189,24.44012],[-110.37194,24.44043],[-110.37232,24.44075],[-110.37586,24.44095],[-110.37621,24.44116],[-110.37615,24.44145],[-110.37563,24.44204],[-110.37448,24.44314],[-110.37393,24.4433],[-110.37345,24.44317],[-110.37233,24.44398],[-110.37124,24.44525],[-110.37137,24.44592],[-110.37181,24.44665],[-110.37255,24.44713],[-110.37416,24.44701],[-110.3742,24.44661],[-110.37374,24.44645],[-110.37422,24.4463],[-110.37504,24.44649],[-110.37601,24.44703],[-110.3778,24.44741],[-110.37833,24.44791],[-110.37845,24.4486],[-110.37812,24.44911],[-110.37749,24.44926],[-110.37515,24.44864],[-110.37375,24.44873],[-110.37223,24.44905],[-110.36962,24.45037],[-110.36772,24.45082],[-110.36629,24.45136],[-110.36492,24.4515],[-110.36296,24.45277],[-110.36149,24.4529],[-110.36128,24.45266],[-110.36083,24.45268],[-110.35652,24.45516],[-110.35464,24.45603],[-110.35407,24.45668],[-110.35446,24.45701],[-110.35477,24.45763],[-110.35462,24.45877],[-110.35577,24.45893],[-110.35766,24.45832],[-110.36095,24.45809],[-110.36188,24.45866],[-110.36273,24.45866],[-110.36432,24.45796],[-110.36663,24.45735],[-110.36843,24.45804],[-110.3691,24.45778],[-110.36924,24.45739],[-110.37003,24.45711],[-110.37092,24.4569],[-110.3713,24.45714],[-110.37118,24.45814],[-110.37097,24.45837],[-110.36829,24.45985],[-110.36806,24.4601],[-110.3681,24.46151],[-110.36863,24.46248],[-110.36845,24.46286],[-110.36782,24.46299],[-110.36726,24.46277],[-110.3667,24.4628],[-110.36506,24.46368],[-110.36306,24.46383],[-110.36196,24.46484],[-110.36068,24.46551],[-110.35929,24.4668],[-110.35845,24.46736],[-110.35754,24.4677],[-110.35665,24.46844],[-110.35658,24.46881],[-110.35815,24.46968],[-110.36035,24.47006],[-110.36503,24.46988],[-110.36674,24.46922],[-110.36936,24.46977],[-110.37091,24.46949],[-110.37225,24.46885],[-110.37383,24.46681],[-110.37436,24.46645],[-110.37573,24.46656],[-110.37629,24.46693],[-110.37659,24.46746],[-110.3767,24.46815],[-110.37648,24.46976],[-110.37594,24.47068],[-110.3746,24.47179],[-110.37348,24.47381],[-110.37259,24.47478],[-110.37089,24.47547],[-110.37002,24.47624],[-110.36889,24.4764],[-110.36751,24.47709],[-110.36702,24.47745],[-110.36628,24.4784],[-110.3645,24.47921],[-110.36431,24.47995],[-110.36452,24.48057],[-110.36538,24.48108],[-110.36681,24.48102],[-110.36863,24.48062],[-110.3694,24.48017],[-110.36982,24.4802],[-110.37067,24.48068],[-110.37126,24.48041],[-110.37319,24.48024],[-110.37397,24.47945],[-110.37559,24.47917],[-110.37681,24.47806],[-110.37895,24.47728],[-110.38112,24.4757],[-110.38306,24.475],[-110.38428,24.47426],[-110.38482,24.47418],[-110.38647,24.4744],[-110.38624,24.47529],[-110.38504,24.47645],[-110.38522,24.47697],[-110.38581,24.47709],[-110.38606,24.47738],[-110.38582,24.47893],[-110.38642,24.47942],[-110.38758,24.47969],[-110.38913,24.48032],[-110.38925,24.48058],[-110.38915,24.48163],[-110.38875,24.48241],[-110.38763,24.48363],[-110.38794,24.48418],[-110.38741,24.48508],[-110.3849,24.48691],[-110.38369,24.48728],[-110.38282,24.48726],[-110.38267,24.48775],[-110.38279,24.48873],[-110.38329,24.48981],[-110.38508,24.4915],[-110.38608,24.49107],[-110.38677,24.49099],[-110.38904,24.48977],[-110.38971,24.49019],[-110.39074,24.4903],[-110.39085,24.4906],[-110.39051,24.49126],[-110.3897,24.49208],[-110.38795,24.49296],[-110.3869,24.49331],[-110.38687,24.49359],[-110.38703,24.49369],[-110.3883,24.4935],[-110.38883,24.49362],[-110.38954,24.49327],[-110.38991,24.49345],[-110.39038,24.49342],[-110.39055,24.49373],[-110.39118,24.49352],[-110.39154,24.49381],[-110.3914,24.49521],[-110.39065,24.49696],[-110.39054478699038,24.497054054054054],[-110.31262571540772,24.497054054054054],[-110.31262571540772,24.446120607596566],[-110.31293,24.44486],[-110.31326,24.44127],[-110.31308,24.43907],[-110.31262571540772,24.43659667277537],[-110.31262571540772,24.422859831114376],[-110.31279,24.42274],[-110.31301,24.42274],[-110.31316,24.42306],[-110.31348,24.42324],[-110.31471,24.42311],[-110.31552,24.42255],[-110.31592,24.42174],[-110.31734,24.42105],[-110.31796,24.42054],[-110.31851,24.4197],[-110.32001,24.41634],[-110.32099,24.41513],[-110.32257,24.4126],[-110.3246,24.4109],[-110.32514,24.40894],[-110.32563,24.40799],[-110.32568,24.40339],[-110.32598,24.40292],[-110.32754,24.40238],[-110.32919,24.40235],[-110.33575,24.40466],[-110.3387,24.40485],[-110.34163,24.40338],[-110.3431,24.40232],[-110.34461,24.40166],[-110.34557,24.40167],[-110.34771,24.40109],[-110.34844,24.40122],[-110.34873,24.40144],[-110.34881,24.40219],[-110.3487,24.40255],[-110.34811,24.40325],[-110.34815,24.40373],[-110.34852,24.40412],[-110.35145,24.4054],[-110.35202,24.40635],[-110.35206,24.40716],[-110.35183,24.40767],[-110.35114,24.4082],[-110.35047,24.40837],[-110.35015,24.40804],[-110.34862,24.40846],[-110.34834,24.40891],[-110.34806,24.40999],[-110.34818,24.41037],[-110.34875,24.4109],[-110.3488,24.4118],[-110.3486,24.4124],[-110.34823,24.41281],[-110.34766,24.41279],[-110.34682,24.41351],[-110.34559,24.41408],[-110.34547,24.4145],[-110.34502,24.41459],[-110.34507,24.41524],[-110.34533,24.4156],[-110.34596,24.41575],[-110.3474,24.41718],[-110.34846,24.41774],[-110.34926,24.41792],[-110.35052,24.41614],[-110.3531,24.41428],[-110.35411,24.41424],[-110.35475,24.4151],[-110.3545,24.41597],[-110.35361,24.41676],[-110.35352,24.41709],[-110.3537,24.41788],[-110.35432,24.41916],[-110.35254,24.42079],[-110.35204,24.42206],[-110.35104,24.42298],[-110.35034,24.42435],[-110.3496,24.42507],[-110.34742,24.42842]]],[[[-110.39297,24.49685],[-110.39317,24.49695],[-110.3931147614281,24.497054054054054],[-110.39270188246387,24.497054054054054],[-110.39297,24.49685]]]]},"properties":{"name":"isla-espiritu-santo"}},{"type":"Feature","geometry":{"type":"Polygon","coordinates":[[[-110.40815,24.48098],[-110.40847,24.48125],[-110.40906,24.48148],[-110.40974,24.48143],[-110.40974,24.48169],[-110.40799,24.48246],[-110.40523,24.48296],[-110.40453,24.48373],[-110.40442,24.48442],[-110.40475,24.48449],[-110.4049,24.48471],[-110.40467,24.48501],[-110.40414,24.48505],[-110.40379,24.48539],[-110.40296,24.48576],[-110.39806,24.48628],[-110.39796,24.48584],[-110.39917,24.48477],[-110.39935,24.48424],[-110.40024,24.48312],[-110.40038,24.48268],[-110.40146,24.48168],[-110.40271,24.48113],[-110.4066,24.47999],[-110.40752,24.47955],[-110.40849,24.47965],[-110.40837,24.47988],[-110.40808,24.47997],[-110.40815,24.48098]]]},"properties":{"name":"unnamed-land"}},{"type":"Feature","geometry":{"type":"Polygon","coordinates":[[[-110.38807,24.46593],[-110.38668,24.46635],[-110.38435,24.46662],[-110.38268,24.46662],[-110.3821,24.46647],[-110.3822,24.46625],[-110.38414,24.46584],[-110.38717,24.46552],[-110.38803,24.46529],[-110.38871,24.46534],[-110.38807,24.46593]]]},"properties":{"name":"unnamed-land"}}]}