{"type":"FeatureCollection","features":[{"type":"Feature","geometry":{"type":"MultiLineString","coordinates":[[[-110.30217,24.70284],[-110.30232,24.70214],[-110.30217,24.70168],[-110.30168,24.70153],[-110.30102,24.70192],[-110.30089,24.70214],[-110.30168,24.70284],[-110.30217,24.70284]],[[-110.2982,24.69882],[-110.29849,24.69786],[-110.29818,24.69402],[-110.29813,24.69379],[-110.2977,24.69349],[-110.29707,24.69357],[-110.29647,24.69379],[-110.29646,24.69402],[-110.29683,24.69447],[-110.29719,24.69537],[-110.2977,24.69848],[-110.29795,24.69882],[-110.2982,24.69882]],[[-110.29646,24.69402],[-110.29646,24.69402]]]},"properties":{"depth_m":125}},{"type":"Feature","geometry":{"type":"MultiLineString","coordinates":[[[-110.30217,24.70515],[-110.3028,24.70327],[-110.30297,24.70192],[-110.30217,24.70024],[-110.30093,24.69956],[-110.30024,24.69876],[-110.29935,24.6965],[-110.29882,24.69379],[-110.2982,24.69302],[-110.2977,24.69271],[-110.29398,24.69281],[-110.29373,24.69303],[-110.29352,24.69379],[-110.29398,24.69438],[-110.29543,24.69537],[-110.29596,24.69612],[-110.29795,24.70206],[-110.30019,24.7036],[-110.30193,24.7053],[-110.30217,24.70515]]]},"properties":{"depth_m":150}},{"type":"Feature","geometry":{"type":"MultiLineString","coordinates":[[[-110.30217,24.70721],[-110.3029,24.70598],[-110.30367,24.70237],[-110.30362,24.70192],[-110.30217,24.69887],[-110.3006,24.69695],[-110.29996,24.6956],[-110.29947,24.69379],[-110.2982,24.69226],[-110.2977,24.69193],[-110.29547,24.69157],[-110.29398,24.69103],[-110.29348,24.69145],[-110.29328,24.69199],[-110.2929,24.69357],[-110.293,24.69402],[-110.29373,24.69536],[-110.29474,24.69628],[-110.29547,24.69736],[-110.29646,24.69965],[-110.29725,24.70214],[-110.29795,24.70355],[-110.29983,24.70508],[-110.30193,24.70722],[-110.30217,24.70721]],[[-110.29845,24.70395],[-110.29845,24.70395]],[[-110.29745,24.7026],[-110.29745,24.7026]],[[-110.29323,24.69447],[-110.29323,24.69447]]]},"properties":{"depth_m":175}},{"type":"Feature","geometry":{"type":"MultiLineString","coordinates":[[[-110.30217,24.70895],[-110.30242,24.70889],[-110.3031,24.70801],[-110.30378,24.70643],[-110.30423,24.7035],[-110.30427,24.70192],[-110.30217,24.69756],[-110.30081,24.6956],[-110.30011,24.69379],[-110.29895,24.69234],[-110.29795,24.69128],[-110.29572,24.69052],[-110.29398,24.6894],[-110.29348,24.68942],[-110.2931,24.68973],[-110.29267,24.69086],[-110.29229,24.69379],[-110.29359,24.69628],[-110.29465,24.69763],[-110.29522,24.69865],[-110.29678,24.7026],[-110.29795,24.70503],[-110.30061,24.70734],[-110.30193,24.7089],[-110.30217,24.70895]],[[-110.29621,24.70102],[-110.29621,24.70102]]]},"properties":{"depth_m":200}},{"type":"Feature","geometry":{"type":"MultiLineString","coordinates":[[[-110.30292,24.7105],[-110.30392,24.70959],[-110.30461,24.70779],[-110.30489,24.70576],[-110.30491,24.70192],[-110.30076,24.69379],[-110.2987,24.69128],[-110.29795,24.69052],[-110.29646,24.68986],[-110.29398,24.68841],[-110.29348,24.68836],[-110.29273,24.68866],[-110.29151,24.68951],[-110.29166,24.69357],[-110.29189,24.69424],[-110.2949,24.69966],[-110.2977,24.70608],[-110.30023,24.70824],[-110.30193,24.71054],[-110.30242,24.71068],[-110.30292,24.7105]],[[-110.30044,24.70846],[-110.30044,24.70846]]]},"properties":{"depth_m":225}},{"type":"Feature","geometry":{"type":"MultiLineString","coordinates":[[[-110.30317,24.71188],[-110.30466,24.71146],[-110.3059,24.71091],[-110.30624,24.71049],[-110.30625,24.71004],[-110.30593,24.70711],[-110.30567,24.70214],[-110.30412,24.69944],[-110.30217,24.69522],[-110.30141,24.69379],[-110.30056,24.69266],[-110.29882,24.69063],[-110.2977,24.6896],[-110.29373,24.68731],[-110.29224,24.68751],[-110.291,24.68793],[-110.29017,24.6886],[-110.28978,24.68951],[-110.29061,24.69131],[-110.29109,24.69379],[-110.29214,24.69605],[-110.29458,24.70056],[-110.29699,24.70621],[-110.29767,24.70711],[-110.29994,24.70914],[-110.30168,24.71162],[-110.30217,24.71203],[-110.30317,24.71188]],[[-110.30193,24.71185],[-110.30193,24.71185]],[[-110.30416,24.71162],[-110.30416,24.71162]],[[-110.30168,24.71162],[-110.30168,24.71162]],[[-110.29994,24.70914],[-110.29994,24.70914]],[[-110.29447,24.70034],[-110.29447,24.70034]],[[-110.29348,24.69853],[-110.29348,24.69853]]]},"properties":{"depth_m":250}},{"type":"Feature","geometry":{"type":"MultiLineString","coordinates":[[[-110.3059,24.71328],[-110.3064,24.71276],[-110.30701,24.71049],[-110.30681,24.70643],[-110.30632,24.70214],[-110.30441,24.6989],[-110.30204,24.69379],[-110.30033,24.69154],[-110.2977,24.68861],[-110.29373,24.6863],[-110.29149,24.68591],[-110.28975,24.68514],[-110.28936,24.68522],[-110.28901,24.68565],[-110.28889,24.68635],[-110.28871,24.68973],[-110.28986,24.69176],[-110.29048,24.69379],[-110.29137,24.69582],[-110.2944,24.70169],[-110.29654,24.70688],[-110.29703,24.70756],[-110.29951,24.70982],[-110.30083,24.71207],[-110.30193,24.71326],[-110.30217,24.71337],[-110.3059,24.71328]],[[-110.30118,24.71253],[-110.30118,24.71253]]]},"properties":{"depth_m":275}},{"type":"Feature","geometry":{"type":"MultiLineString","coordinates":[[[-110.2905,24.73739],[-110.29278,24.73668],[-110.29348,24.73627],[-110.29418,24.73555],[-110.29422,24.7351],[-110.29342,24.73103],[-110.29501,24.7272],[-110.29504,24.72674],[-110.29484,24.72291],[-110.29286,24.72088],[-110.29234,24.71997],[-110.29196,24.71885],[-110.29203,24.71456],[-110.29075,24.71353],[-110.28951,24.71305],[-110.28787,24.71365],[-110.28649,24.71456],[-110.28528,24.71696],[-110.28488,24.71862],[-110.28528,24.71913],[-110.28677,24.71961],[-110.28775,24.7202],[-110.28834,24.72088],[-110.28883,24.72201],[-110.28905,24.72291],[-110.28888,24.7272],[-110.28788,24.72923],[-110.28653,24.73126],[-110.28653,24.73148],[-110.28696,24.73532],[-110.28951,24.73749],[-110.2905,24.73739]],[[-110.28876,24.72178],[-110.28876,24.72178]],[[-110.28553,24.71636],[-110.28553,24.71636]],[[-110.30615,24.71516],[-110.30664,24.71456],[-110.30772,24.71049],[-110.30765,24.70621],[-110.3069,24.70214],[-110.30478,24.69853],[-110.3022,24.69312],[-110.2977,24.6876],[-110.29373,24.68527],[-110.28975,24.6837],[-110.28926,24.68376],[-110.28851,24.68413],[-110.28752,24.68479],[-110.28693,24.68544],[-110.28761,24.68951],[-110.28951,24.69281],[-110.29254,24.69989],[-110.29382,24.70192],[-110.29599,24.70779],[-110.29671,24.70862],[-110.29795,24.70925],[-110.29896,24.71027],[-110.29993,24.71275],[-110.30044,24.71347],[-110.30118,24.71415],[-110.30217,24.71482],[-110.30615,24.71516]],[[-110.2977,24.70914],[-110.2977,24.70914]]]},"properties":{"depth_m":300}},{"type":"Feature","geometry":{"type":"MultiLineString","coordinates":[[[-110.29423,24.74166],[-110.29646,24.74105],[-110.29795,24.7402],[-110.30193,24.7406],[-110.30217,24.7404],[-110.30256,24.73961],[-110.30292,24.73126],[-110.30217,24.72953],[-110.30093,24.72846],[-110.3002,24.7272],[-110.29999,24.71885],[-110.30044,24.71833],[-110.30217,24.71789],[-110.30361,24.71704],[-110.30615,24.71642],[-110.30684,24.71569],[-110.30744,24.71456],[-110.30842,24.71049],[-110.3085,24.70621],[-110.30749,24.70214],[-110.30508,24.69808],[-110.3031,24.69379],[-110.30193,24.69179],[-110.29855,24.68747],[-110.2977,24.68659],[-110.29373,24.68409],[-110.28975,24.68227],[-110.28926,24.68224],[-110.28727,24.68286],[-110.28603,24.68359],[-110.28528,24.68451],[-110.28503,24.68522],[-110.28508,24.68567],[-110.28603,24.68761],[-110.28669,24.68973],[-110.28951,24.69451],[-110.29099,24.69786],[-110.29194,24.70056],[-110.29373,24.70374],[-110.29464,24.70621],[-110.29478,24.70846],[-110.29501,24.70937],[-110.29572,24.70992],[-110.2977,24.71014],[-110.29816,24.71049],[-110.29854,24.71298],[-110.29919,24.71456],[-110.29911,24.71569],[-110.2987,24.7169],[-110.2982,24.71727],[-110.2977,24.71719],[-110.2969,24.71636],[-110.29621,24.71535],[-110.29497,24.7122],[-110.29423,24.71141],[-110.29373,24.7111],[-110.29149,24.71093],[-110.28857,24.71095],[-110.28553,24.71127],[-110.28514,24.71162],[-110.28419,24.71298],[-110.28347,24.71456],[-110.28259,24.71839],[-110.2826,24.71885],[-110.28385,24.71997],[-110.28628,24.72151],[-110.28712,24.72246],[-110.28736,24.72313],[-110.28683,24.72539],[-110.28612,24.7272],[-110.28528,24.7284],[-110.28276,24.73103],[-110.28262,24.73148],[-110.28383,24.73532],[-110.28468,24.73622],[-110.28951,24.74004],[-110.29199,24.7408],[-110.29373,24.7417],[-110.29423,24.74166]],[[-110.28578,24.73713],[-110.28578,24.73713]],[[-110.28702,24.72471],[-110.28702,24.72471]],[[-110.31062,24.72338],[-110.31098,24.72291],[-110.31062,24.72262],[-110.31006,24.72268],[-110.3099,24.72291],[-110.30996,24.72313],[-110.31062,24.72338]],[[-110.28677,24.72201],[-110.28677,24.72201]],[[-110.29174,24.70011],[-110.29174,24.70011]],[[-110.28826,24.69244],[-110.28826,24.69244]]]},"properties":{"depth_m":325}},{"type":"Feature","geometry":{"type":"MultiLineString","coordinates":[[[-110.2982,24.75145],[-110.30217,24.74868],[-110.30342,24.7469],[-110.30444,24.74593],[-110.30615,24.74468],[-110.3067,24.74367],[-110.30743,24.73938],[-110.30689,24.73764],[-110.30645,24.73532],[-110.30547,24.73284],[-110.30457,24.72923],[-110.30383,24.7272],[-110.3041,24.72291],[-110.30399,24.71885],[-110.30466,24.71832],[-110.30665,24.71734],[-110.30734,24.71659],[-110.30789,24.7156],[-110.3083,24.71433],[-110.30913,24.71049],[-110.30936,24.70621],[-110.30866,24.7044],[-110.30796,24.70192],[-110.30562,24.69808],[-110.3035,24.69357],[-110.30193,24.69088],[-110.2982,24.68601],[-110.29472,24.68346],[-110.28975,24.68087],[-110.28553,24.68095],[-110.28504,24.68138],[-110.28463,24.68228],[-110.28373,24.68544],[-110.28568,24.68973],[-110.28975,24.69668],[-110.29027,24.69786],[-110.29083,24.70011],[-110.29163,24.70214],[-110.29224,24.70448],[-110.29273,24.70521],[-110.29373,24.706],[-110.29382,24.70643],[-110.29373,24.70678],[-110.29326,24.70711],[-110.28975,24.70826],[-110.28528,24.70813],[-110.28305,24.70926],[-110.28149,24.71049],[-110.28081,24.71456],[-110.27957,24.71885],[-110.2823,24.72122],[-110.28354,24.72193],[-110.28528,24.72254],[-110.28567,24.72291],[-110.28567,24.72313],[-110.28528,24.72391],[-110.28379,24.72552],[-110.28281,24.7272],[-110.27927,24.73103],[-110.27911,24.73148],[-110.28049,24.73532],[-110.28205,24.7376],[-110.28329,24.73865],[-110.2851,24.73961],[-110.28633,24.74119],[-110.28729,24.74209],[-110.29013,24.74367],[-110.29348,24.74715],[-110.29572,24.74919],[-110.2977,24.75139],[-110.2982,24.75145]],[[-110.31087,24.72518],[-110.31211,24.72488],[-110.31284,24.72449],[-110.31344,24.72381],[-110.31369,24.72313],[-110.31311,24.72268],[-110.31037,24.72134],[-110.30863,24.72182],[-110.3075,24.72268],[-110.30744,24.72313],[-110.30756,24.72336],[-110.30862,24.72449],[-110.31011,24.72517],[-110.31087,24.72518]],[[-110.28429,24.72223],[-110.28429,24.72223]],[[-110.28031,24.71636],[-110.28031,24.71636]],[[-110.28851,24.6947],[-110.28851,24.6947]],[[-110.28777,24.69334],[-110.28777,24.69334]],[[-110.28454,24.68251],[-110.28454,24.68251]]]},"properties":{"depth_m":350}},{"type":"Feature","geometry":{"type":"MultiLineString","coordinates":[[[-110.30386,24.75405],[-110.30553,24.75135],[-110.30615,24.74986],[-110.30641,24.74796],[-110.30697,24.74638],[-110.30842,24.74367],[-110.30932,24.74142],[-110.31038,24.73984],[-110.31037,24.73929],[-110.30938,24.7378],[-110.30856,24.736],[-110.30725,24.73148],[-110.30727,24.73036],[-110.30762,24.72878],[-110.30797,24.7281],[-110.30841,24.72765],[-110.30913,24.72727],[-110.31012,24.72705],[-110.31385,24.72802],[-110.31435,24.72807],[-110.3146,24.72789],[-110.31499,24.72697],[-110.31491,24.72291],[-110.31435,24.72232],[-110.31216,24.72133],[-110.31037,24.72006],[-110.3081,24.71975],[-110.30739,24.71949],[-110.30684,24.71907],[-110.30691,24.71862],[-110.30761,24.71817],[-110.30821,24.71749],[-110.30875,24.71614],[-110.30983,24.71049],[-110.31021,24.70621],[-110.30938,24.70442],[-110.30855,24.70192],[-110.30615,24.69808],[-110.30413,24.69379],[-110.30217,24.69032],[-110.29795,24.68436],[-110.29646,24.68324],[-110.28975,24.67957],[-110.28553,24.67917],[-110.28441,24.6798],[-110.2832,24.68115],[-110.28276,24.68296],[-110.28244,24.68544],[-110.28445,24.68951],[-110.28687,24.69357],[-110.28784,24.6956],[-110.28951,24.69786],[-110.29036,24.70192],[-110.29025,24.70324],[-110.28976,24.70485],[-110.28926,24.70517],[-110.28528,24.7054],[-110.28112,24.70621],[-110.28005,24.70734],[-110.27907,24.70892],[-110.27841,24.71049],[-110.27759,24.71456],[-110.2766,24.71704],[-110.27613,24.71885],[-110.27708,24.72194],[-110.27877,24.72313],[-110.27944,24.72404],[-110.27976,24.72517],[-110.27996,24.72697],[-110.27898,24.72832],[-110.27659,24.73079],[-110.27628,24.73148],[-110.27715,24.73622],[-110.27773,24.73803],[-110.27847,24.73961],[-110.27848,24.74367],[-110.27864,24.7439],[-110.28131,24.74668],[-110.28528,24.74675],[-110.28926,24.74825],[-110.28975,24.74867],[-110.29206,24.75202],[-110.29412,24.75405]],[[-110.29124,24.75089],[-110.29124,24.75089]],[[-110.28528,24.69086],[-110.28528,24.69086]],[[-110.28404,24.6886],[-110.28404,24.6886]]]},"properties":{"depth_m":375}},{"type":"Feature","geometry":{"type":"MultiLineString","coordinates":[[[-110.3073,24.75405],[-110.30759,24.75202],[-110.30757,24.74796],[-110.30863,24.74576],[-110.31037,24.7432],[-110.3114,24.73961],[-110.31095,24.73735],[-110.31022,24.73532],[-110.30934,24.73148],[-110.3094,24.73103],[-110.31012,24.73004],[-110.31062,24.72974],[-110.31435,24.72972],[-110.31484,24.72917],[-110.31557,24.7272],[-110.31543,24.72313],[-110.31528,24.72268],[-110.31435,24.72156],[-110.31186,24.72015],[-110.31007,24.71839],[-110.30985,24.71456],[-110.31055,24.71049],[-110.3109,24.70621],[-110.30913,24.70192],[-110.3064,24.69745],[-110.30465,24.69379],[-110.30193,24.68882],[-110.29795,24.68284],[-110.29643,24.68183],[-110.28975,24.67826],[-110.28528,24.67734],[-110.28404,24.6777],[-110.28301,24.67822],[-110.28225,24.6789],[-110.28167,24.6798],[-110.2812,24.68138],[-110.28118,24.68544],[-110.28369,24.69018],[-110.28584,24.69357],[-110.2868,24.69605],[-110.28787,24.69786],[-110.28781,24.70192],[-110.28724,24.70237],[-110.28553,24.70302],[-110.27857,24.70397],[-110.27758,24.70424],[-110.27708,24.70457],[-110.2741,24.71456],[-110.27364,24.71862],[-110.27546,24.72359],[-110.27747,24.72697],[-110.27747,24.7272],[-110.27529,24.72945],[-110.27415,24.73126],[-110.27577,24.73961],[-110.27633,24.74367],[-110.27708,24.74518],[-110.27971,24.74796],[-110.28131,24.75165],[-110.28354,24.75299],[-110.28528,24.75363],[-110.28587,24.75405]],[[-110.28305,24.7527],[-110.28305,24.7527]],[[-110.27982,24.74819],[-110.27982,24.74819]],[[-110.27435,24.73261],[-110.27435,24.73261]],[[-110.2751,24.72268],[-110.2751,24.72268]],[[-110.27634,24.70711],[-110.27634,24.70711]],[[-110.28727,24.69695],[-110.28727,24.69695]],[[-110.28702,24.6965],[-110.28702,24.6965]],[[-110.2823,24.68747],[-110.2823,24.68747]]]},"properties":{"depth_m":400}},{"type":"Feature","geometry":{"type":"MultiLineString","coordinates":[[[-110.30919,24.75405],[-110.30926,24.75202],[-110.30875,24.74796],[-110.3111,24.7439],[-110.31236,24.73961],[-110.31181,24.73555],[-110.31207,24.73374],[-110.3124,24.73284],[-110.31286,24.73217],[-110.31346,24.73171],[-110.31435,24.73136],[-110.31484,24.73084],[-110.31559,24.72919],[-110.31619,24.7272],[-110.31593,24.72313],[-110.31579,24.72268],[-110.31491,24.72133],[-110.31444,24.72088],[-110.31286,24.71992],[-110.31153,24.71885],[-110.31118,24.71772],[-110.31067,24.71456],[-110.3113,24.71049],[-110.31154,24.70621],[-110.30971,24.70192],[-110.30615,24.69589],[-110.30505,24.69357],[-110.30279,24.68951],[-110.30193,24.68746],[-110.29799,24.68138],[-110.29323,24.67869],[-110.28975,24.67695],[-110.28528,24.67575],[-110.28131,24.67599],[-110.28106,24.67622],[-110.28038,24.67709],[-110.27972,24.68138],[-110.28005,24.68544],[-110.28302,24.69109],[-110.28475,24.69379],[-110.2862,24.69786],[-110.28605,24.69853],[-110.28553,24.69966],[-110.28528,24.69989],[-110.28429,24.70043],[-110.2828,24.70096],[-110.28106,24.7013],[-110.27708,24.70056],[-110.27609,24.7009],[-110.2751,24.70167],[-110.27473,24.70237],[-110.2741,24.70624],[-110.27216,24.71049],[-110.27163,24.71433],[-110.27192,24.71885],[-110.27339,24.72449],[-110.27429,24.72697],[-110.27429,24.7272],[-110.27292,24.72923],[-110.27243,24.73103],[-110.27282,24.73555],[-110.27422,24.74029],[-110.27502,24.7439],[-110.27605,24.74615],[-110.27794,24.74931],[-110.27919,24.75202],[-110.27894,24.75405]],[[-110.27758,24.74864],[-110.27758,24.74864]],[[-110.27733,24.74819],[-110.27733,24.74819]],[[-110.27559,24.74525],[-110.27559,24.74525]],[[-110.2741,24.72742],[-110.2741,24.72742]],[[-110.27311,24.70846],[-110.27311,24.70846]],[[-110.27385,24.70688],[-110.27385,24.70688]],[[-110.28429,24.69312],[-110.28429,24.69312]],[[-110.2823,24.68973],[-110.2823,24.68973]]]},"properties":{"depth_m":425}},{"type":"Feature","geometry":{"type":"MultiLineString","coordinates":[[[-110.31066,24.75405],[-110.31066,24.75202],[-110.30993,24.74796],[-110.31213,24.74367],[-110.31331,24.73961],[-110.31334,24.73532],[-110.31523,24.73239],[-110.31627,24.72945],[-110.3168,24.7272],[-110.3164,24.72291],[-110.31484,24.72047],[-110.31247,24.71862],[-110.31166,24.71569],[-110.31148,24.71433],[-110.31206,24.71049],[-110.31217,24.70621],[-110.30972,24.70079],[-110.3064,24.69522],[-110.30333,24.68951],[-110.30193,24.68611],[-110.29901,24.68138],[-110.29795,24.68],[-110.29373,24.67753],[-110.28951,24.67551],[-110.28553,24.67425],[-110.28156,24.67378],[-110.28106,24.67386],[-110.28006,24.67472],[-110.27926,24.67574],[-110.27864,24.67687],[-110.27824,24.68138],[-110.27893,24.68544],[-110.28204,24.69154],[-110.28335,24.69379],[-110.28342,24.69786],[-110.28205,24.69876],[-110.28106,24.6991],[-110.27684,24.6982],[-110.27311,24.69686],[-110.27261,24.69712],[-110.2721,24.69786],[-110.2723,24.70214],[-110.2718,24.70576],[-110.26974,24.71049],[-110.26963,24.71456],[-110.27151,24.72291],[-110.27204,24.72697],[-110.27119,24.73126],[-110.27144,24.73555],[-110.27235,24.73961],[-110.27398,24.74503],[-110.27525,24.74796],[-110.276,24.75022],[-110.27702,24.75202],[-110.27608,24.75405]],[[-110.27659,24.75135],[-110.27659,24.75135]]]},"properties":{"depth_m":450}},{"type":"Feature","geometry":{"type":"MultiLineString","coordinates":[[[-110.31137,24.75405],[-110.31146,24.75202],[-110.311,24.74796],[-110.31306,24.74367],[-110.31426,24.73961],[-110.3146,24.73682],[-110.31619,24.73419],[-110.31658,24.73126],[-110.31741,24.7272],[-110.31689,24.72291],[-110.31534,24.72029],[-110.31355,24.71862],[-110.31228,24.71478],[-110.31281,24.71049],[-110.31281,24.70621],[-110.30997,24.70011],[-110.3064,24.69411],[-110.30387,24.68951],[-110.30193,24.68461],[-110.3,24.68138],[-110.29795,24.67866],[-110.29534,24.67709],[-110.28951,24.67417],[-110.28553,24.67278],[-110.28131,24.67204],[-110.27873,24.6728],[-110.27817,24.67326],[-110.27758,24.67418],[-110.27708,24.6755],[-110.2769,24.67687],[-110.27683,24.68115],[-110.27781,24.68544],[-110.27973,24.68951],[-110.28031,24.69113],[-110.28187,24.69357],[-110.28192,24.69402],[-110.2816,24.69515],[-110.28106,24.69603],[-110.27733,24.69628],[-110.27584,24.69581],[-110.27311,24.69453],[-110.27261,24.6946],[-110.27162,24.69539],[-110.27084,24.6965],[-110.2703,24.69786],[-110.2708,24.70237],[-110.2701,24.70463],[-110.26864,24.70766],[-110.26793,24.71027],[-110.26801,24.71456],[-110.27005,24.72291],[-110.27055,24.72697],[-110.26997,24.73126],[-110.27007,24.73555],[-110.27127,24.74187],[-110.27222,24.74503],[-110.27332,24.74796],[-110.27367,24.75202],[-110.27244,24.75405]]]},"properties":{"depth_m":475}},{"type":"Feature","geometry":{"type":"MultiLineString","coordinates":[[[-110.31208,24.75405],[-110.31224,24.7518],[-110.31198,24.74796],[-110.3139,24.7439],[-110.3146,24.74182],[-110.31484,24.74159],[-110.31549,24.74142],[-110.31857,24.74077],[-110.31884,24.74051],[-110.31924,24.73961],[-110.31896,24.73532],[-110.31882,24.73478],[-110.31802,24.73329],[-110.31759,24.73148],[-110.31801,24.72697],[-110.31739,24.72291],[-110.31623,24.72065],[-110.31461,24.71862],[-110.31309,24.71478],[-110.31357,24.71049],[-110.31345,24.70621],[-110.31023,24.69944],[-110.30789,24.69537],[-110.30615,24.6927],[-110.30441,24.68951],[-110.30193,24.68295],[-110.30083,24.68115],[-110.29795,24.67733],[-110.28951,24.67287],[-110.28131,24.67057],[-110.27733,24.67124],[-110.27684,24.67166],[-110.27612,24.67303],[-110.27575,24.68138],[-110.2766,24.68544],[-110.27844,24.68951],[-110.27866,24.69357],[-110.27808,24.69402],[-110.27733,24.69428],[-110.27684,24.69424],[-110.27445,24.69289],[-110.27286,24.69241],[-110.26913,24.69344],[-110.26871,24.69379],[-110.26867,24.69402],[-110.26856,24.69786],[-110.26941,24.70214],[-110.26889,24.70339],[-110.26703,24.70621],[-110.26648,24.71049],[-110.26668,24.71456],[-110.26855,24.72291],[-110.26905,24.72697],[-110.26874,24.73126],[-110.26866,24.73555],[-110.27025,24.74819],[-110.26995,24.75202],[-110.26901,24.75405]],[[-110.26963,24.74322],[-110.26963,24.74322]],[[-110.26814,24.72133],[-110.26814,24.72133]],[[-110.27833,24.68928],[-110.27833,24.68928]]]},"properties":{"depth_m":500}},{"type":"Feature","geometry":{"type":"MultiLineString","coordinates":[[[-110.31208,24.75405],[-110.31224,24.7518],[-110.31198,24.74796],[-110.3139,24.7439],[-110.3146,24.74182],[-110.31484,24.74159],[-110.31549,24.74142],[-110.31857,24.74077],[-110.31884,24.74051],[-110.31924,24.73961],[-110.31896,24.73532],[-110.31882,24.73478],[-110.31802,24.73329],[-110.31759,24.73148],[-110.31801,24.72697],[-110.31739,24.72291],[-110.31623,24.72065],[-110.31461,24.71862],[-110.31309,24.71478],[-110.31357,24.71049],[-110.31345,24.70621],[-110.31023,24.69944],[-110.30789,24.69537],[-110.30615,24.6927],[-110.30441,24.68951],[-110.30193,24.68295],[-110.30083,24.68115],[-110.29795,24.67733],[-110.28951,24.67287],[-110.28131,24.67057],[-110.27733,24.67124],[-110.27684,24.67166],[-110.27612,24.67303],[-110.27575,24.68138],[-110.2766,24.68544],[-110.27844,24.68951],[-110.27866,24.69357],[-110.27808,24.69402],[-110.27733,24.69428],[-110.27684,24.69424],[-110.27445,24.69289],[-110.27286,24.69241],[-110.26913,24.69344],[-110.26871,24.69379],[-110.26867,24.69402],[-110.26856,24.69786],[-110.26941,24.70214],[-110.26889,24.70339],[-110.26703,24.70621],[-110.26648,24.71049],[-110.26668,24.71456],[-110.26855,24.72291],[-110.26905,24.72697],[-110.26874,24.73126],[-110.26866,24.73555],[-110.27025,24.74819],[-110.26995,24.75202],[-110.26901,24.75405]],[[-110.26963,24.74322],[-110.26963,24.74322]],[[-110.26814,24.72133],[-110.26814,24.72133]],[[-110.27833,24.68928],[-110.27833,24.68928]]]},"properties":{"depth_m":500}},{"type":"Feature","geometry":{"type":"MultiLineString","coordinates":[[[-110.31507,24.75405],[-110.31686,24.74999],[-110.31758,24.74904],[-110.31857,24.74821],[-110.31907,24.74817],[-110.32255,24.74908],[-110.32304,24.74893],[-110.32354,24.74773],[-110.32413,24.7439],[-110.3232,24.73961],[-110.32217,24.73713],[-110.32028,24.73126],[-110.32003,24.72697],[-110.31944,24.72313],[-110.31872,24.72065],[-110.31782,24.71862],[-110.31727,24.71478],[-110.31751,24.71027],[-110.31631,24.70621],[-110.31455,24.7035],[-110.31137,24.69662],[-110.30978,24.69379],[-110.3064,24.68896],[-110.30498,24.68544],[-110.30355,24.68115],[-110.30217,24.67828],[-110.2982,24.67356],[-110.29593,24.67168],[-110.29373,24.67031],[-110.2887,24.66897],[-110.28454,24.66718],[-110.28131,24.66559],[-110.27708,24.66457],[-110.27286,24.66411],[-110.27192,24.6649],[-110.27126,24.66694],[-110.271,24.66874],[-110.27047,24.67664],[-110.26958,24.68138],[-110.26864,24.68271],[-110.26615,24.684],[-110.26441,24.68543],[-110.26069,24.69236],[-110.26019,24.69266],[-110.25622,24.68943],[-110.25309,24.68657],[-110.25199,24.68577],[-110.2505,24.68505]],[[-110.25248,24.75405],[-110.25351,24.75202],[-110.25515,24.74796],[-110.25492,24.74638],[-110.25454,24.74525],[-110.2541,24.74457],[-110.25348,24.74406],[-110.25249,24.7436],[-110.25199,24.74373],[-110.25125,24.74513],[-110.2505,24.74608]],[[-110.26715,24.68341],[-110.26715,24.68341]],[[-110.2505,24.65038],[-110.25199,24.65128],[-110.25224,24.65128],[-110.25422,24.65069],[-110.25553,24.64978],[-110.25622,24.64879],[-110.25629,24.64775],[-110.25528,24.64595]]]},"properties":{"depth_m":600}},{"type":"Feature","geometry":{"type":"MultiLineString","coordinates":[[[-110.32713,24.75405],[-110.32779,24.7518],[-110.32784,24.74796],[-110.32728,24.7439],[-110.32616,24.73961],[-110.324,24.73442],[-110.32246,24.73126],[-110.32133,24.72201],[-110.32076,24.71862],[-110.3206,24.71049],[-110.31976,24.70734],[-110.31932,24.70608],[-110.31665,24.70214],[-110.31562,24.69966],[-110.31227,24.69289],[-110.30981,24.68951],[-110.30757,24.68544],[-110.30334,24.67596],[-110.3005,24.67213],[-110.29895,24.66912],[-110.29795,24.66665],[-110.29526,24.66423],[-110.29398,24.66274],[-110.29348,24.6626],[-110.29129,24.66378],[-110.28951,24.66439],[-110.28528,24.66253],[-110.28262,24.66039],[-110.28106,24.65858],[-110.27708,24.65637],[-110.27281,24.65633],[-110.27062,24.65569],[-110.26889,24.65475],[-110.26827,24.65385],[-110.26764,24.65208],[-110.26672,24.64595]]]},"properties":{"depth_m":700}},{"type":"Feature","geometry":{"type":"MultiLineString","coordinates":[[[-110.36896,24.75405],[-110.36875,24.75345],[-110.36782,24.75202],[-110.36416,24.74796],[-110.36279,24.7457],[-110.36113,24.7439],[-110.36031,24.74327],[-110.35608,24.74089],[-110.35211,24.73831],[-110.34894,24.73532],[-110.34565,24.73334],[-110.34476,24.73239],[-110.34403,24.73126],[-110.34366,24.73096],[-110.34341,24.73096],[-110.34217,24.73113],[-110.34159,24.73148],[-110.3418,24.73532],[-110.34272,24.73713],[-110.34366,24.74001],[-110.34455,24.74187],[-110.34543,24.74525],[-110.34579,24.74819],[-110.34571,24.75202],[-110.3454,24.75405]],[[-110.33439,24.75405],[-110.3342,24.75202],[-110.33343,24.74796],[-110.33208,24.74367],[-110.32954,24.7378],[-110.32876,24.73662],[-110.32748,24.73532],[-110.32727,24.73453],[-110.32667,24.73126],[-110.32668,24.72697],[-110.32487,24.71885],[-110.32465,24.71456],[-110.32384,24.71117],[-110.32304,24.70952],[-110.32279,24.70863],[-110.32214,24.7053],[-110.32163,24.70372],[-110.32064,24.70214],[-110.31978,24.69989],[-110.31882,24.69864],[-110.31798,24.69537],[-110.31663,24.69176],[-110.31584,24.69078],[-110.3146,24.68992],[-110.31436,24.68951],[-110.31387,24.68747],[-110.31327,24.68635],[-110.31037,24.68375],[-110.30922,24.6798],[-110.30863,24.67859],[-110.30789,24.67784],[-110.30665,24.67724],[-110.30625,24.67687],[-110.30549,24.67438],[-110.30445,24.67213],[-110.30355,24.67077],[-110.30217,24.66956],[-110.30174,24.66897],[-110.29919,24.6622],[-110.29544,24.65543],[-110.29398,24.65306],[-110.29174,24.65114],[-110.29016,24.64888],[-110.28971,24.64798],[-110.28966,24.64595]]]},"properties":{"depth_m":800}},{"type":"Feature","geometry":{"type":"MultiLineString","coordinates":[[[-110.35732,24.71096],[-110.35857,24.71069],[-110.35923,24.71027],[-110.35807,24.70923],[-110.35658,24.70828],[-110.35633,24.70838],[-110.35608,24.70899],[-110.35597,24.71049],[-110.35658,24.71107],[-110.35732,24.71096]],[[-110.35683,24.70491],[-110.35897,24.70372],[-110.36078,24.70192],[-110.36173,24.70011],[-110.3623,24.69808],[-110.36178,24.69763],[-110.36031,24.69704],[-110.35633,24.69676],[-110.35211,24.69597],[-110.35063,24.69786],[-110.35072,24.70214],[-110.35186,24.70395],[-110.35236,24.70445],[-110.35459,24.70469],[-110.35608,24.70506],[-110.35683,24.70491]],[[-110.35186,24.70395],[-110.35186,24.70395]],[[-110.33994,24.68195],[-110.34217,24.68051],[-110.34366,24.67976],[-110.34987,24.6786],[-110.35186,24.67799],[-110.35319,24.67732],[-110.35361,24.67687],[-110.35362,24.67326],[-110.35315,24.6728],[-110.35211,24.67255],[-110.34788,24.67045],[-110.34366,24.66955],[-110.33969,24.66911],[-110.33944,24.66934],[-110.33806,24.67258],[-110.33645,24.67709],[-110.3388,24.68115],[-110.33944,24.68186],[-110.33994,24.68195]],[[-110.33546,24.64595],[-110.33593,24.64798],[-110.33791,24.65069],[-110.33944,24.65242],[-110.34093,24.65291],[-110.34366,24.65329],[-110.34863,24.65267],[-110.3505,24.65204],[-110.35211,24.65087],[-110.35298,24.64956],[-110.35349,24.64798],[-110.35263,24.6473],[-110.35026,24.64595]]]},"properties":{"depth_m":900}}]}