{"type":"FeatureCollection","features":[{"type":"Feature","geometry":{"type":"Point","coordinates":[-110.41889,24.49405]},"properties":{"depth_ft":283,"depth_m":86.3}},{"type":"Feature","geometry":{"type":"Point","coordinates":[-110.41372,24.49405]},"properties":{"depth_ft":196,"depth_m":59.6}},{"type":"Feature","geometry":{"type":"Point","coordinates":[-110.40856,24.49405]},"properties":{"depth_ft":130,"depth_m":39.7}},{"type":"Feature","geometry":{"type":"Point","coordinates":[-110.4034,24.49405]},"properties":{"depth_ft":99,"depth_m":30.3}},{"type":"Feature","geometry":{"type":"Point","coordinates":[-110.39823,24.49405]},"properties":{"depth_ft":96,"depth_m":29.1}},{"type":"Feature","geometry":{"type":"Point","coordinates":[-110.41889,24.48935]},"properties":{"depth_ft":280,"depth_m":85.3}},{"type":"Feature","geometry":{"type":"Point","coordinates":[-110.41372,24.48935]},"properties":{"depth_ft":190,"depth_m":58.0}},{"type":"Feature","geometry":{"type":"Point","coordinates":[-110.40856,24.48935]},"properties":{"depth_ft":115,"depth_m":35.0}},{"type":"Feature","geometry":{"type":"Point","coordinates":[-110.4034,24.48935]},"properties":{"depth_ft":70,"depth_m":21.4}},{"type":"Feature","geometry":{"type":"Point","coordinates":[-110.39823,24.48935]},"properties":{"depth_ft":77,"depth_m":23.3}},{"type":"Feature","geometry":{"type":"Point","coordinates":[-110.39307,24.48935]},"properties":{"depth_ft":55,"depth_m":16.8}},{"type":"Feature","geometry":{"type":"Point","coordinates":[-110.41889,24.48465]},"properties":{"depth_ft":271,"depth_m":82.6}},{"type":"Feature","geometry":{"type":"Point","coordinates":[-110.41372,24.48465]},"properties":{"depth_ft":174,"depth_m":53.1}},{"type":"Feature","geometry":{"type":"Point","coordinates":[-110.40856,24.48465]},"properties":{"depth_ft":49,"depth_m":15.0}},{"type":"Feature","geometry":{"type":"Point","coordinates":[-110.39823,24.48465]},"properties":{"depth_ft":52,"depth_m":15.9}},{"type":"Feature","geometry":{"type":"Point","coordinates":[-110.39307,24.48465]},"properties":{"depth_ft":2,"depth_m":0.7}},{"type":"Feature","geometry":{"type":"Point","coordinates":[-110.41889,24.47995]},"properties":{"depth_ft":255,"depth_m":77.6}},{"type":"Feature","geometry":{"type":"Point","coordinates":[-110.41372,24.47995]},"properties":{"depth_ft":153,"depth_m":46.8}},{"type":"Feature","geometry":{"type":"Point","coordinates":[-110.4034,24.47995]},"properties":{"depth_ft":36,"depth_m":11.0}},{"type":"Feature","geometry":{"type":"Point","coordinates":[-110.39823,24.47995]},"properties":{"depth_ft":88,"depth_m":26.7}},{"type":"Feature","geometry":{"type":"Point","coordinates":[-110.39307,24.47995]},"properties":{"depth_ft":71,"depth_m":21.5}},{"type":"Feature","geometry":{"type":"Point","coordinates":[-110.42405,24.47525]},"properties":{"depth_ft":291,"depth_m":88.7}},{"type":"Feature","geometry":{"type":"Point","coordinates":[-110.41889,24.47525]},"properties":{"depth_ft":231,"depth_m":70.4}},{"type":"Feature","geometry":{"type":"Point","coordinates":[-110.41372,24.47525]},"properties":{"depth_ft":162,"depth_m":49.5}},{"type":"Feature","geometry":{"type":"Point","coordinates":[-110.40856,24.47525]},"properties":{"depth_ft":103,"depth_m":31.3}},{"type":"Feature","geometry":{"type":"Point","coordinates":[-110.4034,24.47525]},"properties":{"depth_ft":87,"depth_m":26.4}},{"type":"Feature","geometry":{"type":"Point","coordinates":[-110.39823,24.47525]},"properties":{"depth_ft":109,"depth_m":33.3}},{"type":"Feature","geometry":{"type":"Point","coordinates":[-110.39307,24.47525]},"properties":{"depth_ft":104,"depth_m":31.7}},{"type":"Feature","geometry":{"type":"Point","coordinates":[-110.38791,24.47525]},"properties":{"depth_ft":8,"depth_m":2.6}},{"type":"Feature","geometry":{"type":"Point","coordinates":[-110.42921,24.47055]},"properties":{"depth_ft":311,"depth_m":94.9}},{"type":"Feature","geometry":{"type":"Point","coordinates":[-110.42405,24.47055]},"properties":{"depth_ft":257,"depth_m":78.4}},{"type":"Feature","geometry":{"type":"Point","coordinates":[-110.41889,24.47055]},"properties":{"depth_ft":219,"depth_m":66.6}},{"type":"Feature","geometry":{"type":"Point","coordinates":[-110.41372,24.47055]},"properties":{"depth_ft":164,"depth_m":50.1}},{"type":"Feature","geometry":{"type":"Point","coordinates":[-110.40856,24.47055]},"properties":{"depth_ft":117,"depth_m":35.7}},{"type":"Feature","geometry":{"type":"Point","coordinates":[-110.4034,24.47055]},"properties":{"depth_ft":104,"depth_m":31.8}},{"type":"Feature","geometry":{"type":"Point","coordinates":[-110.39823,24.47055]},"properties":{"depth_ft":124,"depth_m":37.9}},{"type":"Feature","geometry":{"type":"Point","coordinates":[-110.39307,24.47055]},"properties":{"depth_ft":129,"depth_m":39.4}},{"type":"Feature","geometry":{"type":"Point","coordinates":[-110.38791,24.47055]},"properties":{"depth_ft":95,"depth_m":29.0}},{"type":"Feature","geometry":{"type":"Point","coordinates":[-110.43437,24.46585]},"properties":{"depth_ft":307,"depth_m":93.5}},{"type":"Feature","geometry":{"type":"Point","coordinates":[-110.42921,24.46585]},"properties":{"depth_ft":280,"depth_m":85.5}},{"type":"Feature","geometry":{"type":"Point","coordinates":[-110.42405,24.46585]},"properties":{"depth_ft":261,"depth_m":79.6}},{"type":"Feature","geometry":{"type":"Point","coordinates":[-110.41889,24.46585]},"properties":{"depth_ft":228,"depth_m":69.4}},{"type":"Feature","geometry":{"type":"Point","coordinates":[-110.41372,24.46585]},"properties":{"depth_ft":177,"depth_m":54.1}},{"type":"Feature","geometry":{"type":"Point","coordinates":[-110.40856,24.46585]},"properties":{"depth_ft":130,"depth_m":39.5}},{"type":"Feature","geometry":{"type":"Point","coordinates":[-110.4034,24.46585]},"properties":{"depth_ft":118,"depth_m":35.9}},{"type":"Feature","geometry":{"type":"Point","coordinates":[-110.39823,24.46585]},"properties":{"depth_ft":139,"depth_m":42.4}},{"type":"Feature","geometry":{"type":"Point","coordinates":[-110.39307,24.46585]},"properties":{"depth_ft":146,"depth_m":44.6}},{"type":"Feature","geometry":{"type":"Point","coordinates":[-110.38274,24.46585]},"properties":{"depth_ft":40,"depth_m":12.2}},{"type":"Feature","geometry":{"type":"Point","coordinates":[-110.43437,24.46115]},"properties":{"depth_ft":291,"depth_m":88.8}},{"type":"Feature","geometry":{"type":"Point","coordinates":[-110.42921,24.46115]},"properties":{"depth_ft":280,"depth_m":85.4}},{"type":"Feature","geometry":{"type":"Point","coordinates":[-110.42405,24.46115]},"properties":{"depth_ft":272,"depth_m":82.8}},{"type":"Feature","geometry":{"type":"Point","coordinates":[-110.41889,24.46115]},"properties":{"depth_ft":250,"depth_m":76.2}},{"type":"Feature","geometry":{"type":"Point","coordinates":[-110.41372,24.46115]},"properties":{"depth_ft":207,"depth_m":63.1}},{"type":"Feature","geometry":{"type":"Point","coordinates":[-110.40856,24.46115]},"properties":{"depth_ft":158,"depth_m":48.1}},{"type":"Feature","geometry":{"type":"Point","coordinates":[-110.4034,24.46115]},"properties":{"depth_ft":142,"depth_m":43.4}},{"type":"Feature","geometry":{"type":"Point","coordinates":[-110.39823,24.46115]},"properties":{"depth_ft":155,"depth_m":47.1}},{"type":"Feature","geometry":{"type":"Point","coordinates":[-110.39307,24.46115]},"properties":{"depth_ft":152,"depth_m":46.3}},{"type":"Feature","geometry":{"type":"Point","coordinates":[-110.38791,24.46115]},"properties":{"depth_ft":113,"depth_m":34.4}},{"type":"Feature","geometry":{"type":"Point","coordinates":[-110.38274,24.46115]},"properties":{"depth_ft":63,"depth_m":19.2}},{"type":"Feature","geometry":{"type":"Point","coordinates":[-110.37758,24.46115]},"properties":{"depth_ft":16,"depth_m":4.9}},{"type":"Feature","geometry":{"type":"Point","coordinates":[-110.43437,24.45645]},"properties":{"depth_ft":304,"depth_m":92.6}},{"type":"Feature","geometry":{"type":"Point","coordinates":[-110.42921,24.45645]},"properties":{"depth_ft":290,"depth_m":88.4}},{"type":"Feature","geometry":{"type":"Point","coordinates":[-110.42405,24.45645]},"properties":{"depth_ft":279,"depth_m":85.0}},{"type":"Feature","geometry":{"type":"Point","coordinates":[-110.41889,24.45645]},"properties":{"depth_ft":290,"depth_m":88.4}},{"type":"Feature","geometry":{"type":"Point","coordinates":[-110.41372,24.45645]},"properties":{"depth_ft":249,"depth_m":76.0}},{"type":"Feature","geometry":{"type":"Point","coordinates":[-110.40856,24.45645]},"properties":{"depth_ft":197,"depth_m":59.9}},{"type":"Feature","geometry":{"type":"Point","coordinates":[-110.4034,24.45645]},"properties":{"depth_ft":172,"depth_m":52.4}},{"type":"Feature","geometry":{"type":"Point","coordinates":[-110.39823,24.45645]},"properties":{"depth_ft":170,"depth_m":51.9}},{"type":"Feature","geometry":{"type":"Point","coordinates":[-110.39307,24.45645]},"properties":{"depth_ft":157,"depth_m":47.9}},{"type":"Feature","geometry":{"type":"Point","coordinates":[-110.38791,24.45645]},"properties":{"depth_ft":113,"depth_m":34.5}},{"type":"Feature","geometry":{"type":"Point","coordinates":[-110.38274,24.45645]},"properties":{"depth_ft":68,"depth_m":20.7}},{"type":"Feature","geometry":{"type":"Point","coordinates":[-110.37758,24.45645]},"properties":{"depth_ft":30,"depth_m":9.0}},{"type":"Feature","geometry":{"type":"Point","coordinates":[-110.41372,24.45175]},"properties":{"depth_ft":303,"depth_m":92.4}},{"type":"Feature","geometry":{"type":"Point","coordinates":[-110.40856,24.45175]},"properties":{"depth_ft":242,"depth_m":73.9}},{"type":"Feature","geometry":{"type":"Point","coordinates":[-110.4034,24.45175]},"properties":{"depth_ft":205,"depth_m":62.4}},{"type":"Feature","geometry":{"type":"Point","coordinates":[-110.39823,24.45175]},"properties":{"depth_ft":186,"depth_m":56.5}},{"type":"Feature","geometry":{"type":"Point","coordinates":[-110.39307,24.45175]},"properties":{"depth_ft":158,"depth_m":48.1}},{"type":"Feature","geometry":{"type":"Point","coordinates":[-110.38791,24.45175]},"properties":{"depth_ft":111,"depth_m":33.9}},{"type":"Feature","geometry":{"type":"Point","coordinates":[-110.38274,24.45175]},"properties":{"depth_ft":61,"depth_m":18.7}},{"type":"Feature","geometry":{"type":"Point","coordinates":[-110.41372,24.44705]},"properties":{"depth_ft":330,"depth_m":100.6}},{"type":"Feature","geometry":{"type":"Point","coordinates":[-110.40856,24.44705]},"properties":{"depth_ft":280,"depth_m":85.5}},{"type":"Feature","geometry":{"type":"Point","coordinates":[-110.4034,24.44705]},"properties":{"depth_ft":240,"depth_m":73.2}},{"type":"Feature","geometry":{"type":"Point","coordinates":[-110.39823,24.44705]},"properties":{"depth_ft":205,"depth_m":62.5}},{"type":"Feature","geometry":{"type":"Point","coordinates":[-110.39307,24.44705]},"properties":{"depth_ft":165,"depth_m":50.3}},{"type":"Feature","geometry":{"type":"Point","coordinates":[-110.38791,24.44705]},"properties":{"depth_ft":121,"depth_m":36.9}},{"type":"Feature","geometry":{"type":"Point","coordinates":[-110.38274,24.44705]},"properties":{"depth_ft":7,"depth_m":2.2}},{"type":"Feature","geometry":{"type":"Point","coordinates":[-110.40856,24.44235]},"properties":{"depth_ft":313,"depth_m":95.4}},{"type":"Feature","geometry":{"type":"Point","coordinates":[-110.4034,24.44235]},"properties":{"depth_ft":272,"depth_m":83.0}},{"type":"Feature","geometry":{"type":"Point","coordinates":[-110.39823,24.44235]},"properties":{"depth_ft":224,"depth_m":68.4}},{"type":"Feature","geometry":{"type":"Point","coordinates":[-110.39307,24.44235]},"properties":{"depth_ft":172,"depth_m":52.4}},{"type":"Feature","geometry":{"type":"Point","coordinates":[-110.38791,24.44235]},"properties":{"depth_ft":124,"depth_m":37.7}},{"type":"Feature","geometry":{"type":"Point","coordinates":[-110.38274,24.44235]},"properties":{"depth_ft":62,"depth_m":18.9}},{"type":"Feature","geometry":{"type":"Point","coordinates":[-110.4034,24.43765]},"properties":{"depth_ft":302,"depth_m":92.0}},{"type":"Feature","geometry":{"type":"Point","coordinates":[-110.39823,24.43765]},"properties":{"depth_ft":242,"depth_m":73.8}},{"type":"Feature","geometry":{"type":"Point","coordinates":[-110.39307,24.43765]},"properties":{"depth_ft":176,"depth_m":53.7}},{"type":"Feature","geometry":{"type":"Point","coordinates":[-110.38791,24.43765]},"properties":{"depth_ft":116,"depth_m":35.3}},{"type":"Feature","geometry":{"type":"Point","coordinates":[-110.38274,24.43765]},"properties":{"depth_ft":42,"depth_m":12.9}},{"type":"Feature","geometry":{"type":"Point","coordinates":[-110.4034,24.43295]},"properties":{"depth_ft":321,"depth_m":97.7}},{"type":"Feature","geometry":{"type":"Point","coordinates":[-110.39823,24.43295]},"properties":{"depth_ft":255,"depth_m":77.9}},{"type":"Feature","geometry":{"type":"Point","coordinates":[-110.39307,24.43295]},"properties":{"depth_ft":183,"depth_m":55.8}},{"type":"Feature","geometry":{"type":"Point","coordinates":[-110.38791,24.43295]},"properties":{"depth_ft":119,"depth_m":36.4}},{"type":"Feature","geometry":{"type":"Point","coordinates":[-110.38274,24.43295]},"properties":{"depth_ft":43,"depth_m":13.1}},{"type":"Feature","geometry":{"type":"Point","coordinates":[-110.36209,24.43295]},"properties":{"depth_ft":6,"depth_m":1.7}},{"type":"Feature","geometry":{"type":"Point","coordinates":[-110.35693,24.43295]},"properties":{"depth_ft":37,"depth_m":11.2}},{"type":"Feature","geometry":{"type":"Point","coordinates":[-110.4034,24.42825]},"properties":{"depth_ft":330,"depth_m":100.6}},{"type":"Feature","geometry":{"type":"Point","coordinates":[-110.39823,24.42825]},"properties":{"depth_ft":264,"depth_m":80.6}},{"type":"Feature","geometry":{"type":"Point","coordinates":[-110.39307,24.42825]},"properties":{"depth_ft":195,"depth_m":59.5}},{"type":"Feature","geometry":{"type":"Point","coordinates":[-110.38791,24.42825]},"properties":{"depth_ft":138,"depth_m":42.2}},{"type":"Feature","geometry":{"type":"Point","coordinates":[-110.38274,24.42825]},"properties":{"depth_ft":72,"depth_m":21.8}},{"type":"Feature","geometry":{"type":"Point","coordinates":[-110.36209,24.42825]},"properties":{"depth_ft":19,"depth_m":5.9}},{"type":"Feature","geometry":{"type":"Point","coordinates":[-110.35693,24.42825]},"properties":{"depth_ft":42,"depth_m":12.9}},{"type":"Feature","geometry":{"type":"Point","coordinates":[-110.4034,24.42355]},"properties":{"depth_ft":324,"depth_m":98.6}},{"type":"Feature","geometry":{"type":"Point","coordinates":[-110.39823,24.42355]},"properties":{"depth_ft":271,"depth_m":82.5}},{"type":"Feature","geometry":{"type":"Point","coordinates":[-110.39307,24.42355]},"properties":{"depth_ft":215,"depth_m":65.7}},{"type":"Feature","geometry":{"type":"Point","coordinates":[-110.38791,24.42355]},"properties":{"depth_ft":169,"depth_m":51.6}},{"type":"Feature","geometry":{"type":"Point","coordinates":[-110.38274,24.42355]},"properties":{"depth_ft":121,"depth_m":36.9}},{"type":"Feature","geometry":{"type":"Point","coordinates":[-110.37758,24.42355]},"properties":{"depth_ft":72,"depth_m":21.9}},{"type":"Feature","geometry":{"type":"Point","coordinates":[-110.37242,24.42355]},"properties":{"depth_ft":33,"depth_m":9.9}},{"type":"Feature","geometry":{"type":"Point","coordinates":[-110.36726,24.42355]},"properties":{"depth_ft":13,"depth_m":3.9}},{"type":"Feature","geometry":{"type":"Point","coordinates":[-110.4034,24.41885]},"properties":{"depth_ft":315,"depth_m":96.0}},{"type":"Feature","geometry":{"type":"Point","coordinates":[-110.39823,24.41885]},"properties":{"depth_ft":280,"depth_m":85.5}},{"type":"Feature","geometry":{"type":"Point","coordinates":[-110.39307,24.41885]},"properties":{"depth_ft":238,"depth_m":72.5}},{"type":"Feature","geometry":{"type":"Point","coordinates":[-110.38791,24.41885]},"properties":{"depth_ft":210,"depth_m":64.0}},{"type":"Feature","geometry":{"type":"Point","coordinates":[-110.38274,24.41885]},"properties":{"depth_ft":183,"depth_m":55.7}},{"type":"Feature","geometry":{"type":"Point","coordinates":[-110.37758,24.41885]},"properties":{"depth_ft":163,"depth_m":49.6}},{"type":"Feature","geometry":{"type":"Point","coordinates":[-110.37242,24.41885]},"properties":{"depth_ft":143,"depth_m":43.5}},{"type":"Feature","geometry":{"type":"Point","coordinates":[-110.36726,24.41885]},"properties":{"depth_ft":49,"depth_m":15.0}},{"type":"Feature","geometry":{"type":"Point","coordinates":[-110.40856,24.41415]},"properties":{"depth_ft":330,"depth_m":100.5}},{"type":"Feature","geometry":{"type":"Point","coordinates":[-110.4034,24.41415]},"properties":{"depth_ft":317,"depth_m":96.6}},{"type":"Feature","geometry":{"type":"Point","coordinates":[-110.39823,24.41415]},"properties":{"depth_ft":294,"depth_m":89.7}},{"type":"Feature","geometry":{"type":"Point","coordinates":[-110.39307,24.41415]},"properties":{"depth_ft":268,"depth_m":81.6}},{"type":"Feature","geometry":{"type":"Point","coordinates":[-110.38791,24.41415]},"properties":{"depth_ft":246,"depth_m":75.0}},{"type":"Feature","geometry":{"type":"Point","coordinates":[-110.38274,24.41415]},"properties":{"depth_ft":228,"depth_m":69.4}},{"type":"Feature","geometry":{"type":"Point","coordinates":[-110.37758,24.41415]},"properties":{"depth_ft":214,"depth_m":65.2}},{"type":"Feature","geometry":{"type":"Point","coordinates":[-110.37242,24.41415]},"properties":{"depth_ft":172,"depth_m":52.5}},{"type":"Feature","geometry":{"type":"Point","coordinates":[-110.36726,24.41415]},"properties":{"depth_ft":52,"depth_m":15.8}},{"type":"Feature","geometry":{"type":"Point","coordinates":[-110.40856,24.40945]},"properties":{"depth_ft":326,"depth_m":99.4}},{"type":"Feature","geometry":{"type":"Point","coordinates":[-110.4034,24.40945]},"properties":{"depth_ft":318,"depth_m":96.8}},{"type":"Feature","geometry":{"type":"Point","coordinates":[-110.39823,24.40945]},"properties":{"depth_ft":304,"depth_m":92.7}},{"type":"Feature","geometry":{"type":"Point","coordinates":[-110.39307,24.40945]},"properties":{"depth_ft":292,"depth_m":88.9}},{"type":"Feature","geometry":{"type":"Point","coordinates":[-110.38791,24.40945]},"properties":{"depth_ft":275,"depth_m":83.7}},{"type":"Feature","geometry":{"type":"Point","coordinates":[-110.38274,24.40945]},"properties":{"depth_ft":258,"depth_m":78.7}},{"type":"Feature","geometry":{"type":"Point","coordinates":[-110.37758,24.40945]},"properties":{"depth_ft":240,"depth_m":73.3}},{"type":"Feature","geometry":{"type":"Point","coordinates":[-110.37242,24.40945]},"properties":{"depth_ft":194,"depth_m":59.0}},{"type":"Feature","geometry":{"type":"Point","coordinates":[-110.36726,24.40945]},"properties":{"depth_ft":62,"depth_m":18.9}},{"type":"Feature","geometry":{"type":"Point","coordinates":[-110.32079,24.40945]},"properties":{"depth_ft":9,"depth_m":2.7}},{"type":"Feature","geometry":{"type":"Point","coordinates":[-110.31563,24.40945]},"properties":{"depth_ft":29,"depth_m":9.0}},{"type":"Feature","geometry":{"type":"Point","coordinates":[-110.40856,24.40475]},"properties":{"depth_ft":324,"depth_m":98.7}},{"type":"Feature","geometry":{"type":"Point","coordinates":[-110.4034,24.40475]},"properties":{"depth_ft":315,"depth_m":96.1}},{"type":"Feature","geometry":{"type":"Point","coordinates":[-110.39823,24.40475]},"properties":{"depth_ft":309,"depth_m":94.1}},{"type":"Feature","geometry":{"type":"Point","coordinates":[-110.39307,24.40475]},"properties":{"depth_ft":304,"depth_m":92.6}},{"type":"Feature","geometry":{"type":"Point","coordinates":[-110.38791,24.40475]},"properties":{"depth_ft":291,"depth_m":88.8}},{"type":"Feature","geometry":{"type":"Point","coordinates":[-110.38274,24.40475]},"properties":{"depth_ft":275,"depth_m":83.8}},{"type":"Feature","geometry":{"type":"Point","coordinates":[-110.37758,24.40475]},"properties":{"depth_ft":251,"depth_m":76.5}},{"type":"Feature","geometry":{"type":"Point","coordinates":[-110.37242,24.40475]},"properties":{"depth_ft":195,"depth_m":59.5}},{"type":"Feature","geometry":{"type":"Point","coordinates":[-110.36726,24.40475]},"properties":{"depth_ft":82,"depth_m":24.9}},{"type":"Feature","geometry":{"type":"Point","coordinates":[-110.32079,24.40475]},"properties":{"depth_ft":39,"depth_m":12.0}},{"type":"Feature","geometry":{"type":"Point","coordinates":[-110.31563,24.40475]},"properties":{"depth_ft":52,"depth_m":15.9}},{"type":"Feature","geometry":{"type":"Point","coordinates":[-110.40856,24.40005]},"properties":{"depth_ft":321,"depth_m":97.9}},{"type":"Feature","geometry":{"type":"Point","coordinates":[-110.4034,24.40005]},"properties":{"depth_ft":312,"depth_m":94.9}},{"type":"Feature","geometry":{"type":"Point","coordinates":[-110.39823,24.40005]},"properties":{"depth_ft":305,"depth_m":93.1}},{"type":"Feature","geometry":{"type":"Point","coordinates":[-110.39307,24.40005]},"properties":{"depth_ft":312,"depth_m":95.1}},{"type":"Feature","geometry":{"type":"Point","coordinates":[-110.38791,24.40005]},"properties":{"depth_ft":301,"depth_m":91.7}},{"type":"Feature","geometry":{"type":"Point","coordinates":[-110.38274,24.40005]},"properties":{"depth_ft":284,"depth_m":86.7}},{"type":"Feature","geometry":{"type":"Point","coordinates":[-110.37758,24.40005]},"properties":{"depth_ft":260,"depth_m":79.4}},{"type":"Feature","geometry":{"type":"Point","coordinates":[-110.37242,24.40005]},"properties":{"depth_ft":211,"depth_m":64.3}},{"type":"Feature","geometry":{"type":"Point","coordinates":[-110.36726,24.40005]},"properties":{"depth_ft":113,"depth_m":34.6}},{"type":"Feature","geometry":{"type":"Point","coordinates":[-110.36209,24.40005]},"properties":{"depth_ft":6,"depth_m":1.8}},{"type":"Feature","geometry":{"type":"Point","coordinates":[-110.33628,24.40005]},"properties":{"depth_ft":17,"depth_m":5.2}},{"type":"Feature","geometry":{"type":"Point","coordinates":[-110.33111,24.40005]},"properties":{"depth_ft":47,"depth_m":14.2}},{"type":"Feature","geometry":{"type":"Point","coordinates":[-110.32595,24.40005]},"properties":{"depth_ft":51,"depth_m":15.6}},{"type":"Feature","geometry":{"type":"Point","coordinates":[-110.32079,24.40005]},"properties":{"depth_ft":58,"depth_m":17.8}},{"type":"Feature","geometry":{"type":"Point","coordinates":[-110.31563,24.40005]},"properties":{"depth_ft":68,"depth_m":20.7}},{"type":"Feature","geometry":{"type":"Point","coordinates":[-110.40856,24.39535]},"properties":{"depth_ft":316,"depth_m":96.4}},{"type":"Feature","geometry":{"type":"Point","coordinates":[-110.4034,24.39535]},"properties":{"depth_ft":307,"depth_m":93.5}},{"type":"Feature","geometry":{"type":"Point","coordinates":[-110.39823,24.39535]},"properties":{"depth_ft":302,"depth_m":92.1}},{"type":"Feature","geometry":{"type":"Point","coordinates":[-110.39307,24.39535]},"properties":{"depth_ft":310,"depth_m":94.5}},{"type":"Feature","geometry":{"type":"Point","coordinates":[-110.38791,24.39535]},"properties":{"depth_ft":302,"depth_m":92.1}},{"type":"Feature","geometry":{"type":"Point","coordinates":[-110.38274,24.39535]},"properties":{"depth_ft":286,"depth_m":87.1}},{"type":"Feature","geometry":{"type":"Point","coordinates":[-110.37758,24.39535]},"properties":{"depth_ft":265,"depth_m":80.7}},{"type":"Feature","geometry":{"type":"Point","coordinates":[-110.37242,24.39535]},"properties":{"depth_ft":226,"depth_m":69.0}},{"type":"Feature","geometry":{"type":"Point","coordinates":[-110.36726,24.39535]},"properties":{"depth_ft":152,"depth_m":46.4}},{"type":"Feature","geometry":{"type":"Point","coordinates":[-110.36209,24.39535]},"properties":{"depth_ft":75,"depth_m":22.8}},{"type":"Feature","geometry":{"type":"Point","coordinates":[-110.35693,24.39535]},"properties":{"depth_ft":18,"depth_m":5.5}},{"type":"Feature","geometry":{"type":"Point","coordinates":[-110.35177,24.39535]},"properties":{"depth_ft":27,"depth_m":8.1}},{"type":"Feature","geometry":{"type":"Point","coordinates":[-110.3466,24.39535]},"properties":{"depth_ft":63,"depth_m":19.3}},{"type":"Feature","geometry":{"type":"Point","coordinates":[-110.34144,24.39535]},"properties":{"depth_ft":82,"depth_m":25.1}},{"type":"Feature","geometry":{"type":"Point","coordinates":[-110.33628,24.39535]},"properties":{"depth_ft":81,"depth_m":24.8}},{"type":"Feature","geometry":{"type":"Point","coordinates":[-110.33111,24.39535]},"properties":{"depth_ft":72,"depth_m":22.1}},{"type":"Feature","geometry":{"type":"Point","coordinates":[-110.32595,24.39535]},"properties":{"depth_ft":67,"depth_m":20.3}},{"type":"Feature","geometry":{"type":"Point","coordinates":[-110.32079,24.39535]},"properties":{"depth_ft":66,"depth_m":20.1}},{"type":"Feature","geometry":{"type":"Point","coordinates":[-110.31563,24.39535]},"properties":{"depth_ft":70,"depth_m":21.3}},{"type":"Feature","geometry":{"type":"Point","coordinates":[-110.40856,24.39065]},"properties":{"depth_ft":311,"depth_m":94.8}},{"type":"Feature","geometry":{"type":"Point","coordinates":[-110.4034,24.39065]},"properties":{"depth_ft":300,"depth_m":91.5}},{"type":"Feature","geometry":{"type":"Point","coordinates":[-110.39823,24.39065]},"properties":{"depth_ft":299,"depth_m":91.3}},{"type":"Feature","geometry":{"type":"Point","coordinates":[-110.39307,24.39065]},"properties":{"depth_ft":305,"depth_m":92.9}},{"type":"Feature","geometry":{"type":"Point","coordinates":[-110.38791,24.39065]},"properties":{"depth_ft":297,"depth_m":90.4}},{"type":"Feature","geometry":{"type":"Point","coordinates":[-110.38274,24.39065]},"properties":{"depth_ft":282,"depth_m":85.9}},{"type":"Feature","geometry":{"type":"Point","coordinates":[-110.37758,24.39065]},"properties":{"depth_ft":262,"depth_m":79.9}},{"type":"Feature","geometry":{"type":"Point","coordinates":[-110.37242,24.39065]},"properties":{"depth_ft":234,"depth_m":71.4}},{"type":"Feature","geometry":{"type":"Point","coordinates":[-110.36726,24.39065]},"properties":{"depth_ft":191,"depth_m":58.1}},{"type":"Feature","geometry":{"type":"Point","coordinates":[-110.36209,24.39065]},"properties":{"depth_ft":153,"depth_m":46.5}},{"type":"Feature","geometry":{"type":"Point","coordinates":[-110.35693,24.39065]},"properties":{"depth_ft":140,"depth_m":42.5}},{"type":"Feature","geometry":{"type":"Point","coordinates":[-110.35177,24.39065]},"properties":{"depth_ft":131,"depth_m":40.1}},{"type":"Feature","geometry":{"type":"Point","coordinates":[-110.3466,24.39065]},"properties":{"depth_ft":146,"depth_m":44.4}},{"type":"Feature","geometry":{"type":"Point","coordinates":[-110.34144,24.39065]},"properties":{"depth_ft":144,"depth_m":43.9}},{"type":"Feature","geometry":{"type":"Point","coordinates":[-110.33628,24.39065]},"properties":{"depth_ft":119,"depth_m":36.1}},{"type":"Feature","geometry":{"type":"Point","coordinates":[-110.33111,24.39065]},"properties":{"depth_ft":95,"depth_m":29.1}},{"type":"Feature","geometry":{"type":"Point","coordinates":[-110.32595,24.39065]},"properties":{"depth_ft":76,"depth_m":23.2}},{"type":"Feature","geometry":{"type":"Point","coordinates":[-110.32079,24.39065]},"properties":{"depth_ft":65,"depth_m":19.8}},{"type":"Feature","geometry":{"type":"Point","coordinates":[-110.31563,24.39065]},"properties":{"depth_ft":64,"depth_m":19.5}},{"type":"Feature","geometry":{"type":"Point","coordinates":[-110.40856,24.38595]},"properties":{"depth_ft":311,"depth_m":94.9}},{"type":"Feature","geometry":{"type":"Point","coordinates":[-110.4034,24.38595]},"properties":{"depth_ft":297,"depth_m":90.4}},{"type":"Feature","geometry":{"type":"Point","coordinates":[-110.39823,24.38595]},"properties":{"depth_ft":296,"depth_m":90.1}},{"type":"Feature","geometry":{"type":"Point","coordinates":[-110.39307,24.38595]},"properties":{"depth_ft":298,"depth_m":90.9}},{"type":"Feature","geometry":{"type":"Point","coordinates":[-110.38791,24.38595]},"properties":{"depth_ft":289,"depth_m":88.1}},{"type":"Feature","geometry":{"type":"Point","coordinates":[-110.38274,24.38595]},"properties":{"depth_ft":275,"depth_m":83.8}},{"type":"Feature","geometry":{"type":"Point","coordinates":[-110.37758,24.38595]},"properties":{"depth_ft":256,"depth_m":77.9}},{"type":"Feature","geometry":{"type":"Point","coordinates":[-110.37242,24.38595]},"properties":{"depth_ft":234,"depth_m":71.4}},{"type":"Feature","geometry":{"type":"Point","coordinates":[-110.36726,24.38595]},"properties":{"depth_ft":214,"depth_m":65.2}},{"type":"Feature","geometry":{"type":"Point","coordinates":[-110.36209,24.38595]},"properties":{"depth_ft":203,"depth_m":61.9}},{"type":"Feature","geometry":{"type":"Point","coordinates":[-110.35693,24.38595]},"properties":{"depth_ft":204,"depth_m":62.2}},{"type":"Feature","geometry":{"type":"Point","coordinates":[-110.35177,24.38595]},"properties":{"depth_ft":194,"depth_m":59.1}},{"type":"Feature","geometry":{"type":"Point","coordinates":[-110.3466,24.38595]},"properties":{"depth_ft":186,"depth_m":56.7}},{"type":"Feature","geometry":{"type":"Point","coordinates":[-110.34144,24.38595]},"properties":{"depth_ft":172,"depth_m":52.4}},{"type":"Feature","geometry":{"type":"Point","coordinates":[-110.33628,24.38595]},"properties":{"depth_ft":141,"depth_m":42.9}},{"type":"Feature","geometry":{"type":"Point","coordinates":[-110.33111,24.38595]},"properties":{"depth_ft":109,"depth_m":33.2}},{"type":"Feature","geometry":{"type":"Point","coordinates":[-110.32595,24.38595]},"properties":{"depth_ft":84,"depth_m":25.5}},{"type":"Feature","geometry":{"type":"Point","coordinates":[-110.32079,24.38595]},"properties":{"depth_ft":67,"depth_m":20.4}},{"type":"Feature","geometry":{"type":"Point","coordinates":[-110.31563,24.38595]},"properties":{"depth_ft":60,"depth_m":18.4}}]}