{"type":"FeatureCollection","features":[{"type":"Feature","geometry":{"type":"Polygon","coordinates":[[[-110.28408,24.35288],[-110.28371,24.3533],[-110.28344,24.35335],[-110.28225,24.35302],[-110.28191376925312,24.352855855855857],[-110.28409275218881,24.352855855855857],[-110.28408,24.35288]]]},"properties":{"name":"baja-north-pacific"}},{"type":"Feature","geometry":{"type":"Polygon","coordinates":[[[-110.34742,24.42842],[-110.34774,24.429],[-110.34772,24.4295],[-110.34706,24.43019],[-110.34685,24.43066],[-110.3469,24.43128],[-110.34767,24.43202],[-110.35067,24.43378],[-110.35639,24.43621],[-110.35877,24.4368],[-110.36288,24.43712],[-110.36324,24.43691],[-110.36345,24.43591],[-110.36384,24.43551],[-110.36537,24.4353],[-110.36619,24.43502],[-110.36708,24.43448],[-110.36775,24.43379],[-110.3679,24.43313],[-110.36767,24.43267],[-110.36701,24.43214],[-110.3664,24.43216],[-110.36629,24.43181],[-110.36706,24.43102],[-110.3685,24.43066],[-110.36909,24.43036],[-110.36931,24.42994],[-110.36944,24.42868],[-110.37007,24.42776],[-110.37008,24.42706],[-110.37023,24.42696],[-110.37047,24.42707],[-110.37054,24.42852],[-110.37083,24.42974],[-110.37137,24.43087],[-110.37133,24.43164],[-110.37168,24.43292],[-110.37247,24.43454],[-110.37278,24.43586],[-110.37276,24.43674],[-110.37189,24.44012],[-110.37194,24.44043],[-110.37232,24.44075],[-110.37586,24.44095],[-110.37621,24.44116],[-110.37615,24.44145],[-110.37563,24.44204],[-110.37448,24.44314],[-110.37393,24.4433],[-110.37345,24.44317],[-110.37233,24.44398],[-110.37124,24.44525],[-110.37137,24.44592],[-110.37181,24.44665],[-110.37255,24.44713],[-110.37416,24.44701],[-110.3742,24.44661],[-110.37374,24.44645],[-110.37422,24.4463],[-110.37504,24.44649],[-110.37601,24.44703],[-110.3778,24.44741],[-110.37833,24.44791],[-110.37845,24.4486],[-110.37812,24.44911],[-110.37749,24.44926],[-110.37515,24.44864],[-110.37375,24.44873],[-110.37223,24.44905],[-110.36962,24.45037],[-110.36772,24.45082],[-110.36629,24.45136],[-110.36492,24.4515],[-110.36296,24.45277],[-110.36149,24.4529],[-110.36128,24.45266],[-110.36083,24.45268],[-110.35652,24.45516],[-110.35464,24.45603],[-110.35407,24.45668],[-110.35446,24.45701],[-110.35477,24.45763],[-110.35462,24.45877],[-110.35577,24.45893],[-110.35766,24.45832],[-110.36095,24.45809],[-110.36188,24.45866],[-110.36273,24.45866],[-110.36432,24.45796],[-110.36663,24.45735],[-110.36843,24.45804],[-110.3691,24.45778],[-110.36924,24.45739],[-110.37003,24.45711],[-110.37092,24.4569],[-110.3713,24.45714],[-110.37118,24.45814],[-110.37097,24.45837],[-110.36829,24.45985],[-110.36806,24.4601],[-110.3681,24.46151],[-110.36863,24.46248],[-110.36845,24.46286],[-110.36782,24.46299],[-110.36726,24.46277],[-110.3667,24.4628],[-110.36506,24.46368],[-110.36306,24.46383],[-110.36196,24.46484],[-110.36068,24.46551],[-110.35929,24.4668],[-110.35845,24.46736],[-110.35754,24.4677],[-110.35665,24.46844],[-110.35658,24.46881],[-110.35815,24.46968],[-110.36035,24.47006],[-110.36503,24.46988],[-110.36674,24.46922],[-110.36936,24.46977],[-110.37091,24.46949],[-110.37225,24.46885],[-110.37383,24.46681],[-110.37436,24.46645],[-110.37573,24.46656],[-110.37629,24.46693],[-110.37659,24.46746],[-110.3767,24.46815],[-110.37648,24.46976],[-110.37594,24.47068],[-110.3746,24.47179],[-110.37348,24.47381],[-110.37259,24.47478],[-110.37089,24.47547],[-110.37002,24.47624],[-110.36889,24.4764],[-110.36751,24.47709],[-110.36702,24.47745],[-110.36628,24.4784],[-110.3645,24.47921],[-110.36431,24.47995],[-110.36452,24.48057],[-110.36538,24.48108],[-110.36681,24.48102],[-110.36863,24.48062],[-110.3694,24.48017],[-110.36982,24.4802],[-110.37067,24.48068],[-110.37126,24.48041],[-110.37319,24.48024],[-110.37397,24.47945],[-110.37559,24.47917],[-110.37681,24.47806],[-110.37895,24.47728],[-110.38112,24.4757],[-110.38306,24.475],[-110.38428,24.47426],[-110.38482,24.47418],[-110.38647,24.4744],[-110.38624,24.47529],[-110.38504,24.47645],[-110.38522,24.47697],[-110.38581,24.47709],[-110.38606,24.47738],[-110.38582,24.47893],[-110.38642,24.47942],[-110.38758,24.47969],[-110.38913,24.48032],[-110.38925,24.48058],[-110.38915,24.48163],[-110.38875,24.48241],[-110.38763,24.48363],[-110.38794,24.48418],[-110.38741,24.48508],[-110.3849,24.48691],[-110.38369,24.48728],[-110.38282,24.48726],[-110.38267,24.48775],[-110.38279,24.48873],[-110.38329,24.48981],[-110.38508,24.4915],[-110.38608,24.49107],[-110.38677,24.49099],[-110.38904,24.48977],[-110.38971,24.49019],[-110.39074,24.4903],[-110.39085,24.4906],[-110.39051,24.49126],[-110.3897,24.49208],[-110.38795,24.49296],[-110.3869,24.49331],[-110.38687,24.49359],[-110.38703,24.49369],[-110.3883,24.4935],[-110.38883,24.49362],[-110.38954,24.49327],[-110.38991,24.49345],[-110.39038,24.49342],[-110.39055,24.49373],[-110.39118,24.49352],[-110.39154,24.49381],[-110.3914,24.49521],[-110.39065,24.49696],[-110.38999,24.49755],[-110.39043,24.49777],[-110.39184,24.49771],[-110.39297,24.49685],[-110.39317,24.49695],[-110.39274,24.49776],[-110.392,24.49834],[-110.38848,24.49962],[-110.38572,24.50172],[-110.38266,24.50515],[-110.38249,24.50561],[-110.38254,24.50598],[-110.38329,24.50746],[-110.38364,24.50777],[-110.38401,24.50768],[-110.38412,24.50834],[-110.38484,24.50924],[-110.38812,24.50882],[-110.39143,24.50913],[-110.39172,24.50933],[-110.39171,24.5099],[-110.39215,24.51016],[-110.39356,24.51011],[-110.39538,24.5096],[-110.39714,24.50964],[-110.39752,24.51004],[-110.39751,24.51035],[-110.39603,24.51176],[-110.39022,24.51466],[-110.38947,24.51484],[-110.38837,24.51479],[-110.38764,24.51501],[-110.38737,24.5154],[-110.38744,24.51585],[-110.38764,24.51618],[-110.38824,24.51612],[-110.39015,24.51678],[-110.39398,24.51688],[-110.39501,24.51669],[-110.3953,24.51693],[-110.39474,24.51782],[-110.39646,24.5178],[-110.39703,24.51797],[-110.39741,24.51828],[-110.39788,24.51798],[-110.39866,24.51789],[-110.39904,24.51807],[-110.39934,24.51849],[-110.39882,24.51953],[-110.39711,24.52009],[-110.39464,24.52139],[-110.39278,24.52196],[-110.39135,24.5222],[-110.38877,24.52199],[-110.3851,24.5225],[-110.38403,24.5224],[-110.38292,24.52199],[-110.38243,24.52205],[-110.3809,24.52295],[-110.37851,24.524],[-110.3779,24.52488],[-110.37649,24.52605],[-110.37361,24.52708],[-110.37149,24.52742],[-110.37067,24.52786],[-110.36999,24.52854],[-110.37039,24.53133],[-110.36992,24.52992],[-110.3692,24.52935],[-110.36794,24.52911],[-110.36682,24.52926],[-110.36468,24.5308],[-110.36365,24.53198],[-110.3627,24.53251],[-110.36247,24.53322],[-110.36122,24.5337],[-110.36043,24.53359],[-110.35919,24.53273],[-110.3565,24.5317],[-110.35381,24.53136],[-110.35325,24.53144],[-110.35246,24.53118],[-110.34989,24.53126],[-110.34888,24.53099],[-110.3484,24.5306],[-110.34644,24.53007],[-110.346,24.52952],[-110.34541,24.52919],[-110.34523,24.52885],[-110.34441,24.52872],[-110.3443,24.52854],[-110.34458,24.5282],[-110.3424,24.52661],[-110.34133,24.52638],[-110.33995,24.52581],[-110.33895,24.52475],[-110.33729,24.52439],[-110.33533,24.5234],[-110.33497,24.52214],[-110.33327,24.52103],[-110.33346,24.52073],[-110.33324,24.52015],[-110.33217,24.5193],[-110.33205,24.51887],[-110.33213,24.51788],[-110.33198,24.51748],[-110.33173,24.51702],[-110.33003,24.51539],[-110.32972,24.51491],[-110.32894,24.51281],[-110.32888,24.51204],[-110.32844,24.51068],[-110.32786,24.50955],[-110.32675,24.50831],[-110.32599,24.50677],[-110.32514,24.5058],[-110.32381,24.50474],[-110.32329,24.5039],[-110.3199,24.50143],[-110.31792,24.50069],[-110.31701,24.50053],[-110.31464,24.50059],[-110.31381,24.50035],[-110.31252,24.50045],[-110.31034,24.50198],[-110.30954,24.5033],[-110.30885,24.50331],[-110.30833,24.50404],[-110.3077,24.50449],[-110.30687,24.50462],[-110.30561,24.50378],[-110.30522,24.50304],[-110.30456,24.5026],[-110.30321,24.50101],[-110.30323,24.50072],[-110.30386,24.50034],[-110.30397,24.49947],[-110.30385,24.49825],[-110.3033,24.4968],[-110.30246,24.49554],[-110.3021,24.49455],[-110.30226,24.49374],[-110.30297,24.49235],[-110.30339,24.492],[-110.30501,24.49133],[-110.30656,24.48947],[-110.30662,24.48859],[-110.30623,24.48719],[-110.30334,24.48443],[-110.30109,24.48121],[-110.29958,24.47851],[-110.29905,24.47799],[-110.29754,24.47716],[-110.29535,24.4766],[-110.29376,24.47696],[-110.29292,24.47695],[-110.29232,24.47736],[-110.29195,24.47725],[-110.29109,24.47642],[-110.29022,24.47593],[-110.28989,24.47516],[-110.28982,24.47413],[-110.28923,24.47342],[-110.28893,24.47248],[-110.28905,24.4705],[-110.28996,24.46996],[-110.29029,24.46958],[-110.29021,24.46844],[-110.29071,24.46784],[-110.29068,24.4671],[-110.29081,24.46657],[-110.29129,24.46584],[-110.2919,24.46289],[-110.29208,24.46264],[-110.29288,24.46236],[-110.2941,24.46103],[-110.29412,24.46007],[-110.29371,24.45928],[-110.29327,24.459],[-110.29337,24.45863],[-110.29418,24.45826],[-110.29484,24.45827],[-110.29542,24.45806],[-110.2986,24.45794],[-110.29959,24.45755],[-110.30038,24.45685],[-110.30126,24.45681],[-110.30266,24.45642],[-110.30341,24.45638],[-110.30425,24.45671],[-110.30454,24.45667],[-110.30613,24.45537],[-110.30651,24.4554],[-110.30699,24.45595],[-110.30772,24.45591],[-110.30852,24.45532],[-110.30941,24.45413],[-110.31124,24.45022],[-110.3123,24.44747],[-110.31293,24.44486],[-110.31326,24.44127],[-110.31308,24.43907],[-110.31227,24.43466],[-110.31042,24.43038],[-110.31015,24.42945],[-110.30974,24.42883],[-110.3099,24.42817],[-110.30838,24.4263],[-110.30787,24.42597],[-110.3079,24.42555],[-110.30771,24.42514],[-110.30872,24.42502],[-110.30922,24.42472],[-110.30997,24.42458],[-110.31144,24.42345],[-110.31194,24.42336],[-110.31279,24.42274],[-110.31301,24.42274],[-110.31316,24.42306],[-110.31348,24.42324],[-110.31471,24.42311],[-110.31552,24.42255],[-110.31592,24.42174],[-110.31734,24.42105],[-110.31796,24.42054],[-110.31851,24.4197],[-110.32001,24.41634],[-110.32099,24.41513],[-110.32257,24.4126],[-110.3246,24.4109],[-110.32514,24.40894],[-110.32563,24.40799],[-110.32568,24.40339],[-110.32598,24.40292],[-110.32754,24.40238],[-110.32919,24.40235],[-110.33575,24.40466],[-110.3387,24.40485],[-110.34163,24.40338],[-110.3431,24.40232],[-110.34461,24.40166],[-110.34557,24.40167],[-110.34771,24.40109],[-110.34844,24.40122],[-110.34873,24.40144],[-110.34881,24.40219],[-110.3487,24.40255],[-110.34811,24.40325],[-110.34815,24.40373],[-110.34852,24.40412],[-110.35145,24.4054],[-110.35202,24.40635],[-110.35206,24.40716],[-110.35183,24.40767],[-110.35114,24.4082],[-110.35047,24.40837],[-110.35015,24.40804],[-110.34862,24.40846],[-110.34834,24.40891],[-110.34806,24.40999],[-110.34818,24.41037],[-110.34875,24.4109],[-110.3488,24.4118],[-110.3486,24.4124],[-110.34823,24.41281],[-110.34766,24.41279],[-110.34682,24.41351],[-110.34559,24.41408],[-110.34547,24.4145],[-110.34502,24.41459],[-110.34507,24.41524],[-110.34533,24.4156],[-110.34596,24.41575],[-110.3474,24.41718],[-110.34846,24.41774],[-110.34926,24.41792],[-110.35052,24.41614],[-110.3531,24.41428],[-110.35411,24.41424],[-110.35475,24.4151],[-110.3545,24.41597],[-110.35361,24.41676],[-110.35352,24.41709],[-110.3537,24.41788],[-110.35432,24.41916],[-110.35254,24.42079],[-110.35204,24.42206],[-110.35104,24.42298],[-110.35034,24.42435],[-110.3496,24.42507],[-110.34742,24.42842]]]},"properties":{"name":"isla-espiritu-santo"}},{"type":"Feature","geometry":{"type":"Polygon","coordinates":[[[-110.37489,24.53427],[-110.37512,24.53458],[-110.37501,24.53548],[-110.37512,24.53575],[-110.37652,24.5378],[-110.37744,24.53872],[-110.3775,24.53947],[-110.37821,24.53986],[-110.37962,24.54006],[-110.38058,24.53982],[-110.38165,24.53871],[-110.38274,24.53569],[-110.38272,24.53485],[-110.38295,24.53381],[-110.38283,24.53353],[-110.3832,24.53319],[-110.38371,24.53171],[-110.38458,24.53113],[-110.38795,24.5312],[-110.38922,24.53158],[-110.39041,24.53166],[-110.39145,24.53262],[-110.3928,24.5327],[-110.39337,24.53257],[-110.39347,24.53303],[-110.39299,24.53451],[-110.39161,24.53685],[-110.39088,24.53752],[-110.38887,24.53825],[-110.38877,24.53843],[-110.38895,24.53875],[-110.39218,24.53851],[-110.39401,24.53744],[-110.3947,24.53687],[-110.39585,24.53681],[-110.39652,24.53633],[-110.39665,24.53574],[-110.39885,24.536],[-110.39918,24.53618],[-110.39909,24.5366],[-110.39837,24.53713],[-110.39681,24.53909],[-110.39523,24.54043],[-110.39191,24.5422],[-110.39194,24.54255],[-110.39115,24.54305],[-110.3903,24.54314],[-110.38951,24.54354],[-110.38629,24.54573],[-110.38494,24.54681],[-110.38262,24.54938],[-110.38217,24.54969],[-110.38179,24.54974],[-110.38183,24.54938],[-110.38147,24.54904],[-110.38019,24.54913],[-110.37701,24.54977],[-110.37658,24.54996],[-110.37465,24.55153],[-110.37467,24.55166],[-110.37524,24.55168],[-110.37565,24.55189],[-110.37593,24.55255],[-110.37623,24.55281],[-110.37779,24.55321],[-110.37906,24.55402],[-110.38034,24.55452],[-110.38158,24.5559],[-110.38282,24.55677],[-110.38366,24.55694],[-110.38612,24.55586],[-110.38688,24.55521],[-110.38793,24.55323],[-110.38846,24.55307],[-110.38962,24.55222],[-110.39197,24.55097],[-110.39314,24.5506],[-110.39435,24.55046],[-110.39564,24.54962],[-110.39678,24.54922],[-110.39706,24.54894],[-110.39823,24.54887],[-110.39995,24.54816],[-110.40373,24.54619],[-110.40416,24.54572],[-110.40765,24.54432],[-110.40806,24.54432],[-110.40815,24.54456],[-110.40712,24.54624],[-110.40744,24.54686],[-110.40801,24.54715],[-110.40867,24.54713],[-110.40976,24.54741],[-110.4095,24.54807],[-110.40889,24.54859],[-110.40862,24.54939],[-110.40786,24.54978],[-110.40674,24.5499],[-110.40443,24.5514],[-110.40389,24.55212],[-110.40412,24.55244],[-110.40435,24.55249],[-110.40656,24.5519],[-110.40648,24.55217],[-110.40608,24.55242],[-110.40561,24.55306],[-110.40585,24.55332],[-110.4076,24.5527],[-110.40866,24.55187],[-110.40963,24.55182],[-110.41078,24.55227],[-110.41131,24.553],[-110.41155,24.55386],[-110.41036,24.55399],[-110.40874,24.55354],[-110.40663,24.55374],[-110.40262,24.55486],[-110.4021,24.55527],[-110.40133,24.5553],[-110.40031,24.5563],[-110.39858,24.55697],[-110.39826,24.55734],[-110.39758,24.55729],[-110.39731,24.55693],[-110.3969,24.55689],[-110.3961,24.55742],[-110.39603,24.55768],[-110.39631,24.55816],[-110.39624,24.55837],[-110.39562,24.55878],[-110.39472,24.55978],[-110.39408,24.56149],[-110.39304,24.56222],[-110.39332,24.56297],[-110.39376,24.56344],[-110.39412,24.56356],[-110.39542,24.56334],[-110.39616,24.56299],[-110.3969,24.56287],[-110.3972,24.56249],[-110.39713,24.56191],[-110.39752,24.56169],[-110.39918,24.56154],[-110.40009,24.56128],[-110.40226,24.56123],[-110.4027,24.56134],[-110.40307,24.56184],[-110.40297,24.56286],[-110.40239,24.56363],[-110.40181,24.56396],[-110.40077,24.56492],[-110.4014,24.56604],[-110.40202,24.56652],[-110.40253,24.56642],[-110.40351,24.56581],[-110.40403,24.56626],[-110.40463,24.56605],[-110.40543,24.56604],[-110.4057,24.56619],[-110.40597,24.56687],[-110.40532,24.56835],[-110.40592,24.56881],[-110.40682,24.56834],[-110.40813,24.56802],[-110.41056,24.56598],[-110.41193,24.56553],[-110.41361,24.56456],[-110.41414,24.56443],[-110.4153,24.56452],[-110.41564,24.56482],[-110.41562,24.56516],[-110.41502,24.56639],[-110.41427,24.56727],[-110.41445,24.568],[-110.41433,24.56844],[-110.41318,24.57],[-110.41188,24.57079],[-110.41175,24.57115],[-110.41184,24.57243],[-110.41093,24.57284],[-110.41004,24.57392],[-110.4094,24.57427],[-110.40884,24.57415],[-110.40817,24.57483],[-110.40618,24.57591],[-110.40419,24.57733],[-110.40272,24.57902],[-110.40211,24.57953],[-110.4015,24.57979],[-110.40118,24.58018],[-110.40051,24.5802],[-110.39987,24.57999],[-110.3993,24.58042],[-110.39639,24.58045],[-110.39627,24.58087],[-110.39663,24.58132],[-110.39749,24.5818],[-110.39822,24.58185],[-110.3988,24.58252],[-110.39914,24.58252],[-110.39956,24.5821],[-110.40051,24.5826],[-110.40084,24.58302],[-110.40092,24.58341],[-110.4008,24.58471],[-110.40108,24.585],[-110.40148,24.58507],[-110.40181,24.58553],[-110.40174,24.58601],[-110.40153,24.58625],[-110.40091,24.58642],[-110.3999,24.58733],[-110.39922,24.58771],[-110.39853,24.58894],[-110.39801,24.58941],[-110.39791,24.58997],[-110.39836,24.59066],[-110.39846,24.59112],[-110.39788,24.59177],[-110.39712,24.59203],[-110.39595,24.59212],[-110.39454,24.59196],[-110.39319,24.59143],[-110.39129,24.59022],[-110.39053,24.59013],[-110.3892,24.59033],[-110.38875,24.59011],[-110.38819,24.58946],[-110.38706,24.58892],[-110.38646,24.58887],[-110.38506,24.58779],[-110.38427,24.5861],[-110.38424,24.58568],[-110.38373,24.58535],[-110.38256,24.58502],[-110.38194,24.58455],[-110.38108,24.5836],[-110.38061,24.58265],[-110.38091,24.58198],[-110.38082,24.58145],[-110.38103,24.58124],[-110.38065,24.58059],[-110.38072,24.57995],[-110.37992,24.57873],[-110.38002,24.57842],[-110.37972,24.57787],[-110.38049,24.57734],[-110.38065,24.57707],[-110.38077,24.57597],[-110.38047,24.57452],[-110.38089,24.57275],[-110.37945,24.57019],[-110.3775,24.56838],[-110.37714,24.56833],[-110.37629,24.56872],[-110.37584,24.56871],[-110.37543,24.56847],[-110.37445,24.56716],[-110.37371,24.56704],[-110.37356,24.56745],[-110.3733,24.56732],[-110.37313,24.56653],[-110.37247,24.56589],[-110.37249,24.56476],[-110.37163,24.56419],[-110.37151,24.56343],[-110.37118,24.5631],[-110.37008,24.56243],[-110.36901,24.56266],[-110.36803,24.56265],[-110.36749,24.56235],[-110.36723,24.56174],[-110.36758,24.56084],[-110.36742,24.55946],[-110.36769,24.55846],[-110.36775,24.55718],[-110.36703,24.55617],[-110.36619,24.55569],[-110.36526,24.55565],[-110.36421,24.55618],[-110.36376,24.55621],[-110.36171,24.55484],[-110.36135,24.55423],[-110.3612,24.55332],[-110.36061,24.5522],[-110.36006,24.5503],[-110.3602,24.54836],[-110.36045,24.54731],[-110.36032,24.54513],[-110.36072,24.54421],[-110.36076,24.54287],[-110.36104,24.54274],[-110.36145,24.54189],[-110.3622,24.54115],[-110.36284,24.54101],[-110.36341,24.54063],[-110.36394,24.53953],[-110.36403,24.53875],[-110.36484,24.538],[-110.36534,24.53775],[-110.36583,24.53715],[-110.36597,24.53659],[-110.36578,24.53482],[-110.36615,24.53346],[-110.36666,24.53259],[-110.3671,24.53134],[-110.36739,24.53117],[-110.36784,24.53047],[-110.36811,24.53111],[-110.36837,24.53312],[-110.36878,24.53382],[-110.36946,24.53448],[-110.37118,24.53389],[-110.3726,24.53423],[-110.37446,24.53409],[-110.37489,24.53427]]]},"properties":{"name":"unnamed-land"}},{"type":"Feature","geometry":{"type":"Polygon","coordinates":[[[-110.40815,24.48098],[-110.40847,24.48125],[-110.40906,24.48148],[-110.40974,24.48143],[-110.40974,24.48169],[-110.40799,24.48246],[-110.40523,24.48296],[-110.40453,24.48373],[-110.40442,24.48442],[-110.40475,24.48449],[-110.4049,24.48471],[-110.40467,24.48501],[-110.40414,24.48505],[-110.40379,24.48539],[-110.40296,24.48576],[-110.39806,24.48628],[-110.39796,24.48584],[-110.39917,24.48477],[-110.39935,24.48424],[-110.40024,24.48312],[-110.40038,24.48268],[-110.40146,24.48168],[-110.40271,24.48113],[-110.4066,24.47999],[-110.40752,24.47955],[-110.40849,24.47965],[-110.40837,24.47988],[-110.40808,24.47997],[-110.40815,24.48098]]]},"properties":{"name":"unnamed-land"}},{"type":"Feature","geometry":{"type":"Polygon","coordinates":[[[-110.38807,24.46593],[-110.38668,24.46635],[-110.38435,24.46662],[-110.38268,24.46662],[-110.3821,24.46647],[-110.3822,24.46625],[-110.38414,24.46584],[-110.38717,24.46552],[-110.38803,24.46529],[-110.38871,24.46534],[-110.38807,24.46593]]]},"properties":{"name":"unnamed-land"}},{"type":"Feature","geometry":{"type":"Polygon","coordinates":[[[-110.40424,24.5978],[-110.40457,24.59819],[-110.40446,24.59845],[-110.40419,24.59853],[-110.40409,24.59884],[-110.40176,24.59908],[-110.40183,24.59921],[-110.40159,24.59928],[-110.40093,24.59902],[-110.40087,24.59884],[-110.4011,24.59894],[-110.40178,24.59883],[-110.40211,24.59856],[-110.40233,24.59863],[-110.403,24.59837],[-110.40353,24.59799],[-110.40424,24.5978]]]},"properties":{"name":"unnamed-land"}}]}