{"type":"FeatureCollection","features":[{"type":"Feature","geometry":{"type":"Polygon","coordinates":[[[-110.248,24.379],[-110.449,24.379],[-110.449,24.637],[-110.248,24.637],[-110.248,24.379]],[[-110.401,24.599],[-110.403,24.599],[-110.404,24.598],[-110.401,24.599]],[[-110.4,24.599],[-110.4,24.599],[-110.399,24.599],[-110.4,24.599]],[[-110.394,24.592],[-110.398,24.592],[-110.398,24.591],[-110.398,24.589],[-110.402,24.586],[-110.401,24.585],[-110.4,24.583],[-110.399,24.582],[-110.398,24.582],[-110.396,24.581],[-110.396,24.58],[-110.399,24.58],[-110.4,24.58],[-110.401,24.58],[-110.404,24.577],[-110.41,24.574],[-110.41,24.572],[-110.412,24.572],[-110.412,24.571],[-110.414,24.568],[-110.414,24.567],[-110.415,24.565],[-110.415,24.564],[-110.414,24.564],[-110.41,24.566],[-110.408,24.568],[-110.405,24.569],[-110.405,24.566],[-110.403,24.566],[-110.402,24.566],[-110.4,24.565],[-110.403,24.563],[-110.402,24.561],[-110.397,24.562],[-110.397,24.563],[-110.394,24.563],[-110.393,24.563],[-110.396,24.557],[-110.398,24.557],[-110.401,24.555],[-110.402,24.555],[-110.402,24.555],[-110.402,24.554],[-110.402,24.555],[-110.408,24.553],[-110.411,24.554],[-110.41,24.552],[-110.409,24.552],[-110.406,24.553],[-110.405,24.553],[-110.406,24.552],[-110.404,24.552],[-110.405,24.55],[-110.408,24.549],[-110.409,24.548],[-110.409,24.547],[-110.408,24.547],[-110.407,24.546],[-110.408,24.544],[-110.405,24.545],[-110.4,24.548],[-110.391,24.551],[-110.388,24.553],[-110.386,24.556],[-110.383,24.557],[-110.38,24.554],[-110.376,24.553],[-110.376,24.552],[-110.374,24.551],[-110.377,24.55],[-110.38,24.549],[-110.381,24.549],[-110.382,24.55],[-110.382,24.549],[-110.386,24.545],[-110.389,24.543],[-110.391,24.543],[-110.392,24.542],[-110.396,24.54],[-110.397,24.538],[-110.396,24.539],[-110.397,24.538],[-110.397,24.538],[-110.397,24.538],[-110.399,24.536],[-110.396,24.536],[-110.392,24.538],[-110.389,24.539],[-110.389,24.538],[-110.391,24.537],[-110.392,24.536],[-110.393,24.532],[-110.391,24.533],[-110.391,24.532],[-110.39,24.531],[-110.385,24.531],[-110.383,24.532],[-110.383,24.533],[-110.383,24.535],[-110.381,24.539],[-110.38,24.54],[-110.379,24.54],[-110.377,24.539],[-110.376,24.538],[-110.375,24.536],[-110.375,24.534],[-110.371,24.534],[-110.369,24.535],[-110.368,24.533],[-110.368,24.531],[-110.366,24.534],[-110.366,24.537],[-110.364,24.539],[-110.363,24.541],[-110.361,24.542],[-110.36,24.545],[-110.36,24.55],[-110.361,24.554],[-110.363,24.556],[-110.364,24.556],[-110.364,24.556],[-110.366,24.556],[-110.367,24.556],[-110.367,24.557],[-110.367,24.561],[-110.367,24.563],[-110.37,24.562],[-110.372,24.565],[-110.373,24.567],[-110.373,24.566],[-110.375,24.567],[-110.375,24.568],[-110.376,24.569],[-110.377,24.568],[-110.38,24.571],[-110.381,24.573],[-110.38,24.574],[-110.38,24.577],[-110.379,24.578],[-110.381,24.581],[-110.38,24.583],[-110.381,24.584],[-110.383,24.585],[-110.384,24.585],[-110.385,24.588],[-110.388,24.589],[-110.388,24.589],[-110.387,24.589],[-110.388,24.59],[-110.391,24.59],[-110.394,24.592]],[[-110.362,24.533],[-110.366,24.53],[-110.367,24.529],[-110.37,24.53],[-110.37,24.532],[-110.37,24.528],[-110.371,24.527],[-110.376,24.526],[-110.378,24.524],[-110.382,24.522],[-110.385,24.522],[-110.392,24.522],[-110.399,24.519],[-110.399,24.518],[-110.399,24.518],[-110.397,24.518],[-110.395,24.518],[-110.395,24.517],[-110.39,24.517],[-110.388,24.516],[-110.387,24.516],[-110.387,24.515],[-110.39,24.515],[-110.395,24.512],[-110.397,24.51],[-110.396,24.51],[-110.392,24.51],[-110.391,24.509],[-110.388,24.509],[-110.385,24.509],[-110.382,24.506],[-110.385,24.502],[-110.387,24.501],[-110.386,24.501],[-110.39,24.499],[-110.389,24.499],[-110.389,24.499],[-110.392,24.498],[-110.393,24.497],[-110.39,24.498],[-110.391,24.494],[-110.389,24.493],[-110.387,24.494],[-110.39,24.492],[-110.391,24.49],[-110.389,24.49],[-110.385,24.491],[-110.383,24.488],[-110.383,24.487],[-110.385,24.487],[-110.387,24.485],[-110.388,24.484],[-110.387,24.484],[-110.389,24.483],[-110.389,24.481],[-110.386,24.479],[-110.386,24.477],[-110.385,24.477],[-110.385,24.476],[-110.386,24.474],[-110.385,24.474],[-110.381,24.475],[-110.379,24.477],[-110.373,24.48],[-110.365,24.481],[-110.364,24.479],[-110.373,24.474],[-110.376,24.47],[-110.376,24.467],[-110.376,24.467],[-110.374,24.466],[-110.372,24.469],[-110.369,24.47],[-110.367,24.469],[-110.365,24.47],[-110.358,24.47],[-110.357,24.469],[-110.357,24.468],[-110.363,24.464],[-110.368,24.463],[-110.368,24.46],[-110.371,24.459],[-110.371,24.457],[-110.37,24.457],[-110.368,24.458],[-110.367,24.457],[-110.363,24.459],[-110.36,24.458],[-110.355,24.459],[-110.355,24.459],[-110.354,24.457],[-110.361,24.453],[-110.363,24.453],[-110.365,24.452],[-110.369,24.451],[-110.372,24.449],[-110.375,24.449],[-110.378,24.449],[-110.378,24.448],[-110.378,24.447],[-110.374,24.446],[-110.373,24.446],[-110.374,24.447],[-110.372,24.447],[-110.371,24.445],[-110.372,24.444],[-110.375,24.443],[-110.376,24.441],[-110.372,24.44],[-110.373,24.436],[-110.37,24.427],[-110.369,24.43],[-110.366,24.432],[-110.367,24.432],[-110.367,24.434],[-110.362,24.437],[-110.357,24.436],[-110.35,24.434],[-110.347,24.431],[-110.347,24.43],[-110.348,24.429],[-110.347,24.429],[-110.352,24.421],[-110.354,24.419],[-110.353,24.417],[-110.355,24.415],[-110.354,24.414],[-110.353,24.414],[-110.35,24.416],[-110.349,24.418],[-110.345,24.415],[-110.345,24.415],[-110.348,24.412],[-110.349,24.411],[-110.348,24.41],[-110.349,24.408],[-110.351,24.408],[-110.352,24.407],[-110.351,24.405],[-110.348,24.404],[-110.348,24.401],[-110.345,24.401],[-110.338,24.405],[-110.335,24.404],[-110.329,24.402],[-110.326,24.403],[-110.326,24.404],[-110.326,24.408],[-110.324,24.411],[-110.323,24.413],[-110.318,24.421],[-110.314,24.423],[-110.313,24.423],[-110.308,24.425],[-110.31,24.428],[-110.312,24.435],[-110.313,24.441],[-110.312,24.447],[-110.309,24.454],[-110.307,24.456],[-110.306,24.455],[-110.304,24.457],[-110.302,24.457],[-110.299,24.458],[-110.293,24.459],[-110.294,24.461],[-110.292,24.463],[-110.29,24.468],[-110.29,24.47],[-110.289,24.471],[-110.289,24.473],[-110.29,24.474],[-110.29,24.476],[-110.291,24.477],[-110.292,24.477],[-110.295,24.477],[-110.299,24.478],[-110.303,24.484],[-110.306,24.487],[-110.307,24.49],[-110.305,24.492],[-110.303,24.492],[-110.302,24.494],[-110.304,24.498],[-110.304,24.5],[-110.303,24.501],[-110.306,24.505],[-110.306,24.504],[-110.307,24.505],[-110.309,24.503],[-110.31,24.502],[-110.312,24.501],[-110.319,24.501],[-110.323,24.504],[-110.328,24.51],[-110.328,24.511],[-110.328,24.511],[-110.329,24.511],[-110.33,24.515],[-110.332,24.518],[-110.332,24.52],[-110.334,24.521],[-110.333,24.521],[-110.335,24.522],[-110.335,24.523],[-110.335,24.523],[-110.337,24.523],[-110.336,24.524],[-110.337,24.524],[-110.338,24.524],[-110.338,24.525],[-110.34,24.525],[-110.339,24.525],[-110.34,24.526],[-110.344,24.527],[-110.343,24.527],[-110.344,24.528],[-110.344,24.529],[-110.345,24.529],[-110.346,24.53],[-110.349,24.531],[-110.356,24.532],[-110.361,24.534],[-110.362,24.533]],[[-110.308,24.452],[-110.308,24.452],[-110.308,24.452],[-110.308,24.452]],[[-110.385,24.457],[-110.384,24.457],[-110.383,24.457],[-110.383,24.458],[-110.385,24.457]],[[-110.389,24.465],[-110.384,24.466],[-110.382,24.466],[-110.387,24.466],[-110.389,24.465]],[[-110.408,24.48],[-110.401,24.481],[-110.398,24.486],[-110.402,24.486],[-110.405,24.485],[-110.404,24.484],[-110.405,24.483],[-110.409,24.482],[-110.408,24.481],[-110.408,24.48]],[[-110.388,24.503],[-110.388,24.503],[-110.388,24.503],[-110.388,24.503]],[[-110.389,24.505],[-110.39,24.505],[-110.39,24.505],[-110.389,24.505]],[[-110.385,24.507],[-110.386,24.507],[-110.386,24.507],[-110.385,24.507]],[[-110.384,24.507],[-110.384,24.507],[-110.384,24.507],[-110.384,24.507]],[[-110.388,24.55],[-110.388,24.55],[-110.388,24.55],[-110.388,24.55]],[[-110.386,24.552],[-110.386,24.552],[-110.386,24.552],[-110.386,24.552]],[[-110.409,24.546],[-110.409,24.546],[-110.409,24.545],[-110.409,24.546]],[[-110.398,24.56],[-110.398,24.56],[-110.399,24.56],[-110.398,24.56]],[[-110.404,24.564],[-110.404,24.564],[-110.404,24.564],[-110.404,24.564]],[[-110.403,24.565],[-110.404,24.565],[-110.403,24.565],[-110.403,24.565]],[[-110.407,24.566],[-110.407,24.566],[-110.407,24.566],[-110.407,24.566]],[[-110.415,24.571],[-110.414,24.572],[-110.414,24.572],[-110.414,24.572],[-110.415,24.571],[-110.415,24.571]]]},"properties":{"id":"zona-marina-del-archipi-lago-de-esp-ritu-santo-0","name":"Zona marina del Archipi\u00e9lago de Esp\u00edritu Santo","type":"Parque Nacional","shortName":"Zona marina del Archipi\u00e9lago de Esp\u00edritu Santo","areaKm2":486.5,"ccrCitation":null}},{"type":"Feature","geometry":{"type":"Polygon","coordinates":[[[-110.382,24.466],[-110.384,24.466],[-110.388,24.465],[-110.387,24.466],[-110.382,24.466]]]},"properties":{"id":"islas-del-golfo-de-california-62","name":"Islas del Golfo de California","type":"\u00c1rea de Protecci\u00f3n de Flora y Fauna","shortName":"Islas del Golfo de California","areaKm2":3745.5,"ccrCitation":null}},{"type":"Feature","geometry":{"type":"Polygon","coordinates":[[[-110.402,24.486],[-110.398,24.486],[-110.398,24.486],[-110.402,24.481],[-110.407,24.479],[-110.408,24.48],[-110.408,24.481],[-110.409,24.482],[-110.405,24.483],[-110.405,24.485],[-110.402,24.486]]]},"properties":{"id":"islas-del-golfo-de-california-77","name":"Islas del Golfo de California","type":"\u00c1rea de Protecci\u00f3n de Flora y Fauna","shortName":"Islas del Golfo de California","areaKm2":3745.5,"ccrCitation":null}},{"type":"Feature","geometry":{"type":"Polygon","coordinates":[[[-110.388,24.503],[-110.388,24.503],[-110.388,24.503],[-110.388,24.503]]]},"properties":{"id":"islas-del-golfo-de-california-97","name":"Islas del Golfo de California","type":"\u00c1rea de Protecci\u00f3n de Flora y Fauna","shortName":"Islas del Golfo de California","areaKm2":3745.5,"ccrCitation":null}},{"type":"Feature","geometry":{"type":"Polygon","coordinates":[[[-110.389,24.505],[-110.39,24.505],[-110.389,24.505],[-110.389,24.505]]]},"properties":{"id":"islas-del-golfo-de-california-101","name":"Islas del Golfo de California","type":"\u00c1rea de Protecci\u00f3n de Flora y Fauna","shortName":"Islas del Golfo de California","areaKm2":3745.5,"ccrCitation":null}},{"type":"Feature","geometry":{"type":"Polygon","coordinates":[[[-110.385,24.507],[-110.385,24.507],[-110.385,24.507],[-110.385,24.507],[-110.385,24.507]]]},"properties":{"id":"islas-del-golfo-de-california-106","name":"Islas del Golfo de California","type":"\u00c1rea de Protecci\u00f3n de Flora y Fauna","shortName":"Islas del Golfo de California","areaKm2":3745.5,"ccrCitation":null}},{"type":"Feature","geometry":{"type":"Polygon","coordinates":[[[-110.384,24.507],[-110.384,24.507],[-110.384,24.507],[-110.384,24.507]]]},"properties":{"id":"islas-del-golfo-de-california-109","name":"Islas del Golfo de California","type":"\u00c1rea de Protecci\u00f3n de Flora y Fauna","shortName":"Islas del Golfo de California","areaKm2":3745.5,"ccrCitation":null}},{"type":"Feature","geometry":{"type":"Polygon","coordinates":[[[-110.358,24.532],[-110.35,24.531],[-110.346,24.53],[-110.345,24.529],[-110.344,24.529],[-110.344,24.528],[-110.343,24.527],[-110.344,24.527],[-110.34,24.526],[-110.339,24.525],[-110.34,24.525],[-110.338,24.525],[-110.338,24.524],[-110.337,24.524],[-110.336,24.524],[-110.337,24.524],[-110.337,24.523],[-110.335,24.523],[-110.335,24.522],[-110.335,24.522],[-110.335,24.522],[-110.333,24.521],[-110.334,24.521],[-110.332,24.52],[-110.332,24.518],[-110.33,24.515],[-110.329,24.511],[-110.328,24.511],[-110.328,24.511],[-110.328,24.509],[-110.323,24.504],[-110.319,24.501],[-110.312,24.5],[-110.31,24.502],[-110.309,24.503],[-110.307,24.505],[-110.306,24.504],[-110.306,24.505],[-110.303,24.501],[-110.304,24.5],[-110.304,24.498],[-110.302,24.494],[-110.303,24.492],[-110.305,24.492],[-110.307,24.49],[-110.306,24.487],[-110.303,24.484],[-110.299,24.478],[-110.295,24.477],[-110.292,24.477],[-110.291,24.477],[-110.29,24.476],[-110.29,24.474],[-110.289,24.473],[-110.289,24.47],[-110.29,24.47],[-110.29,24.468],[-110.292,24.463],[-110.294,24.461],[-110.293,24.459],[-110.299,24.458],[-110.302,24.456],[-110.304,24.457],[-110.306,24.455],[-110.307,24.456],[-110.309,24.454],[-110.312,24.447],[-110.313,24.441],[-110.312,24.435],[-110.31,24.428],[-110.308,24.425],[-110.313,24.423],[-110.314,24.423],[-110.318,24.421],[-110.322,24.413],[-110.324,24.411],[-110.326,24.408],[-110.326,24.404],[-110.327,24.402],[-110.33,24.402],[-110.335,24.404],[-110.338,24.405],[-110.345,24.401],[-110.348,24.401],[-110.348,24.404],[-110.351,24.405],[-110.352,24.407],[-110.351,24.408],[-110.349,24.408],[-110.348,24.41],[-110.349,24.411],[-110.348,24.412],[-110.345,24.414],[-110.345,24.415],[-110.349,24.418],[-110.35,24.416],[-110.353,24.414],[-110.354,24.414],[-110.355,24.415],[-110.353,24.417],[-110.354,24.419],[-110.352,24.421],[-110.347,24.428],[-110.348,24.429],[-110.347,24.43],[-110.347,24.431],[-110.35,24.433],[-110.357,24.436],[-110.362,24.437],[-110.367,24.434],[-110.367,24.432],[-110.366,24.432],[-110.369,24.43],[-110.37,24.427],[-110.373,24.436],[-110.372,24.44],[-110.376,24.441],[-110.375,24.443],[-110.372,24.444],[-110.371,24.445],[-110.372,24.447],[-110.374,24.447],[-110.373,24.446],[-110.375,24.446],[-110.378,24.447],[-110.378,24.448],[-110.378,24.449],[-110.375,24.448],[-110.372,24.449],[-110.369,24.45],[-110.365,24.452],[-110.363,24.453],[-110.361,24.453],[-110.354,24.456],[-110.355,24.459],[-110.355,24.459],[-110.36,24.458],[-110.363,24.459],[-110.367,24.457],[-110.368,24.458],[-110.37,24.457],[-110.371,24.457],[-110.371,24.458],[-110.368,24.46],[-110.368,24.463],[-110.363,24.464],[-110.357,24.468],[-110.357,24.469],[-110.361,24.47],[-110.365,24.47],[-110.367,24.469],[-110.369,24.47],[-110.372,24.469],[-110.374,24.466],[-110.376,24.467],[-110.377,24.468],[-110.376,24.47],[-110.373,24.474],[-110.364,24.479],[-110.365,24.481],[-110.369,24.48],[-110.371,24.481],[-110.373,24.48],[-110.379,24.477],[-110.381,24.475],[-110.384,24.474],[-110.386,24.474],[-110.385,24.476],[-110.385,24.477],[-110.386,24.477],[-110.386,24.479],[-110.389,24.48],[-110.389,24.481],[-110.387,24.484],[-110.388,24.484],[-110.387,24.486],[-110.384,24.487],[-110.383,24.487],[-110.383,24.488],[-110.385,24.491],[-110.389,24.49],[-110.39,24.49],[-110.39,24.492],[-110.387,24.494],[-110.389,24.493],[-110.391,24.494],[-110.39,24.498],[-110.393,24.497],[-110.392,24.498],[-110.389,24.499],[-110.39,24.499],[-110.386,24.501],[-110.387,24.501],[-110.385,24.502],[-110.382,24.506],[-110.385,24.509],[-110.389,24.509],[-110.391,24.509],[-110.392,24.51],[-110.396,24.509],[-110.397,24.51],[-110.395,24.512],[-110.39,24.515],[-110.387,24.515],[-110.387,24.516],[-110.388,24.516],[-110.39,24.517],[-110.395,24.516],[-110.395,24.518],[-110.397,24.518],[-110.399,24.518],[-110.399,24.518],[-110.399,24.519],[-110.392,24.522],[-110.385,24.522],[-110.382,24.522],[-110.378,24.524],[-110.376,24.526],[-110.371,24.527],[-110.37,24.528],[-110.37,24.532],[-110.37,24.53],[-110.367,24.529],[-110.366,24.53],[-110.363,24.532],[-110.363,24.533],[-110.361,24.534],[-110.358,24.532]]]},"properties":{"id":"islas-del-golfo-de-california-115","name":"Islas del Golfo de California","type":"\u00c1rea de Protecci\u00f3n de Flora y Fauna","shortName":"Islas del Golfo de California","areaKm2":3745.5,"ccrCitation":null}},{"type":"Feature","geometry":{"type":"Polygon","coordinates":[[[-110.409,24.546],[-110.409,24.546],[-110.409,24.546],[-110.409,24.546]]]},"properties":{"id":"islas-del-golfo-de-california-116","name":"Islas del Golfo de California","type":"\u00c1rea de Protecci\u00f3n de Flora y Fauna","shortName":"Islas del Golfo de California","areaKm2":3745.5,"ccrCitation":null}},{"type":"Feature","geometry":{"type":"Polygon","coordinates":[[[-110.388,24.55],[-110.388,24.55],[-110.388,24.55],[-110.388,24.55]]]},"properties":{"id":"islas-del-golfo-de-california-117","name":"Islas del Golfo de California","type":"\u00c1rea de Protecci\u00f3n de Flora y Fauna","shortName":"Islas del Golfo de California","areaKm2":3745.5,"ccrCitation":null}},{"type":"Feature","geometry":{"type":"Polygon","coordinates":[[[-110.386,24.552],[-110.386,24.552],[-110.386,24.552],[-110.386,24.552]]]},"properties":{"id":"islas-del-golfo-de-california-118","name":"Islas del Golfo de California","type":"\u00c1rea de Protecci\u00f3n de Flora y Fauna","shortName":"Islas del Golfo de California","areaKm2":3745.5,"ccrCitation":null}},{"type":"Feature","geometry":{"type":"Polygon","coordinates":[[[-110.398,24.56],[-110.398,24.56],[-110.398,24.56],[-110.398,24.56]]]},"properties":{"id":"islas-del-golfo-de-california-120","name":"Islas del Golfo de California","type":"\u00c1rea de Protecci\u00f3n de Flora y Fauna","shortName":"Islas del Golfo de California","areaKm2":3745.5,"ccrCitation":null}},{"type":"Feature","geometry":{"type":"Polygon","coordinates":[[[-110.404,24.564],[-110.404,24.564],[-110.404,24.564],[-110.404,24.564]]]},"properties":{"id":"islas-del-golfo-de-california-121","name":"Islas del Golfo de California","type":"\u00c1rea de Protecci\u00f3n de Flora y Fauna","shortName":"Islas del Golfo de California","areaKm2":3745.5,"ccrCitation":null}},{"type":"Feature","geometry":{"type":"Polygon","coordinates":[[[-110.403,24.565],[-110.403,24.565],[-110.404,24.565],[-110.403,24.565]]]},"properties":{"id":"islas-del-golfo-de-california-122","name":"Islas del Golfo de California","type":"\u00c1rea de Protecci\u00f3n de Flora y Fauna","shortName":"Islas del Golfo de California","areaKm2":3745.5,"ccrCitation":null}},{"type":"Feature","geometry":{"type":"Polygon","coordinates":[[[-110.407,24.566],[-110.407,24.566],[-110.407,24.566],[-110.407,24.566]]]},"properties":{"id":"islas-del-golfo-de-california-123","name":"Islas del Golfo de California","type":"\u00c1rea de Protecci\u00f3n de Flora y Fauna","shortName":"Islas del Golfo de California","areaKm2":3745.5,"ccrCitation":null}},{"type":"Feature","geometry":{"type":"Polygon","coordinates":[[[-110.414,24.572],[-110.414,24.572],[-110.415,24.571],[-110.415,24.571],[-110.414,24.572],[-110.414,24.572]]]},"properties":{"id":"islas-del-golfo-de-california-125","name":"Islas del Golfo de California","type":"\u00c1rea de Protecci\u00f3n de Flora y Fauna","shortName":"Islas del Golfo de California","areaKm2":3745.5,"ccrCitation":null}},{"type":"Feature","geometry":{"type":"Polygon","coordinates":[[[-110.395,24.592],[-110.391,24.59],[-110.388,24.59],[-110.387,24.589],[-110.388,24.589],[-110.388,24.589],[-110.385,24.588],[-110.384,24.585],[-110.383,24.585],[-110.381,24.584],[-110.38,24.583],[-110.381,24.581],[-110.379,24.578],[-110.38,24.577],[-110.38,24.574],[-110.381,24.573],[-110.38,24.571],[-110.377,24.568],[-110.376,24.569],[-110.375,24.568],[-110.375,24.567],[-110.373,24.566],[-110.373,24.567],[-110.372,24.565],[-110.37,24.562],[-110.367,24.563],[-110.367,24.561],[-110.367,24.557],[-110.367,24.556],[-110.366,24.556],[-110.364,24.556],[-110.364,24.556],[-110.363,24.556],[-110.361,24.554],[-110.36,24.55],[-110.36,24.545],[-110.361,24.542],[-110.363,24.541],[-110.364,24.539],[-110.366,24.537],[-110.366,24.534],[-110.368,24.53],[-110.368,24.533],[-110.369,24.534],[-110.371,24.534],[-110.375,24.534],[-110.375,24.536],[-110.376,24.538],[-110.377,24.539],[-110.379,24.54],[-110.38,24.54],[-110.381,24.539],[-110.383,24.535],[-110.383,24.533],[-110.383,24.532],[-110.385,24.531],[-110.39,24.531],[-110.391,24.532],[-110.391,24.533],[-110.393,24.532],[-110.392,24.536],[-110.391,24.537],[-110.389,24.538],[-110.389,24.539],[-110.392,24.538],[-110.396,24.536],[-110.399,24.536],[-110.397,24.538],[-110.397,24.538],[-110.397,24.538],[-110.397,24.538],[-110.396,24.539],[-110.397,24.538],[-110.396,24.54],[-110.392,24.542],[-110.391,24.543],[-110.389,24.543],[-110.386,24.545],[-110.382,24.549],[-110.382,24.55],[-110.381,24.549],[-110.38,24.549],[-110.377,24.55],[-110.374,24.551],[-110.376,24.552],[-110.376,24.553],[-110.38,24.554],[-110.383,24.557],[-110.386,24.556],[-110.388,24.553],[-110.391,24.551],[-110.4,24.548],[-110.407,24.544],[-110.408,24.544],[-110.407,24.546],[-110.407,24.547],[-110.409,24.547],[-110.408,24.549],[-110.405,24.55],[-110.404,24.552],[-110.406,24.552],[-110.405,24.553],[-110.406,24.553],[-110.409,24.552],[-110.41,24.552],[-110.411,24.554],[-110.408,24.553],[-110.402,24.555],[-110.402,24.554],[-110.402,24.555],[-110.402,24.555],[-110.401,24.555],[-110.398,24.557],[-110.396,24.557],[-110.393,24.562],[-110.394,24.563],[-110.396,24.563],[-110.397,24.562],[-110.403,24.561],[-110.403,24.563],[-110.4,24.565],[-110.402,24.566],[-110.403,24.566],[-110.405,24.566],[-110.405,24.569],[-110.408,24.568],[-110.41,24.566],[-110.413,24.565],[-110.414,24.564],[-110.415,24.565],[-110.414,24.567],[-110.414,24.568],[-110.411,24.571],[-110.412,24.572],[-110.41,24.572],[-110.41,24.574],[-110.404,24.577],[-110.401,24.58],[-110.4,24.58],[-110.399,24.58],[-110.396,24.58],[-110.396,24.581],[-110.398,24.582],[-110.399,24.582],[-110.4,24.583],[-110.401,24.585],[-110.402,24.586],[-110.398,24.589],[-110.398,24.591],[-110.398,24.592],[-110.395,24.592]]]},"properties":{"id":"islas-del-golfo-de-california-127","name":"Islas del Golfo de California","type":"\u00c1rea de Protecci\u00f3n de Flora y Fauna","shortName":"Islas del Golfo de California","areaKm2":3745.5,"ccrCitation":null}}]}