{"type":"FeatureCollection","features":[{"type":"Feature","geometry":{"type":"Point","coordinates":[-110.42975,24.57405]},"properties":{"depth_ft":252,"depth_m":76.7}},{"type":"Feature","geometry":{"type":"Point","coordinates":[-110.42458,24.57405]},"properties":{"depth_ft":154,"depth_m":46.8}},{"type":"Feature","geometry":{"type":"Point","coordinates":[-110.41942,24.57405]},"properties":{"depth_ft":89,"depth_m":27.1}},{"type":"Feature","geometry":{"type":"Point","coordinates":[-110.41425,24.57405]},"properties":{"depth_ft":34,"depth_m":10.3}},{"type":"Feature","geometry":{"type":"Point","coordinates":[-110.37809,24.57405]},"properties":{"depth_ft":28,"depth_m":8.4}},{"type":"Feature","geometry":{"type":"Point","coordinates":[-110.37292,24.57405]},"properties":{"depth_ft":1,"depth_m":0.3}},{"type":"Feature","geometry":{"type":"Point","coordinates":[-110.36775,24.57405]},"properties":{"depth_ft":94,"depth_m":28.6}},{"type":"Feature","geometry":{"type":"Point","coordinates":[-110.42975,24.56935]},"properties":{"depth_ft":237,"depth_m":72.3}},{"type":"Feature","geometry":{"type":"Point","coordinates":[-110.42458,24.56935]},"properties":{"depth_ft":154,"depth_m":47.0}},{"type":"Feature","geometry":{"type":"Point","coordinates":[-110.41942,24.56935]},"properties":{"depth_ft":110,"depth_m":33.4}},{"type":"Feature","geometry":{"type":"Point","coordinates":[-110.41425,24.56935]},"properties":{"depth_ft":3,"depth_m":0.9}},{"type":"Feature","geometry":{"type":"Point","coordinates":[-110.36775,24.56935]},"properties":{"depth_ft":121,"depth_m":36.8}},{"type":"Feature","geometry":{"type":"Point","coordinates":[-110.36259,24.56935]},"properties":{"depth_ft":251,"depth_m":76.5}},{"type":"Feature","geometry":{"type":"Point","coordinates":[-110.42975,24.56465]},"properties":{"depth_ft":234,"depth_m":71.4}},{"type":"Feature","geometry":{"type":"Point","coordinates":[-110.42458,24.56465]},"properties":{"depth_ft":151,"depth_m":46.1}},{"type":"Feature","geometry":{"type":"Point","coordinates":[-110.41942,24.56465]},"properties":{"depth_ft":92,"depth_m":28.2}},{"type":"Feature","geometry":{"type":"Point","coordinates":[-110.36775,24.56465]},"properties":{"depth_ft":23,"depth_m":6.9}},{"type":"Feature","geometry":{"type":"Point","coordinates":[-110.36259,24.56465]},"properties":{"depth_ft":148,"depth_m":45.0}},{"type":"Feature","geometry":{"type":"Point","coordinates":[-110.42975,24.55995]},"properties":{"depth_ft":235,"depth_m":71.6}},{"type":"Feature","geometry":{"type":"Point","coordinates":[-110.42458,24.55995]},"properties":{"depth_ft":147,"depth_m":44.9}},{"type":"Feature","geometry":{"type":"Point","coordinates":[-110.41942,24.55995]},"properties":{"depth_ft":84,"depth_m":25.5}},{"type":"Feature","geometry":{"type":"Point","coordinates":[-110.41425,24.55995]},"properties":{"depth_ft":7,"depth_m":2.2}},{"type":"Feature","geometry":{"type":"Point","coordinates":[-110.39875,24.55995]},"properties":{"depth_ft":58,"depth_m":17.8}},{"type":"Feature","geometry":{"type":"Point","coordinates":[-110.36259,24.55995]},"properties":{"depth_ft":57,"depth_m":17.2}},{"type":"Feature","geometry":{"type":"Point","coordinates":[-110.42975,24.55525]},"properties":{"depth_ft":259,"depth_m":79.0}},{"type":"Feature","geometry":{"type":"Point","coordinates":[-110.42458,24.55525]},"properties":{"depth_ft":169,"depth_m":51.5}},{"type":"Feature","geometry":{"type":"Point","coordinates":[-110.41942,24.55525]},"properties":{"depth_ft":95,"depth_m":29.0}},{"type":"Feature","geometry":{"type":"Point","coordinates":[-110.41425,24.55525]},"properties":{"depth_ft":20,"depth_m":6.1}},{"type":"Feature","geometry":{"type":"Point","coordinates":[-110.42975,24.55055]},"properties":{"depth_ft":288,"depth_m":87.9}},{"type":"Feature","geometry":{"type":"Point","coordinates":[-110.42458,24.55055]},"properties":{"depth_ft":200,"depth_m":60.9}},{"type":"Feature","geometry":{"type":"Point","coordinates":[-110.41942,24.55055]},"properties":{"depth_ft":121,"depth_m":36.8}},{"type":"Feature","geometry":{"type":"Point","coordinates":[-110.41425,24.55055]},"properties":{"depth_ft":42,"depth_m":12.7}},{"type":"Feature","geometry":{"type":"Point","coordinates":[-110.38325,24.55055]},"properties":{"depth_ft":1,"depth_m":0.4}},{"type":"Feature","geometry":{"type":"Point","coordinates":[-110.37809,24.55055]},"properties":{"depth_ft":50,"depth_m":15.3}},{"type":"Feature","geometry":{"type":"Point","coordinates":[-110.42975,24.54585]},"properties":{"depth_ft":320,"depth_m":97.6}},{"type":"Feature","geometry":{"type":"Point","coordinates":[-110.42458,24.54585]},"properties":{"depth_ft":233,"depth_m":71.0}},{"type":"Feature","geometry":{"type":"Point","coordinates":[-110.41942,24.54585]},"properties":{"depth_ft":151,"depth_m":46.0}},{"type":"Feature","geometry":{"type":"Point","coordinates":[-110.41425,24.54585]},"properties":{"depth_ft":67,"depth_m":20.3}},{"type":"Feature","geometry":{"type":"Point","coordinates":[-110.40908,24.54585]},"properties":{"depth_ft":1,"depth_m":0.2}},{"type":"Feature","geometry":{"type":"Point","coordinates":[-110.38842,24.54585]},"properties":{"depth_ft":13,"depth_m":4.1}},{"type":"Feature","geometry":{"type":"Point","coordinates":[-110.42458,24.54115]},"properties":{"depth_ft":265,"depth_m":80.8}},{"type":"Feature","geometry":{"type":"Point","coordinates":[-110.41942,24.54115]},"properties":{"depth_ft":179,"depth_m":54.6}},{"type":"Feature","geometry":{"type":"Point","coordinates":[-110.41425,24.54115]},"properties":{"depth_ft":94,"depth_m":28.7}},{"type":"Feature","geometry":{"type":"Point","coordinates":[-110.40908,24.54115]},"properties":{"depth_ft":16,"depth_m":4.9}},{"type":"Feature","geometry":{"type":"Point","coordinates":[-110.40392,24.54115]},"properties":{"depth_ft":1,"depth_m":0.2}},{"type":"Feature","geometry":{"type":"Point","coordinates":[-110.42458,24.53645]},"properties":{"depth_ft":296,"depth_m":90.1}},{"type":"Feature","geometry":{"type":"Point","coordinates":[-110.41942,24.53645]},"properties":{"depth_ft":208,"depth_m":63.4}},{"type":"Feature","geometry":{"type":"Point","coordinates":[-110.41425,24.53645]},"properties":{"depth_ft":129,"depth_m":39.3}},{"type":"Feature","geometry":{"type":"Point","coordinates":[-110.40908,24.53645]},"properties":{"depth_ft":71,"depth_m":21.8}},{"type":"Feature","geometry":{"type":"Point","coordinates":[-110.40392,24.53645]},"properties":{"depth_ft":1,"depth_m":0.3}},{"type":"Feature","geometry":{"type":"Point","coordinates":[-110.37809,24.53645]},"properties":{"depth_ft":2,"depth_m":0.6}},{"type":"Feature","geometry":{"type":"Point","coordinates":[-110.36259,24.53645]},"properties":{"depth_ft":55,"depth_m":16.9}},{"type":"Feature","geometry":{"type":"Point","coordinates":[-110.42458,24.53175]},"properties":{"depth_ft":324,"depth_m":98.8}},{"type":"Feature","geometry":{"type":"Point","coordinates":[-110.41942,24.53175]},"properties":{"depth_ft":234,"depth_m":71.4}},{"type":"Feature","geometry":{"type":"Point","coordinates":[-110.41425,24.53175]},"properties":{"depth_ft":156,"depth_m":47.5}},{"type":"Feature","geometry":{"type":"Point","coordinates":[-110.40908,24.53175]},"properties":{"depth_ft":93,"depth_m":28.3}},{"type":"Feature","geometry":{"type":"Point","coordinates":[-110.40392,24.53175]},"properties":{"depth_ft":30,"depth_m":9.1}},{"type":"Feature","geometry":{"type":"Point","coordinates":[-110.38325,24.53175]},"properties":{"depth_ft":9,"depth_m":2.9}},{"type":"Feature","geometry":{"type":"Point","coordinates":[-110.37809,24.53175]},"properties":{"depth_ft":27,"depth_m":8.3}},{"type":"Feature","geometry":{"type":"Point","coordinates":[-110.37292,24.53175]},"properties":{"depth_ft":5,"depth_m":1.4}},{"type":"Feature","geometry":{"type":"Point","coordinates":[-110.41942,24.52705]},"properties":{"depth_ft":254,"depth_m":77.5}},{"type":"Feature","geometry":{"type":"Point","coordinates":[-110.41425,24.52705]},"properties":{"depth_ft":168,"depth_m":51.3}},{"type":"Feature","geometry":{"type":"Point","coordinates":[-110.40908,24.52705]},"properties":{"depth_ft":98,"depth_m":29.8}},{"type":"Feature","geometry":{"type":"Point","coordinates":[-110.40392,24.52705]},"properties":{"depth_ft":43,"depth_m":13.0}},{"type":"Feature","geometry":{"type":"Point","coordinates":[-110.39875,24.52705]},"properties":{"depth_ft":1,"depth_m":0.3}},{"type":"Feature","geometry":{"type":"Point","coordinates":[-110.37809,24.52705]},"properties":{"depth_ft":2,"depth_m":0.5}},{"type":"Feature","geometry":{"type":"Point","coordinates":[-110.41942,24.52235]},"properties":{"depth_ft":266,"depth_m":81.0}},{"type":"Feature","geometry":{"type":"Point","coordinates":[-110.41425,24.52235]},"properties":{"depth_ft":171,"depth_m":52.3}},{"type":"Feature","geometry":{"type":"Point","coordinates":[-110.40908,24.52235]},"properties":{"depth_ft":93,"depth_m":28.4}},{"type":"Feature","geometry":{"type":"Point","coordinates":[-110.40392,24.52235]},"properties":{"depth_ft":44,"depth_m":13.4}},{"type":"Feature","geometry":{"type":"Point","coordinates":[-110.39875,24.52235]},"properties":{"depth_ft":34,"depth_m":10.3}},{"type":"Feature","geometry":{"type":"Point","coordinates":[-110.39359,24.52235]},"properties":{"depth_ft":4,"depth_m":1.1}},{"type":"Feature","geometry":{"type":"Point","coordinates":[-110.41942,24.51765]},"properties":{"depth_ft":273,"depth_m":83.3}},{"type":"Feature","geometry":{"type":"Point","coordinates":[-110.41425,24.51765]},"properties":{"depth_ft":179,"depth_m":54.5}},{"type":"Feature","geometry":{"type":"Point","coordinates":[-110.40908,24.51765]},"properties":{"depth_ft":98,"depth_m":30.0}},{"type":"Feature","geometry":{"type":"Point","coordinates":[-110.40392,24.51765]},"properties":{"depth_ft":53,"depth_m":16.3}},{"type":"Feature","geometry":{"type":"Point","coordinates":[-110.39875,24.51765]},"properties":{"depth_ft":57,"depth_m":17.4}},{"type":"Feature","geometry":{"type":"Point","coordinates":[-110.41942,24.51295]},"properties":{"depth_ft":279,"depth_m":85.1}},{"type":"Feature","geometry":{"type":"Point","coordinates":[-110.41425,24.51295]},"properties":{"depth_ft":185,"depth_m":56.4}},{"type":"Feature","geometry":{"type":"Point","coordinates":[-110.40908,24.51295]},"properties":{"depth_ft":105,"depth_m":32.0}},{"type":"Feature","geometry":{"type":"Point","coordinates":[-110.40392,24.51295]},"properties":{"depth_ft":65,"depth_m":19.9}},{"type":"Feature","geometry":{"type":"Point","coordinates":[-110.39875,24.51295]},"properties":{"depth_ft":15,"depth_m":4.6}},{"type":"Feature","geometry":{"type":"Point","coordinates":[-110.41942,24.50825]},"properties":{"depth_ft":282,"depth_m":86.1}},{"type":"Feature","geometry":{"type":"Point","coordinates":[-110.41425,24.50825]},"properties":{"depth_ft":191,"depth_m":58.2}},{"type":"Feature","geometry":{"type":"Point","coordinates":[-110.40908,24.50825]},"properties":{"depth_ft":116,"depth_m":35.4}},{"type":"Feature","geometry":{"type":"Point","coordinates":[-110.40392,24.50825]},"properties":{"depth_ft":81,"depth_m":24.8}},{"type":"Feature","geometry":{"type":"Point","coordinates":[-110.39875,24.50825]},"properties":{"depth_ft":30,"depth_m":9.2}},{"type":"Feature","geometry":{"type":"Point","coordinates":[-110.39359,24.50825]},"properties":{"depth_ft":8,"depth_m":2.3}},{"type":"Feature","geometry":{"type":"Point","coordinates":[-110.41942,24.50355]},"properties":{"depth_ft":286,"depth_m":87.2}},{"type":"Feature","geometry":{"type":"Point","coordinates":[-110.41425,24.50355]},"properties":{"depth_ft":196,"depth_m":59.7}},{"type":"Feature","geometry":{"type":"Point","coordinates":[-110.40908,24.50355]},"properties":{"depth_ft":120,"depth_m":36.7}},{"type":"Feature","geometry":{"type":"Point","coordinates":[-110.40392,24.50355]},"properties":{"depth_ft":88,"depth_m":26.8}},{"type":"Feature","geometry":{"type":"Point","coordinates":[-110.39875,24.50355]},"properties":{"depth_ft":91,"depth_m":27.7}},{"type":"Feature","geometry":{"type":"Point","coordinates":[-110.39359,24.50355]},"properties":{"depth_ft":72,"depth_m":22.1}},{"type":"Feature","geometry":{"type":"Point","coordinates":[-110.41942,24.49885]},"properties":{"depth_ft":289,"depth_m":88.2}},{"type":"Feature","geometry":{"type":"Point","coordinates":[-110.41425,24.49885]},"properties":{"depth_ft":200,"depth_m":60.9}},{"type":"Feature","geometry":{"type":"Point","coordinates":[-110.40908,24.49885]},"properties":{"depth_ft":128,"depth_m":39.1}},{"type":"Feature","geometry":{"type":"Point","coordinates":[-110.40392,24.49885]},"properties":{"depth_ft":98,"depth_m":30.0}},{"type":"Feature","geometry":{"type":"Point","coordinates":[-110.39875,24.49885]},"properties":{"depth_ft":100,"depth_m":30.5}},{"type":"Feature","geometry":{"type":"Point","coordinates":[-110.39359,24.49885]},"properties":{"depth_ft":19,"depth_m":5.9}},{"type":"Feature","geometry":{"type":"Point","coordinates":[-110.41942,24.49415]},"properties":{"depth_ft":290,"depth_m":88.4}},{"type":"Feature","geometry":{"type":"Point","coordinates":[-110.41425,24.49415]},"properties":{"depth_ft":201,"depth_m":61.3}},{"type":"Feature","geometry":{"type":"Point","coordinates":[-110.40908,24.49415]},"properties":{"depth_ft":134,"depth_m":40.8}},{"type":"Feature","geometry":{"type":"Point","coordinates":[-110.40392,24.49415]},"properties":{"depth_ft":101,"depth_m":30.9}},{"type":"Feature","geometry":{"type":"Point","coordinates":[-110.39875,24.49415]},"properties":{"depth_ft":96,"depth_m":29.2}},{"type":"Feature","geometry":{"type":"Point","coordinates":[-110.39359,24.49415]},"properties":{"depth_ft":1,"depth_m":0.3}},{"type":"Feature","geometry":{"type":"Point","coordinates":[-110.41942,24.48945]},"properties":{"depth_ft":287,"depth_m":87.5}},{"type":"Feature","geometry":{"type":"Point","coordinates":[-110.41425,24.48945]},"properties":{"depth_ft":197,"depth_m":60.0}},{"type":"Feature","geometry":{"type":"Point","coordinates":[-110.40908,24.48945]},"properties":{"depth_ft":120,"depth_m":36.7}},{"type":"Feature","geometry":{"type":"Point","coordinates":[-110.40392,24.48945]},"properties":{"depth_ft":78,"depth_m":23.8}},{"type":"Feature","geometry":{"type":"Point","coordinates":[-110.39875,24.48945]},"properties":{"depth_ft":76,"depth_m":23.2}},{"type":"Feature","geometry":{"type":"Point","coordinates":[-110.39359,24.48945]},"properties":{"depth_ft":75,"depth_m":22.7}},{"type":"Feature","geometry":{"type":"Point","coordinates":[-110.38842,24.48945]},"properties":{"depth_ft":5,"depth_m":1.5}},{"type":"Feature","geometry":{"type":"Point","coordinates":[-110.41942,24.48475]},"properties":{"depth_ft":279,"depth_m":85.0}},{"type":"Feature","geometry":{"type":"Point","coordinates":[-110.41425,24.48475]},"properties":{"depth_ft":183,"depth_m":55.9}},{"type":"Feature","geometry":{"type":"Point","coordinates":[-110.40908,24.48475]},"properties":{"depth_ft":63,"depth_m":19.2}},{"type":"Feature","geometry":{"type":"Point","coordinates":[-110.39875,24.48475]},"properties":{"depth_ft":23,"depth_m":7.1}},{"type":"Feature","geometry":{"type":"Point","coordinates":[-110.39359,24.48475]},"properties":{"depth_ft":16,"depth_m":4.9}},{"type":"Feature","geometry":{"type":"Point","coordinates":[-110.38842,24.48475]},"properties":{"depth_ft":12,"depth_m":3.6}},{"type":"Feature","geometry":{"type":"Point","coordinates":[-110.41942,24.48005]},"properties":{"depth_ft":260,"depth_m":79.4}},{"type":"Feature","geometry":{"type":"Point","coordinates":[-110.41425,24.48005]},"properties":{"depth_ft":167,"depth_m":50.9}},{"type":"Feature","geometry":{"type":"Point","coordinates":[-110.40908,24.48005]},"properties":{"depth_ft":11,"depth_m":3.4}},{"type":"Feature","geometry":{"type":"Point","coordinates":[-110.40392,24.48005]},"properties":{"depth_ft":21,"depth_m":6.3}},{"type":"Feature","geometry":{"type":"Point","coordinates":[-110.39875,24.48005]},"properties":{"depth_ft":86,"depth_m":26.1}},{"type":"Feature","geometry":{"type":"Point","coordinates":[-110.39359,24.48005]},"properties":{"depth_ft":99,"depth_m":30.1}},{"type":"Feature","geometry":{"type":"Point","coordinates":[-110.38842,24.48005]},"properties":{"depth_ft":15,"depth_m":4.7}},{"type":"Feature","geometry":{"type":"Point","coordinates":[-110.42458,24.47535]},"properties":{"depth_ft":300,"depth_m":91.4}},{"type":"Feature","geometry":{"type":"Point","coordinates":[-110.41942,24.47535]},"properties":{"depth_ft":236,"depth_m":72.1}},{"type":"Feature","geometry":{"type":"Point","coordinates":[-110.41425,24.47535]},"properties":{"depth_ft":167,"depth_m":51.0}},{"type":"Feature","geometry":{"type":"Point","coordinates":[-110.40908,24.47535]},"properties":{"depth_ft":106,"depth_m":32.3}},{"type":"Feature","geometry":{"type":"Point","coordinates":[-110.40392,24.47535]},"properties":{"depth_ft":85,"depth_m":26.0}},{"type":"Feature","geometry":{"type":"Point","coordinates":[-110.39875,24.47535]},"properties":{"depth_ft":106,"depth_m":32.2}},{"type":"Feature","geometry":{"type":"Point","coordinates":[-110.39359,24.47535]},"properties":{"depth_ft":120,"depth_m":36.5}},{"type":"Feature","geometry":{"type":"Point","coordinates":[-110.38842,24.47535]},"properties":{"depth_ft":7,"depth_m":2.0}},{"type":"Feature","geometry":{"type":"Point","coordinates":[-110.37809,24.47535]},"properties":{"depth_ft":3,"depth_m":1.0}},{"type":"Feature","geometry":{"type":"Point","coordinates":[-110.37292,24.47535]},"properties":{"depth_ft":6,"depth_m":1.9}},{"type":"Feature","geometry":{"type":"Point","coordinates":[-110.42975,24.47065]},"properties":{"depth_ft":324,"depth_m":98.7}},{"type":"Feature","geometry":{"type":"Point","coordinates":[-110.42458,24.47065]},"properties":{"depth_ft":262,"depth_m":79.7}},{"type":"Feature","geometry":{"type":"Point","coordinates":[-110.41942,24.47065]},"properties":{"depth_ft":222,"depth_m":67.6}},{"type":"Feature","geometry":{"type":"Point","coordinates":[-110.41425,24.47065]},"properties":{"depth_ft":168,"depth_m":51.3}},{"type":"Feature","geometry":{"type":"Point","coordinates":[-110.40908,24.47065]},"properties":{"depth_ft":120,"depth_m":36.5}},{"type":"Feature","geometry":{"type":"Point","coordinates":[-110.40392,24.47065]},"properties":{"depth_ft":103,"depth_m":31.4}},{"type":"Feature","geometry":{"type":"Point","coordinates":[-110.39875,24.47065]},"properties":{"depth_ft":121,"depth_m":36.9}},{"type":"Feature","geometry":{"type":"Point","coordinates":[-110.39359,24.47065]},"properties":{"depth_ft":132,"depth_m":40.3}},{"type":"Feature","geometry":{"type":"Point","coordinates":[-110.38842,24.47065]},"properties":{"depth_ft":99,"depth_m":30.0}},{"type":"Feature","geometry":{"type":"Point","coordinates":[-110.38325,24.47065]},"properties":{"depth_ft":4,"depth_m":1.1}},{"type":"Feature","geometry":{"type":"Point","coordinates":[-110.37809,24.47065]},"properties":{"depth_ft":14,"depth_m":4.4}},{"type":"Feature","geometry":{"type":"Point","coordinates":[-110.46075,24.46595]},"properties":{"depth_ft":298,"depth_m":90.8}},{"type":"Feature","geometry":{"type":"Point","coordinates":[-110.45558,24.46595]},"properties":{"depth_ft":306,"depth_m":93.2}},{"type":"Feature","geometry":{"type":"Point","coordinates":[-110.45041,24.46595]},"properties":{"depth_ft":323,"depth_m":98.4}},{"type":"Feature","geometry":{"type":"Point","coordinates":[-110.44525,24.46595]},"properties":{"depth_ft":330,"depth_m":100.7}},{"type":"Feature","geometry":{"type":"Point","coordinates":[-110.44008,24.46595]},"properties":{"depth_ft":323,"depth_m":98.5}},{"type":"Feature","geometry":{"type":"Point","coordinates":[-110.43492,24.46595]},"properties":{"depth_ft":313,"depth_m":95.4}},{"type":"Feature","geometry":{"type":"Point","coordinates":[-110.42975,24.46595]},"properties":{"depth_ft":282,"depth_m":86.0}},{"type":"Feature","geometry":{"type":"Point","coordinates":[-110.42458,24.46595]},"properties":{"depth_ft":264,"depth_m":80.4}},{"type":"Feature","geometry":{"type":"Point","coordinates":[-110.41942,24.46595]},"properties":{"depth_ft":230,"depth_m":70.1}},{"type":"Feature","geometry":{"type":"Point","coordinates":[-110.41425,24.46595]},"properties":{"depth_ft":181,"depth_m":55.2}},{"type":"Feature","geometry":{"type":"Point","coordinates":[-110.40908,24.46595]},"properties":{"depth_ft":132,"depth_m":40.3}},{"type":"Feature","geometry":{"type":"Point","coordinates":[-110.40392,24.46595]},"properties":{"depth_ft":116,"depth_m":35.5}},{"type":"Feature","geometry":{"type":"Point","coordinates":[-110.39875,24.46595]},"properties":{"depth_ft":136,"depth_m":41.4}},{"type":"Feature","geometry":{"type":"Point","coordinates":[-110.39359,24.46595]},"properties":{"depth_ft":150,"depth_m":45.7}},{"type":"Feature","geometry":{"type":"Point","coordinates":[-110.38842,24.46595]},"properties":{"depth_ft":112,"depth_m":34.1}},{"type":"Feature","geometry":{"type":"Point","coordinates":[-110.37809,24.46595]},"properties":{"depth_ft":28,"depth_m":8.4}},{"type":"Feature","geometry":{"type":"Point","coordinates":[-110.37292,24.46595]},"properties":{"depth_ft":1,"depth_m":0.3}},{"type":"Feature","geometry":{"type":"Point","coordinates":[-110.36775,24.46595]},"properties":{"depth_ft":67,"depth_m":20.5}}]}