{"type":"FeatureCollection","features":[{"type":"Feature","geometry":{"type":"Polygon","coordinates":[[[-117.74729,33.50346],[-117.74806,33.50392],[-117.74882,33.50524],[-117.74987,33.50639],[-117.75042,33.50671],[-117.7509,33.50647],[-117.7513,33.50773],[-117.75128,33.50854],[-117.75233,33.50931],[-117.7538,33.51104],[-117.75551,33.51255],[-117.75682,33.51335],[-117.75767,33.51339],[-117.75809,33.51309],[-117.7584,33.51374],[-117.75832,33.51408],[-117.75875,33.51434],[-117.75904,33.51434],[-117.75906,33.51403],[-117.75918,33.51434],[-117.75943,33.51442],[-117.75971,33.51439],[-117.75984,33.51415],[-117.76007,33.51429],[-117.76038,33.51418],[-117.76034,33.51396],[-117.76056,33.51393],[-117.76033,33.51391],[-117.76021,33.51348],[-117.76036,33.51353],[-117.76038,33.51342],[-117.76059,33.51378],[-117.76048,33.51333],[-117.76062,33.51331],[-117.76085,33.51387],[-117.76075,33.51397],[-117.76094,33.51415],[-117.76051,33.51467],[-117.76052,33.51489],[-117.76141,33.51689],[-117.76281,33.51911],[-117.76328,33.51955],[-117.76463,33.52033],[-117.765,33.52161],[-117.76592,33.52241],[-117.76596,33.52334],[-117.76751,33.52442],[-117.76755,33.52464],[-117.76788,33.52468],[-117.76797,33.5249],[-117.76836,33.52485],[-117.76841,33.52455],[-117.7688,33.52474],[-117.76912,33.52457],[-117.76941,33.52475],[-117.76915,33.52502],[-117.76912,33.52533],[-117.7695,33.52564],[-117.76963,33.52548],[-117.76986,33.52555],[-117.76995,33.52602],[-117.77118,33.527],[-117.77146,33.52703],[-117.77174,33.52672],[-117.77207,33.5269],[-117.77213,33.52717],[-117.77198,33.5274],[-117.77221,33.52793],[-117.77292,33.52853],[-117.77388,33.52972],[-117.77716,33.53216],[-117.77846,33.53423],[-117.78026,33.53635],[-117.78181,33.53865],[-117.78445,33.54138],[-117.78643,33.54234],[-117.78749,33.54261],[-117.78851,33.54264],[-117.78907,33.54228],[-117.78976,33.543],[-117.7904,33.54317],[-117.79172,33.5433],[-117.79205,33.54289],[-117.7922,33.54299],[-117.79218,33.54275],[-117.79226,33.5429],[-117.79231,33.54271],[-117.79244,33.54306],[-117.79372,33.54429],[-117.79447,33.54469],[-117.79492,33.5446],[-117.79552,33.54528],[-117.79707,33.54504],[-117.79785,33.54548],[-117.79853,33.54552],[-117.799,33.54543],[-117.79938,33.54518],[-117.79943,33.54492],[-117.79999,33.54476],[-117.80014,33.54503],[-117.80054,33.5449],[-117.80065,33.54535],[-117.80037,33.54554],[-117.80061,33.54592],[-117.80169,33.54654],[-117.80243,33.54672],[-117.80315,33.54669],[-117.80368,33.5465],[-117.80391,33.54621],[-117.80424,33.54618],[-117.80464,33.54666],[-117.80537,33.54674],[-117.8057,33.54701],[-117.80568,33.54764],[-117.80591,33.54828],[-117.80688,33.54824],[-117.8071,33.54845],[-117.80724,33.54885],[-117.807,33.54959],[-117.80764,33.55029],[-117.80858,33.55099],[-117.81046,33.55179],[-117.8116,33.55207],[-117.81243,33.55205],[-117.81299,33.55175],[-117.81405,33.55054],[-117.81443,33.55047],[-117.81483,33.55062],[-117.81497,33.5508],[-117.81499,33.55179],[-117.81453,33.55225],[-117.81455,33.55249],[-117.81497,33.55302],[-117.81587,33.55366],[-117.81697,33.55359],[-117.81724,33.55386],[-117.81808,33.55414],[-117.81934,33.55358],[-117.81997,33.55374],[-117.81969,33.55581],[-117.82007,33.55584],[-117.82014,33.55616],[-117.8196,33.55687],[-117.81953,33.55733],[-117.82042,33.55871],[-117.82433,33.56183],[-117.82658,33.56323],[-117.82804,33.5639],[-117.8291,33.56398],[-117.83052,33.56438],[-117.83335,33.56597],[-117.83396,33.56752],[-117.83446,33.56821],[-117.83491,33.5686],[-117.83573,33.56886],[-117.83616,33.56964],[-117.83623558152883,33.569701594911386],[-117.83623558152883,33.58103603603604],[-117.74376441847119,33.58103603603604],[-117.74376441847119,33.502963963963964],[-117.74728081414749,33.502963963963964],[-117.74729,33.50346]]]},"properties":{"name":"ca-mainland"}}]}