{"type":"FeatureCollection","features":[{"type":"Feature","properties":{"id":"laguna-kelp-canopy","name":"Laguna Beach recent kelp canopy","className":"Kelp Canopy"},"geometry":{"type":"MultiPolygon","coordinates":[[[[-117.78294,33.53465],[-117.78423,33.53491],[-117.78326,33.53519],[-117.78294,33.53465]]],[[[-117.78391,33.53627],[-117.78359,33.53627],[-117.78391,33.53599],[-117.78391,33.53627]]],[[[-117.79008,33.53975],[-117.79008,33.53947],[-117.79041,33.53975],[-117.79008,33.53975]]],[[[-117.7875,33.53976],[-117.78686,33.53976],[-117.7875,33.53949],[-117.7875,33.53976]]],[[[-117.79203,33.53973],[-117.79234,33.53864],[-117.79298,33.53864],[-117.79267,33.54],[-117.79396,33.53945],[-117.79429,33.53999],[-117.79397,33.54053],[-117.7943,33.54053],[-117.79333,33.54135],[-117.79366,33.54243],[-117.79302,33.54243],[-117.79301,33.54189],[-117.79269,33.54243],[-117.79205,33.54136],[-117.79108,33.54163],[-117.79043,33.54137],[-117.7901,33.54056],[-117.78849,33.54165],[-117.78783,33.54002],[-117.79041,33.54001],[-117.79075,33.54109],[-117.79139,33.54082],[-117.79138,33.53919],[-117.79202,33.53892],[-117.79203,33.53973]],[[-117.78945,33.54029],[-117.78848,33.54057],[-117.78945,33.54083],[-117.78945,33.54029]],[[-117.79333,33.53999],[-117.79332,33.53999],[-117.79333,33.54026],[-117.79333,33.53999]],[[-117.79365,33.5408],[-117.79366,33.5408],[-117.79365,33.54053],[-117.79365,33.5408]],[[-117.79268,33.54081],[-117.79269,33.54081],[-117.79268,33.54054],[-117.79268,33.54081]],[[-117.79236,33.54027],[-117.79236,33.54],[-117.79235,33.54027],[-117.79236,33.54027]],[[-117.79365,33.53999],[-117.79365,33.53972],[-117.79364,33.53999],[-117.79365,33.53999]],[[-117.79301,33.54053],[-117.79301,33.54027],[-117.793,33.54053],[-117.79301,33.54053]],[[-117.79266,33.53892],[-117.79266,33.53918],[-117.79267,33.53892],[-117.79266,33.53892]],[[-117.79236,33.54135],[-117.79237,33.54135],[-117.79236,33.54081],[-117.79236,33.54135]],[[-117.79171,33.54027],[-117.79171,33.53973],[-117.7917,33.54027],[-117.79171,33.54027]],[[-117.79203,33.54081],[-117.79204,33.54081],[-117.79203,33.54027],[-117.79203,33.54081]],[[-117.79171,33.54108],[-117.79172,33.54108],[-117.79171,33.54082],[-117.79171,33.54108]],[[-117.7914,33.54109],[-117.79139,33.54109],[-117.7914,33.54136],[-117.7914,33.54109]]],[[[-117.79463,33.54161],[-117.79464,33.54242],[-117.79496,33.54214],[-117.79496,33.54269],[-117.79399,33.54269],[-117.79367,33.54215],[-117.79463,33.54161]]],[[[-117.79981,33.54319],[-117.80014,33.54346],[-117.80046,33.54292],[-117.80046,33.54347],[-117.79982,33.54374],[-117.79981,33.54319]]],[[[-117.79626,33.5435],[-117.79562,33.5435],[-117.79626,33.54322],[-117.79626,33.5435]]],[[[-117.79723,33.54321],[-117.79659,33.54376],[-117.79626,33.54322],[-117.79723,33.54321]]],[[[-117.80532,33.54533],[-117.80565,33.5456],[-117.80371,33.54534],[-117.80435,33.54425],[-117.80564,33.54478],[-117.80532,33.54533]],[[-117.80436,33.54533],[-117.80436,33.54506],[-117.80435,33.54533],[-117.80436,33.54533]],[[-117.80468,33.54506],[-117.80468,33.54479],[-117.80467,33.54506],[-117.80468,33.54506]]],[[[-117.80792,33.54694],[-117.8076,33.54694],[-117.80792,33.54666],[-117.80792,33.54694]]],[[[-117.80761,33.54775],[-117.80729,33.54775],[-117.8076,33.54721],[-117.80761,33.54775]]],[[[-117.8336,33.56246],[-117.83328,33.56246],[-117.8336,33.56219],[-117.8336,33.56246]]],[[[-117.83457,33.563],[-117.83393,33.56273],[-117.83457,33.56272],[-117.83457,33.563]]],[[[-117.8349,33.56326],[-117.83458,33.56326],[-117.8349,33.56299],[-117.8349,33.56326]]],[[[-117.77057,33.52444],[-117.77057,33.52417],[-117.77089,33.52444],[-117.77057,33.52444]]],[[[-117.76927,33.52445],[-117.76927,33.52418],[-117.76959,33.52445],[-117.76927,33.52445]]],[[[-117.77284,33.52551],[-117.7738,33.52551],[-117.77349,33.52632],[-117.77252,33.52605],[-117.77284,33.52551]],[[-117.77349,33.52578],[-117.77348,33.52578],[-117.77349,33.52605],[-117.77349,33.52578]]],[[[-117.77252,33.5266],[-117.7722,33.5266],[-117.77252,33.52633],[-117.77252,33.5266]]],[[[-117.77641,33.52819],[-117.77641,33.52792],[-117.77705,33.52792],[-117.77641,33.52819]]],[[[-117.77804,33.52899],[-117.77836,33.52899],[-117.77804,33.52954],[-117.77804,33.52899]]],[[[-117.77968,33.53169],[-117.78,33.53115],[-117.77967,33.53115],[-117.77999,33.53088],[-117.77999,33.53034],[-117.77934,33.53061],[-117.77901,33.52926],[-117.77837,33.52981],[-117.77837,33.52899],[-117.77998,33.52871],[-117.7803,33.52925],[-117.78094,33.52925],[-117.78161,33.53168],[-117.78,33.53196],[-117.77968,33.53169]],[[-117.77934,33.52899],[-117.77933,33.52899],[-117.77934,33.52926],[-117.77934,33.52899]],[[-117.78097,33.53141],[-117.78097,33.53114],[-117.78096,33.53141],[-117.78097,33.53141]],[[-117.78031,33.53115],[-117.78032,33.53115],[-117.78031,33.53088],[-117.78031,33.53115]],[[-117.7803,33.5298],[-117.7803,33.53033],[-117.78031,33.5298],[-117.7803,33.5298]],[[-117.78095,33.53006],[-117.78095,33.53033],[-117.78096,33.53006],[-117.78095,33.53006]],[[-117.78063,33.52979],[-117.78063,33.52952],[-117.78062,33.52979],[-117.78063,33.52979]],[[-117.78064,33.53033],[-117.78063,33.53033],[-117.78064,33.53087],[-117.78064,33.53033]],[[-117.78064,33.53168],[-117.78065,33.53168],[-117.78064,33.53142],[-117.78064,33.53168]]],[[[-117.78225,33.5306],[-117.78193,33.5306],[-117.78225,33.53032],[-117.78225,33.5306]]],[[[-117.78194,33.53141],[-117.78194,33.53113],[-117.78226,33.53141],[-117.78194,33.53141]]],[[[-117.78194,33.53194],[-117.78355,33.53221],[-117.78226,33.53249],[-117.78194,33.53194]]],[[[-117.7813,33.53249],[-117.7813,33.53222],[-117.78162,33.53249],[-117.7813,33.53249]]],[[[-117.78098,33.53249],[-117.78098,33.53277],[-117.78033,33.5325],[-117.78098,33.53249]]],[[[-117.78227,33.5333],[-117.78195,33.5333],[-117.78227,33.53303],[-117.78227,33.5333]]],[[[-117.78327,33.536],[-117.78327,33.53654],[-117.78295,33.53654],[-117.78295,33.53708],[-117.78328,33.53681],[-117.78328,33.53762],[-117.78232,33.53763],[-117.7823,33.536],[-117.78327,33.536]],[[-117.78263,33.53735],[-117.78264,33.53735],[-117.78263,33.53709],[-117.78263,33.53735]],[[-117.78263,33.53654],[-117.78263,33.53627],[-117.78262,33.53654],[-117.78263,33.53654]]],[[[-117.78361,33.53762],[-117.78329,33.53762],[-117.78361,33.53735],[-117.78361,33.53762]]]]}}]}