{"type":"FeatureCollection","features":[{"type":"Feature","geometry":{"type":"Polygon","coordinates":[[[-117.82,33.512],[-117.755,33.512],[-117.754,33.512],[-117.754,33.511],[-117.754,33.511],[-117.754,33.511],[-117.753,33.511],[-117.753,33.511],[-117.753,33.51],[-117.752,33.51],[-117.752,33.51],[-117.752,33.509],[-117.752,33.509],[-117.751,33.508],[-117.751,33.508],[-117.751,33.508],[-117.751,33.508],[-117.751,33.508],[-117.751,33.508],[-117.751,33.508],[-117.751,33.508],[-117.751,33.508],[-117.751,33.508],[-117.751,33.508],[-117.751,33.508],[-117.751,33.508],[-117.751,33.507],[-117.751,33.507],[-117.751,33.507],[-117.751,33.507],[-117.751,33.507],[-117.751,33.507],[-117.75,33.507],[-117.75,33.507],[-117.75,33.507],[-117.75,33.507],[-117.75,33.506],[-117.749,33.506],[-117.749,33.506],[-117.749,33.505],[-117.748,33.505],[-117.748,33.505],[-117.748,33.504],[-117.748,33.504],[-117.748,33.504],[-117.747,33.504],[-117.747,33.504],[-117.747,33.503],[-117.747,33.503],[-117.747,33.503],[-117.747,33.503],[-117.747,33.503],[-117.747,33.503],[-117.747,33.503],[-117.747,33.503],[-117.747,33.503],[-117.747,33.503],[-117.747,33.502],[-117.747,33.502],[-117.747,33.502],[-117.747,33.502],[-117.747,33.502],[-117.747,33.502],[-117.747,33.502],[-117.746,33.502],[-117.746,33.502],[-117.746,33.502],[-117.746,33.502],[-117.746,33.502],[-117.746,33.502],[-117.746,33.502],[-117.746,33.502],[-117.746,33.501],[-117.746,33.501],[-117.746,33.501],[-117.746,33.501],[-117.746,33.501],[-117.746,33.501],[-117.746,33.501],[-117.746,33.501],[-117.746,33.501],[-117.746,33.501],[-117.746,33.501],[-117.746,33.501],[-117.746,33.501],[-117.746,33.501],[-117.746,33.501],[-117.746,33.501],[-117.746,33.501],[-117.746,33.501],[-117.746,33.501],[-117.767,33.501],[-117.82,33.501],[-117.82,33.512]]]},"properties":{"id":"laguna-beach-state-marine-conservation-area","name":"Laguna Beach State Marine Conservation Area","type":"SMCA (No-Take)","shortName":"Laguna Beach","areaKm2":null,"ccrCitation":null}},{"type":"Feature","geometry":{"type":"Polygon","coordinates":[[[-117.82,33.54],[-117.828,33.546],[-117.878,33.584],[-117.877,33.59],[-117.878,33.592],[-117.878,33.593],[-117.877,33.593],[-117.877,33.593],[-117.877,33.593],[-117.876,33.593],[-117.876,33.593],[-117.875,33.593],[-117.875,33.593],[-117.874,33.593],[-117.874,33.593],[-117.873,33.593],[-117.873,33.593],[-117.872,33.593],[-117.872,33.593],[-117.872,33.592],[-117.872,33.592],[-117.872,33.592],[-117.872,33.592],[-117.872,33.592],[-117.872,33.592],[-117.872,33.592],[-117.872,33.592],[-117.872,33.592],[-117.872,33.592],[-117.872,33.592],[-117.872,33.592],[-117.872,33.592],[-117.872,33.592],[-117.872,33.592],[-117.872,33.592],[-117.872,33.592],[-117.871,33.592],[-117.871,33.592],[-117.871,33.591],[-117.871,33.591],[-117.871,33.591],[-117.871,33.591],[-117.871,33.591],[-117.871,33.591],[-117.871,33.591],[-117.871,33.591],[-117.871,33.591],[-117.87,33.59],[-117.87,33.59],[-117.87,33.59],[-117.87,33.59],[-117.87,33.59],[-117.87,33.59],[-117.87,33.59],[-117.87,33.59],[-117.87,33.59],[-117.87,33.59],[-117.87,33.59],[-117.87,33.59],[-117.869,33.59],[-117.869,33.59],[-117.869,33.59],[-117.869,33.59],[-117.869,33.59],[-117.869,33.59],[-117.869,33.59],[-117.868,33.59],[-117.868,33.589],[-117.868,33.589],[-117.868,33.589],[-117.868,33.589],[-117.868,33.589],[-117.868,33.589],[-117.867,33.589],[-117.867,33.589],[-117.867,33.588],[-117.867,33.588],[-117.867,33.588],[-117.867,33.588],[-117.867,33.588],[-117.867,33.588],[-117.867,33.588],[-117.867,33.588],[-117.867,33.588],[-117.867,33.588],[-117.867,33.588],[-117.867,33.588],[-117.867,33.588],[-117.866,33.588],[-117.866,33.587],[-117.866,33.587],[-117.866,33.587],[-117.866,33.587],[-117.866,33.587],[-117.865,33.587],[-117.865,33.587],[-117.865,33.587],[-117.865,33.586],[-117.865,33.586],[-117.865,33.586],[-117.865,33.586],[-117.865,33.586],[-117.865,33.586],[-117.865,33.586],[-117.864,33.586],[-117.864,33.586],[-117.864,33.586],[-117.864,33.586],[-117.864,33.586],[-117.864,33.586],[-117.864,33.585],[-117.864,33.585],[-117.864,33.585],[-117.864,33.585],[-117.864,33.585],[-117.864,33.585],[-117.864,33.585],[-117.864,33.585],[-117.864,33.585],[-117.864,33.585],[-117.864,33.585],[-117.864,33.585],[-117.864,33.585],[-117.864,33.585],[-117.864,33.585],[-117.864,33.585],[-117.864,33.585],[-117.863,33.585],[-117.863,33.585],[-117.863,33.585],[-117.863,33.584],[-117.863,33.584],[-117.863,33.584],[-117.863,33.584],[-117.863,33.584],[-117.863,33.584],[-117.863,33.584],[-117.863,33.584],[-117.863,33.584],[-117.862,33.584],[-117.862,33.584],[-117.862,33.584],[-117.862,33.584],[-117.862,33.584],[-117.862,33.584],[-117.862,33.584],[-117.862,33.584],[-117.862,33.584],[-117.862,33.584],[-117.862,33.584],[-117.862,33.584],[-117.862,33.584],[-117.862,33.584],[-117.861,33.584],[-117.861,33.584],[-117.861,33.584],[-117.861,33.584],[-117.861,33.584],[-117.861,33.584],[-117.861,33.584],[-117.861,33.583],[-117.861,33.583],[-117.861,33.583],[-117.861,33.583],[-117.861,33.583],[-117.861,33.583],[-117.861,33.583],[-117.861,33.583],[-117.861,33.584],[-117.86,33.584],[-117.86,33.584],[-117.86,33.584],[-117.86,33.584],[-117.86,33.584],[-117.86,33.584],[-117.859,33.583],[-117.859,33.583],[-117.859,33.583],[-117.859,33.583],[-117.859,33.583],[-117.858,33.583],[-117.858,33.583],[-117.858,33.583],[-117.857,33.583],[-117.857,33.582],[-117.857,33.582],[-117.857,33.582],[-117.856,33.582],[-117.856,33.582],[-117.856,33.582],[-117.856,33.581],[-117.855,33.581],[-117.855,33.581],[-117.855,33.581],[-117.855,33.581],[-117.854,33.581],[-117.854,33.581],[-117.854,33.58],[-117.854,33.58],[-117.854,33.58],[-117.854,33.58],[-117.854,33.58],[-117.854,33.58],[-117.854,33.58],[-117.853,33.58],[-117.853,33.58],[-117.853,33.58],[-117.853,33.58],[-117.852,33.579],[-117.852,33.579],[-117.852,33.579],[-117.852,33.579],[-117.852,33.579],[-117.851,33.579],[-117.851,33.579],[-117.851,33.579],[-117.851,33.579],[-117.85,33.579],[-117.85,33.579],[-117.85,33.579],[-117.85,33.579],[-117.85,33.579],[-117.849,33.578],[-117.849,33.578],[-117.849,33.578],[-117.849,33.578],[-117.849,33.578],[-117.848,33.578],[-117.848,33.578],[-117.848,33.578],[-117.848,33.578],[-117.848,33.578],[-117.847,33.578],[-117.847,33.578],[-117.847,33.577],[-117.847,33.577],[-117.846,33.577],[-117.846,33.577],[-117.846,33.577],[-117.846,33.577],[-117.845,33.577],[-117.845,33.577],[-117.845,33.577],[-117.844,33.576],[-117.844,33.576],[-117.844,33.576],[-117.843,33.576],[-117.843,33.576],[-117.843,33.575],[-117.842,33.575],[-117.842,33.575],[-117.842,33.575],[-117.841,33.575],[-117.841,33.574],[-117.841,33.574],[-117.84,33.574],[-117.84,33.574],[-117.84,33.574],[-117.84,33.573],[-117.84,33.573],[-117.839,33.573],[-117.839,33.573],[-117.839,33.573],[-117.839,33.572],[-117.839,33.572],[-117.839,33.572],[-117.838,33.572],[-117.838,33.572],[-117.838,33.571],[-117.838,33.571],[-117.838,33.571],[-117.838,33.571],[-117.838,33.571],[-117.837,33.571],[-117.837,33.571],[-117.837,33.571],[-117.837,33.571],[-117.837,33.57],[-117.837,33.57],[-117.836,33.57],[-117.836,33.57],[-117.836,33.57],[-117.836,33.569],[-117.836,33.569],[-117.836,33.569],[-117.836,33.569],[-117.835,33.569],[-117.835,33.569],[-117.835,33.569],[-117.835,33.569],[-117.835,33.569],[-117.834,33.568],[-117.834,33.568],[-117.834,33.568],[-117.834,33.568],[-117.834,33.568],[-117.834,33.567],[-117.833,33.567],[-117.833,33.567],[-117.833,33.567],[-117.833,33.567],[-117.833,33.566],[-117.833,33.566],[-117.833,33.566],[-117.833,33.566],[-117.833,33.566],[-117.832,33.566],[-117.832,33.566],[-117.832,33.566],[-117.832,33.565],[-117.831,33.565],[-117.831,33.565],[-117.831,33.565],[-117.831,33.565],[-117.83,33.565],[-117.83,33.565],[-117.83,33.565],[-117.83,33.565],[-117.83,33.564],[-117.829,33.564],[-117.829,33.564],[-117.829,33.564],[-117.829,33.564],[-117.828,33.564],[-117.828,33.564],[-117.828,33.564],[-117.828,33.564],[-117.827,33.564],[-117.827,33.564],[-117.827,33.564],[-117.827,33.564],[-117.826,33.563],[-117.826,33.563],[-117.826,33.563],[-117.825,33.563],[-117.825,33.563],[-117.825,33.563],[-117.825,33.562],[-117.824,33.562],[-117.824,33.562],[-117.824,33.562],[-117.824,33.562],[-117.823,33.561],[-117.823,33.561],[-117.823,33.561],[-117.823,33.561],[-117.822,33.561],[-117.822,33.561],[-117.822,33.56],[-117.822,33.56],[-117.822,33.56],[-117.822,33.56],[-117.822,33.56],[-117.822,33.56],[-117.821,33.56],[-117.821,33.56],[-117.821,33.559],[-117.821,33.559],[-117.82,33.559],[-117.82,33.559],[-117.82,33.558],[-117.82,33.558],[-117.82,33.558],[-117.819,33.558],[-117.819,33.558],[-117.819,33.557],[-117.819,33.557],[-117.819,33.557],[-117.819,33.557],[-117.819,33.557],[-117.819,33.557],[-117.819,33.557],[-117.819,33.557],[-117.819,33.557],[-117.82,33.557],[-117.82,33.557],[-117.82,33.557],[-117.82,33.557],[-117.82,33.557],[-117.82,33.557],[-117.82,33.557],[-117.82,33.557],[-117.82,33.557],[-117.82,33.557],[-117.82,33.557],[-117.82,33.557],[-117.82,33.557],[-117.82,33.556],[-117.82,33.556],[-117.82,33.556],[-117.82,33.556],[-117.82,33.556],[-117.82,33.556],[-117.82,33.556],[-117.82,33.556],[-117.82,33.556],[-117.82,33.556],[-117.82,33.556],[-117.82,33.556],[-117.82,33.556],[-117.819,33.556],[-117.819,33.556],[-117.819,33.556],[-117.819,33.555],[-117.819,33.555],[-117.819,33.555],[-117.819,33.555],[-117.819,33.555],[-117.819,33.555],[-117.819,33.555],[-117.819,33.555],[-117.82,33.555],[-117.82,33.555],[-117.82,33.554],[-117.82,33.554],[-117.82,33.554],[-117.82,33.554],[-117.82,33.554],[-117.82,33.554],[-117.82,33.554],[-117.82,33.554],[-117.82,33.554],[-117.82,33.54]]]},"properties":{"id":"crystal-cove-state-marine-conservation-area","name":"Crystal Cove State Marine Conservation Area","type":"SMCA","shortName":"Crystal Cove","areaKm2":null,"ccrCitation":null}},{"type":"Feature","geometry":{"type":"Polygon","coordinates":[[[-117.818,33.554],[-117.818,33.554],[-117.818,33.554],[-117.818,33.554],[-117.817,33.554],[-117.817,33.554],[-117.817,33.554],[-117.817,33.554],[-117.817,33.554],[-117.817,33.554],[-117.817,33.554],[-117.817,33.554],[-117.817,33.554],[-117.817,33.554],[-117.817,33.554],[-117.817,33.554],[-117.817,33.554],[-117.817,33.554],[-117.817,33.554],[-117.817,33.554],[-117.817,33.554],[-117.816,33.554],[-117.816,33.554],[-117.816,33.554],[-117.816,33.554],[-117.816,33.554],[-117.816,33.554],[-117.815,33.554],[-117.815,33.554],[-117.815,33.553],[-117.815,33.553],[-117.815,33.553],[-117.814,33.553],[-117.814,33.553],[-117.814,33.553],[-117.814,33.553],[-117.814,33.552],[-117.814,33.552],[-117.814,33.552],[-117.814,33.552],[-117.814,33.552],[-117.814,33.552],[-117.814,33.552],[-117.814,33.552],[-117.815,33.552],[-117.815,33.552],[-117.815,33.552],[-117.815,33.552],[-117.815,33.552],[-117.815,33.552],[-117.815,33.552],[-117.815,33.552],[-117.815,33.552],[-117.815,33.552],[-117.815,33.552],[-117.815,33.551],[-117.815,33.551],[-117.815,33.551],[-117.815,33.551],[-117.815,33.551],[-117.815,33.551],[-117.815,33.551],[-117.815,33.551],[-117.815,33.551],[-117.814,33.551],[-117.814,33.551],[-117.814,33.551],[-117.814,33.551],[-117.814,33.551],[-117.814,33.551],[-117.814,33.551],[-117.814,33.551],[-117.814,33.551],[-117.813,33.551],[-117.813,33.551],[-117.813,33.551],[-117.813,33.552],[-117.813,33.552],[-117.813,33.552],[-117.813,33.552],[-117.813,33.552],[-117.813,33.552],[-117.813,33.552],[-117.813,33.552],[-117.813,33.552],[-117.813,33.552],[-117.813,33.552],[-117.812,33.552],[-117.812,33.552],[-117.812,33.553],[-117.812,33.552],[-117.811,33.552],[-117.811,33.552],[-117.811,33.552],[-117.811,33.552],[-117.81,33.552],[-117.81,33.552],[-117.81,33.552],[-117.809,33.552],[-117.809,33.552],[-117.809,33.552],[-117.808,33.551],[-117.808,33.551],[-117.808,33.551],[-117.808,33.551],[-117.807,33.55],[-117.807,33.55],[-117.807,33.55],[-117.807,33.55],[-117.807,33.55],[-117.807,33.55],[-117.807,33.549],[-117.807,33.549],[-117.807,33.549],[-117.807,33.549],[-117.807,33.549],[-117.807,33.549],[-117.807,33.549],[-117.807,33.549],[-117.807,33.549],[-117.807,33.549],[-117.807,33.549],[-117.807,33.549],[-117.807,33.549],[-117.807,33.548],[-117.807,33.548],[-117.807,33.548],[-117.807,33.548],[-117.807,33.548],[-117.807,33.548],[-117.807,33.548],[-117.807,33.548],[-117.807,33.548],[-117.807,33.548],[-117.806,33.548],[-117.806,33.548],[-117.806,33.548],[-117.806,33.549],[-117.806,33.549],[-117.806,33.549],[-117.806,33.548],[-117.806,33.548],[-117.806,33.549],[-117.806,33.548],[-117.806,33.548],[-117.806,33.548],[-117.806,33.548],[-117.806,33.548],[-117.806,33.548],[-117.806,33.548],[-117.806,33.548],[-117.806,33.548],[-117.805,33.548],[-117.805,33.548],[-117.805,33.548],[-117.805,33.548],[-117.806,33.548],[-117.806,33.548],[-117.806,33.548],[-117.806,33.548],[-117.806,33.548],[-117.806,33.548],[-117.806,33.547],[-117.806,33.547],[-117.806,33.547],[-117.806,33.547],[-117.806,33.547],[-117.806,33.547],[-117.805,33.547],[-117.805,33.547],[-117.805,33.547],[-117.805,33.547],[-117.805,33.547],[-117.805,33.547],[-117.805,33.547],[-117.805,33.547],[-117.805,33.547],[-117.805,33.547],[-117.805,33.547],[-117.805,33.547],[-117.805,33.547],[-117.805,33.547],[-117.805,33.547],[-117.805,33.547],[-117.805,33.547],[-117.805,33.547],[-117.804,33.547],[-117.804,33.547],[-117.804,33.547],[-117.804,33.546],[-117.804,33.546],[-117.804,33.546],[-117.804,33.546],[-117.804,33.546],[-117.804,33.546],[-117.804,33.546],[-117.804,33.546],[-117.804,33.546],[-117.804,33.546],[-117.804,33.546],[-117.804,33.546],[-117.804,33.546],[-117.804,33.546],[-117.804,33.546],[-117.804,33.546],[-117.804,33.546],[-117.804,33.546],[-117.804,33.546],[-117.804,33.546],[-117.804,33.546],[-117.804,33.547],[-117.804,33.547],[-117.803,33.547],[-117.803,33.547],[-117.803,33.547],[-117.803,33.547],[-117.803,33.547],[-117.803,33.547],[-117.803,33.547],[-117.803,33.547],[-117.803,33.547],[-117.803,33.547],[-117.803,33.547],[-117.803,33.547],[-117.803,33.547],[-117.802,33.547],[-117.802,33.547],[-117.802,33.547],[-117.801,33.547],[-117.801,33.547],[-117.801,33.547],[-117.801,33.546],[-117.801,33.546],[-117.8,33.546],[-117.8,33.546],[-117.8,33.546],[-117.8,33.546],[-117.8,33.546],[-117.8,33.546],[-117.8,33.546],[-117.8,33.546],[-117.8,33.546],[-117.8,33.546],[-117.8,33.546],[-117.8,33.546],[-117.8,33.545],[-117.8,33.545],[-117.8,33.545],[-117.8,33.545],[-117.8,33.545],[-117.8,33.545],[-117.8,33.545],[-117.8,33.545],[-117.8,33.545],[-117.8,33.545],[-117.8,33.545],[-117.8,33.545],[-117.8,33.545],[-117.8,33.545],[-117.8,33.545],[-117.8,33.545],[-117.8,33.545],[-117.8,33.545],[-117.8,33.545],[-117.8,33.545],[-117.8,33.545],[-117.8,33.545],[-117.8,33.545],[-117.8,33.545],[-117.8,33.545],[-117.799,33.545],[-117.799,33.545],[-117.799,33.545],[-117.799,33.545],[-117.8,33.545],[-117.799,33.545],[-117.799,33.545],[-117.799,33.545],[-117.799,33.545],[-117.799,33.546],[-117.799,33.546],[-117.799,33.546],[-117.799,33.546],[-117.799,33.546],[-117.798,33.546],[-117.798,33.546],[-117.798,33.546],[-117.798,33.546],[-117.798,33.546],[-117.797,33.546],[-117.797,33.545],[-117.797,33.545],[-117.797,33.545],[-117.797,33.545],[-117.797,33.545],[-117.797,33.545],[-117.797,33.545],[-117.797,33.545],[-117.797,33.545],[-117.797,33.545],[-117.797,33.545],[-117.797,33.545],[-117.797,33.545],[-117.797,33.545],[-117.796,33.545],[-117.796,33.545],[-117.796,33.545],[-117.796,33.545],[-117.796,33.545],[-117.796,33.545],[-117.796,33.545],[-117.795,33.545],[-117.795,33.545],[-117.795,33.545],[-117.795,33.545],[-117.795,33.545],[-117.795,33.545],[-117.795,33.545],[-117.795,33.545],[-117.795,33.545],[-117.795,33.545],[-117.795,33.545],[-117.795,33.545],[-117.795,33.545],[-117.795,33.545],[-117.795,33.545],[-117.795,33.545],[-117.794,33.545],[-117.794,33.545],[-117.794,33.545],[-117.794,33.545],[-117.794,33.545],[-117.794,33.545],[-117.794,33.545],[-117.794,33.545],[-117.794,33.545],[-117.794,33.545],[-117.793,33.544],[-117.793,33.544],[-117.793,33.544],[-117.793,33.544],[-117.793,33.544],[-117.793,33.544],[-117.793,33.544],[-117.793,33.544],[-117.793,33.544],[-117.793,33.544],[-117.793,33.544],[-117.793,33.544],[-117.793,33.543],[-117.793,33.543],[-117.793,33.543],[-117.793,33.543],[-117.793,33.543],[-117.792,33.543],[-117.792,33.543],[-117.792,33.543],[-117.792,33.543],[-117.792,33.543],[-117.792,33.543],[-117.792,33.543],[-117.792,33.543],[-117.792,33.543],[-117.792,33.543],[-117.792,33.543],[-117.792,33.543],[-117.792,33.543],[-117.791,33.543],[-117.791,33.543],[-117.791,33.543],[-117.791,33.543],[-117.791,33.543],[-117.791,33.543],[-117.791,33.543],[-117.791,33.543],[-117.791,33.543],[-117.791,33.543],[-117.79,33.543],[-117.79,33.543],[-117.79,33.543],[-117.79,33.543],[-117.79,33.543],[-117.79,33.543],[-117.79,33.543],[-117.79,33.543],[-117.79,33.543],[-117.79,33.543],[-117.79,33.543],[-117.789,33.543],[-117.789,33.543],[-117.789,33.543],[-117.789,33.543],[-117.789,33.543],[-117.789,33.543],[-117.789,33.543],[-117.789,33.543],[-117.789,33.543],[-117.788,33.543],[-117.788,33.543],[-117.788,33.543],[-117.788,33.543],[-117.788,33.543],[-117.787,33.543],[-117.787,33.543],[-117.787,33.543],[-117.787,33.543],[-117.786,33.543],[-117.786,33.542],[-117.786,33.542],[-117.786,33.542],[-117.785,33.542],[-117.785,33.542],[-117.785,33.542],[-117.785,33.542],[-117.784,33.542],[-117.784,33.541],[-117.784,33.541],[-117.784,33.541],[-117.783,33.541],[-117.783,33.541],[-117.783,33.54],[-117.783,33.54],[-117.783,33.54],[-117.783,33.54],[-117.783,33.54],[-117.783,33.54],[-117.783,33.54],[-117.782,33.54],[-117.782,33.54],[-117.782,33.54],[-117.782,33.539],[-117.782,33.539],[-117.782,33.539],[-117.782,33.539],[-117.781,33.539],[-117.781,33.538],[-117.781,33.538],[-117.781,33.538],[-117.781,33.538],[-117.781,33.538],[-117.781,33.537],[-117.781,33.537],[-117.781,33.537],[-117.781,33.537],[-117.78,33.537],[-117.78,33.537],[-117.78,33.536],[-117.78,33.536],[-117.78,33.536],[-117.78,33.536],[-117.78,33.536],[-117.779,33.536],[-117.779,33.535],[-117.779,33.535],[-117.779,33.535],[-117.779,33.535],[-117.779,33.535],[-117.779,33.534],[-117.778,33.534],[-117.778,33.534],[-117.778,33.534],[-117.778,33.534],[-117.778,33.533],[-117.778,33.533],[-117.778,33.533],[-117.777,33.533],[-117.777,33.533],[-117.777,33.533],[-117.777,33.533],[-117.777,33.533],[-117.777,33.533],[-117.777,33.532],[-117.777,33.532],[-117.777,33.532],[-117.777,33.532],[-117.777,33.532],[-117.777,33.532],[-117.777,33.532],[-117.776,33.532],[-117.776,33.532],[-117.776,33.532],[-117.776,33.532],[-117.776,33.531],[-117.776,33.531],[-117.776,33.531],[-117.776,33.531],[-117.776,33.531],[-117.775,33.531],[-117.775,33.531],[-117.775,33.531],[-117.775,33.531],[-117.775,33.53],[-117.774,33.53],[-117.774,33.53],[-117.774,33.53],[-117.774,33.53],[-117.773,33.529],[-117.773,33.529],[-117.773,33.529],[-117.773,33.529],[-117.773,33.529],[-117.773,33.529],[-117.773,33.528],[-117.772,33.528],[-117.772,33.528],[-117.772,33.528],[-117.772,33.528],[-117.772,33.528],[-117.772,33.527],[-117.772,33.527],[-117.772,33.527],[-117.772,33.527],[-117.772,33.527],[-117.772,33.527],[-117.772,33.527],[-117.772,33.527],[-117.772,33.527],[-117.772,33.527],[-117.772,33.527],[-117.772,33.527],[-117.772,33.527],[-117.772,33.527],[-117.772,33.527],[-117.772,33.527],[-117.772,33.527],[-117.771,33.527],[-117.771,33.527],[-117.771,33.527],[-117.771,33.527],[-117.771,33.527],[-117.771,33.527],[-117.771,33.527],[-117.771,33.527],[-117.771,33.527],[-117.771,33.527],[-117.771,33.527],[-117.77,33.527],[-117.77,33.527],[-117.77,33.527],[-117.77,33.527],[-117.77,33.526],[-117.77,33.526],[-117.77,33.526],[-117.77,33.526],[-117.77,33.526],[-117.77,33.526],[-117.77,33.526],[-117.77,33.526],[-117.77,33.526],[-117.77,33.526],[-117.77,33.526],[-117.77,33.526],[-117.77,33.526],[-117.77,33.526],[-117.77,33.526],[-117.77,33.526],[-117.77,33.526],[-117.77,33.526],[-117.77,33.526],[-117.77,33.526],[-117.769,33.526],[-117.769,33.526],[-117.769,33.526],[-117.769,33.526],[-117.769,33.526],[-117.769,33.525],[-117.769,33.525],[-117.769,33.525],[-117.769,33.525],[-117.769,33.525],[-117.769,33.525],[-117.769,33.525],[-117.769,33.525],[-117.769,33.525],[-117.769,33.525],[-117.769,33.525],[-117.769,33.525],[-117.769,33.525],[-117.768,33.525],[-117.768,33.525],[-117.768,33.525],[-117.768,33.525],[-117.768,33.525],[-117.768,33.525],[-117.768,33.525],[-117.768,33.525],[-117.768,33.525],[-117.768,33.525],[-117.768,33.525],[-117.767,33.525],[-117.767,33.525],[-117.767,33.525],[-117.767,33.525],[-117.767,33.525],[-117.767,33.525],[-117.767,33.524],[-117.767,33.524],[-117.767,33.524],[-117.767,33.524],[-117.767,33.524],[-117.767,33.524],[-117.767,33.524],[-117.767,33.524],[-117.767,33.524],[-117.767,33.524],[-117.767,33.524],[-117.767,33.524],[-117.767,33.524],[-117.767,33.524],[-117.767,33.524],[-117.767,33.524],[-117.766,33.524],[-117.766,33.524],[-117.766,33.524],[-117.766,33.524],[-117.766,33.524],[-117.766,33.524],[-117.766,33.524],[-117.766,33.524],[-117.766,33.524],[-117.766,33.523],[-117.766,33.523],[-117.766,33.523],[-117.766,33.523],[-117.766,33.523],[-117.766,33.523],[-117.766,33.523],[-117.766,33.523],[-117.766,33.523],[-117.766,33.523],[-117.766,33.523],[-117.766,33.523],[-117.766,33.523],[-117.766,33.523],[-117.766,33.523],[-117.766,33.522],[-117.766,33.522],[-117.766,33.522],[-117.766,33.522],[-117.766,33.522],[-117.766,33.522],[-117.766,33.522],[-117.766,33.522],[-117.765,33.522],[-117.765,33.522],[-117.765,33.522],[-117.765,33.522],[-117.765,33.522],[-117.765,33.522],[-117.765,33.522],[-117.765,33.521],[-117.765,33.521],[-117.765,33.521],[-117.765,33.521],[-117.765,33.521],[-117.765,33.521],[-117.765,33.521],[-117.765,33.521],[-117.765,33.521],[-117.765,33.521],[-117.765,33.521],[-117.764,33.52],[-117.764,33.52],[-117.764,33.52],[-117.765,33.52],[-117.765,33.52],[-117.765,33.52],[-117.764,33.52],[-117.764,33.52],[-117.764,33.52],[-117.764,33.52],[-117.764,33.52],[-117.764,33.52],[-117.764,33.52],[-117.764,33.52],[-117.764,33.52],[-117.764,33.52],[-117.764,33.52],[-117.764,33.52],[-117.764,33.52],[-117.764,33.52],[-117.764,33.52],[-117.763,33.52],[-117.763,33.52],[-117.763,33.52],[-117.763,33.52],[-117.763,33.52],[-117.763,33.519],[-117.763,33.519],[-117.763,33.519],[-117.763,33.519],[-117.762,33.519],[-117.762,33.519],[-117.762,33.518],[-117.762,33.518],[-117.762,33.518],[-117.762,33.518],[-117.762,33.518],[-117.761,33.517],[-117.761,33.517],[-117.761,33.517],[-117.761,33.517],[-117.761,33.517],[-117.761,33.517],[-117.761,33.516],[-117.761,33.516],[-117.761,33.516],[-117.761,33.516],[-117.761,33.516],[-117.761,33.516],[-117.761,33.516],[-117.761,33.516],[-117.76,33.516],[-117.76,33.515],[-117.76,33.515],[-117.76,33.515],[-117.76,33.515],[-117.76,33.515],[-117.76,33.515],[-117.76,33.515],[-117.76,33.515],[-117.76,33.515],[-117.761,33.514],[-117.761,33.514],[-117.761,33.514],[-117.761,33.514],[-117.761,33.514],[-117.761,33.514],[-117.761,33.514],[-117.761,33.514],[-117.761,33.514],[-117.761,33.514],[-117.761,33.514],[-117.76,33.514],[-117.76,33.514],[-117.76,33.514],[-117.76,33.514],[-117.76,33.514],[-117.76,33.514],[-117.76,33.514],[-117.76,33.514],[-117.76,33.514],[-117.76,33.514],[-117.76,33.514],[-117.76,33.514],[-117.76,33.515],[-117.76,33.515],[-117.76,33.515],[-117.759,33.515],[-117.759,33.514],[-117.759,33.514],[-117.759,33.514],[-117.759,33.514],[-117.759,33.514],[-117.759,33.514],[-117.759,33.514],[-117.759,33.514],[-117.759,33.514],[-117.758,33.514],[-117.758,33.514],[-117.758,33.514],[-117.758,33.514],[-117.758,33.514],[-117.758,33.514],[-117.758,33.514],[-117.758,33.514],[-117.758,33.514],[-117.758,33.514],[-117.758,33.514],[-117.758,33.514],[-117.758,33.514],[-117.758,33.514],[-117.758,33.514],[-117.758,33.514],[-117.758,33.514],[-117.758,33.514],[-117.758,33.514],[-117.758,33.514],[-117.758,33.514],[-117.758,33.514],[-117.758,33.514],[-117.758,33.514],[-117.758,33.514],[-117.758,33.514],[-117.758,33.514],[-117.758,33.514],[-117.758,33.514],[-117.758,33.514],[-117.758,33.514],[-117.757,33.514],[-117.757,33.514],[-117.757,33.514],[-117.757,33.514],[-117.757,33.514],[-117.757,33.514],[-117.757,33.513],[-117.756,33.513],[-117.756,33.513],[-117.756,33.513],[-117.756,33.513],[-117.756,33.513],[-117.756,33.513],[-117.755,33.513],[-117.755,33.513],[-117.755,33.512],[-117.755,33.512],[-117.755,33.512],[-117.755,33.512],[-117.82,33.512],[-117.82,33.512],[-117.82,33.513],[-117.82,33.54],[-117.82,33.554],[-117.82,33.554],[-117.82,33.554],[-117.82,33.554],[-117.82,33.554],[-117.82,33.554],[-117.819,33.554],[-117.819,33.554],[-117.819,33.554],[-117.819,33.554],[-117.819,33.554],[-117.819,33.554],[-117.819,33.554],[-117.819,33.554],[-117.819,33.554],[-117.819,33.554],[-117.819,33.554],[-117.819,33.554],[-117.819,33.554],[-117.819,33.554],[-117.819,33.554],[-117.819,33.554],[-117.819,33.554],[-117.818,33.554],[-117.818,33.554],[-117.818,33.554],[-117.818,33.554]]]},"properties":{"id":"laguna-beach-state-marine-reserve","name":"Laguna Beach State Marine Reserve","type":"SMR","shortName":"Laguna Beach","areaKm2":null,"ccrCitation":null}}]}