{"type":"FeatureCollection","features":[{"type":"Feature","geometry":{"type":"Point","coordinates":[-117.84423,33.56704]},"properties":{"depth_ft":88,"depth_m":26.7}},{"type":"Feature","geometry":{"type":"Point","coordinates":[-117.84047,33.56704]},"properties":{"depth_ft":54,"depth_m":16.5}},{"type":"Feature","geometry":{"type":"Point","coordinates":[-117.83671,33.56704]},"properties":{"depth_ft":24,"depth_m":7.3}},{"type":"Feature","geometry":{"type":"Point","coordinates":[-117.84423,33.5639]},"properties":{"depth_ft":126,"depth_m":38.4}},{"type":"Feature","geometry":{"type":"Point","coordinates":[-117.84047,33.5639]},"properties":{"depth_ft":71,"depth_m":21.5}},{"type":"Feature","geometry":{"type":"Point","coordinates":[-117.83671,33.5639]},"properties":{"depth_ft":31,"depth_m":9.3}},{"type":"Feature","geometry":{"type":"Point","coordinates":[-117.83295,33.5639]},"properties":{"depth_ft":17,"depth_m":5.1}},{"type":"Feature","geometry":{"type":"Point","coordinates":[-117.82919,33.5639]},"properties":{"depth_ft":4,"depth_m":1.4}},{"type":"Feature","geometry":{"type":"Point","coordinates":[-117.84423,33.56077]},"properties":{"depth_ft":190,"depth_m":57.8}},{"type":"Feature","geometry":{"type":"Point","coordinates":[-117.84047,33.56077]},"properties":{"depth_ft":127,"depth_m":38.6}},{"type":"Feature","geometry":{"type":"Point","coordinates":[-117.83671,33.56077]},"properties":{"depth_ft":84,"depth_m":25.5}},{"type":"Feature","geometry":{"type":"Point","coordinates":[-117.83295,33.56077]},"properties":{"depth_ft":61,"depth_m":18.5}},{"type":"Feature","geometry":{"type":"Point","coordinates":[-117.82919,33.56077]},"properties":{"depth_ft":46,"depth_m":14.1}},{"type":"Feature","geometry":{"type":"Point","coordinates":[-117.82543,33.56077]},"properties":{"depth_ft":21,"depth_m":6.4}},{"type":"Feature","geometry":{"type":"Point","coordinates":[-117.84423,33.55764]},"properties":{"depth_ft":229,"depth_m":69.8}},{"type":"Feature","geometry":{"type":"Point","coordinates":[-117.84047,33.55764]},"properties":{"depth_ft":200,"depth_m":61.0}},{"type":"Feature","geometry":{"type":"Point","coordinates":[-117.83671,33.55764]},"properties":{"depth_ft":158,"depth_m":48.2}},{"type":"Feature","geometry":{"type":"Point","coordinates":[-117.83295,33.55764]},"properties":{"depth_ft":123,"depth_m":37.4}},{"type":"Feature","geometry":{"type":"Point","coordinates":[-117.82919,33.55764]},"properties":{"depth_ft":86,"depth_m":26.2}},{"type":"Feature","geometry":{"type":"Point","coordinates":[-117.82543,33.55764]},"properties":{"depth_ft":55,"depth_m":16.7}},{"type":"Feature","geometry":{"type":"Point","coordinates":[-117.82168,33.55764]},"properties":{"depth_ft":24,"depth_m":7.4}},{"type":"Feature","geometry":{"type":"Point","coordinates":[-117.84423,33.5545]},"properties":{"depth_ft":261,"depth_m":79.7}},{"type":"Feature","geometry":{"type":"Point","coordinates":[-117.84047,33.5545]},"properties":{"depth_ft":237,"depth_m":72.3}},{"type":"Feature","geometry":{"type":"Point","coordinates":[-117.83671,33.5545]},"properties":{"depth_ft":208,"depth_m":63.3}},{"type":"Feature","geometry":{"type":"Point","coordinates":[-117.83295,33.5545]},"properties":{"depth_ft":174,"depth_m":53.2}},{"type":"Feature","geometry":{"type":"Point","coordinates":[-117.82919,33.5545]},"properties":{"depth_ft":142,"depth_m":43.3}},{"type":"Feature","geometry":{"type":"Point","coordinates":[-117.82543,33.5545]},"properties":{"depth_ft":83,"depth_m":25.2}},{"type":"Feature","geometry":{"type":"Point","coordinates":[-117.82168,33.5545]},"properties":{"depth_ft":32,"depth_m":9.7}},{"type":"Feature","geometry":{"type":"Point","coordinates":[-117.84047,33.55137]},"properties":{"depth_ft":274,"depth_m":83.4}},{"type":"Feature","geometry":{"type":"Point","coordinates":[-117.83671,33.55137]},"properties":{"depth_ft":241,"depth_m":73.3}},{"type":"Feature","geometry":{"type":"Point","coordinates":[-117.83295,33.55137]},"properties":{"depth_ft":210,"depth_m":63.9}},{"type":"Feature","geometry":{"type":"Point","coordinates":[-117.82919,33.55137]},"properties":{"depth_ft":185,"depth_m":56.3}},{"type":"Feature","geometry":{"type":"Point","coordinates":[-117.82543,33.55137]},"properties":{"depth_ft":138,"depth_m":42.0}},{"type":"Feature","geometry":{"type":"Point","coordinates":[-117.82168,33.55137]},"properties":{"depth_ft":67,"depth_m":20.5}},{"type":"Feature","geometry":{"type":"Point","coordinates":[-117.81792,33.55137]},"properties":{"depth_ft":43,"depth_m":13.0}},{"type":"Feature","geometry":{"type":"Point","coordinates":[-117.8104,33.55137]},"properties":{"depth_ft":6,"depth_m":1.7}},{"type":"Feature","geometry":{"type":"Point","coordinates":[-117.83671,33.54823]},"properties":{"depth_ft":277,"depth_m":84.5}},{"type":"Feature","geometry":{"type":"Point","coordinates":[-117.83295,33.54823]},"properties":{"depth_ft":244,"depth_m":74.4}},{"type":"Feature","geometry":{"type":"Point","coordinates":[-117.82919,33.54823]},"properties":{"depth_ft":215,"depth_m":65.5}},{"type":"Feature","geometry":{"type":"Point","coordinates":[-117.82543,33.54823]},"properties":{"depth_ft":187,"depth_m":56.9}},{"type":"Feature","geometry":{"type":"Point","coordinates":[-117.82168,33.54823]},"properties":{"depth_ft":150,"depth_m":45.8}},{"type":"Feature","geometry":{"type":"Point","coordinates":[-117.81792,33.54823]},"properties":{"depth_ft":101,"depth_m":30.7}},{"type":"Feature","geometry":{"type":"Point","coordinates":[-117.81416,33.54823]},"properties":{"depth_ft":64,"depth_m":19.6}},{"type":"Feature","geometry":{"type":"Point","coordinates":[-117.8104,33.54823]},"properties":{"depth_ft":46,"depth_m":14.0}},{"type":"Feature","geometry":{"type":"Point","coordinates":[-117.80664,33.54823]},"properties":{"depth_ft":7,"depth_m":2.1}},{"type":"Feature","geometry":{"type":"Point","coordinates":[-117.83295,33.5451]},"properties":{"depth_ft":277,"depth_m":84.4}},{"type":"Feature","geometry":{"type":"Point","coordinates":[-117.82919,33.5451]},"properties":{"depth_ft":250,"depth_m":76.2}},{"type":"Feature","geometry":{"type":"Point","coordinates":[-117.82543,33.5451]},"properties":{"depth_ft":222,"depth_m":67.8}},{"type":"Feature","geometry":{"type":"Point","coordinates":[-117.82168,33.5451]},"properties":{"depth_ft":188,"depth_m":57.5}},{"type":"Feature","geometry":{"type":"Point","coordinates":[-117.81792,33.5451]},"properties":{"depth_ft":156,"depth_m":47.6}},{"type":"Feature","geometry":{"type":"Point","coordinates":[-117.81416,33.5451]},"properties":{"depth_ft":129,"depth_m":39.4}},{"type":"Feature","geometry":{"type":"Point","coordinates":[-117.8104,33.5451]},"properties":{"depth_ft":76,"depth_m":23.1}},{"type":"Feature","geometry":{"type":"Point","coordinates":[-117.80664,33.5451]},"properties":{"depth_ft":44,"depth_m":13.5}},{"type":"Feature","geometry":{"type":"Point","coordinates":[-117.80288,33.5451]},"properties":{"depth_ft":28,"depth_m":8.5}},{"type":"Feature","geometry":{"type":"Point","coordinates":[-117.79912,33.5451]},"properties":{"depth_ft":4,"depth_m":1.2}},{"type":"Feature","geometry":{"type":"Point","coordinates":[-117.79536,33.5451]},"properties":{"depth_ft":3,"depth_m":0.8}},{"type":"Feature","geometry":{"type":"Point","coordinates":[-117.82919,33.54197]},"properties":{"depth_ft":274,"depth_m":83.7}},{"type":"Feature","geometry":{"type":"Point","coordinates":[-117.82543,33.54197]},"properties":{"depth_ft":248,"depth_m":75.6}},{"type":"Feature","geometry":{"type":"Point","coordinates":[-117.82168,33.54197]},"properties":{"depth_ft":225,"depth_m":68.6}},{"type":"Feature","geometry":{"type":"Point","coordinates":[-117.81792,33.54197]},"properties":{"depth_ft":198,"depth_m":60.3}},{"type":"Feature","geometry":{"type":"Point","coordinates":[-117.81416,33.54197]},"properties":{"depth_ft":170,"depth_m":51.8}},{"type":"Feature","geometry":{"type":"Point","coordinates":[-117.8104,33.54197]},"properties":{"depth_ft":146,"depth_m":44.5}},{"type":"Feature","geometry":{"type":"Point","coordinates":[-117.80664,33.54197]},"properties":{"depth_ft":87,"depth_m":26.6}},{"type":"Feature","geometry":{"type":"Point","coordinates":[-117.80288,33.54197]},"properties":{"depth_ft":72,"depth_m":21.8}},{"type":"Feature","geometry":{"type":"Point","coordinates":[-117.79912,33.54197]},"properties":{"depth_ft":60,"depth_m":18.2}},{"type":"Feature","geometry":{"type":"Point","coordinates":[-117.79536,33.54197]},"properties":{"depth_ft":41,"depth_m":12.6}},{"type":"Feature","geometry":{"type":"Point","coordinates":[-117.7916,33.54197]},"properties":{"depth_ft":11,"depth_m":3.4}},{"type":"Feature","geometry":{"type":"Point","coordinates":[-117.78784,33.54197]},"properties":{"depth_ft":5,"depth_m":1.5}},{"type":"Feature","geometry":{"type":"Point","coordinates":[-117.82543,33.53883]},"properties":{"depth_ft":276,"depth_m":84.1}},{"type":"Feature","geometry":{"type":"Point","coordinates":[-117.82168,33.53883]},"properties":{"depth_ft":246,"depth_m":75.1}},{"type":"Feature","geometry":{"type":"Point","coordinates":[-117.81792,33.53883]},"properties":{"depth_ft":223,"depth_m":67.9}},{"type":"Feature","geometry":{"type":"Point","coordinates":[-117.81416,33.53883]},"properties":{"depth_ft":203,"depth_m":62.0}},{"type":"Feature","geometry":{"type":"Point","coordinates":[-117.8104,33.53883]},"properties":{"depth_ft":182,"depth_m":55.5}},{"type":"Feature","geometry":{"type":"Point","coordinates":[-117.80664,33.53883]},"properties":{"depth_ft":159,"depth_m":48.4}},{"type":"Feature","geometry":{"type":"Point","coordinates":[-117.80288,33.53883]},"properties":{"depth_ft":133,"depth_m":40.7}},{"type":"Feature","geometry":{"type":"Point","coordinates":[-117.79912,33.53883]},"properties":{"depth_ft":104,"depth_m":31.8}},{"type":"Feature","geometry":{"type":"Point","coordinates":[-117.79536,33.53883]},"properties":{"depth_ft":70,"depth_m":21.2}},{"type":"Feature","geometry":{"type":"Point","coordinates":[-117.7916,33.53883]},"properties":{"depth_ft":53,"depth_m":16.0}},{"type":"Feature","geometry":{"type":"Point","coordinates":[-117.78784,33.53883]},"properties":{"depth_ft":35,"depth_m":10.8}},{"type":"Feature","geometry":{"type":"Point","coordinates":[-117.78408,33.53883]},"properties":{"depth_ft":24,"depth_m":7.2}},{"type":"Feature","geometry":{"type":"Point","coordinates":[-117.82168,33.5357]},"properties":{"depth_ft":283,"depth_m":86.4}},{"type":"Feature","geometry":{"type":"Point","coordinates":[-117.81792,33.5357]},"properties":{"depth_ft":256,"depth_m":78.2}},{"type":"Feature","geometry":{"type":"Point","coordinates":[-117.81416,33.5357]},"properties":{"depth_ft":230,"depth_m":70.2}},{"type":"Feature","geometry":{"type":"Point","coordinates":[-117.8104,33.5357]},"properties":{"depth_ft":208,"depth_m":63.3}},{"type":"Feature","geometry":{"type":"Point","coordinates":[-117.80664,33.5357]},"properties":{"depth_ft":188,"depth_m":57.2}},{"type":"Feature","geometry":{"type":"Point","coordinates":[-117.80288,33.5357]},"properties":{"depth_ft":164,"depth_m":50.1}},{"type":"Feature","geometry":{"type":"Point","coordinates":[-117.79912,33.5357]},"properties":{"depth_ft":141,"depth_m":42.9}},{"type":"Feature","geometry":{"type":"Point","coordinates":[-117.79536,33.5357]},"properties":{"depth_ft":112,"depth_m":34.0}},{"type":"Feature","geometry":{"type":"Point","coordinates":[-117.7916,33.5357]},"properties":{"depth_ft":81,"depth_m":24.6}},{"type":"Feature","geometry":{"type":"Point","coordinates":[-117.78784,33.5357]},"properties":{"depth_ft":60,"depth_m":18.4}},{"type":"Feature","geometry":{"type":"Point","coordinates":[-117.78408,33.5357]},"properties":{"depth_ft":40,"depth_m":12.3}},{"type":"Feature","geometry":{"type":"Point","coordinates":[-117.78032,33.5357]},"properties":{"depth_ft":5,"depth_m":1.6}},{"type":"Feature","geometry":{"type":"Point","coordinates":[-117.81792,33.53257]},"properties":{"depth_ft":301,"depth_m":91.7}},{"type":"Feature","geometry":{"type":"Point","coordinates":[-117.81416,33.53257]},"properties":{"depth_ft":262,"depth_m":79.8}},{"type":"Feature","geometry":{"type":"Point","coordinates":[-117.8104,33.53257]},"properties":{"depth_ft":232,"depth_m":70.7}},{"type":"Feature","geometry":{"type":"Point","coordinates":[-117.80664,33.53257]},"properties":{"depth_ft":211,"depth_m":64.2}},{"type":"Feature","geometry":{"type":"Point","coordinates":[-117.80288,33.53257]},"properties":{"depth_ft":190,"depth_m":58.1}},{"type":"Feature","geometry":{"type":"Point","coordinates":[-117.79912,33.53257]},"properties":{"depth_ft":169,"depth_m":51.6}},{"type":"Feature","geometry":{"type":"Point","coordinates":[-117.79536,33.53257]},"properties":{"depth_ft":143,"depth_m":43.7}},{"type":"Feature","geometry":{"type":"Point","coordinates":[-117.7916,33.53257]},"properties":{"depth_ft":113,"depth_m":34.6}},{"type":"Feature","geometry":{"type":"Point","coordinates":[-117.78784,33.53257]},"properties":{"depth_ft":83,"depth_m":25.3}},{"type":"Feature","geometry":{"type":"Point","coordinates":[-117.78408,33.53257]},"properties":{"depth_ft":60,"depth_m":18.4}},{"type":"Feature","geometry":{"type":"Point","coordinates":[-117.78032,33.53257]},"properties":{"depth_ft":27,"depth_m":8.3}},{"type":"Feature","geometry":{"type":"Point","coordinates":[-117.81416,33.52943]},"properties":{"depth_ft":322,"depth_m":98.2}},{"type":"Feature","geometry":{"type":"Point","coordinates":[-117.8104,33.52943]},"properties":{"depth_ft":262,"depth_m":80.0}},{"type":"Feature","geometry":{"type":"Point","coordinates":[-117.80664,33.52943]},"properties":{"depth_ft":236,"depth_m":71.9}},{"type":"Feature","geometry":{"type":"Point","coordinates":[-117.80288,33.52943]},"properties":{"depth_ft":213,"depth_m":64.9}},{"type":"Feature","geometry":{"type":"Point","coordinates":[-117.79912,33.52943]},"properties":{"depth_ft":190,"depth_m":58.0}},{"type":"Feature","geometry":{"type":"Point","coordinates":[-117.79536,33.52943]},"properties":{"depth_ft":170,"depth_m":51.9}},{"type":"Feature","geometry":{"type":"Point","coordinates":[-117.7916,33.52943]},"properties":{"depth_ft":144,"depth_m":44.0}},{"type":"Feature","geometry":{"type":"Point","coordinates":[-117.78784,33.52943]},"properties":{"depth_ft":114,"depth_m":34.8}},{"type":"Feature","geometry":{"type":"Point","coordinates":[-117.78408,33.52943]},"properties":{"depth_ft":71,"depth_m":21.8}},{"type":"Feature","geometry":{"type":"Point","coordinates":[-117.78032,33.52943]},"properties":{"depth_ft":28,"depth_m":8.4}},{"type":"Feature","geometry":{"type":"Point","coordinates":[-117.77657,33.52943]},"properties":{"depth_ft":19,"depth_m":5.7}},{"type":"Feature","geometry":{"type":"Point","coordinates":[-117.8104,33.5263]},"properties":{"depth_ft":308,"depth_m":93.8}},{"type":"Feature","geometry":{"type":"Point","coordinates":[-117.80664,33.5263]},"properties":{"depth_ft":259,"depth_m":79.1}},{"type":"Feature","geometry":{"type":"Point","coordinates":[-117.80288,33.5263]},"properties":{"depth_ft":234,"depth_m":71.3}},{"type":"Feature","geometry":{"type":"Point","coordinates":[-117.79912,33.5263]},"properties":{"depth_ft":208,"depth_m":63.5}},{"type":"Feature","geometry":{"type":"Point","coordinates":[-117.79536,33.5263]},"properties":{"depth_ft":190,"depth_m":57.9}},{"type":"Feature","geometry":{"type":"Point","coordinates":[-117.7916,33.5263]},"properties":{"depth_ft":170,"depth_m":51.8}},{"type":"Feature","geometry":{"type":"Point","coordinates":[-117.78784,33.5263]},"properties":{"depth_ft":146,"depth_m":44.4}},{"type":"Feature","geometry":{"type":"Point","coordinates":[-117.78408,33.5263]},"properties":{"depth_ft":114,"depth_m":34.8}},{"type":"Feature","geometry":{"type":"Point","coordinates":[-117.78032,33.5263]},"properties":{"depth_ft":74,"depth_m":22.7}},{"type":"Feature","geometry":{"type":"Point","coordinates":[-117.77657,33.5263]},"properties":{"depth_ft":50,"depth_m":15.4}},{"type":"Feature","geometry":{"type":"Point","coordinates":[-117.77281,33.5263]},"properties":{"depth_ft":23,"depth_m":6.9}},{"type":"Feature","geometry":{"type":"Point","coordinates":[-117.80664,33.52317]},"properties":{"depth_ft":293,"depth_m":89.3}},{"type":"Feature","geometry":{"type":"Point","coordinates":[-117.80288,33.52317]},"properties":{"depth_ft":256,"depth_m":78.1}},{"type":"Feature","geometry":{"type":"Point","coordinates":[-117.79912,33.52317]},"properties":{"depth_ft":225,"depth_m":68.5}},{"type":"Feature","geometry":{"type":"Point","coordinates":[-117.79536,33.52317]},"properties":{"depth_ft":206,"depth_m":62.7}},{"type":"Feature","geometry":{"type":"Point","coordinates":[-117.7916,33.52317]},"properties":{"depth_ft":187,"depth_m":57.0}},{"type":"Feature","geometry":{"type":"Point","coordinates":[-117.78784,33.52317]},"properties":{"depth_ft":170,"depth_m":51.8}},{"type":"Feature","geometry":{"type":"Point","coordinates":[-117.78408,33.52317]},"properties":{"depth_ft":144,"depth_m":44.0}},{"type":"Feature","geometry":{"type":"Point","coordinates":[-117.78032,33.52317]},"properties":{"depth_ft":119,"depth_m":36.1}},{"type":"Feature","geometry":{"type":"Point","coordinates":[-117.77657,33.52317]},"properties":{"depth_ft":85,"depth_m":26.0}},{"type":"Feature","geometry":{"type":"Point","coordinates":[-117.77281,33.52317]},"properties":{"depth_ft":54,"depth_m":16.5}},{"type":"Feature","geometry":{"type":"Point","coordinates":[-117.76905,33.52317]},"properties":{"depth_ft":31,"depth_m":9.6}},{"type":"Feature","geometry":{"type":"Point","coordinates":[-117.80288,33.52003]},"properties":{"depth_ft":284,"depth_m":86.7}},{"type":"Feature","geometry":{"type":"Point","coordinates":[-117.79912,33.52003]},"properties":{"depth_ft":246,"depth_m":75.0}},{"type":"Feature","geometry":{"type":"Point","coordinates":[-117.79536,33.52003]},"properties":{"depth_ft":220,"depth_m":67.0}},{"type":"Feature","geometry":{"type":"Point","coordinates":[-117.7916,33.52003]},"properties":{"depth_ft":200,"depth_m":60.8}},{"type":"Feature","geometry":{"type":"Point","coordinates":[-117.78784,33.52003]},"properties":{"depth_ft":184,"depth_m":55.9}},{"type":"Feature","geometry":{"type":"Point","coordinates":[-117.78408,33.52003]},"properties":{"depth_ft":166,"depth_m":50.5}},{"type":"Feature","geometry":{"type":"Point","coordinates":[-117.78032,33.52003]},"properties":{"depth_ft":144,"depth_m":43.8}},{"type":"Feature","geometry":{"type":"Point","coordinates":[-117.77657,33.52003]},"properties":{"depth_ft":119,"depth_m":36.2}},{"type":"Feature","geometry":{"type":"Point","coordinates":[-117.77281,33.52003]},"properties":{"depth_ft":82,"depth_m":24.8}},{"type":"Feature","geometry":{"type":"Point","coordinates":[-117.76905,33.52003]},"properties":{"depth_ft":50,"depth_m":15.4}},{"type":"Feature","geometry":{"type":"Point","coordinates":[-117.76529,33.52003]},"properties":{"depth_ft":20,"depth_m":6.1}},{"type":"Feature","geometry":{"type":"Point","coordinates":[-117.79912,33.5169]},"properties":{"depth_ft":271,"depth_m":82.7}},{"type":"Feature","geometry":{"type":"Point","coordinates":[-117.79536,33.5169]},"properties":{"depth_ft":237,"depth_m":72.2}},{"type":"Feature","geometry":{"type":"Point","coordinates":[-117.7916,33.5169]},"properties":{"depth_ft":213,"depth_m":65.1}},{"type":"Feature","geometry":{"type":"Point","coordinates":[-117.78784,33.5169]},"properties":{"depth_ft":195,"depth_m":59.5}},{"type":"Feature","geometry":{"type":"Point","coordinates":[-117.78408,33.5169]},"properties":{"depth_ft":179,"depth_m":54.6}},{"type":"Feature","geometry":{"type":"Point","coordinates":[-117.78032,33.5169]},"properties":{"depth_ft":161,"depth_m":49.1}},{"type":"Feature","geometry":{"type":"Point","coordinates":[-117.77657,33.5169]},"properties":{"depth_ft":141,"depth_m":43.0}},{"type":"Feature","geometry":{"type":"Point","coordinates":[-117.77281,33.5169]},"properties":{"depth_ft":118,"depth_m":36.0}},{"type":"Feature","geometry":{"type":"Point","coordinates":[-117.76905,33.5169]},"properties":{"depth_ft":74,"depth_m":22.7}},{"type":"Feature","geometry":{"type":"Point","coordinates":[-117.76529,33.5169]},"properties":{"depth_ft":43,"depth_m":13.0}},{"type":"Feature","geometry":{"type":"Point","coordinates":[-117.79536,33.51377]},"properties":{"depth_ft":265,"depth_m":80.9}},{"type":"Feature","geometry":{"type":"Point","coordinates":[-117.7916,33.51377]},"properties":{"depth_ft":230,"depth_m":70.0}},{"type":"Feature","geometry":{"type":"Point","coordinates":[-117.78784,33.51377]},"properties":{"depth_ft":207,"depth_m":63.1}},{"type":"Feature","geometry":{"type":"Point","coordinates":[-117.78408,33.51377]},"properties":{"depth_ft":189,"depth_m":57.7}},{"type":"Feature","geometry":{"type":"Point","coordinates":[-117.78032,33.51377]},"properties":{"depth_ft":173,"depth_m":52.7}},{"type":"Feature","geometry":{"type":"Point","coordinates":[-117.77657,33.51377]},"properties":{"depth_ft":155,"depth_m":47.3}},{"type":"Feature","geometry":{"type":"Point","coordinates":[-117.77281,33.51377]},"properties":{"depth_ft":135,"depth_m":41.2}},{"type":"Feature","geometry":{"type":"Point","coordinates":[-117.76905,33.51377]},"properties":{"depth_ft":111,"depth_m":33.7}},{"type":"Feature","geometry":{"type":"Point","coordinates":[-117.76529,33.51377]},"properties":{"depth_ft":63,"depth_m":19.3}},{"type":"Feature","geometry":{"type":"Point","coordinates":[-117.76153,33.51377]},"properties":{"depth_ft":20,"depth_m":6.2}},{"type":"Feature","geometry":{"type":"Point","coordinates":[-117.7916,33.51063]},"properties":{"depth_ft":253,"depth_m":77.2}},{"type":"Feature","geometry":{"type":"Point","coordinates":[-117.78784,33.51063]},"properties":{"depth_ft":220,"depth_m":67.1}},{"type":"Feature","geometry":{"type":"Point","coordinates":[-117.78408,33.51063]},"properties":{"depth_ft":200,"depth_m":61.0}},{"type":"Feature","geometry":{"type":"Point","coordinates":[-117.78032,33.51063]},"properties":{"depth_ft":183,"depth_m":55.7}},{"type":"Feature","geometry":{"type":"Point","coordinates":[-117.77657,33.51063]},"properties":{"depth_ft":167,"depth_m":50.8}},{"type":"Feature","geometry":{"type":"Point","coordinates":[-117.77281,33.51063]},"properties":{"depth_ft":148,"depth_m":45.2}},{"type":"Feature","geometry":{"type":"Point","coordinates":[-117.76905,33.51063]},"properties":{"depth_ft":128,"depth_m":39.1}},{"type":"Feature","geometry":{"type":"Point","coordinates":[-117.76529,33.51063]},"properties":{"depth_ft":93,"depth_m":28.2}},{"type":"Feature","geometry":{"type":"Point","coordinates":[-117.76153,33.51063]},"properties":{"depth_ft":57,"depth_m":17.5}},{"type":"Feature","geometry":{"type":"Point","coordinates":[-117.75777,33.51063]},"properties":{"depth_ft":36,"depth_m":11.0}},{"type":"Feature","geometry":{"type":"Point","coordinates":[-117.7916,33.5075]},"properties":{"depth_ft":288,"depth_m":87.7}},{"type":"Feature","geometry":{"type":"Point","coordinates":[-117.78784,33.5075]},"properties":{"depth_ft":241,"depth_m":73.5}},{"type":"Feature","geometry":{"type":"Point","coordinates":[-117.78408,33.5075]},"properties":{"depth_ft":211,"depth_m":64.4}},{"type":"Feature","geometry":{"type":"Point","coordinates":[-117.78032,33.5075]},"properties":{"depth_ft":193,"depth_m":58.7}},{"type":"Feature","geometry":{"type":"Point","coordinates":[-117.77657,33.5075]},"properties":{"depth_ft":176,"depth_m":53.7}},{"type":"Feature","geometry":{"type":"Point","coordinates":[-117.77281,33.5075]},"properties":{"depth_ft":159,"depth_m":48.5}},{"type":"Feature","geometry":{"type":"Point","coordinates":[-117.76905,33.5075]},"properties":{"depth_ft":141,"depth_m":43.0}},{"type":"Feature","geometry":{"type":"Point","coordinates":[-117.76529,33.5075]},"properties":{"depth_ft":121,"depth_m":36.8}},{"type":"Feature","geometry":{"type":"Point","coordinates":[-117.76153,33.5075]},"properties":{"depth_ft":88,"depth_m":26.9}},{"type":"Feature","geometry":{"type":"Point","coordinates":[-117.75777,33.5075]},"properties":{"depth_ft":57,"depth_m":17.5}},{"type":"Feature","geometry":{"type":"Point","coordinates":[-117.7916,33.50436]},"properties":{"depth_ft":323,"depth_m":98.4}},{"type":"Feature","geometry":{"type":"Point","coordinates":[-117.78784,33.50436]},"properties":{"depth_ft":275,"depth_m":83.9}},{"type":"Feature","geometry":{"type":"Point","coordinates":[-117.78408,33.50436]},"properties":{"depth_ft":227,"depth_m":69.3}},{"type":"Feature","geometry":{"type":"Point","coordinates":[-117.78032,33.50436]},"properties":{"depth_ft":203,"depth_m":62.0}},{"type":"Feature","geometry":{"type":"Point","coordinates":[-117.77657,33.50436]},"properties":{"depth_ft":185,"depth_m":56.5}},{"type":"Feature","geometry":{"type":"Point","coordinates":[-117.77281,33.50436]},"properties":{"depth_ft":168,"depth_m":51.3}},{"type":"Feature","geometry":{"type":"Point","coordinates":[-117.76905,33.50436]},"properties":{"depth_ft":152,"depth_m":46.2}},{"type":"Feature","geometry":{"type":"Point","coordinates":[-117.76529,33.50436]},"properties":{"depth_ft":133,"depth_m":40.6}},{"type":"Feature","geometry":{"type":"Point","coordinates":[-117.76153,33.50436]},"properties":{"depth_ft":110,"depth_m":33.6}},{"type":"Feature","geometry":{"type":"Point","coordinates":[-117.75777,33.50436]},"properties":{"depth_ft":83,"depth_m":25.3}},{"type":"Feature","geometry":{"type":"Point","coordinates":[-117.78784,33.50123]},"properties":{"depth_ft":303,"depth_m":92.3}},{"type":"Feature","geometry":{"type":"Point","coordinates":[-117.78408,33.50123]},"properties":{"depth_ft":249,"depth_m":75.8}},{"type":"Feature","geometry":{"type":"Point","coordinates":[-117.78032,33.50123]},"properties":{"depth_ft":216,"depth_m":65.8}},{"type":"Feature","geometry":{"type":"Point","coordinates":[-117.77657,33.50123]},"properties":{"depth_ft":194,"depth_m":59.2}},{"type":"Feature","geometry":{"type":"Point","coordinates":[-117.77281,33.50123]},"properties":{"depth_ft":177,"depth_m":54.0}},{"type":"Feature","geometry":{"type":"Point","coordinates":[-117.76905,33.50123]},"properties":{"depth_ft":160,"depth_m":48.7}},{"type":"Feature","geometry":{"type":"Point","coordinates":[-117.76529,33.50123]},"properties":{"depth_ft":143,"depth_m":43.5}},{"type":"Feature","geometry":{"type":"Point","coordinates":[-117.76153,33.50123]},"properties":{"depth_ft":125,"depth_m":38.0}},{"type":"Feature","geometry":{"type":"Point","coordinates":[-117.75777,33.50123]},"properties":{"depth_ft":104,"depth_m":31.7}},{"type":"Feature","geometry":{"type":"Point","coordinates":[-117.78408,33.4981]},"properties":{"depth_ft":270,"depth_m":82.3}},{"type":"Feature","geometry":{"type":"Point","coordinates":[-117.78032,33.4981]},"properties":{"depth_ft":233,"depth_m":70.9}},{"type":"Feature","geometry":{"type":"Point","coordinates":[-117.77657,33.4981]},"properties":{"depth_ft":206,"depth_m":62.7}},{"type":"Feature","geometry":{"type":"Point","coordinates":[-117.77281,33.4981]},"properties":{"depth_ft":185,"depth_m":56.5}},{"type":"Feature","geometry":{"type":"Point","coordinates":[-117.76905,33.4981]},"properties":{"depth_ft":168,"depth_m":51.2}},{"type":"Feature","geometry":{"type":"Point","coordinates":[-117.76529,33.4981]},"properties":{"depth_ft":153,"depth_m":46.6}},{"type":"Feature","geometry":{"type":"Point","coordinates":[-117.76153,33.4981]},"properties":{"depth_ft":137,"depth_m":41.9}},{"type":"Feature","geometry":{"type":"Point","coordinates":[-117.75777,33.4981]},"properties":{"depth_ft":122,"depth_m":37.3}},{"type":"Feature","geometry":{"type":"Point","coordinates":[-117.78032,33.49496]},"properties":{"depth_ft":255,"depth_m":77.7}},{"type":"Feature","geometry":{"type":"Point","coordinates":[-117.77657,33.49496]},"properties":{"depth_ft":220,"depth_m":67.1}},{"type":"Feature","geometry":{"type":"Point","coordinates":[-117.77281,33.49496]},"properties":{"depth_ft":195,"depth_m":59.6}},{"type":"Feature","geometry":{"type":"Point","coordinates":[-117.76905,33.49496]},"properties":{"depth_ft":177,"depth_m":54.0}},{"type":"Feature","geometry":{"type":"Point","coordinates":[-117.76529,33.49496]},"properties":{"depth_ft":163,"depth_m":49.7}},{"type":"Feature","geometry":{"type":"Point","coordinates":[-117.76153,33.49496]},"properties":{"depth_ft":148,"depth_m":45.2}},{"type":"Feature","geometry":{"type":"Point","coordinates":[-117.75777,33.49496]},"properties":{"depth_ft":133,"depth_m":40.6}}]}