{"type":"FeatureCollection","features":[{"type":"Feature","properties":{"id":"monastery-kelp-former","name":"Monastery former kelp extent (pre-decline)","className":"Kelp Former"},"geometry":{"type":"MultiPolygon","coordinates":[[[[-121.94372209856684,36.51240407429073],[-121.94379,36.51233],[-121.94421867798987,36.51258868499388],[-121.94372209856684,36.51240407429073]]],[[[-121.95414,36.52168],[-121.95291,36.52105],[-121.9538,36.52136],[-121.95396,36.52124],[-121.95275,36.52057],[-121.95214,36.52047],[-121.95193844378042,36.52056772422767],[-121.95171,36.5203779916318],[-121.95171,36.52014],[-121.95151,36.51982],[-121.9511,36.51974],[-121.95182,36.51887],[-121.95251,36.51888],[-121.95305,36.51916],[-121.95292,36.51931],[-121.95304,36.51947],[-121.95343,36.51957],[-121.95365,36.51941],[-121.95347,36.51928],[-121.95387,36.51919],[-121.95403,36.51894],[-121.9545,36.51908],[-121.95454,36.51895],[-121.95408,36.51797],[-121.95353,36.51751],[-121.95325,36.51753],[-121.95305,36.51777],[-121.95309783244682,36.51810482712766],[-121.95268619469026,36.518288230088494],[-121.95228,36.51825],[-121.95226,36.51765],[-121.95196,36.51758],[-121.95242,36.51698],[-121.95188,36.51657],[-121.95173,36.5166],[-121.95183,36.51687],[-121.9517,36.51685],[-121.95092,36.51637],[-121.95098,36.51653],[-121.9505465190002,36.517167472058524],[-121.95041973179286,36.51717489374871],[-121.95036,36.51705],[-121.95020905109489,36.51718722627737],[-121.95003280545558,36.517197543095286],[-121.94967,36.51702],[-121.94966126029132,36.51702303989867],[-121.94957014630579,36.51691572787125],[-121.94975,36.51684],[-121.94992,36.51653],[-121.94981,36.51625],[-121.94956,36.51616],[-121.94949,36.51567],[-121.94918,36.51549],[-121.94903,36.51559],[-121.94907,36.51581],[-121.94888,36.51587],[-121.94876,36.51556],[-121.94809,36.51494],[-121.94794,36.51403],[-121.94761,36.51374],[-121.94767,36.51436],[-121.94733,36.51354],[-121.94688,36.51365],[-121.94664,36.51327],[-121.94602744965162,36.51326112245872],[-121.94555106469002,36.51308401934359],[-121.94545,36.51287],[-121.94504,36.51277],[-121.94495284648323,36.512861622927886],[-121.94441694761717,36.51266239464356],[-121.94461,36.51259],[-121.94466,36.51245],[-121.94458,36.51254],[-121.94349,36.51185],[-121.9432,36.51202],[-121.94312,36.51184],[-121.94261,36.5118],[-121.94241978765997,36.51191748409237],[-121.94239890025575,36.51167],[-121.94241,36.51167],[-121.94239862598278,36.511666750280796],[-121.9423782087772,36.51142483732983],[-121.94253,36.51139],[-121.94237398389835,36.51137477891691],[-121.94225490159437,36.50996383404238],[-121.94263,36.51001],[-121.94224878830327,36.509891400805465],[-121.94224518000429,36.50984864792963],[-121.94276,36.50968],[-121.94239,36.50964],[-121.94223324047954,36.50970718265162],[-121.94222880090497,36.50965458041958],[-121.94229,36.50956],[-121.94221290479125,36.50946623555692],[-121.94218545266692,36.509140969477805],[-121.94252,36.50918],[-121.94263,36.50906],[-121.94227,36.5087],[-121.94215383757407,36.5087663785291],[-121.94209,36.50801],[-121.94728,36.50655],[-121.94749,36.50934],[-121.95054,36.51187],[-121.95665,36.5147],[-121.96056,36.51478],[-121.96137,36.51767],[-121.95845,36.51878],[-121.95577,36.52375],[-121.9543477108659,36.52256872638863],[-121.95434,36.52255],[-121.95449,36.52244],[-121.95414,36.52168]]],[[[-121.93872,36.52678],[-121.93712,36.52687],[-121.92966,36.52625],[-121.92681942307352,36.52378163660182],[-121.92703577490666,36.52353517394655],[-121.92788630434782,36.52293430240104],[-121.92867,36.52256],[-121.92959,36.52275],[-121.9298,36.52291],[-121.92977,36.52309],[-121.92964,36.52308],[-121.92983,36.52335],[-121.93042,36.52368],[-121.93145,36.52334],[-121.93197,36.52361],[-121.93218,36.52339],[-121.93284,36.52329],[-121.93367,36.52345],[-121.93377,36.52334],[-121.93346,36.52298],[-121.93360639102457,36.52279875396958],[-121.935910112,36.52303156243478],[-121.93607,36.5234],[-121.93657,36.52331],[-121.9367,36.5236],[-121.93668,36.52332],[-121.93692,36.52347],[-121.93701,36.52331],[-121.93718,36.52346],[-121.93733,36.52339],[-121.93722928617697,36.523164874983806],[-121.93728,36.52317],[-121.93716297872339,36.5230114893617],[-121.93772,36.52329],[-121.9372,36.52269],[-121.93763,36.52266],[-121.93786,36.52299],[-121.93781,36.52265],[-121.93792,36.5227],[-121.93801,36.52285],[-121.93799,36.52265],[-121.93701,36.52195],[-121.93764,36.52211],[-121.93759,36.522],[-121.93734,36.52182],[-121.93681,36.52176],[-121.93663,36.52193],[-121.93632,36.52135],[-121.93651,36.52106],[-121.93693,36.52091],[-121.93712,36.52097],[-121.93718,36.52127],[-121.93777,36.52136],[-121.93777,36.52102],[-121.93753,36.52059],[-121.93736,36.52042],[-121.93712,36.52045],[-121.93672,36.52003],[-121.93703,36.51977],[-121.93726,36.51991],[-121.93739,36.51981],[-121.93711,36.51959],[-121.93733,36.51932],[-121.93791,36.51901],[-121.93867,36.51888],[-121.93985464298402,36.51905168738899],[-121.94064555397728,36.520278963068186],[-121.94013,36.52071],[-121.93997,36.52112],[-121.94063,36.52143],[-121.9406,36.52185],[-121.94099,36.52189],[-121.94113,36.5222],[-121.94126,36.52205],[-121.94079,36.5214],[-121.94155,36.52165],[-121.94163,36.52129],[-121.94224,36.52176],[-121.94239,36.52163],[-121.94206,36.52137],[-121.94231,36.52131],[-121.94215,36.52118],[-121.9421762161465,36.521119226205826],[-121.94375996890271,36.52077042351547],[-121.94409,36.52089],[-121.94419,36.52072],[-121.94459,36.52076],[-121.9447246123373,36.520904227504246],[-121.9447649659864,36.52115119183673],[-121.94476,36.52115],[-121.94482,36.52152],[-121.94451,36.52144],[-121.94456,36.52168],[-121.94429,36.52164],[-121.94449,36.52193],[-121.94531,36.52238],[-121.9453653979442,36.52231181791483],[-121.9457187607998,36.522479866699584],[-121.94586,36.52278],[-121.94624,36.52285],[-121.94639,36.52308],[-121.94655,36.52303],[-121.9465038916734,36.522853251414716],[-121.94654884145119,36.522874628182],[-121.9469,36.52332],[-121.94693,36.52313],[-121.94824,36.52397],[-121.94831,36.52374],[-121.94854,36.52372],[-121.94845,36.52317],[-121.94861,36.52305],[-121.94816,36.52254],[-121.94821,36.5223],[-121.94872,36.52224],[-121.94904,36.52269],[-121.94943,36.52286],[-121.94904,36.52261],[-121.94944,36.52278],[-121.94947,36.52263],[-121.94904,36.52252],[-121.9495,36.5225],[-121.94940912696974,36.521417784821594],[-121.94981191718203,36.52123523950371],[-121.95148,36.52283],[-121.95251,36.52339],[-121.95256,36.52365],[-121.95287,36.52394],[-121.95329,36.52393],[-121.95317,36.5237],[-121.95326,36.52347],[-121.95248,36.52295],[-121.95239875706214,36.522760433144995],[-121.9528399999997,36.52305666666646],[-121.9532,36.52331],[-121.95319426058782,36.523294503587124],[-121.95426,36.52401],[-121.95404,36.52564],[-121.95173,36.52483],[-121.94785,36.52642],[-121.94464,36.52463],[-121.94314,36.52557],[-121.93982,36.52439],[-121.93872,36.52678]]],[[[-121.92864,36.53662],[-121.92861357913773,36.53656849717052],[-121.9282,36.53392],[-121.9277,36.53322],[-121.92695,36.53267],[-121.92674,36.53213],[-121.927,36.53148],[-121.92655,36.53122],[-121.92604,36.53059],[-121.92579,36.53062],[-121.92564524119948,36.53037873533246],[-121.92564228649432,36.530338675027735],[-121.92574,36.529],[-121.92553185374297,36.528841412375606],[-121.92553150705172,36.52883671188716],[-121.92575,36.52836],[-121.92631,36.52817],[-121.92581,36.52787],[-121.92542,36.52714],[-121.9257,36.52705],[-121.92538538051825,36.52685550795674],[-121.92531051884384,36.52584052292919],[-121.92539,36.52541],[-121.92558850852531,36.52518386399951],[-121.92839,36.52654],[-121.92815,36.52981],[-121.93134,36.53547],[-121.92864,36.53662]]],[[[-121.9308,36.54702],[-121.93090557458315,36.545374796079315],[-121.93138,36.545],[-121.93159,36.54503],[-121.93232,36.54454],[-121.93315,36.54438],[-121.93376,36.54466],[-121.93379,36.5445],[-121.93351,36.54443],[-121.93344,36.54414],[-121.93367321871405,36.54386265882654],[-121.93385,36.54378],[-121.93381382730455,36.54364833138853],[-121.93383,36.54343],[-121.93373102524868,36.543346931905134],[-121.93320168738899,36.54142014209591],[-121.93329,36.54138],[-121.93327,36.54093],[-121.93298255519363,36.540622500904824],[-121.93285878941646,36.540171993475894],[-121.93308,36.53996],[-121.93246525847694,36.539758287937744],[-121.93244523680124,36.53973842391304],[-121.93263,36.53933],[-121.93211,36.53929],[-121.93201567071581,36.539312240237734],[-121.93031,36.53762],[-121.93224,36.53533],[-121.93696,36.53635],[-121.93767,36.54032],[-121.94059,36.54294],[-121.94051,36.54951],[-121.94181,36.55248],[-121.93929,36.55596],[-121.94332,36.55661],[-121.94203,36.55789],[-121.94288,36.55949],[-121.94845,36.55952],[-121.95,36.55767],[-121.95412,36.55769],[-121.96344,36.56037],[-121.96347,36.56145],[-121.95466351678326,36.56135289198382],[-121.95388,36.56099],[-121.95301,36.56089],[-121.95217,36.56088],[-121.95169,36.56121],[-121.95167253074241,36.56131991074561],[-121.94060247161255,36.56119784255396],[-121.9406,36.56101],[-121.93992477013153,36.5611903696224],[-121.93582576538073,36.561145170397026],[-121.93528,36.56096],[-121.93519091501028,36.561138169979436],[-121.93502350115965,36.56113632392733],[-121.93482,36.5609],[-121.93440974220476,36.56086938374662],[-121.93369,36.55621],[-121.93506,36.55362],[-121.93213,36.55263],[-121.93279,36.54918],[-121.9308,36.54702]]],[[[-121.96795,36.55367],[-121.9701,36.55327],[-121.97207,36.55742],[-121.96939,36.5574],[-121.96795,36.55367]]],[[[-121.95902,36.5548],[-121.95953,36.55624],[-121.95834,36.55704],[-121.95688,36.55493],[-121.95902,36.5548]]],[[[-121.96673,36.56147],[-121.96485,36.55803],[-121.96665,36.55673],[-121.96955,36.5593],[-121.96906,36.56087],[-121.96673,36.56147]]]]}},{"type":"Feature","properties":{"id":"monastery-kelp-canopy","name":"Monastery recent kelp canopy","className":"Kelp Canopy"},"geometry":{"type":"MultiPolygon","coordinates":[[[[-121.95471,36.51423],[-121.9537,36.51504],[-121.95405,36.51423],[-121.95471,36.51423]]],[[[-121.95605,36.51533],[-121.95504,36.51478],[-121.95572,36.51451],[-121.95605,36.51533]]],[[[-121.95235,36.51529],[-121.95303,36.5153],[-121.95235,36.51557],[-121.95235,36.51529]]],[[[-121.95369,36.51558],[-121.95369,36.51585],[-121.95335,36.51558],[-121.95369,36.51558]]],[[[-121.96005,36.5159],[-121.96039,36.51645],[-121.96005,36.51645],[-121.96005,36.5159]]],[[[-121.95602,36.51667],[-121.95535,36.51749],[-121.95502,36.5164],[-121.95602,36.51667]]],[[[-121.95735,36.51777],[-121.95636,36.51696],[-121.9567,36.51641],[-121.95736,36.51669],[-121.95702,36.51723],[-121.95735,36.51777]]],[[[-121.96104,36.51727],[-121.96071,36.51699],[-121.96104,36.51699],[-121.96104,36.51727]]],[[[-121.95367,36.5172],[-121.95325311111111,36.51752977777778],[-121.95325,36.51753],[-121.95324452554743,36.51753656934308],[-121.953,36.51773],[-121.95232,36.51773],[-121.95267,36.51719],[-121.95367,36.5172]]],[[[-121.96004,36.51725],[-121.96037,36.5178],[-121.95969,36.51807],[-121.95936,36.51752],[-121.96004,36.51725]]],[[[-121.95632,36.51939],[-121.95599,36.51911],[-121.95632,36.51911],[-121.95632,36.51939]]],[[[-121.95699,36.51966],[-121.95666,36.51939],[-121.95699,36.51939],[-121.95699,36.51966]]],[[[-121.95263,36.51963],[-121.95296,36.52044],[-121.95196,36.52043],[-121.9514310312862,36.51934000386249],[-121.95175044685466,36.51895404338395],[-121.95206322955146,36.51887352506596],[-121.95237175828618,36.518877996496904],[-121.9533,36.5199],[-121.95263,36.51963]]],[[[-121.95464,36.51992],[-121.95464,36.51964],[-121.95498,36.51964],[-121.95464,36.51992]]],[[[-121.95732,36.51993],[-121.95732,36.52021],[-121.95665,36.5202],[-121.95732,36.51993]]],[[[-121.95564,36.52019],[-121.95531,36.52046],[-121.95531,36.52019],[-121.95564,36.52019]]],[[[-121.95296,36.52068628099174],[-121.95296,36.52044],[-121.95363,36.52044],[-121.95396,36.52099],[-121.95304665458936,36.52073426328502],[-121.95296,36.52068628099174]]],[[[-121.95496,36.52127],[-121.95495,36.52181],[-121.95395,36.52153],[-121.95429,36.52099],[-121.95496,36.52127]]],[[[-121.95663,36.52155],[-121.9563,36.52128],[-121.95663,36.52128],[-121.95663,36.52155]]],[[[-121.95224,36.52395],[-121.95258,36.52395],[-121.95258,36.52422],[-121.95224,36.52395]]],[[[-121.95345,36.55857],[-121.95278,36.55857],[-121.95278,36.5583],[-121.95345,36.55857]]],[[[-121.96821,36.55789],[-121.9682,36.55843],[-121.96887,36.55843],[-121.9692,36.55925],[-121.96818,36.5606],[-121.96751,36.56059],[-121.96617,36.55977],[-121.96618,36.55923],[-121.96719,36.55896],[-121.96619,36.55814],[-121.96821,36.55789]]],[[[-121.95914,36.55971],[-121.9588,36.55943],[-121.95914,36.55943],[-121.95914,36.55971]]],[[[-121.95612,36.55968],[-121.95578,36.55995],[-121.95578,36.55968],[-121.95612,36.55968]]],[[[-121.95578,36.55968],[-121.95511,36.55994],[-121.95611,36.56022],[-121.9561,36.56103],[-121.95442,36.56102],[-121.95443,36.56048],[-121.95175,36.56046],[-121.95142,36.55964],[-121.95074,36.56044],[-121.94974,36.56044],[-121.95008,36.55936],[-121.95177,36.55883],[-121.95244,36.55883],[-121.95277,36.55938],[-121.95579,36.55913],[-121.95578,36.55968]],[[-121.9551,36.56021],[-121.95544,36.56021],[-121.95444,36.55994],[-121.9551,36.56021]],[[-121.95511,36.5594],[-121.95478,36.55967],[-121.95511,36.55967],[-121.95511,36.5594]]],[[[-121.95879,36.55997],[-121.95846,36.56025],[-121.95846,36.55997],[-121.95879,36.55997]]],[[[-121.96281,36.56083],[-121.96314,36.56055],[-121.96348,36.5611],[-121.96314,36.5611],[-121.96281,36.56083]]],[[[-121.94807,36.51039],[-121.9484,36.51039],[-121.9484,36.51066],[-121.94807,36.51039]]],[[[-121.95105,36.51285],[-121.95071,36.51258],[-121.95105,36.51258],[-121.95105,36.51285]]],[[[-121.94636,36.51308],[-121.94603,36.51254],[-121.94703,36.51281],[-121.94703,36.51308],[-121.94636,36.51308]]],[[[-121.95172,36.51285],[-121.95139,36.51313],[-121.95139,36.51285],[-121.95172,36.51285]]],[[[-121.94802,36.5139],[-121.94779206896551,36.5139],[-121.94761,36.51374],[-121.94761993630573,36.51384267515924],[-121.9473710738255,36.513639060402674],[-121.94736546357616,36.51362552980133],[-121.94769,36.51336],[-121.94802,36.5139]]],[[[-121.94836,36.51391],[-121.94869,36.51391],[-121.94869,36.51418],[-121.94836,36.51391]]],[[[-121.94969,36.51419],[-121.95036,36.51392],[-121.9507,36.51419],[-121.95002,36.51474],[-121.94969,36.51419]]],[[[-121.94868,36.515],[-121.94868,36.51445],[-121.94935,36.51472],[-121.94935,36.515],[-121.94868,36.515]]],[[[-121.95135,36.51582],[-121.95101,36.5161],[-121.95101,36.51582],[-121.95135,36.51582]]],[[[-121.952,36.51664],[-121.95167,36.51637],[-121.952,36.51637],[-121.952,36.51664]]],[[[-121.95033,36.51662],[-121.94999,36.5169],[-121.94999,36.51662],[-121.95033,36.51662]]],[[[-121.94993,36.52177],[-121.94959,36.52149],[-121.94993,36.52149],[-121.94993,36.52177]]],[[[-121.95025,36.52231],[-121.95058,36.52231],[-121.95058,36.52258],[-121.95025,36.52231]]],[[[-121.94924,36.52311],[-121.94857,36.52284],[-121.94824362637362,36.52229604395605],[-121.94824690087829,36.5222956587202],[-121.94924,36.52311]]],[[[-121.95058,36.52312],[-121.95024,36.52339],[-121.95024,36.52312],[-121.95058,36.52312]]],[[[-121.9499,36.52338],[-121.95023,36.52338],[-121.95023,36.52366],[-121.9499,36.52338]]],[[[-121.95157,36.52367],[-121.9519,36.52367],[-121.9519,36.52394],[-121.95157,36.52367]]],[[[-121.94922,36.52446],[-121.94888,36.52419],[-121.94922,36.52419],[-121.94922,36.52446]]],[[[-121.94989,36.5242],[-121.95089,36.52475],[-121.95022,36.52475],[-121.94989,36.5242]]],[[[-121.94686,36.52525],[-121.94619,36.52525],[-121.9462,36.52444],[-121.9472,36.52471],[-121.94755,36.52417],[-121.94686,36.52525]]],[[[-121.94787,36.52499],[-121.94787,36.52472],[-121.9482,36.52472],[-121.94787,36.52499]]],[[[-121.94921,36.52501],[-121.94888,36.52473],[-121.94921,36.52473],[-121.94921,36.52501]]],[[[-121.95212,36.55829],[-121.95178,36.55802],[-121.95212,36.55802],[-121.95212,36.55829]]],[[[-121.95042,36.55882],[-121.94975,36.55909],[-121.94976,36.55854],[-121.95042,36.55882]]],[[[-121.95142,36.56045],[-121.95108,36.56018],[-121.95142,36.56018],[-121.95142,36.56045]]],[[[-121.94873,36.56042],[-121.94907,36.56042],[-121.94907,36.5607],[-121.94873,36.56042]]],[[[-121.95174,36.56099],[-121.95141,36.56072],[-121.95174,36.56072],[-121.95174,36.56099]]],[[[-121.94341,36.50792],[-121.94341,36.50764],[-121.94375,36.50764],[-121.94341,36.50792]]],[[[-121.9434,36.50927],[-121.94271,36.51007],[-121.94257570704225,36.509740371830986],[-121.94276,36.50968],[-121.942541486911,36.50965637696335],[-121.94238,36.50926],[-121.94306,36.50899],[-121.94273,36.50818],[-121.94341,36.50818],[-121.9434,36.50927]]],[[[-121.94204,36.51061],[-121.94271,36.51034],[-121.94271,36.51061],[-121.94204,36.51061]]],[[[-121.94303,36.51116],[-121.94336,36.5117],[-121.94269,36.5117],[-121.9427,36.51115],[-121.94337,36.51088],[-121.94303,36.51116]]],[[[-121.94469,36.51252],[-121.94569,36.51253],[-121.94569,36.5128],[-121.94469,36.51252]]],[[[-121.94389,36.52171],[-121.94357,36.5209],[-121.94457,36.5209],[-121.94389,36.52171]]],[[[-121.93997,36.52112],[-121.9400395076622,36.521152647538315],[-121.93988,36.5214],[-121.94058105471325,36.52140701054714],[-121.94063,36.52143],[-121.9406,36.52185],[-121.94060278322925,36.52185028545941],[-121.94054,36.52195],[-121.94112324308416,36.522185038257795],[-121.94113,36.5222],[-121.94113786135694,36.52219092920354],[-121.94121,36.52222],[-121.94053,36.52277],[-121.94086,36.52358],[-121.94051,36.52385],[-121.93984,36.52384],[-121.93985,36.52303],[-121.93887,36.52221],[-121.93887,36.5214],[-121.93853,36.52166],[-121.93886,36.52248],[-121.93785,36.52247],[-121.93752,36.52166],[-121.93652,36.52165],[-121.93687,36.5211],[-121.93787,36.52166],[-121.93787,36.52058],[-121.93721,36.52003],[-121.93755,36.52003],[-121.93728925925926,36.51937],[-121.93733,36.51932],[-121.93791,36.51901],[-121.93810919939003,36.518975926420126],[-121.94024,36.51924],[-121.94057,36.52033],[-121.94055302526594,36.520356323138316],[-121.94013,36.52071],[-121.93997,36.52112]]],[[[-121.94084147430497,36.52147118786858],[-121.94079662792501,36.521409166279255],[-121.94081853135314,36.52140938531353],[-121.94086977392007,36.521426241421075],[-121.94084147430497,36.52147118786858]]],[[[-121.94122,36.52169],[-121.94188,36.52197],[-121.94122,36.52196],[-121.94122,36.52169]]],[[[-121.94289,36.52197],[-121.94255,36.5217],[-121.94289,36.5217],[-121.94289,36.52197]]],[[[-121.94153,36.52304],[-121.94119,36.52358],[-121.94119,36.52304],[-121.94153,36.52304]]],[[[-121.94286,36.52386],[-121.94253,36.52386],[-121.94253,36.52332],[-121.94286,36.52386]]],[[[-121.93549,36.52326],[-121.93600924528302,36.52326],[-121.93607,36.5234],[-121.93630761245181,36.52335722975868],[-121.93783,36.52436],[-121.93818,36.52301],[-121.93885,36.52301],[-121.93851,36.52356],[-121.93884,36.52437],[-121.93748,36.5249],[-121.93749,36.52436],[-121.93582,36.52435],[-121.93616,36.52354],[-121.93549,36.52326]]],[[[-121.94487,36.52416],[-121.94487,36.52388],[-121.94521,36.52388],[-121.94487,36.52416]]],[[[-121.94554,36.52416],[-121.94554,36.52389],[-121.94588,36.52389],[-121.94554,36.52416]]],[[[-121.9378,36.52653],[-121.93713,36.52598],[-121.93814,36.52571],[-121.93848,36.52626],[-121.9378,36.52653]]],[[[-121.93713,36.52652],[-121.93679,36.52625],[-121.93713,36.52625],[-121.93713,36.52652]]],[[[-121.93597,36.53787],[-121.93597,36.5376],[-121.9363,36.5376],[-121.93597,36.53787]]],[[[-121.93684,36.54816],[-121.93718,36.54707],[-121.93952,36.54736],[-121.93884,36.54871],[-121.93684,36.54816]]],[[[-121.93883,36.54925],[-121.93916,36.54925],[-121.93916,36.54953],[-121.93883,36.54925]]],[[[-121.93714,36.55032],[-121.9358,36.55004],[-121.93581,36.54949],[-121.93681,36.54923],[-121.93681,36.54977],[-121.93748,36.54978],[-121.93714,36.55032]]],[[[-121.94048,36.55088],[-121.94048,36.55143],[-121.9398,36.55143],[-121.93981,36.55088],[-121.94048,36.55088]]],[[[-121.93915,36.55033],[-121.93946,36.55196],[-121.94079,36.55251],[-121.94112,36.5536],[-121.94011,36.55332],[-121.93977,36.55413],[-121.93809,36.55439],[-121.9371,36.55302],[-121.93777,36.55275],[-121.93745,36.55194],[-121.93813,36.55167],[-121.93813,36.55114],[-121.93645,36.55112],[-121.93747,36.55059],[-121.9378,36.55113],[-121.93848,36.55033],[-121.93915,36.55033]],[[-121.93777,36.55303],[-121.93844,36.55276],[-121.93777,36.55276],[-121.93777,36.55303]]],[[[-121.93404,36.55651],[-121.93575,36.55382],[-121.93576,36.55301],[-121.93442,36.553],[-121.93443,36.55219],[-121.93376,36.55164],[-121.93309,36.55244],[-121.93242,36.55244],[-121.93243,36.55109],[-121.93311,36.55082],[-121.93346,36.54893],[-121.93149,36.54702],[-121.93117,36.54539],[-121.93184,36.5454],[-121.93185,36.54486],[-121.93353,36.54487],[-121.93285,36.54514],[-121.9335,36.54623],[-121.93316,36.54704],[-121.93416,36.54731],[-121.93382,36.54812],[-121.93449,36.54813],[-121.93481,36.54867],[-121.93479,36.5503],[-121.93546,36.5503],[-121.93544,36.5522],[-121.93677,36.55275],[-121.93675,36.55383],[-121.93775,36.55437],[-121.93774,36.55519],[-121.93807,36.55519],[-121.93772,36.55681],[-121.93671,36.55681],[-121.93671,36.55735],[-121.93536,36.55733],[-121.93569,36.55815],[-121.93771,36.55762],[-121.93771,36.55708],[-121.94073,36.55738],[-121.94073,36.55684],[-121.94141,36.55684],[-121.94171,36.55928],[-121.93903,36.55926],[-121.93902,36.5598],[-121.94002,36.56007],[-121.94003,36.55954],[-121.9417,36.55955],[-121.94203,36.56037],[-121.9427,36.56037],[-121.9427,36.56091],[-121.94102,36.5609],[-121.94102,36.56036],[-121.94001,36.56062],[-121.94001,36.56116],[-121.93598,36.56113],[-121.93432,36.56057],[-121.93465,36.5603],[-121.93433,36.55949],[-121.93466,36.55949],[-121.93567,36.55949],[-121.936,36.56004],[-121.93701,36.55951],[-121.93733,36.5606],[-121.938,36.5606],[-121.93835,36.55898],[-121.93769,36.55843],[-121.93837,36.55844],[-121.93838,36.55763],[-121.93771,36.55763],[-121.93803,36.55817],[-121.93669,36.55816],[-121.93636,36.55843],[-121.93668,36.55897],[-121.93601,36.55923],[-121.93568,36.55896],[-121.93602,36.55842],[-121.93468,36.55841],[-121.93469,36.55733],[-121.93403,36.55705],[-121.93404,36.55651]],[[-121.93285,36.54541],[-121.93251,36.54568],[-121.93285,36.54568],[-121.93285,36.54541]],[[-121.94038,36.55819],[-121.94004,36.55846],[-121.94038,36.55846],[-121.94038,36.55819]],[[-121.94038,36.55873],[-121.94071,36.55846],[-121.94038,36.55846],[-121.94038,36.55873]],[[-121.93571,36.55653],[-121.93671,36.55626],[-121.93571,36.55598],[-121.93571,36.55653]],[[-121.93283,36.54649],[-121.9325,36.54595],[-121.9325,36.54649],[-121.93283,36.54649]],[[-121.93565,36.56058],[-121.93499,36.56004],[-121.93499,36.56057],[-121.93565,36.56058]]],[[[-121.93909,36.55466],[-121.93909,36.55439],[-121.93942,36.55439],[-121.93909,36.55466]]],[[[-121.93906,36.55683],[-121.93873,36.55655],[-121.93906,36.55655],[-121.93906,36.55683]]],[[[-121.94438,36.56012],[-121.94438,36.55958],[-121.94505,36.55985],[-121.94639,36.56041],[-121.94773,36.56014],[-121.94772,36.56069],[-121.94302,36.56092],[-121.94303,36.56038],[-121.94438,36.56012]],[[-121.94472,36.55985],[-121.94472,36.56012],[-121.94505,36.56012],[-121.94505,36.55985],[-121.94472,36.55985]]],[[[-121.93449,36.52298],[-121.9345,36.52244],[-121.93483,36.52298],[-121.93449,36.52298]]],[[[-121.93382,36.5227],[-121.93416,36.52325],[-121.93382,36.52325],[-121.93382,36.5227]]],[[[-121.92846,36.5232],[-121.92812,36.52292],[-121.92846,36.52292],[-121.92846,36.5232]]],[[[-121.93482,36.52325],[-121.93482,36.52353],[-121.93449,36.52325],[-121.93482,36.52325]]],[[[-121.93314,36.52378],[-121.93281,36.52351],[-121.93314,36.52351],[-121.93314,36.52378]]],[[[-121.92744,36.52372],[-121.92711,36.524],[-121.92711,36.52372],[-121.92744,36.52372]]],[[[-121.93348,36.52406],[-121.93348,36.52378],[-121.93382,36.52378],[-121.93348,36.52406]]],[[[-121.92913,36.52293],[-121.93079,36.5243],[-121.93078,36.52511],[-121.92912,36.52429],[-121.92846,36.5232],[-121.92913,36.52293]]],[[[-121.9328,36.52459],[-121.93246,36.52431],[-121.9328,36.52431],[-121.9328,36.52459]]],[[[-121.93381,36.5246],[-121.93347,36.52432],[-121.93381,36.52432],[-121.93381,36.5246]]],[[[-121.92603,36.5294],[-121.92629286186931,36.528175814722914],[-121.92631,36.52817],[-121.92629592391305,36.528161554347825],[-121.92638,36.52777],[-121.9255564102564,36.52709615384616],[-121.9257,36.52705],[-121.92543641755634,36.52688705812574],[-121.92574,36.52641],[-121.92543015129888,36.52536426063374],[-121.92545987619987,36.525330398761994],[-121.92642,36.52534],[-121.92675,36.52615],[-121.92741,36.52616],[-121.92807,36.52698],[-121.92772,36.52806],[-121.92805,36.52914],[-121.92603,36.5294]]],[[[-121.92931,36.53483],[-121.92863,36.53483],[-121.92865,36.53347],[-121.92768597122303,36.53320971223022],[-121.92764088838268,36.53317665148064],[-121.92733,36.53238],[-121.92767,36.53211],[-121.927,36.53211],[-121.92734,36.53157],[-121.92632847748392,36.530946354538955],[-121.92604,36.53059],[-121.92601287605738,36.53059325487311],[-121.92603,36.52966],[-121.9277,36.52995],[-121.92867,36.53212],[-121.92934,36.53212],[-121.93,36.53321],[-121.92965,36.53456],[-121.93098,36.53484],[-121.93098,36.53539],[-121.92962,36.53646],[-121.92896,36.53592],[-121.92931,36.53483]]],[[[-121.93498,36.53623],[-121.93465,36.53651],[-121.93465,36.53623],[-121.93498,36.53623]]],[[[-121.93632,36.53651],[-121.93632,36.53679],[-121.93565,36.53679],[-121.93632,36.53651]]],[[[-121.93396,36.53758],[-121.93362,36.5373],[-121.93396,36.5373],[-121.93396,36.53758]]],[[[-121.9306,36.53836],[-121.9306,36.53782],[-121.93127,36.53782],[-121.93196,36.53675],[-121.93263,36.53675],[-121.93229,36.5373],[-121.93328,36.53811],[-121.93194,36.5381],[-121.93227,36.53892],[-121.93126,36.53918],[-121.93126,36.53864],[-121.9306,36.53836]]],[[[-121.93391,36.5411],[-121.93325,36.54055],[-121.93359,36.54001],[-121.93292,36.53974],[-121.93261,36.53838],[-121.93562,36.53813],[-121.93629,36.53868],[-121.93593,36.54057],[-121.9366,36.54057],[-121.93659,36.54112],[-121.93559,36.54057],[-121.93492,36.5411],[-121.93391,36.5411]],[[-121.93493,36.54029],[-121.93359,36.54028],[-121.93391,36.54082],[-121.93459,36.54082],[-121.93493,36.54029]],[[-121.93294,36.53865],[-121.93327,36.53946],[-121.9336,36.5392],[-121.93327,36.53865],[-121.93294,36.53865]],[[-121.93428,36.53866],[-121.93394,36.53893],[-121.93428,36.53893],[-121.93428,36.53866]]],[[[-121.93591,36.54192],[-121.93491,36.54192],[-121.93491,36.54137],[-121.93559,36.5411],[-121.93591,36.54192]]],[[[-121.93356,36.54245],[-121.93357,36.54136],[-121.93391,36.54136],[-121.93423,36.54191],[-121.93356,36.54245]]],[[[-121.93456,36.54272],[-121.93423,36.54245],[-121.93456,36.54245],[-121.93456,36.54272]]],[[[-121.93488,36.54381],[-121.9342,36.54408],[-121.93455,36.54326],[-121.93388,36.54326],[-121.93355,36.54271],[-121.93489,36.54299],[-121.93488,36.54381]]],[[[-121.9342,36.54461],[-121.93386,36.54488],[-121.93386,36.54461],[-121.9342,36.54461]]],[[[-121.93611,36.55193],[-121.93578,36.55193],[-121.93578,36.55139],[-121.93611,36.55193]]],[[[-121.93501,36.55895],[-121.93467,36.55868],[-121.93501,36.55868],[-121.93501,36.55895]]]]}}]}