{"type":"FeatureCollection","features":[{"type":"Feature","geometry":{"type":"Point","coordinates":[-121.98364,36.56103]},"properties":{"depth_ft":254,"depth_m":77.5}},{"type":"Feature","geometry":{"type":"Point","coordinates":[-121.98071,36.56103]},"properties":{"depth_ft":226,"depth_m":68.8}},{"type":"Feature","geometry":{"type":"Point","coordinates":[-121.97779,36.56103]},"properties":{"depth_ft":207,"depth_m":63.1}},{"type":"Feature","geometry":{"type":"Point","coordinates":[-121.97486,36.56103]},"properties":{"depth_ft":187,"depth_m":56.9}},{"type":"Feature","geometry":{"type":"Point","coordinates":[-121.97194,36.56103]},"properties":{"depth_ft":139,"depth_m":42.3}},{"type":"Feature","geometry":{"type":"Point","coordinates":[-121.96901,36.56103]},"properties":{"depth_ft":102,"depth_m":31.2}},{"type":"Feature","geometry":{"type":"Point","coordinates":[-121.96609,36.56103]},"properties":{"depth_ft":83,"depth_m":25.4}},{"type":"Feature","geometry":{"type":"Point","coordinates":[-121.96316,36.56103]},"properties":{"depth_ft":72,"depth_m":22.0}},{"type":"Feature","geometry":{"type":"Point","coordinates":[-121.96024,36.56103]},"properties":{"depth_ft":72,"depth_m":21.9}},{"type":"Feature","geometry":{"type":"Point","coordinates":[-121.95731,36.56103]},"properties":{"depth_ft":67,"depth_m":20.4}},{"type":"Feature","geometry":{"type":"Point","coordinates":[-121.95439,36.56103]},"properties":{"depth_ft":83,"depth_m":25.2}},{"type":"Feature","geometry":{"type":"Point","coordinates":[-121.95146,36.56103]},"properties":{"depth_ft":1,"depth_m":0.2}},{"type":"Feature","geometry":{"type":"Point","coordinates":[-121.94854,36.56103]},"properties":{"depth_ft":53,"depth_m":16.2}},{"type":"Feature","geometry":{"type":"Point","coordinates":[-121.94561,36.56103]},"properties":{"depth_ft":31,"depth_m":9.4}},{"type":"Feature","geometry":{"type":"Point","coordinates":[-121.94269,36.56103]},"properties":{"depth_ft":43,"depth_m":13.1}},{"type":"Feature","geometry":{"type":"Point","coordinates":[-121.93684,36.56103]},"properties":{"depth_ft":18,"depth_m":5.6}},{"type":"Feature","geometry":{"type":"Point","coordinates":[-121.98071,36.55868]},"properties":{"depth_ft":280,"depth_m":85.5}},{"type":"Feature","geometry":{"type":"Point","coordinates":[-121.97779,36.55868]},"properties":{"depth_ft":221,"depth_m":67.4}},{"type":"Feature","geometry":{"type":"Point","coordinates":[-121.97486,36.55868]},"properties":{"depth_ft":174,"depth_m":53.1}},{"type":"Feature","geometry":{"type":"Point","coordinates":[-121.97194,36.55868]},"properties":{"depth_ft":121,"depth_m":37.0}},{"type":"Feature","geometry":{"type":"Point","coordinates":[-121.96901,36.55868]},"properties":{"depth_ft":99,"depth_m":30.3}},{"type":"Feature","geometry":{"type":"Point","coordinates":[-121.96609,36.55868]},"properties":{"depth_ft":49,"depth_m":14.8}},{"type":"Feature","geometry":{"type":"Point","coordinates":[-121.96316,36.55868]},"properties":{"depth_ft":117,"depth_m":35.6}},{"type":"Feature","geometry":{"type":"Point","coordinates":[-121.96024,36.55868]},"properties":{"depth_ft":88,"depth_m":26.7}},{"type":"Feature","geometry":{"type":"Point","coordinates":[-121.95731,36.55868]},"properties":{"depth_ft":99,"depth_m":30.3}},{"type":"Feature","geometry":{"type":"Point","coordinates":[-121.95439,36.55868]},"properties":{"depth_ft":78,"depth_m":23.7}},{"type":"Feature","geometry":{"type":"Point","coordinates":[-121.95146,36.55868]},"properties":{"depth_ft":57,"depth_m":17.3}},{"type":"Feature","geometry":{"type":"Point","coordinates":[-121.94854,36.55868]},"properties":{"depth_ft":88,"depth_m":26.8}},{"type":"Feature","geometry":{"type":"Point","coordinates":[-121.94561,36.55868]},"properties":{"depth_ft":74,"depth_m":22.5}},{"type":"Feature","geometry":{"type":"Point","coordinates":[-121.94269,36.55868]},"properties":{"depth_ft":56,"depth_m":17.0}},{"type":"Feature","geometry":{"type":"Point","coordinates":[-121.93976,36.55868]},"properties":{"depth_ft":38,"depth_m":11.7}},{"type":"Feature","geometry":{"type":"Point","coordinates":[-121.93684,36.55868]},"properties":{"depth_ft":29,"depth_m":8.9}},{"type":"Feature","geometry":{"type":"Point","coordinates":[-121.93391,36.55868]},"properties":{"depth_ft":6,"depth_m":1.8}},{"type":"Feature","geometry":{"type":"Point","coordinates":[-121.97779,36.55633]},"properties":{"depth_ft":235,"depth_m":71.6}},{"type":"Feature","geometry":{"type":"Point","coordinates":[-121.97486,36.55633]},"properties":{"depth_ft":174,"depth_m":53.2}},{"type":"Feature","geometry":{"type":"Point","coordinates":[-121.97194,36.55633]},"properties":{"depth_ft":105,"depth_m":32.0}},{"type":"Feature","geometry":{"type":"Point","coordinates":[-121.96901,36.55633]},"properties":{"depth_ft":91,"depth_m":27.8}},{"type":"Feature","geometry":{"type":"Point","coordinates":[-121.96609,36.55633]},"properties":{"depth_ft":122,"depth_m":37.1}},{"type":"Feature","geometry":{"type":"Point","coordinates":[-121.96316,36.55633]},"properties":{"depth_ft":130,"depth_m":39.6}},{"type":"Feature","geometry":{"type":"Point","coordinates":[-121.96024,36.55633]},"properties":{"depth_ft":126,"depth_m":38.4}},{"type":"Feature","geometry":{"type":"Point","coordinates":[-121.95731,36.55633]},"properties":{"depth_ft":99,"depth_m":30.3}},{"type":"Feature","geometry":{"type":"Point","coordinates":[-121.95439,36.55633]},"properties":{"depth_ft":133,"depth_m":40.5}},{"type":"Feature","geometry":{"type":"Point","coordinates":[-121.95146,36.55633]},"properties":{"depth_ft":120,"depth_m":36.5}},{"type":"Feature","geometry":{"type":"Point","coordinates":[-121.94854,36.55633]},"properties":{"depth_ft":101,"depth_m":30.8}},{"type":"Feature","geometry":{"type":"Point","coordinates":[-121.94561,36.55633]},"properties":{"depth_ft":81,"depth_m":24.7}},{"type":"Feature","geometry":{"type":"Point","coordinates":[-121.94269,36.55633]},"properties":{"depth_ft":64,"depth_m":19.6}},{"type":"Feature","geometry":{"type":"Point","coordinates":[-121.93976,36.55633]},"properties":{"depth_ft":49,"depth_m":15.0}},{"type":"Feature","geometry":{"type":"Point","coordinates":[-121.93684,36.55633]},"properties":{"depth_ft":33,"depth_m":10.0}},{"type":"Feature","geometry":{"type":"Point","coordinates":[-121.93391,36.55633]},"properties":{"depth_ft":15,"depth_m":4.4}},{"type":"Feature","geometry":{"type":"Point","coordinates":[-121.98071,36.55398]},"properties":{"depth_ft":265,"depth_m":80.7}},{"type":"Feature","geometry":{"type":"Point","coordinates":[-121.97779,36.55398]},"properties":{"depth_ft":229,"depth_m":69.8}},{"type":"Feature","geometry":{"type":"Point","coordinates":[-121.97486,36.55398]},"properties":{"depth_ft":152,"depth_m":46.4}},{"type":"Feature","geometry":{"type":"Point","coordinates":[-121.97194,36.55398]},"properties":{"depth_ft":103,"depth_m":31.4}},{"type":"Feature","geometry":{"type":"Point","coordinates":[-121.96901,36.55398]},"properties":{"depth_ft":82,"depth_m":25.1}},{"type":"Feature","geometry":{"type":"Point","coordinates":[-121.96609,36.55398]},"properties":{"depth_ft":162,"depth_m":49.3}},{"type":"Feature","geometry":{"type":"Point","coordinates":[-121.96316,36.55398]},"properties":{"depth_ft":153,"depth_m":46.8}},{"type":"Feature","geometry":{"type":"Point","coordinates":[-121.96024,36.55398]},"properties":{"depth_ft":191,"depth_m":58.1}},{"type":"Feature","geometry":{"type":"Point","coordinates":[-121.95731,36.55398]},"properties":{"depth_ft":142,"depth_m":43.1}},{"type":"Feature","geometry":{"type":"Point","coordinates":[-121.95439,36.55398]},"properties":{"depth_ft":151,"depth_m":46.0}},{"type":"Feature","geometry":{"type":"Point","coordinates":[-121.95146,36.55398]},"properties":{"depth_ft":140,"depth_m":42.7}},{"type":"Feature","geometry":{"type":"Point","coordinates":[-121.94854,36.55398]},"properties":{"depth_ft":121,"depth_m":36.9}},{"type":"Feature","geometry":{"type":"Point","coordinates":[-121.94561,36.55398]},"properties":{"depth_ft":92,"depth_m":27.9}},{"type":"Feature","geometry":{"type":"Point","coordinates":[-121.94269,36.55398]},"properties":{"depth_ft":73,"depth_m":22.1}},{"type":"Feature","geometry":{"type":"Point","coordinates":[-121.93976,36.55398]},"properties":{"depth_ft":57,"depth_m":17.5}},{"type":"Feature","geometry":{"type":"Point","coordinates":[-121.93684,36.55398]},"properties":{"depth_ft":35,"depth_m":10.6}},{"type":"Feature","geometry":{"type":"Point","coordinates":[-121.93391,36.55398]},"properties":{"depth_ft":25,"depth_m":7.6}},{"type":"Feature","geometry":{"type":"Point","coordinates":[-121.93099,36.55398]},"properties":{"depth_ft":2,"depth_m":0.6}},{"type":"Feature","geometry":{"type":"Point","coordinates":[-121.98071,36.55163]},"properties":{"depth_ft":235,"depth_m":71.6}},{"type":"Feature","geometry":{"type":"Point","coordinates":[-121.97779,36.55163]},"properties":{"depth_ft":201,"depth_m":61.2}},{"type":"Feature","geometry":{"type":"Point","coordinates":[-121.97486,36.55163]},"properties":{"depth_ft":183,"depth_m":55.8}},{"type":"Feature","geometry":{"type":"Point","coordinates":[-121.97194,36.55163]},"properties":{"depth_ft":170,"depth_m":52.0}},{"type":"Feature","geometry":{"type":"Point","coordinates":[-121.96901,36.55163]},"properties":{"depth_ft":158,"depth_m":48.2}},{"type":"Feature","geometry":{"type":"Point","coordinates":[-121.96609,36.55163]},"properties":{"depth_ft":196,"depth_m":59.8}},{"type":"Feature","geometry":{"type":"Point","coordinates":[-121.96316,36.55163]},"properties":{"depth_ft":242,"depth_m":73.9}},{"type":"Feature","geometry":{"type":"Point","coordinates":[-121.95731,36.55163]},"properties":{"depth_ft":244,"depth_m":74.3}},{"type":"Feature","geometry":{"type":"Point","coordinates":[-121.95439,36.55163]},"properties":{"depth_ft":181,"depth_m":55.2}},{"type":"Feature","geometry":{"type":"Point","coordinates":[-121.95146,36.55163]},"properties":{"depth_ft":242,"depth_m":73.8}},{"type":"Feature","geometry":{"type":"Point","coordinates":[-121.94854,36.55163]},"properties":{"depth_ft":185,"depth_m":56.5}},{"type":"Feature","geometry":{"type":"Point","coordinates":[-121.94561,36.55163]},"properties":{"depth_ft":109,"depth_m":33.3}},{"type":"Feature","geometry":{"type":"Point","coordinates":[-121.94269,36.55163]},"properties":{"depth_ft":84,"depth_m":25.5}},{"type":"Feature","geometry":{"type":"Point","coordinates":[-121.93976,36.55163]},"properties":{"depth_ft":64,"depth_m":19.4}},{"type":"Feature","geometry":{"type":"Point","coordinates":[-121.93684,36.55163]},"properties":{"depth_ft":43,"depth_m":13.3}},{"type":"Feature","geometry":{"type":"Point","coordinates":[-121.93391,36.55163]},"properties":{"depth_ft":27,"depth_m":8.2}},{"type":"Feature","geometry":{"type":"Point","coordinates":[-121.93099,36.55163]},"properties":{"depth_ft":6,"depth_m":1.7}},{"type":"Feature","geometry":{"type":"Point","coordinates":[-121.98364,36.54928]},"properties":{"depth_ft":264,"depth_m":80.3}},{"type":"Feature","geometry":{"type":"Point","coordinates":[-121.98071,36.54928]},"properties":{"depth_ft":219,"depth_m":66.7}},{"type":"Feature","geometry":{"type":"Point","coordinates":[-121.97779,36.54928]},"properties":{"depth_ft":220,"depth_m":67.2}},{"type":"Feature","geometry":{"type":"Point","coordinates":[-121.97486,36.54928]},"properties":{"depth_ft":222,"depth_m":67.6}},{"type":"Feature","geometry":{"type":"Point","coordinates":[-121.97194,36.54928]},"properties":{"depth_ft":213,"depth_m":64.8}},{"type":"Feature","geometry":{"type":"Point","coordinates":[-121.96901,36.54928]},"properties":{"depth_ft":242,"depth_m":73.8}},{"type":"Feature","geometry":{"type":"Point","coordinates":[-121.96609,36.54928]},"properties":{"depth_ft":264,"depth_m":80.6}},{"type":"Feature","geometry":{"type":"Point","coordinates":[-121.95146,36.54928]},"properties":{"depth_ft":217,"depth_m":66.1}},{"type":"Feature","geometry":{"type":"Point","coordinates":[-121.94854,36.54928]},"properties":{"depth_ft":157,"depth_m":47.8}},{"type":"Feature","geometry":{"type":"Point","coordinates":[-121.94561,36.54928]},"properties":{"depth_ft":120,"depth_m":36.5}},{"type":"Feature","geometry":{"type":"Point","coordinates":[-121.94269,36.54928]},"properties":{"depth_ft":97,"depth_m":29.6}},{"type":"Feature","geometry":{"type":"Point","coordinates":[-121.93976,36.54928]},"properties":{"depth_ft":63,"depth_m":19.3}},{"type":"Feature","geometry":{"type":"Point","coordinates":[-121.93684,36.54928]},"properties":{"depth_ft":39,"depth_m":11.7}},{"type":"Feature","geometry":{"type":"Point","coordinates":[-121.93391,36.54928]},"properties":{"depth_ft":31,"depth_m":9.5}},{"type":"Feature","geometry":{"type":"Point","coordinates":[-121.93099,36.54928]},"properties":{"depth_ft":9,"depth_m":2.8}},{"type":"Feature","geometry":{"type":"Point","coordinates":[-121.98364,36.54693]},"properties":{"depth_ft":237,"depth_m":72.4}},{"type":"Feature","geometry":{"type":"Point","coordinates":[-121.98071,36.54693]},"properties":{"depth_ft":251,"depth_m":76.4}},{"type":"Feature","geometry":{"type":"Point","coordinates":[-121.97779,36.54693]},"properties":{"depth_ft":273,"depth_m":83.3}},{"type":"Feature","geometry":{"type":"Point","coordinates":[-121.97194,36.54693]},"properties":{"depth_ft":245,"depth_m":74.6}},{"type":"Feature","geometry":{"type":"Point","coordinates":[-121.95439,36.54693]},"properties":{"depth_ft":305,"depth_m":92.9}},{"type":"Feature","geometry":{"type":"Point","coordinates":[-121.95146,36.54693]},"properties":{"depth_ft":203,"depth_m":61.8}},{"type":"Feature","geometry":{"type":"Point","coordinates":[-121.94854,36.54693]},"properties":{"depth_ft":150,"depth_m":45.7}},{"type":"Feature","geometry":{"type":"Point","coordinates":[-121.94561,36.54693]},"properties":{"depth_ft":118,"depth_m":36.1}},{"type":"Feature","geometry":{"type":"Point","coordinates":[-121.94269,36.54693]},"properties":{"depth_ft":101,"depth_m":30.8}},{"type":"Feature","geometry":{"type":"Point","coordinates":[-121.93976,36.54693]},"properties":{"depth_ft":66,"depth_m":20.1}},{"type":"Feature","geometry":{"type":"Point","coordinates":[-121.93684,36.54693]},"properties":{"depth_ft":39,"depth_m":11.9}},{"type":"Feature","geometry":{"type":"Point","coordinates":[-121.93391,36.54693]},"properties":{"depth_ft":38,"depth_m":11.4}},{"type":"Feature","geometry":{"type":"Point","coordinates":[-121.93099,36.54693]},"properties":{"depth_ft":8,"depth_m":2.4}},{"type":"Feature","geometry":{"type":"Point","coordinates":[-121.98364,36.54458]},"properties":{"depth_ft":297,"depth_m":90.6}},{"type":"Feature","geometry":{"type":"Point","coordinates":[-121.95439,36.54458]},"properties":{"depth_ft":229,"depth_m":69.9}},{"type":"Feature","geometry":{"type":"Point","coordinates":[-121.95146,36.54458]},"properties":{"depth_ft":181,"depth_m":55.1}},{"type":"Feature","geometry":{"type":"Point","coordinates":[-121.94854,36.54458]},"properties":{"depth_ft":153,"depth_m":46.6}},{"type":"Feature","geometry":{"type":"Point","coordinates":[-121.94561,36.54458]},"properties":{"depth_ft":135,"depth_m":41.2}},{"type":"Feature","geometry":{"type":"Point","coordinates":[-121.94269,36.54458]},"properties":{"depth_ft":93,"depth_m":28.4}},{"type":"Feature","geometry":{"type":"Point","coordinates":[-121.93976,36.54458]},"properties":{"depth_ft":74,"depth_m":22.5}},{"type":"Feature","geometry":{"type":"Point","coordinates":[-121.93684,36.54458]},"properties":{"depth_ft":38,"depth_m":11.5}},{"type":"Feature","geometry":{"type":"Point","coordinates":[-121.93391,36.54458]},"properties":{"depth_ft":3,"depth_m":0.9}},{"type":"Feature","geometry":{"type":"Point","coordinates":[-121.95731,36.54223]},"properties":{"depth_ft":283,"depth_m":86.2}},{"type":"Feature","geometry":{"type":"Point","coordinates":[-121.95439,36.54223]},"properties":{"depth_ft":246,"depth_m":75.1}},{"type":"Feature","geometry":{"type":"Point","coordinates":[-121.95146,36.54223]},"properties":{"depth_ft":226,"depth_m":69.0}},{"type":"Feature","geometry":{"type":"Point","coordinates":[-121.94854,36.54223]},"properties":{"depth_ft":206,"depth_m":62.7}},{"type":"Feature","geometry":{"type":"Point","coordinates":[-121.94561,36.54223]},"properties":{"depth_ft":144,"depth_m":43.8}},{"type":"Feature","geometry":{"type":"Point","coordinates":[-121.94269,36.54223]},"properties":{"depth_ft":131,"depth_m":39.9}},{"type":"Feature","geometry":{"type":"Point","coordinates":[-121.93976,36.54223]},"properties":{"depth_ft":99,"depth_m":30.1}},{"type":"Feature","geometry":{"type":"Point","coordinates":[-121.93684,36.54223]},"properties":{"depth_ft":48,"depth_m":14.7}},{"type":"Feature","geometry":{"type":"Point","coordinates":[-121.93391,36.54223]},"properties":{"depth_ft":7,"depth_m":2.0}},{"type":"Feature","geometry":{"type":"Point","coordinates":[-121.95439,36.53988]},"properties":{"depth_ft":284,"depth_m":86.5}},{"type":"Feature","geometry":{"type":"Point","coordinates":[-121.95146,36.53988]},"properties":{"depth_ft":273,"depth_m":83.3}},{"type":"Feature","geometry":{"type":"Point","coordinates":[-121.94561,36.53988]},"properties":{"depth_ft":204,"depth_m":62.3}},{"type":"Feature","geometry":{"type":"Point","coordinates":[-121.94269,36.53988]},"properties":{"depth_ft":149,"depth_m":45.4}},{"type":"Feature","geometry":{"type":"Point","coordinates":[-121.93976,36.53988]},"properties":{"depth_ft":117,"depth_m":35.5}},{"type":"Feature","geometry":{"type":"Point","coordinates":[-121.93684,36.53988]},"properties":{"depth_ft":79,"depth_m":24.0}},{"type":"Feature","geometry":{"type":"Point","coordinates":[-121.93391,36.53988]},"properties":{"depth_ft":19,"depth_m":5.8}},{"type":"Feature","geometry":{"type":"Point","coordinates":[-121.94269,36.53753]},"properties":{"depth_ft":280,"depth_m":85.3}},{"type":"Feature","geometry":{"type":"Point","coordinates":[-121.93976,36.53753]},"properties":{"depth_ft":131,"depth_m":40.0}},{"type":"Feature","geometry":{"type":"Point","coordinates":[-121.93684,36.53753]},"properties":{"depth_ft":96,"depth_m":29.2}},{"type":"Feature","geometry":{"type":"Point","coordinates":[-121.93391,36.53753]},"properties":{"depth_ft":36,"depth_m":11.1}},{"type":"Feature","geometry":{"type":"Point","coordinates":[-121.93099,36.53753]},"properties":{"depth_ft":26,"depth_m":7.8}},{"type":"Feature","geometry":{"type":"Point","coordinates":[-121.93976,36.53518]},"properties":{"depth_ft":163,"depth_m":49.5}},{"type":"Feature","geometry":{"type":"Point","coordinates":[-121.93684,36.53518]},"properties":{"depth_ft":119,"depth_m":36.1}},{"type":"Feature","geometry":{"type":"Point","coordinates":[-121.93391,36.53518]},"properties":{"depth_ft":124,"depth_m":37.7}},{"type":"Feature","geometry":{"type":"Point","coordinates":[-121.93099,36.53518]},"properties":{"depth_ft":43,"depth_m":13.0}},{"type":"Feature","geometry":{"type":"Point","coordinates":[-121.93684,36.53282]},"properties":{"depth_ft":201,"depth_m":61.2}},{"type":"Feature","geometry":{"type":"Point","coordinates":[-121.93391,36.53282]},"properties":{"depth_ft":282,"depth_m":85.9}},{"type":"Feature","geometry":{"type":"Point","coordinates":[-121.93099,36.53282]},"properties":{"depth_ft":94,"depth_m":28.7}},{"type":"Feature","geometry":{"type":"Point","coordinates":[-121.92806,36.53282]},"properties":{"depth_ft":18,"depth_m":5.5}},{"type":"Feature","geometry":{"type":"Point","coordinates":[-121.94854,36.53047]},"properties":{"depth_ft":275,"depth_m":83.7}},{"type":"Feature","geometry":{"type":"Point","coordinates":[-121.93391,36.53047]},"properties":{"depth_ft":291,"depth_m":88.6}},{"type":"Feature","geometry":{"type":"Point","coordinates":[-121.93099,36.53047]},"properties":{"depth_ft":107,"depth_m":32.7}},{"type":"Feature","geometry":{"type":"Point","coordinates":[-121.92806,36.53047]},"properties":{"depth_ft":46,"depth_m":14.0}},{"type":"Feature","geometry":{"type":"Point","coordinates":[-121.96901,36.52812]},"properties":{"depth_ft":308,"depth_m":93.9}},{"type":"Feature","geometry":{"type":"Point","coordinates":[-121.96024,36.52812]},"properties":{"depth_ft":265,"depth_m":80.7}},{"type":"Feature","geometry":{"type":"Point","coordinates":[-121.95731,36.52812]},"properties":{"depth_ft":321,"depth_m":97.8}},{"type":"Feature","geometry":{"type":"Point","coordinates":[-121.95146,36.52812]},"properties":{"depth_ft":211,"depth_m":64.4}},{"type":"Feature","geometry":{"type":"Point","coordinates":[-121.94854,36.52812]},"properties":{"depth_ft":202,"depth_m":61.7}},{"type":"Feature","geometry":{"type":"Point","coordinates":[-121.94561,36.52812]},"properties":{"depth_ft":230,"depth_m":70.0}},{"type":"Feature","geometry":{"type":"Point","coordinates":[-121.93976,36.52812]},"properties":{"depth_ft":183,"depth_m":55.8}},{"type":"Feature","geometry":{"type":"Point","coordinates":[-121.93684,36.52812]},"properties":{"depth_ft":176,"depth_m":53.5}},{"type":"Feature","geometry":{"type":"Point","coordinates":[-121.93099,36.52812]},"properties":{"depth_ft":266,"depth_m":81.1}},{"type":"Feature","geometry":{"type":"Point","coordinates":[-121.92806,36.52812]},"properties":{"depth_ft":103,"depth_m":31.4}},{"type":"Feature","geometry":{"type":"Point","coordinates":[-121.97194,36.52577]},"properties":{"depth_ft":260,"depth_m":79.3}},{"type":"Feature","geometry":{"type":"Point","coordinates":[-121.96901,36.52577]},"properties":{"depth_ft":245,"depth_m":74.6}},{"type":"Feature","geometry":{"type":"Point","coordinates":[-121.96609,36.52577]},"properties":{"depth_ft":221,"depth_m":67.2}},{"type":"Feature","geometry":{"type":"Point","coordinates":[-121.96316,36.52577]},"properties":{"depth_ft":219,"depth_m":66.6}},{"type":"Feature","geometry":{"type":"Point","coordinates":[-121.96024,36.52577]},"properties":{"depth_ft":192,"depth_m":58.5}},{"type":"Feature","geometry":{"type":"Point","coordinates":[-121.95731,36.52577]},"properties":{"depth_ft":190,"depth_m":58.0}},{"type":"Feature","geometry":{"type":"Point","coordinates":[-121.95439,36.52577]},"properties":{"depth_ft":127,"depth_m":38.6}},{"type":"Feature","geometry":{"type":"Point","coordinates":[-121.95146,36.52577]},"properties":{"depth_ft":151,"depth_m":46.0}},{"type":"Feature","geometry":{"type":"Point","coordinates":[-121.94854,36.52577]},"properties":{"depth_ft":103,"depth_m":31.4}},{"type":"Feature","geometry":{"type":"Point","coordinates":[-121.94561,36.52577]},"properties":{"depth_ft":153,"depth_m":46.7}},{"type":"Feature","geometry":{"type":"Point","coordinates":[-121.94269,36.52577]},"properties":{"depth_ft":169,"depth_m":51.4}},{"type":"Feature","geometry":{"type":"Point","coordinates":[-121.93976,36.52577]},"properties":{"depth_ft":125,"depth_m":38.2}},{"type":"Feature","geometry":{"type":"Point","coordinates":[-121.93684,36.52577]},"properties":{"depth_ft":57,"depth_m":17.4}},{"type":"Feature","geometry":{"type":"Point","coordinates":[-121.93391,36.52577]},"properties":{"depth_ft":95,"depth_m":28.8}},{"type":"Feature","geometry":{"type":"Point","coordinates":[-121.93099,36.52577]},"properties":{"depth_ft":58,"depth_m":17.6}},{"type":"Feature","geometry":{"type":"Point","coordinates":[-121.92806,36.52577]},"properties":{"depth_ft":90,"depth_m":27.5}},{"type":"Feature","geometry":{"type":"Point","coordinates":[-121.97486,36.52342]},"properties":{"depth_ft":297,"depth_m":90.6}},{"type":"Feature","geometry":{"type":"Point","coordinates":[-121.97194,36.52342]},"properties":{"depth_ft":273,"depth_m":83.3}},{"type":"Feature","geometry":{"type":"Point","coordinates":[-121.96901,36.52342]},"properties":{"depth_ft":254,"depth_m":77.3}},{"type":"Feature","geometry":{"type":"Point","coordinates":[-121.96609,36.52342]},"properties":{"depth_ft":229,"depth_m":69.9}},{"type":"Feature","geometry":{"type":"Point","coordinates":[-121.96316,36.52342]},"properties":{"depth_ft":183,"depth_m":55.7}},{"type":"Feature","geometry":{"type":"Point","coordinates":[-121.96024,36.52342]},"properties":{"depth_ft":146,"depth_m":44.6}},{"type":"Feature","geometry":{"type":"Point","coordinates":[-121.95731,36.52342]},"properties":{"depth_ft":123,"depth_m":37.5}},{"type":"Feature","geometry":{"type":"Point","coordinates":[-121.95146,36.52342]},"properties":{"depth_ft":46,"depth_m":14.1}},{"type":"Feature","geometry":{"type":"Point","coordinates":[-121.94854,36.52342]},"properties":{"depth_ft":48,"depth_m":14.6}},{"type":"Feature","geometry":{"type":"Point","coordinates":[-121.94561,36.52342]},"properties":{"depth_ft":49,"depth_m":15.0}},{"type":"Feature","geometry":{"type":"Point","coordinates":[-121.94269,36.52342]},"properties":{"depth_ft":60,"depth_m":18.2}},{"type":"Feature","geometry":{"type":"Point","coordinates":[-121.93976,36.52342]},"properties":{"depth_ft":84,"depth_m":25.6}},{"type":"Feature","geometry":{"type":"Point","coordinates":[-121.93684,36.52342]},"properties":{"depth_ft":15,"depth_m":4.7}},{"type":"Feature","geometry":{"type":"Point","coordinates":[-121.93391,36.52342]},"properties":{"depth_ft":8,"depth_m":2.5}},{"type":"Feature","geometry":{"type":"Point","coordinates":[-121.92806,36.52342]},"properties":{"depth_ft":16,"depth_m":4.8}},{"type":"Feature","geometry":{"type":"Point","coordinates":[-121.97194,36.52107]},"properties":{"depth_ft":308,"depth_m":93.9}},{"type":"Feature","geometry":{"type":"Point","coordinates":[-121.96901,36.52107]},"properties":{"depth_ft":282,"depth_m":85.8}},{"type":"Feature","geometry":{"type":"Point","coordinates":[-121.96609,36.52107]},"properties":{"depth_ft":231,"depth_m":70.4}},{"type":"Feature","geometry":{"type":"Point","coordinates":[-121.96316,36.52107]},"properties":{"depth_ft":100,"depth_m":30.4}},{"type":"Feature","geometry":{"type":"Point","coordinates":[-121.96024,36.52107]},"properties":{"depth_ft":86,"depth_m":26.3}},{"type":"Feature","geometry":{"type":"Point","coordinates":[-121.95731,36.52107]},"properties":{"depth_ft":94,"depth_m":28.6}},{"type":"Feature","geometry":{"type":"Point","coordinates":[-121.95439,36.52107]},"properties":{"depth_ft":55,"depth_m":16.7}},{"type":"Feature","geometry":{"type":"Point","coordinates":[-121.94269,36.52107]},"properties":{"depth_ft":2,"depth_m":0.5}},{"type":"Feature","geometry":{"type":"Point","coordinates":[-121.93976,36.52107]},"properties":{"depth_ft":20,"depth_m":5.9}},{"type":"Feature","geometry":{"type":"Point","coordinates":[-121.93684,36.52107]},"properties":{"depth_ft":4,"depth_m":1.1}},{"type":"Feature","geometry":{"type":"Point","coordinates":[-121.96901,36.51872]},"properties":{"depth_ft":261,"depth_m":79.7}},{"type":"Feature","geometry":{"type":"Point","coordinates":[-121.96609,36.51872]},"properties":{"depth_ft":213,"depth_m":64.9}},{"type":"Feature","geometry":{"type":"Point","coordinates":[-121.96316,36.51872]},"properties":{"depth_ft":158,"depth_m":48.3}},{"type":"Feature","geometry":{"type":"Point","coordinates":[-121.96024,36.51872]},"properties":{"depth_ft":55,"depth_m":16.7}},{"type":"Feature","geometry":{"type":"Point","coordinates":[-121.95731,36.51872]},"properties":{"depth_ft":21,"depth_m":6.5}},{"type":"Feature","geometry":{"type":"Point","coordinates":[-121.96901,36.51637]},"properties":{"depth_ft":268,"depth_m":81.6}},{"type":"Feature","geometry":{"type":"Point","coordinates":[-121.96609,36.51637]},"properties":{"depth_ft":224,"depth_m":68.2}},{"type":"Feature","geometry":{"type":"Point","coordinates":[-121.96316,36.51637]},"properties":{"depth_ft":156,"depth_m":47.5}},{"type":"Feature","geometry":{"type":"Point","coordinates":[-121.96024,36.51637]},"properties":{"depth_ft":38,"depth_m":11.6}},{"type":"Feature","geometry":{"type":"Point","coordinates":[-121.95731,36.51637]},"properties":{"depth_ft":71,"depth_m":21.8}},{"type":"Feature","geometry":{"type":"Point","coordinates":[-121.95439,36.51637]},"properties":{"depth_ft":43,"depth_m":13.1}},{"type":"Feature","geometry":{"type":"Point","coordinates":[-121.95146,36.51637]},"properties":{"depth_ft":7,"depth_m":2.0}},{"type":"Feature","geometry":{"type":"Point","coordinates":[-121.97194,36.51402]},"properties":{"depth_ft":313,"depth_m":95.4}},{"type":"Feature","geometry":{"type":"Point","coordinates":[-121.96901,36.51402]},"properties":{"depth_ft":261,"depth_m":79.5}},{"type":"Feature","geometry":{"type":"Point","coordinates":[-121.96609,36.51402]},"properties":{"depth_ft":226,"depth_m":69.0}},{"type":"Feature","geometry":{"type":"Point","coordinates":[-121.96316,36.51402]},"properties":{"depth_ft":187,"depth_m":56.9}},{"type":"Feature","geometry":{"type":"Point","coordinates":[-121.96024,36.51402]},"properties":{"depth_ft":85,"depth_m":26.0}},{"type":"Feature","geometry":{"type":"Point","coordinates":[-121.95731,36.51402]},"properties":{"depth_ft":107,"depth_m":32.6}},{"type":"Feature","geometry":{"type":"Point","coordinates":[-121.95439,36.51402]},"properties":{"depth_ft":102,"depth_m":31.0}},{"type":"Feature","geometry":{"type":"Point","coordinates":[-121.95146,36.51402]},"properties":{"depth_ft":72,"depth_m":21.9}},{"type":"Feature","geometry":{"type":"Point","coordinates":[-121.94854,36.51402]},"properties":{"depth_ft":32,"depth_m":9.8}},{"type":"Feature","geometry":{"type":"Point","coordinates":[-121.97194,36.51167]},"properties":{"depth_ft":301,"depth_m":91.7}},{"type":"Feature","geometry":{"type":"Point","coordinates":[-121.96901,36.51167]},"properties":{"depth_ft":236,"depth_m":72.0}},{"type":"Feature","geometry":{"type":"Point","coordinates":[-121.96609,36.51167]},"properties":{"depth_ft":223,"depth_m":67.9}},{"type":"Feature","geometry":{"type":"Point","coordinates":[-121.96316,36.51167]},"properties":{"depth_ft":208,"depth_m":63.5}},{"type":"Feature","geometry":{"type":"Point","coordinates":[-121.96024,36.51167]},"properties":{"depth_ft":187,"depth_m":57.1}},{"type":"Feature","geometry":{"type":"Point","coordinates":[-121.95731,36.51167]},"properties":{"depth_ft":157,"depth_m":47.8}},{"type":"Feature","geometry":{"type":"Point","coordinates":[-121.95439,36.51167]},"properties":{"depth_ft":140,"depth_m":42.5}},{"type":"Feature","geometry":{"type":"Point","coordinates":[-121.95146,36.51167]},"properties":{"depth_ft":111,"depth_m":33.9}},{"type":"Feature","geometry":{"type":"Point","coordinates":[-121.94854,36.51167]},"properties":{"depth_ft":62,"depth_m":18.9}},{"type":"Feature","geometry":{"type":"Point","coordinates":[-121.94561,36.51167]},"properties":{"depth_ft":31,"depth_m":9.6}},{"type":"Feature","geometry":{"type":"Point","coordinates":[-121.94269,36.51167]},"properties":{"depth_ft":3,"depth_m":0.9}},{"type":"Feature","geometry":{"type":"Point","coordinates":[-121.96901,36.50932]},"properties":{"depth_ft":314,"depth_m":95.6}},{"type":"Feature","geometry":{"type":"Point","coordinates":[-121.96609,36.50932]},"properties":{"depth_ft":257,"depth_m":78.4}},{"type":"Feature","geometry":{"type":"Point","coordinates":[-121.96316,36.50932]},"properties":{"depth_ft":217,"depth_m":66.1}},{"type":"Feature","geometry":{"type":"Point","coordinates":[-121.96024,36.50932]},"properties":{"depth_ft":195,"depth_m":59.4}},{"type":"Feature","geometry":{"type":"Point","coordinates":[-121.95731,36.50932]},"properties":{"depth_ft":161,"depth_m":49.2}},{"type":"Feature","geometry":{"type":"Point","coordinates":[-121.95439,36.50932]},"properties":{"depth_ft":161,"depth_m":49.2}},{"type":"Feature","geometry":{"type":"Point","coordinates":[-121.95146,36.50932]},"properties":{"depth_ft":143,"depth_m":43.5}},{"type":"Feature","geometry":{"type":"Point","coordinates":[-121.94854,36.50932]},"properties":{"depth_ft":119,"depth_m":36.3}},{"type":"Feature","geometry":{"type":"Point","coordinates":[-121.94561,36.50932]},"properties":{"depth_ft":60,"depth_m":18.2}},{"type":"Feature","geometry":{"type":"Point","coordinates":[-121.94269,36.50932]},"properties":{"depth_ft":13,"depth_m":4.0}},{"type":"Feature","geometry":{"type":"Point","coordinates":[-121.96609,36.50697]},"properties":{"depth_ft":255,"depth_m":77.8}},{"type":"Feature","geometry":{"type":"Point","coordinates":[-121.96316,36.50697]},"properties":{"depth_ft":222,"depth_m":67.8}},{"type":"Feature","geometry":{"type":"Point","coordinates":[-121.96024,36.50697]},"properties":{"depth_ft":193,"depth_m":58.8}},{"type":"Feature","geometry":{"type":"Point","coordinates":[-121.95731,36.50697]},"properties":{"depth_ft":175,"depth_m":53.4}},{"type":"Feature","geometry":{"type":"Point","coordinates":[-121.95439,36.50697]},"properties":{"depth_ft":162,"depth_m":49.5}},{"type":"Feature","geometry":{"type":"Point","coordinates":[-121.95146,36.50697]},"properties":{"depth_ft":153,"depth_m":46.5}},{"type":"Feature","geometry":{"type":"Point","coordinates":[-121.94854,36.50697]},"properties":{"depth_ft":126,"depth_m":38.5}},{"type":"Feature","geometry":{"type":"Point","coordinates":[-121.94561,36.50697]},"properties":{"depth_ft":52,"depth_m":15.7}},{"type":"Feature","geometry":{"type":"Point","coordinates":[-121.94269,36.50697]},"properties":{"depth_ft":12,"depth_m":3.6}}]}