{"type":"FeatureCollection","features":[{"type":"Feature","geometry":{"type":"Polygon","coordinates":[[[-111.32491,26.09387],[-111.32494,26.09316],[-111.324,26.09108],[-111.32514,26.08979],[-111.3247,26.08619],[-111.32413,26.08619],[-111.32384,26.0849],[-111.32441,26.0849],[-111.32298,26.0813],[-111.32084,26.08002],[-111.32026,26.07847],[-111.31926,26.07796],[-111.31855,26.07693],[-111.31825,26.07076],[-111.3198,26.06638],[-111.32066,26.06612],[-111.32128,26.06449],[-111.32293,26.06264],[-111.32521,26.06251],[-111.32689,26.06013],[-111.32776,26.05967],[-111.32875,26.05742],[-111.32842,26.04892],[-111.32963,26.04773],[-111.33027,26.04593],[-111.33224,26.04389],[-111.33296,26.04373],[-111.33451,26.04226],[-111.33883,26.03889],[-111.34033,26.03719],[-111.34086,26.03715],[-111.34204,26.0358],[-111.34326,26.03392],[-111.34453,26.03139],[-111.34476,26.03027],[-111.34504,26.03003],[-111.3454,26.02925],[-111.34568,26.0279],[-111.34564,26.02651],[-111.34518,26.02463],[-111.34522,26.02381],[-111.34417,26.02119],[-111.34174,26.01718],[-111.34017,26.01525],[-111.33999,26.01513],[-111.33896,26.01573],[-111.33832,26.0149],[-111.33831,26.01436],[-111.33847,26.01431],[-111.33845,26.01485],[-111.33898,26.01556],[-111.34007,26.01494],[-111.33961,26.01425],[-111.33883,26.01468],[-111.33952,26.0142],[-111.33955,26.01378],[-111.33931,26.01317],[-111.33884,26.00924],[-111.33906,26.00755],[-111.33888,26.00713],[-111.33809,26.00639],[-111.33644,26.00541],[-111.33641,26.00518],[-111.33648,26.00496],[-111.33766,26.00498],[-111.33837,26.00455],[-111.33992,26.00453],[-111.34024,26.00431],[-111.33867,26.00409],[-111.33869,26.00372],[-111.3393,26.00344],[-111.33792,26.0033],[-111.33753,26.00298],[-111.33688,26.00304],[-111.33686,26.00278],[-111.33724,26.00296],[-111.33729,26.00294],[-111.33693,26.00274],[-111.33698,26.00261],[-111.33754,26.00273],[-111.33742,26.0026],[-111.33754,26.00255],[-111.3373,26.00261],[-111.33707,26.00243],[-111.33743,26.00254],[-111.33712,26.00235],[-111.33752,26.00231],[-111.33728,26.00217],[-111.33751,26.0022],[-111.33768,26.00202],[-111.33771,26.00244],[-111.33777,26.00208],[-111.33766,26.00193],[-111.33757,26.00211],[-111.33725,26.00216],[-111.33665,26.00263],[-111.33678,26.00276],[-111.33677,26.00322],[-111.33638,26.00316],[-111.33588,26.00336],[-111.33529,26.00304],[-111.33583,26.00264],[-111.33651,26.0024],[-111.33741,26.00159],[-111.33775,26.0002],[-111.33772,25.99959],[-111.33758,25.99958],[-111.33787,25.99954],[-111.33801,25.99927],[-111.33796,25.99809],[-111.33837,25.99544],[-111.33795,25.99003],[-111.33829,25.98782],[-111.33869,25.98661],[-111.33941,25.98527],[-111.341,25.98279],[-111.34352,25.98037],[-111.35024,25.97526],[-111.35252,25.97306],[-111.35365,25.97145],[-111.35435,25.97093],[-111.35507,25.97009],[-111.35655,25.96763],[-111.35711,25.9663],[-111.35853,25.9618],[-111.35808,25.95769],[-111.35636,25.95255],[-111.35436,25.94921],[-111.3542,25.94586],[-111.35559,25.94532],[-111.35363,25.94522],[-111.35348,25.94303],[-111.35291,25.94072],[-111.35219,25.94046],[-111.35219,25.9402],[-111.35305,25.93995],[-111.35262,25.93917],[-111.35304,25.93789],[-111.35475,25.93711],[-111.35474,25.93634],[-111.35531,25.93634],[-111.35573,25.93402],[-111.35486,25.92836],[-111.35429,25.92733],[-111.35307406843013,25.92591891891892],[-111.43321864941892,25.92591891891892],[-111.43321864941892,26.094081081081082],[-111.32496472472472,26.094081081081082],[-111.32491,26.09387]]]},"properties":{"name":"baja-north-pacific"}}]}