{"type":"FeatureCollection","features":[{"type":"Feature","geometry":{"type":"Polygon","coordinates":[[[-111.001,25.75],[-110.751,25.75],[-110.751,25.589],[-111.1,25.589],[-111.1,25.721],[-111.221,25.721],[-111.224,25.723],[-111.224,25.725],[-111.225,25.726],[-111.23,25.726],[-111.231,25.725],[-111.234,25.726],[-111.234,25.725],[-111.234,25.724],[-111.232,25.723],[-111.232,25.722],[-111.235,25.72],[-111.24,25.72],[-111.244,25.722],[-111.246,25.724],[-111.246,25.726],[-111.245,25.726],[-111.244,25.727],[-111.246,25.729],[-111.246,25.73],[-111.249,25.733],[-111.251,25.737],[-111.254,25.74],[-111.26,25.743],[-111.262,25.741],[-111.263,25.741],[-111.26,25.745],[-111.271,25.747],[-111.278,25.75],[-111.28,25.751],[-111.28,25.754],[-111.284,25.756],[-111.286,25.759],[-111.286,25.76],[-111.289,25.762],[-111.29,25.764],[-111.303,25.771],[-111.304,25.772],[-111.306,25.774],[-111.307,25.779],[-111.307,25.78],[-111.309,25.782],[-111.31,25.786],[-111.31,25.788],[-111.309,25.789],[-111.31,25.79],[-111.311,25.791],[-111.311,25.801],[-111.309,25.805],[-111.308,25.809],[-111.307,25.81],[-111.307,25.812],[-111.308,25.813],[-111.309,25.812],[-111.311,25.813],[-111.311,25.814],[-111.309,25.814],[-111.312,25.815],[-111.314,25.814],[-111.313,25.815],[-111.313,25.815],[-111.314,25.816],[-111.314,25.816],[-111.315,25.815],[-111.315,25.814],[-111.313,25.814],[-111.314,25.814],[-111.313,25.813],[-111.314,25.812],[-111.314,25.813],[-111.315,25.813],[-111.315,25.813],[-111.316,25.816],[-111.316,25.815],[-111.316,25.813],[-111.316,25.814],[-111.317,25.814],[-111.317,25.815],[-111.319,25.816],[-111.319,25.816],[-111.317,25.815],[-111.316,25.816],[-111.316,25.817],[-111.317,25.818],[-111.315,25.82],[-111.316,25.823],[-111.316,25.825],[-111.314,25.824],[-111.314,25.825],[-111.315,25.828],[-111.317,25.828],[-111.317,25.83],[-111.316,25.83],[-111.315,25.831],[-111.313,25.831],[-111.311,25.832],[-111.309,25.83],[-111.308,25.828],[-111.307,25.826],[-111.306,25.827],[-111.305,25.826],[-111.305,25.823],[-111.307,25.822],[-111.305,25.82],[-111.309,25.818],[-111.309,25.817],[-111.309,25.815],[-111.308,25.813],[-111.306,25.813],[-111.3,25.813],[-111.3,25.811],[-111.301,25.808],[-111.302,25.809],[-111.302,25.808],[-111.299,25.807],[-111.297,25.808],[-111.294,25.811],[-111.292,25.811],[-111.292,25.813],[-111.294,25.814],[-111.295,25.813],[-111.296,25.815],[-111.3,25.818],[-111.3,25.819],[-111.302,25.825],[-111.306,25.826],[-111.307,25.83],[-111.31,25.831],[-111.315,25.837],[-111.316,25.837],[-111.316,25.836],[-111.318,25.834],[-111.318,25.831],[-111.319,25.831],[-111.32,25.833],[-111.323,25.831],[-111.324,25.832],[-111.325,25.831],[-111.33,25.832],[-111.333,25.836],[-111.333,25.838],[-111.331,25.839],[-111.332,25.843],[-111.331,25.845],[-111.332,25.852],[-111.334,25.857],[-111.334,25.863],[-111.335,25.865],[-111.341,25.873],[-111.342,25.878],[-111.341,25.88],[-111.339,25.882],[-111.338,25.883],[-111.336,25.886],[-111.336,25.89],[-111.336,25.893],[-111.339,25.897],[-111.337,25.9],[-111.338,25.903],[-111.337,25.905],[-111.337,25.908],[-111.34,25.912],[-111.34,25.914],[-111.342,25.915],[-111.343,25.92],[-111.345,25.92],[-111.345,25.919],[-111.344,25.918],[-111.345,25.917],[-111.345,25.915],[-111.348,25.916],[-111.346,25.917],[-111.346,25.918],[-111.347,25.918],[-111.347,25.918],[-111.345,25.918],[-111.346,25.92],[-111.344,25.921],[-111.344,25.922],[-111.345,25.923],[-111.345,25.921],[-111.347,25.921],[-111.352,25.925],[-111.355,25.928],[-111.356,25.932],[-111.356,25.934],[-111.355,25.934],[-111.356,25.935],[-111.355,25.935],[-111.355,25.936],[-111.355,25.936],[-111.355,25.936],[-111.354,25.936],[-111.355,25.937],[-111.353,25.938],[-111.354,25.943],[-111.353,25.945],[-111.355,25.947],[-111.355,25.949],[-111.358,25.956],[-111.358,25.962],[-111.357,25.967],[-111.354,25.971],[-111.35,25.975],[-111.341,25.983],[-111.338,25.987],[-111.338,25.989],[-111.338,25.996],[-111.337,26.001],[-111.338,26.003],[-111.339,26.004],[-111.337,26.006],[-111.339,26.007],[-111.339,26.014],[-111.339,26.014],[-111.339,26.014],[-111.34,26.015],[-111.339,26.016],[-111.338,26.014],[-111.338,26.015],[-111.339,26.016],[-111.34,26.015],[-111.345,26.022],[-111.346,26.026],[-111.345,26.03],[-111.341,26.037],[-111.331,26.045],[-111.329,26.048],[-111.328,26.049],[-111.329,26.056],[-111.328,26.059],[-111.325,26.063],[-111.323,26.063],[-111.322,26.064],[-111.319,26.069],[-111.318,26.073],[-111.319,26.077],[-111.324,26.082],[-111.325,26.084],[-111.324,26.085],[-111.325,26.088],[-111.325,26.09],[-111.324,26.091],[-111.325,26.095],[-111.325,26.098],[-111.324,26.1],[-111.325,26.101],[-111.329,26.102],[-111.33,26.103],[-111.335,26.105],[-111.337,26.107],[-111.344,26.111],[-111.345,26.113],[-111.345,26.115],[-111.348,26.119],[-111.348,26.123],[-111.349,26.123],[-111.349,26.125],[-111.351,26.127],[-111.353,26.127],[-111.354,26.128],[-111.354,26.131],[-111.001,26.131],[-111.001,25.75]]]},"properties":{"id":"bah-a-de-loreto","name":"Bah\u00eda de Loreto","type":"Parque Nacional","shortName":"Bah\u00eda de Loreto","areaKm2":2065.8,"ccrCitation":null}}]}