{"type":"FeatureCollection","features":[{"type":"Feature","geometry":{"type":"Point","coordinates":[-111.28709,26.14015]},"properties":{"depth_ft":324,"depth_m":98.7}},{"type":"Feature","geometry":{"type":"Point","coordinates":[-111.28185,26.14015]},"properties":{"depth_ft":231,"depth_m":70.4}},{"type":"Feature","geometry":{"type":"Point","coordinates":[-111.27662,26.14015]},"properties":{"depth_ft":160,"depth_m":48.7}},{"type":"Feature","geometry":{"type":"Point","coordinates":[-111.27138,26.14015]},"properties":{"depth_ft":184,"depth_m":56.0}},{"type":"Feature","geometry":{"type":"Point","coordinates":[-111.26615,26.14015]},"properties":{"depth_ft":228,"depth_m":69.4}},{"type":"Feature","geometry":{"type":"Point","coordinates":[-111.26091,26.14015]},"properties":{"depth_ft":271,"depth_m":82.6}},{"type":"Feature","geometry":{"type":"Point","coordinates":[-111.25568,26.14015]},"properties":{"depth_ft":322,"depth_m":98.0}},{"type":"Feature","geometry":{"type":"Point","coordinates":[-111.3342,26.13545]},"properties":{"depth_ft":257,"depth_m":78.3}},{"type":"Feature","geometry":{"type":"Point","coordinates":[-111.32897,26.13545]},"properties":{"depth_ft":309,"depth_m":94.2}},{"type":"Feature","geometry":{"type":"Point","coordinates":[-111.29232,26.13545]},"properties":{"depth_ft":262,"depth_m":79.9}},{"type":"Feature","geometry":{"type":"Point","coordinates":[-111.28709,26.13545]},"properties":{"depth_ft":148,"depth_m":45.0}},{"type":"Feature","geometry":{"type":"Point","coordinates":[-111.28185,26.13545]},"properties":{"depth_ft":1,"depth_m":0.2}},{"type":"Feature","geometry":{"type":"Point","coordinates":[-111.27662,26.13545]},"properties":{"depth_ft":3,"depth_m":0.9}},{"type":"Feature","geometry":{"type":"Point","coordinates":[-111.26091,26.13545]},"properties":{"depth_ft":76,"depth_m":23.1}},{"type":"Feature","geometry":{"type":"Point","coordinates":[-111.25568,26.13545]},"properties":{"depth_ft":151,"depth_m":46.2}},{"type":"Feature","geometry":{"type":"Point","coordinates":[-111.25044,26.13545]},"properties":{"depth_ft":276,"depth_m":84.1}},{"type":"Feature","geometry":{"type":"Point","coordinates":[-111.3342,26.13075]},"properties":{"depth_ft":162,"depth_m":49.5}},{"type":"Feature","geometry":{"type":"Point","coordinates":[-111.32897,26.13075]},"properties":{"depth_ft":217,"depth_m":66.2}},{"type":"Feature","geometry":{"type":"Point","coordinates":[-111.32373,26.13075]},"properties":{"depth_ft":252,"depth_m":76.9}},{"type":"Feature","geometry":{"type":"Point","coordinates":[-111.3185,26.13075]},"properties":{"depth_ft":276,"depth_m":84.2}},{"type":"Feature","geometry":{"type":"Point","coordinates":[-111.31326,26.13075]},"properties":{"depth_ft":290,"depth_m":88.4}},{"type":"Feature","geometry":{"type":"Point","coordinates":[-111.30803,26.13075]},"properties":{"depth_ft":297,"depth_m":90.4}},{"type":"Feature","geometry":{"type":"Point","coordinates":[-111.30279,26.13075]},"properties":{"depth_ft":300,"depth_m":91.4}},{"type":"Feature","geometry":{"type":"Point","coordinates":[-111.29756,26.13075]},"properties":{"depth_ft":282,"depth_m":85.8}},{"type":"Feature","geometry":{"type":"Point","coordinates":[-111.29232,26.13075]},"properties":{"depth_ft":214,"depth_m":65.3}},{"type":"Feature","geometry":{"type":"Point","coordinates":[-111.28709,26.13075]},"properties":{"depth_ft":85,"depth_m":26.0}},{"type":"Feature","geometry":{"type":"Point","coordinates":[-111.28185,26.13075]},"properties":{"depth_ft":6,"depth_m":1.8}},{"type":"Feature","geometry":{"type":"Point","coordinates":[-111.26091,26.13075]},"properties":{"depth_ft":7,"depth_m":2.1}},{"type":"Feature","geometry":{"type":"Point","coordinates":[-111.25568,26.13075]},"properties":{"depth_ft":86,"depth_m":26.1}},{"type":"Feature","geometry":{"type":"Point","coordinates":[-111.25044,26.13075]},"properties":{"depth_ft":198,"depth_m":60.5}},{"type":"Feature","geometry":{"type":"Point","coordinates":[-111.24521,26.13075]},"properties":{"depth_ft":314,"depth_m":95.6}},{"type":"Feature","geometry":{"type":"Point","coordinates":[-111.3342,26.12605]},"properties":{"depth_ft":91,"depth_m":27.6}},{"type":"Feature","geometry":{"type":"Point","coordinates":[-111.32897,26.12605]},"properties":{"depth_ft":149,"depth_m":45.3}},{"type":"Feature","geometry":{"type":"Point","coordinates":[-111.32373,26.12605]},"properties":{"depth_ft":182,"depth_m":55.4}},{"type":"Feature","geometry":{"type":"Point","coordinates":[-111.3185,26.12605]},"properties":{"depth_ft":205,"depth_m":62.4}},{"type":"Feature","geometry":{"type":"Point","coordinates":[-111.31326,26.12605]},"properties":{"depth_ft":221,"depth_m":67.4}},{"type":"Feature","geometry":{"type":"Point","coordinates":[-111.30803,26.12605]},"properties":{"depth_ft":231,"depth_m":70.5}},{"type":"Feature","geometry":{"type":"Point","coordinates":[-111.30279,26.12605]},"properties":{"depth_ft":241,"depth_m":73.3}},{"type":"Feature","geometry":{"type":"Point","coordinates":[-111.29756,26.12605]},"properties":{"depth_ft":249,"depth_m":76.0}},{"type":"Feature","geometry":{"type":"Point","coordinates":[-111.29232,26.12605]},"properties":{"depth_ft":210,"depth_m":64.1}},{"type":"Feature","geometry":{"type":"Point","coordinates":[-111.28709,26.12605]},"properties":{"depth_ft":74,"depth_m":22.6}},{"type":"Feature","geometry":{"type":"Point","coordinates":[-111.25568,26.12605]},"properties":{"depth_ft":57,"depth_m":17.3}},{"type":"Feature","geometry":{"type":"Point","coordinates":[-111.25044,26.12605]},"properties":{"depth_ft":160,"depth_m":48.8}},{"type":"Feature","geometry":{"type":"Point","coordinates":[-111.24521,26.12605]},"properties":{"depth_ft":261,"depth_m":79.4}},{"type":"Feature","geometry":{"type":"Point","coordinates":[-111.3342,26.12135]},"properties":{"depth_ft":60,"depth_m":18.2}},{"type":"Feature","geometry":{"type":"Point","coordinates":[-111.32897,26.12135]},"properties":{"depth_ft":107,"depth_m":32.6}},{"type":"Feature","geometry":{"type":"Point","coordinates":[-111.32373,26.12135]},"properties":{"depth_ft":130,"depth_m":39.7}},{"type":"Feature","geometry":{"type":"Point","coordinates":[-111.3185,26.12135]},"properties":{"depth_ft":149,"depth_m":45.3}},{"type":"Feature","geometry":{"type":"Point","coordinates":[-111.31326,26.12135]},"properties":{"depth_ft":167,"depth_m":50.8}},{"type":"Feature","geometry":{"type":"Point","coordinates":[-111.30803,26.12135]},"properties":{"depth_ft":175,"depth_m":53.3}},{"type":"Feature","geometry":{"type":"Point","coordinates":[-111.30279,26.12135]},"properties":{"depth_ft":183,"depth_m":55.8}},{"type":"Feature","geometry":{"type":"Point","coordinates":[-111.29756,26.12135]},"properties":{"depth_ft":232,"depth_m":70.8}},{"type":"Feature","geometry":{"type":"Point","coordinates":[-111.29232,26.12135]},"properties":{"depth_ft":214,"depth_m":65.1}},{"type":"Feature","geometry":{"type":"Point","coordinates":[-111.26091,26.12135]},"properties":{"depth_ft":2,"depth_m":0.7}},{"type":"Feature","geometry":{"type":"Point","coordinates":[-111.25568,26.12135]},"properties":{"depth_ft":68,"depth_m":20.6}},{"type":"Feature","geometry":{"type":"Point","coordinates":[-111.25044,26.12135]},"properties":{"depth_ft":155,"depth_m":47.3}},{"type":"Feature","geometry":{"type":"Point","coordinates":[-111.24521,26.12135]},"properties":{"depth_ft":238,"depth_m":72.4}},{"type":"Feature","geometry":{"type":"Point","coordinates":[-111.23997,26.12135]},"properties":{"depth_ft":327,"depth_m":99.7}},{"type":"Feature","geometry":{"type":"Point","coordinates":[-111.3342,26.11665]},"properties":{"depth_ft":10,"depth_m":3.0}},{"type":"Feature","geometry":{"type":"Point","coordinates":[-111.32897,26.11665]},"properties":{"depth_ft":63,"depth_m":19.1}},{"type":"Feature","geometry":{"type":"Point","coordinates":[-111.32373,26.11665]},"properties":{"depth_ft":87,"depth_m":26.5}},{"type":"Feature","geometry":{"type":"Point","coordinates":[-111.3185,26.11665]},"properties":{"depth_ft":103,"depth_m":31.5}},{"type":"Feature","geometry":{"type":"Point","coordinates":[-111.31326,26.11665]},"properties":{"depth_ft":116,"depth_m":35.3}},{"type":"Feature","geometry":{"type":"Point","coordinates":[-111.30803,26.11665]},"properties":{"depth_ft":124,"depth_m":37.7}},{"type":"Feature","geometry":{"type":"Point","coordinates":[-111.30279,26.11665]},"properties":{"depth_ft":134,"depth_m":40.8}},{"type":"Feature","geometry":{"type":"Point","coordinates":[-111.29756,26.11665]},"properties":{"depth_ft":197,"depth_m":60.1}},{"type":"Feature","geometry":{"type":"Point","coordinates":[-111.29232,26.11665]},"properties":{"depth_ft":194,"depth_m":59.1}},{"type":"Feature","geometry":{"type":"Point","coordinates":[-111.28709,26.11665]},"properties":{"depth_ft":49,"depth_m":15.1}},{"type":"Feature","geometry":{"type":"Point","coordinates":[-111.26091,26.11665]},"properties":{"depth_ft":14,"depth_m":4.3}},{"type":"Feature","geometry":{"type":"Point","coordinates":[-111.25568,26.11665]},"properties":{"depth_ft":93,"depth_m":28.2}},{"type":"Feature","geometry":{"type":"Point","coordinates":[-111.25044,26.11665]},"properties":{"depth_ft":170,"depth_m":51.9}},{"type":"Feature","geometry":{"type":"Point","coordinates":[-111.24521,26.11665]},"properties":{"depth_ft":235,"depth_m":71.8}},{"type":"Feature","geometry":{"type":"Point","coordinates":[-111.23997,26.11665]},"properties":{"depth_ft":303,"depth_m":92.5}},{"type":"Feature","geometry":{"type":"Point","coordinates":[-111.32897,26.11195]},"properties":{"depth_ft":8,"depth_m":2.4}},{"type":"Feature","geometry":{"type":"Point","coordinates":[-111.32373,26.11195]},"properties":{"depth_ft":50,"depth_m":15.3}},{"type":"Feature","geometry":{"type":"Point","coordinates":[-111.3185,26.11195]},"properties":{"depth_ft":66,"depth_m":20.2}},{"type":"Feature","geometry":{"type":"Point","coordinates":[-111.31326,26.11195]},"properties":{"depth_ft":69,"depth_m":20.9}},{"type":"Feature","geometry":{"type":"Point","coordinates":[-111.30803,26.11195]},"properties":{"depth_ft":76,"depth_m":23.2}},{"type":"Feature","geometry":{"type":"Point","coordinates":[-111.30279,26.11195]},"properties":{"depth_ft":98,"depth_m":29.9}},{"type":"Feature","geometry":{"type":"Point","coordinates":[-111.29756,26.11195]},"properties":{"depth_ft":137,"depth_m":41.6}},{"type":"Feature","geometry":{"type":"Point","coordinates":[-111.29232,26.11195]},"properties":{"depth_ft":139,"depth_m":42.3}},{"type":"Feature","geometry":{"type":"Point","coordinates":[-111.28709,26.11195]},"properties":{"depth_ft":35,"depth_m":10.5}},{"type":"Feature","geometry":{"type":"Point","coordinates":[-111.28185,26.11195]},"properties":{"depth_ft":6,"depth_m":1.8}},{"type":"Feature","geometry":{"type":"Point","coordinates":[-111.26091,26.11195]},"properties":{"depth_ft":60,"depth_m":18.3}},{"type":"Feature","geometry":{"type":"Point","coordinates":[-111.25568,26.11195]},"properties":{"depth_ft":125,"depth_m":38.1}},{"type":"Feature","geometry":{"type":"Point","coordinates":[-111.25044,26.11195]},"properties":{"depth_ft":187,"depth_m":56.9}},{"type":"Feature","geometry":{"type":"Point","coordinates":[-111.24521,26.11195]},"properties":{"depth_ft":239,"depth_m":72.7}},{"type":"Feature","geometry":{"type":"Point","coordinates":[-111.23997,26.11195]},"properties":{"depth_ft":296,"depth_m":90.1}},{"type":"Feature","geometry":{"type":"Point","coordinates":[-111.32373,26.10725]},"properties":{"depth_ft":16,"depth_m":4.9}},{"type":"Feature","geometry":{"type":"Point","coordinates":[-111.3185,26.10725]},"properties":{"depth_ft":38,"depth_m":11.5}},{"type":"Feature","geometry":{"type":"Point","coordinates":[-111.31326,26.10725]},"properties":{"depth_ft":40,"depth_m":12.2}},{"type":"Feature","geometry":{"type":"Point","coordinates":[-111.30803,26.10725]},"properties":{"depth_ft":22,"depth_m":6.6}},{"type":"Feature","geometry":{"type":"Point","coordinates":[-111.30279,26.10725]},"properties":{"depth_ft":52,"depth_m":15.7}},{"type":"Feature","geometry":{"type":"Point","coordinates":[-111.29756,26.10725]},"properties":{"depth_ft":86,"depth_m":26.2}},{"type":"Feature","geometry":{"type":"Point","coordinates":[-111.29232,26.10725]},"properties":{"depth_ft":63,"depth_m":19.2}},{"type":"Feature","geometry":{"type":"Point","coordinates":[-111.26091,26.10725]},"properties":{"depth_ft":115,"depth_m":35.2}},{"type":"Feature","geometry":{"type":"Point","coordinates":[-111.25568,26.10725]},"properties":{"depth_ft":168,"depth_m":51.2}},{"type":"Feature","geometry":{"type":"Point","coordinates":[-111.25044,26.10725]},"properties":{"depth_ft":207,"depth_m":63.0}},{"type":"Feature","geometry":{"type":"Point","coordinates":[-111.24521,26.10725]},"properties":{"depth_ft":246,"depth_m":75.1}},{"type":"Feature","geometry":{"type":"Point","coordinates":[-111.23997,26.10725]},"properties":{"depth_ft":300,"depth_m":91.4}},{"type":"Feature","geometry":{"type":"Point","coordinates":[-111.32373,26.10255]},"properties":{"depth_ft":1,"depth_m":0.3}},{"type":"Feature","geometry":{"type":"Point","coordinates":[-111.3185,26.10255]},"properties":{"depth_ft":22,"depth_m":6.6}},{"type":"Feature","geometry":{"type":"Point","coordinates":[-111.31326,26.10255]},"properties":{"depth_ft":25,"depth_m":7.5}},{"type":"Feature","geometry":{"type":"Point","coordinates":[-111.30803,26.10255]},"properties":{"depth_ft":21,"depth_m":6.5}},{"type":"Feature","geometry":{"type":"Point","coordinates":[-111.30279,26.10255]},"properties":{"depth_ft":26,"depth_m":7.8}},{"type":"Feature","geometry":{"type":"Point","coordinates":[-111.29756,26.10255]},"properties":{"depth_ft":57,"depth_m":17.5}},{"type":"Feature","geometry":{"type":"Point","coordinates":[-111.29232,26.10255]},"properties":{"depth_ft":42,"depth_m":12.8}},{"type":"Feature","geometry":{"type":"Point","coordinates":[-111.28185,26.10255]},"properties":{"depth_ft":7,"depth_m":2.0}},{"type":"Feature","geometry":{"type":"Point","coordinates":[-111.27662,26.10255]},"properties":{"depth_ft":49,"depth_m":14.8}},{"type":"Feature","geometry":{"type":"Point","coordinates":[-111.27138,26.10255]},"properties":{"depth_ft":79,"depth_m":24.1}},{"type":"Feature","geometry":{"type":"Point","coordinates":[-111.26615,26.10255]},"properties":{"depth_ft":128,"depth_m":39.1}},{"type":"Feature","geometry":{"type":"Point","coordinates":[-111.26091,26.10255]},"properties":{"depth_ft":207,"depth_m":63.0}},{"type":"Feature","geometry":{"type":"Point","coordinates":[-111.25568,26.10255]},"properties":{"depth_ft":220,"depth_m":67.2}},{"type":"Feature","geometry":{"type":"Point","coordinates":[-111.25044,26.10255]},"properties":{"depth_ft":234,"depth_m":71.4}},{"type":"Feature","geometry":{"type":"Point","coordinates":[-111.24521,26.10255]},"properties":{"depth_ft":259,"depth_m":79.0}},{"type":"Feature","geometry":{"type":"Point","coordinates":[-111.23997,26.10255]},"properties":{"depth_ft":307,"depth_m":93.6}},{"type":"Feature","geometry":{"type":"Point","coordinates":[-111.32373,26.09785]},"properties":{"depth_ft":1,"depth_m":0.4}},{"type":"Feature","geometry":{"type":"Point","coordinates":[-111.3185,26.09785]},"properties":{"depth_ft":16,"depth_m":5.0}},{"type":"Feature","geometry":{"type":"Point","coordinates":[-111.31326,26.09785]},"properties":{"depth_ft":11,"depth_m":3.4}},{"type":"Feature","geometry":{"type":"Point","coordinates":[-111.30803,26.09785]},"properties":{"depth_ft":14,"depth_m":4.3}},{"type":"Feature","geometry":{"type":"Point","coordinates":[-111.30279,26.09785]},"properties":{"depth_ft":34,"depth_m":10.2}},{"type":"Feature","geometry":{"type":"Point","coordinates":[-111.29756,26.09785]},"properties":{"depth_ft":61,"depth_m":18.7}},{"type":"Feature","geometry":{"type":"Point","coordinates":[-111.29232,26.09785]},"properties":{"depth_ft":45,"depth_m":13.6}},{"type":"Feature","geometry":{"type":"Point","coordinates":[-111.28709,26.09785]},"properties":{"depth_ft":50,"depth_m":15.2}},{"type":"Feature","geometry":{"type":"Point","coordinates":[-111.28185,26.09785]},"properties":{"depth_ft":104,"depth_m":31.7}},{"type":"Feature","geometry":{"type":"Point","coordinates":[-111.27662,26.09785]},"properties":{"depth_ft":115,"depth_m":35.1}},{"type":"Feature","geometry":{"type":"Point","coordinates":[-111.27138,26.09785]},"properties":{"depth_ft":157,"depth_m":47.9}},{"type":"Feature","geometry":{"type":"Point","coordinates":[-111.26615,26.09785]},"properties":{"depth_ft":219,"depth_m":66.9}},{"type":"Feature","geometry":{"type":"Point","coordinates":[-111.26091,26.09785]},"properties":{"depth_ft":299,"depth_m":91.0}},{"type":"Feature","geometry":{"type":"Point","coordinates":[-111.25568,26.09785]},"properties":{"depth_ft":272,"depth_m":82.8}},{"type":"Feature","geometry":{"type":"Point","coordinates":[-111.25044,26.09785]},"properties":{"depth_ft":271,"depth_m":82.5}},{"type":"Feature","geometry":{"type":"Point","coordinates":[-111.24521,26.09785]},"properties":{"depth_ft":273,"depth_m":83.1}},{"type":"Feature","geometry":{"type":"Point","coordinates":[-111.23997,26.09785]},"properties":{"depth_ft":321,"depth_m":97.7}},{"type":"Feature","geometry":{"type":"Point","coordinates":[-111.32373,26.09315]},"properties":{"depth_ft":1,"depth_m":0.3}},{"type":"Feature","geometry":{"type":"Point","coordinates":[-111.3185,26.09315]},"properties":{"depth_ft":10,"depth_m":3.0}},{"type":"Feature","geometry":{"type":"Point","coordinates":[-111.31326,26.09315]},"properties":{"depth_ft":14,"depth_m":4.3}},{"type":"Feature","geometry":{"type":"Point","coordinates":[-111.30803,26.09315]},"properties":{"depth_ft":29,"depth_m":8.8}},{"type":"Feature","geometry":{"type":"Point","coordinates":[-111.30279,26.09315]},"properties":{"depth_ft":63,"depth_m":19.1}},{"type":"Feature","geometry":{"type":"Point","coordinates":[-111.29756,26.09315]},"properties":{"depth_ft":101,"depth_m":30.8}},{"type":"Feature","geometry":{"type":"Point","coordinates":[-111.29232,26.09315]},"properties":{"depth_ft":129,"depth_m":39.3}},{"type":"Feature","geometry":{"type":"Point","coordinates":[-111.28709,26.09315]},"properties":{"depth_ft":155,"depth_m":47.1}},{"type":"Feature","geometry":{"type":"Point","coordinates":[-111.28185,26.09315]},"properties":{"depth_ft":179,"depth_m":54.4}},{"type":"Feature","geometry":{"type":"Point","coordinates":[-111.27662,26.09315]},"properties":{"depth_ft":192,"depth_m":58.5}},{"type":"Feature","geometry":{"type":"Point","coordinates":[-111.27138,26.09315]},"properties":{"depth_ft":221,"depth_m":67.3}},{"type":"Feature","geometry":{"type":"Point","coordinates":[-111.26615,26.09315]},"properties":{"depth_ft":253,"depth_m":77.1}},{"type":"Feature","geometry":{"type":"Point","coordinates":[-111.26091,26.09315]},"properties":{"depth_ft":283,"depth_m":86.3}},{"type":"Feature","geometry":{"type":"Point","coordinates":[-111.25568,26.09315]},"properties":{"depth_ft":282,"depth_m":85.8}},{"type":"Feature","geometry":{"type":"Point","coordinates":[-111.24521,26.09315]},"properties":{"depth_ft":326,"depth_m":99.4}},{"type":"Feature","geometry":{"type":"Point","coordinates":[-111.3185,26.08845]},"properties":{"depth_ft":8,"depth_m":2.5}},{"type":"Feature","geometry":{"type":"Point","coordinates":[-111.31326,26.08845]},"properties":{"depth_ft":23,"depth_m":7.0}},{"type":"Feature","geometry":{"type":"Point","coordinates":[-111.30803,26.08845]},"properties":{"depth_ft":53,"depth_m":16.2}},{"type":"Feature","geometry":{"type":"Point","coordinates":[-111.30279,26.08845]},"properties":{"depth_ft":105,"depth_m":32.0}},{"type":"Feature","geometry":{"type":"Point","coordinates":[-111.29756,26.08845]},"properties":{"depth_ft":163,"depth_m":49.6}},{"type":"Feature","geometry":{"type":"Point","coordinates":[-111.29232,26.08845]},"properties":{"depth_ft":219,"depth_m":66.8}},{"type":"Feature","geometry":{"type":"Point","coordinates":[-111.28709,26.08845]},"properties":{"depth_ft":263,"depth_m":80.3}},{"type":"Feature","geometry":{"type":"Point","coordinates":[-111.28185,26.08845]},"properties":{"depth_ft":300,"depth_m":91.5}},{"type":"Feature","geometry":{"type":"Point","coordinates":[-111.27662,26.08845]},"properties":{"depth_ft":310,"depth_m":94.5}},{"type":"Feature","geometry":{"type":"Point","coordinates":[-111.27138,26.08845]},"properties":{"depth_ft":307,"depth_m":93.4}},{"type":"Feature","geometry":{"type":"Point","coordinates":[-111.26615,26.08845]},"properties":{"depth_ft":294,"depth_m":89.5}},{"type":"Feature","geometry":{"type":"Point","coordinates":[-111.26091,26.08845]},"properties":{"depth_ft":303,"depth_m":92.5}},{"type":"Feature","geometry":{"type":"Point","coordinates":[-111.32373,26.08375]},"properties":{"depth_ft":1,"depth_m":0.2}},{"type":"Feature","geometry":{"type":"Point","coordinates":[-111.3185,26.08375]},"properties":{"depth_ft":1,"depth_m":0.2}},{"type":"Feature","geometry":{"type":"Point","coordinates":[-111.31326,26.08375]},"properties":{"depth_ft":35,"depth_m":10.7}},{"type":"Feature","geometry":{"type":"Point","coordinates":[-111.30803,26.08375]},"properties":{"depth_ft":85,"depth_m":26.0}},{"type":"Feature","geometry":{"type":"Point","coordinates":[-111.30279,26.08375]},"properties":{"depth_ft":157,"depth_m":48.0}},{"type":"Feature","geometry":{"type":"Point","coordinates":[-111.29756,26.08375]},"properties":{"depth_ft":262,"depth_m":80.0}},{"type":"Feature","geometry":{"type":"Point","coordinates":[-111.31326,26.07905]},"properties":{"depth_ft":36,"depth_m":11.1}},{"type":"Feature","geometry":{"type":"Point","coordinates":[-111.30803,26.07905]},"properties":{"depth_ft":98,"depth_m":30.0}},{"type":"Feature","geometry":{"type":"Point","coordinates":[-111.30279,26.07905]},"properties":{"depth_ft":195,"depth_m":59.4}},{"type":"Feature","geometry":{"type":"Point","coordinates":[-111.31326,26.07435]},"properties":{"depth_ft":27,"depth_m":8.1}},{"type":"Feature","geometry":{"type":"Point","coordinates":[-111.30803,26.07435]},"properties":{"depth_ft":89,"depth_m":27.1}},{"type":"Feature","geometry":{"type":"Point","coordinates":[-111.30279,26.07435]},"properties":{"depth_ft":193,"depth_m":58.9}},{"type":"Feature","geometry":{"type":"Point","coordinates":[-111.31326,26.06965]},"properties":{"depth_ft":20,"depth_m":6.0}},{"type":"Feature","geometry":{"type":"Point","coordinates":[-111.30803,26.06965]},"properties":{"depth_ft":97,"depth_m":29.5}},{"type":"Feature","geometry":{"type":"Point","coordinates":[-111.30279,26.06965]},"properties":{"depth_ft":244,"depth_m":74.3}},{"type":"Feature","geometry":{"type":"Point","coordinates":[-111.31326,26.06495]},"properties":{"depth_ft":19,"depth_m":5.8}},{"type":"Feature","geometry":{"type":"Point","coordinates":[-111.30803,26.06495]},"properties":{"depth_ft":105,"depth_m":32.1}},{"type":"Feature","geometry":{"type":"Point","coordinates":[-111.30279,26.06495]},"properties":{"depth_ft":292,"depth_m":88.9}}]}