{"type":"FeatureCollection","features":[{"type":"Feature","geometry":{"type":"Polygon","coordinates":[[[-118.32707,33.71939],[-118.32903,33.71998],[-118.32956,33.7203],[-118.33075,33.72054],[-118.3316,33.72119],[-118.33349,33.72211],[-118.33561,33.72259],[-118.33719,33.72364],[-118.33797,33.72372],[-118.33856,33.72399],[-118.33999,33.72407],[-118.34158,33.72544],[-118.34278,33.72615],[-118.34467,33.72625],[-118.34847,33.72715],[-118.34999,33.72708],[-118.35117,33.72716],[-118.35162,33.72734],[-118.35241,33.72794],[-118.35386,33.72986],[-118.35471,33.73049],[-118.35556,33.73196],[-118.35725,33.73407],[-118.35795,33.73438],[-118.36125,33.73687],[-118.3625,33.73757],[-118.36497,33.7382],[-118.36776,33.7382],[-118.36828,33.73786],[-118.36865,33.73653],[-118.36953,33.73639],[-118.36973,33.7365],[-118.36976,33.73753],[-118.37027,33.73809],[-118.37089,33.73835],[-118.37253,33.73845],[-118.3736,33.73733],[-118.37367,33.73697],[-118.37387,33.73693],[-118.37506,33.73726],[-118.37526,33.73746],[-118.37528,33.73786],[-118.37499,33.73863],[-118.37507,33.73926],[-118.37609,33.7402],[-118.37985,33.74188],[-118.38188,33.74226],[-118.38334,33.74197],[-118.38526,33.74188],[-118.38577,33.74139],[-118.38655,33.7411],[-118.38712,33.74057],[-118.38917,33.73954],[-118.38967,33.73944],[-118.39096,33.7397],[-118.39228,33.73946],[-118.39264,33.73919],[-118.39307,33.73831],[-118.39318,33.73869],[-118.39362,33.73881],[-118.39504,33.73833],[-118.39587,33.73767],[-118.39665,33.73665],[-118.39785,33.73623],[-118.39876,33.7363],[-118.39944,33.73657],[-118.40028,33.73731],[-118.40059,33.73834],[-118.40116,33.73875],[-118.40189,33.73889],[-118.40238,33.73872],[-118.40266,33.73892],[-118.40251,33.73965],[-118.40261,33.74031],[-118.40321,33.7408],[-118.40468,33.74137],[-118.40588,33.74158],[-118.40658,33.74142],[-118.4065,33.74131],[-118.40669,33.74111],[-118.40672,33.74136],[-118.40726,33.74141],[-118.41008,33.74105],[-118.41155,33.74114],[-118.41087,33.74309],[-118.41125,33.7437],[-118.41232,33.74451],[-118.41226,33.74495],[-118.41258,33.74519],[-118.41314,33.74613],[-118.41312,33.74636],[-118.41336,33.74642],[-118.41372,33.74691],[-118.41308,33.74875],[-118.413,33.74943],[-118.41321,33.75007],[-118.41392,33.751],[-118.41472,33.75157],[-118.41363,33.75258],[-118.4136,33.7533],[-118.41393,33.75373],[-118.41511,33.7542],[-118.41592,33.75487],[-118.4161,33.75546],[-118.41584,33.75607],[-118.41728,33.75775],[-118.41752,33.75953],[-118.41771,33.75982],[-118.41863,33.76022],[-118.41872,33.76072],[-118.41797,33.7615],[-118.41775,33.76189],[-118.4178,33.7622],[-118.41888,33.76272],[-118.42011,33.76263],[-118.42158,33.76326],[-118.42247,33.76343],[-118.42249,33.76365],[-118.42205,33.7644],[-118.42186,33.76566],[-118.42268,33.76629],[-118.42395,33.76613],[-118.42443,33.76685],[-118.42445,33.76719],[-118.42424,33.76742],[-118.42296,33.76775],[-118.42177,33.76863],[-118.42188,33.76986],[-118.42238,33.77128],[-118.42323,33.77219],[-118.42382,33.77241],[-118.42478,33.77258],[-118.4265,33.77225],[-118.42684,33.77233],[-118.42752,33.7731],[-118.42832,33.77356],[-118.42844,33.77404],[-118.42827,33.77448],[-118.42776,33.77479],[-118.42679,33.77587],[-118.42457,33.77758],[-118.42433,33.7781],[-118.42417,33.78008],[-118.42363,33.78127],[-118.42268,33.78275],[-118.42176,33.78377],[-118.41948,33.78536],[-118.41867,33.78645],[-118.41589,33.78798],[-118.41513,33.7881],[-118.41455,33.78855],[-118.41431,33.78845],[-118.41335,33.7888],[-118.41046,33.79003],[-118.40929,33.7909],[-118.40754,33.79113],[-118.40731,33.79127],[-118.40702,33.79183],[-118.4069,33.7927],[-118.40707,33.79394],[-118.40787,33.79456],[-118.40763,33.79524],[-118.40761,33.79615],[-118.40789,33.79669],[-118.40881,33.79664],[-118.40875,33.79684],[-118.40844,33.79695],[-118.40827,33.79722],[-118.40806,33.79719],[-118.40808,33.79731],[-118.40759,33.79739],[-118.40645,33.79886],[-118.40545,33.79976],[-118.40444,33.80036],[-118.40026,33.80208],[-118.39824,33.8022],[-118.39607,33.80338],[-118.39493,33.80357],[-118.39441,33.80417],[-118.39369807884808,33.806063063063064],[-118.32616354177502,33.806063063063064],[-118.32616354177502,33.71897163466539],[-118.32707,33.71939]]]},"properties":{"name":"ca-mainland"}}]}