{"type":"FeatureCollection","features":[{"type":"Feature","geometry":{"type":"Polygon","coordinates":[[[-118.397,33.737],[-118.397,33.737],[-118.396,33.737],[-118.396,33.737],[-118.396,33.737],[-118.396,33.737],[-118.396,33.737],[-118.396,33.737],[-118.396,33.738],[-118.396,33.738],[-118.396,33.738],[-118.396,33.738],[-118.395,33.738],[-118.395,33.738],[-118.395,33.738],[-118.395,33.738],[-118.395,33.738],[-118.394,33.738],[-118.394,33.739],[-118.394,33.739],[-118.394,33.739],[-118.394,33.739],[-118.394,33.739],[-118.393,33.739],[-118.393,33.739],[-118.393,33.739],[-118.393,33.739],[-118.393,33.739],[-118.393,33.739],[-118.393,33.739],[-118.393,33.739],[-118.393,33.739],[-118.393,33.738],[-118.393,33.738],[-118.393,33.738],[-118.393,33.738],[-118.393,33.738],[-118.393,33.739],[-118.393,33.739],[-118.393,33.739],[-118.393,33.739],[-118.393,33.739],[-118.393,33.739],[-118.393,33.739],[-118.393,33.739],[-118.393,33.739],[-118.393,33.739],[-118.392,33.739],[-118.392,33.74],[-118.392,33.74],[-118.392,33.74],[-118.391,33.74],[-118.391,33.74],[-118.391,33.74],[-118.391,33.74],[-118.391,33.74],[-118.39,33.74],[-118.39,33.74],[-118.39,33.74],[-118.39,33.74],[-118.39,33.74],[-118.389,33.74],[-118.389,33.74],[-118.389,33.74],[-118.389,33.74],[-118.388,33.74],[-118.388,33.74],[-118.388,33.74],[-118.388,33.74],[-118.388,33.74],[-118.388,33.741],[-118.387,33.741],[-118.387,33.741],[-118.387,33.741],[-118.387,33.741],[-118.387,33.741],[-118.387,33.741],[-118.387,33.741],[-118.386,33.741],[-118.386,33.741],[-118.386,33.741],[-118.386,33.741],[-118.386,33.741],[-118.386,33.742],[-118.386,33.742],[-118.385,33.742],[-118.385,33.742],[-118.385,33.742],[-118.385,33.742],[-118.385,33.742],[-118.385,33.742],[-118.384,33.742],[-118.384,33.742],[-118.384,33.742],[-118.384,33.742],[-118.384,33.742],[-118.383,33.742],[-118.383,33.742],[-118.383,33.742],[-118.383,33.742],[-118.383,33.742],[-118.382,33.742],[-118.382,33.742],[-118.382,33.742],[-118.382,33.742],[-118.382,33.742],[-118.381,33.742],[-118.381,33.742],[-118.381,33.742],[-118.38,33.742],[-118.38,33.742],[-118.38,33.742],[-118.38,33.742],[-118.379,33.742],[-118.379,33.742],[-118.379,33.742],[-118.379,33.742],[-118.379,33.742],[-118.379,33.741],[-118.378,33.741],[-118.378,33.741],[-118.378,33.741],[-118.378,33.741],[-118.378,33.741],[-118.378,33.741],[-118.377,33.741],[-118.377,33.741],[-118.377,33.741],[-118.377,33.741],[-118.377,33.74],[-118.376,33.74],[-118.376,33.74],[-118.376,33.74],[-118.376,33.74],[-118.376,33.74],[-118.375,33.74],[-118.375,33.74],[-118.375,33.739],[-118.375,33.739],[-118.375,33.739],[-118.375,33.739],[-118.375,33.739],[-118.375,33.739],[-118.375,33.739],[-118.375,33.739],[-118.375,33.738],[-118.375,33.738],[-118.375,33.738],[-118.375,33.738],[-118.375,33.738],[-118.375,33.738],[-118.375,33.738],[-118.375,33.738],[-118.375,33.738],[-118.375,33.738],[-118.375,33.738],[-118.375,33.738],[-118.375,33.738],[-118.375,33.738],[-118.375,33.738],[-118.375,33.738],[-118.375,33.737],[-118.375,33.737],[-118.375,33.737],[-118.375,33.737],[-118.375,33.736],[-118.375,33.681],[-118.376,33.681],[-118.377,33.681],[-118.377,33.682],[-118.378,33.682],[-118.379,33.683],[-118.38,33.683],[-118.381,33.683],[-118.381,33.683],[-118.382,33.684],[-118.382,33.684],[-118.383,33.684],[-118.384,33.685],[-118.385,33.685],[-118.386,33.686],[-118.386,33.686],[-118.387,33.687],[-118.388,33.687],[-118.389,33.686],[-118.39,33.686],[-118.391,33.686],[-118.392,33.686],[-118.392,33.686],[-118.393,33.686],[-118.394,33.686],[-118.395,33.686],[-118.396,33.686],[-118.397,33.686],[-118.397,33.686],[-118.397,33.737]]]},"properties":{"id":"abalone-cove-state-marine-conservation-area","name":"Abalone Cove State Marine Conservation Area","type":"SMCA","shortName":"Abalone Cove","areaKm2":null,"ccrCitation":null}},{"type":"Feature","geometry":{"type":"Polygon","coordinates":[[[-118.397,33.736],[-118.397,33.737],[-118.397,33.737],[-118.397,33.686],[-118.397,33.686],[-118.397,33.686],[-118.398,33.686],[-118.399,33.686],[-118.4,33.686],[-118.402,33.686],[-118.403,33.686],[-118.404,33.686],[-118.405,33.686],[-118.406,33.686],[-118.407,33.686],[-118.407,33.686],[-118.408,33.686],[-118.409,33.687],[-118.41,33.687],[-118.411,33.687],[-118.412,33.687],[-118.413,33.687],[-118.414,33.687],[-118.415,33.687],[-118.416,33.688],[-118.417,33.688],[-118.418,33.688],[-118.419,33.688],[-118.42,33.689],[-118.421,33.689],[-118.422,33.689],[-118.423,33.69],[-118.424,33.69],[-118.424,33.69],[-118.425,33.69],[-118.426,33.69],[-118.427,33.69],[-118.428,33.691],[-118.429,33.691],[-118.43,33.691],[-118.431,33.691],[-118.432,33.692],[-118.433,33.692],[-118.434,33.692],[-118.435,33.692],[-118.436,33.693],[-118.437,33.693],[-118.438,33.693],[-118.439,33.694],[-118.44,33.694],[-118.441,33.695],[-118.442,33.695],[-118.443,33.695],[-118.444,33.696],[-118.444,33.696],[-118.445,33.697],[-118.446,33.697],[-118.447,33.698],[-118.448,33.698],[-118.449,33.699],[-118.45,33.699],[-118.45,33.7],[-118.451,33.7],[-118.452,33.701],[-118.452,33.701],[-118.453,33.701],[-118.454,33.702],[-118.455,33.703],[-118.455,33.703],[-118.456,33.704],[-118.457,33.704],[-118.457,33.705],[-118.458,33.706],[-118.459,33.706],[-118.46,33.707],[-118.46,33.708],[-118.461,33.708],[-118.462,33.709],[-118.462,33.71],[-118.463,33.71],[-118.463,33.711],[-118.464,33.712],[-118.464,33.712],[-118.465,33.713],[-118.465,33.714],[-118.466,33.714],[-118.466,33.715],[-118.467,33.716],[-118.467,33.717],[-118.468,33.717],[-118.468,33.718],[-118.468,33.719],[-118.469,33.72],[-118.469,33.721],[-118.47,33.721],[-118.47,33.722],[-118.47,33.723],[-118.471,33.724],[-118.471,33.725],[-118.471,33.725],[-118.472,33.726],[-118.472,33.727],[-118.472,33.728],[-118.472,33.729],[-118.473,33.73],[-118.473,33.731],[-118.473,33.731],[-118.473,33.732],[-118.473,33.733],[-118.474,33.734],[-118.474,33.735],[-118.474,33.735],[-118.474,33.736],[-118.475,33.736],[-118.475,33.737],[-118.476,33.738],[-118.477,33.738],[-118.477,33.739],[-118.478,33.74],[-118.478,33.74],[-118.479,33.741],[-118.479,33.742],[-118.48,33.743],[-118.48,33.744],[-118.481,33.744],[-118.481,33.745],[-118.482,33.746],[-118.482,33.747],[-118.482,33.747],[-118.482,33.747],[-118.414,33.747],[-118.413,33.747],[-118.413,33.747],[-118.413,33.746],[-118.413,33.746],[-118.413,33.746],[-118.413,33.745],[-118.412,33.745],[-118.412,33.745],[-118.412,33.745],[-118.412,33.745],[-118.412,33.744],[-118.412,33.744],[-118.412,33.744],[-118.412,33.744],[-118.412,33.744],[-118.412,33.744],[-118.412,33.744],[-118.412,33.744],[-118.412,33.744],[-118.411,33.744],[-118.411,33.744],[-118.411,33.744],[-118.411,33.743],[-118.411,33.743],[-118.411,33.743],[-118.411,33.743],[-118.411,33.743],[-118.411,33.743],[-118.411,33.743],[-118.411,33.742],[-118.411,33.742],[-118.411,33.742],[-118.411,33.742],[-118.411,33.742],[-118.411,33.741],[-118.411,33.741],[-118.411,33.741],[-118.411,33.741],[-118.411,33.741],[-118.411,33.741],[-118.411,33.741],[-118.411,33.741],[-118.411,33.741],[-118.41,33.741],[-118.41,33.741],[-118.41,33.741],[-118.409,33.741],[-118.409,33.741],[-118.409,33.741],[-118.409,33.741],[-118.408,33.741],[-118.408,33.741],[-118.408,33.741],[-118.408,33.741],[-118.407,33.741],[-118.407,33.741],[-118.407,33.741],[-118.407,33.741],[-118.407,33.741],[-118.407,33.741],[-118.407,33.741],[-118.407,33.741],[-118.407,33.741],[-118.407,33.741],[-118.407,33.741],[-118.406,33.741],[-118.406,33.742],[-118.406,33.742],[-118.406,33.742],[-118.406,33.742],[-118.406,33.742],[-118.405,33.741],[-118.405,33.741],[-118.405,33.741],[-118.405,33.741],[-118.404,33.741],[-118.404,33.741],[-118.404,33.741],[-118.404,33.741],[-118.404,33.741],[-118.403,33.741],[-118.403,33.741],[-118.403,33.741],[-118.403,33.741],[-118.403,33.74],[-118.403,33.74],[-118.403,33.74],[-118.403,33.74],[-118.403,33.74],[-118.403,33.74],[-118.403,33.74],[-118.403,33.739],[-118.403,33.739],[-118.403,33.739],[-118.403,33.739],[-118.403,33.739],[-118.403,33.739],[-118.403,33.739],[-118.403,33.739],[-118.402,33.739],[-118.402,33.739],[-118.402,33.739],[-118.402,33.739],[-118.402,33.739],[-118.402,33.739],[-118.402,33.739],[-118.401,33.739],[-118.401,33.739],[-118.401,33.739],[-118.401,33.738],[-118.401,33.738],[-118.401,33.738],[-118.401,33.738],[-118.4,33.738],[-118.4,33.738],[-118.4,33.738],[-118.4,33.737],[-118.4,33.737],[-118.4,33.737],[-118.4,33.737],[-118.4,33.737],[-118.4,33.737],[-118.4,33.737],[-118.4,33.737],[-118.4,33.737],[-118.399,33.737],[-118.399,33.736],[-118.399,33.736],[-118.399,33.736],[-118.399,33.736],[-118.399,33.736],[-118.399,33.736],[-118.399,33.736],[-118.398,33.736],[-118.398,33.736],[-118.398,33.736],[-118.398,33.736],[-118.398,33.736],[-118.398,33.736],[-118.397,33.736],[-118.397,33.736],[-118.397,33.736],[-118.397,33.736],[-118.397,33.736],[-118.397,33.736]]]},"properties":{"id":"point-vicente-state-marine-conservation-area","name":"Point Vicente State Marine Conservation Area","type":"SMCA (No-Take)","shortName":"Point Vicente","areaKm2":null,"ccrCitation":null}}]}