{"type":"FeatureCollection","features":[{"type":"Feature","geometry":{"type":"Point","coordinates":[-118.47404,33.78106]},"properties":{"depth_ft":268,"depth_m":81.7}},{"type":"Feature","geometry":{"type":"Point","coordinates":[-118.46745,33.78106]},"properties":{"depth_ft":240,"depth_m":73.1}},{"type":"Feature","geometry":{"type":"Point","coordinates":[-118.46085,33.78106]},"properties":{"depth_ft":226,"depth_m":68.8}},{"type":"Feature","geometry":{"type":"Point","coordinates":[-118.45426,33.78106]},"properties":{"depth_ft":197,"depth_m":60.1}},{"type":"Feature","geometry":{"type":"Point","coordinates":[-118.44767,33.78106]},"properties":{"depth_ft":170,"depth_m":51.9}},{"type":"Feature","geometry":{"type":"Point","coordinates":[-118.44107,33.78106]},"properties":{"depth_ft":123,"depth_m":37.5}},{"type":"Feature","geometry":{"type":"Point","coordinates":[-118.43448,33.78106]},"properties":{"depth_ft":77,"depth_m":23.4}},{"type":"Feature","geometry":{"type":"Point","coordinates":[-118.42789,33.78106]},"properties":{"depth_ft":29,"depth_m":8.8}},{"type":"Feature","geometry":{"type":"Point","coordinates":[-118.46745,33.77558]},"properties":{"depth_ft":280,"depth_m":85.4}},{"type":"Feature","geometry":{"type":"Point","coordinates":[-118.46085,33.77558]},"properties":{"depth_ft":229,"depth_m":69.7}},{"type":"Feature","geometry":{"type":"Point","coordinates":[-118.45426,33.77558]},"properties":{"depth_ft":199,"depth_m":60.6}},{"type":"Feature","geometry":{"type":"Point","coordinates":[-118.44767,33.77558]},"properties":{"depth_ft":160,"depth_m":48.9}},{"type":"Feature","geometry":{"type":"Point","coordinates":[-118.44107,33.77558]},"properties":{"depth_ft":113,"depth_m":34.5}},{"type":"Feature","geometry":{"type":"Point","coordinates":[-118.43448,33.77558]},"properties":{"depth_ft":63,"depth_m":19.3}},{"type":"Feature","geometry":{"type":"Point","coordinates":[-118.42789,33.77558]},"properties":{"depth_ft":13,"depth_m":4.0}},{"type":"Feature","geometry":{"type":"Point","coordinates":[-118.46085,33.7701]},"properties":{"depth_ft":277,"depth_m":84.3}},{"type":"Feature","geometry":{"type":"Point","coordinates":[-118.45426,33.7701]},"properties":{"depth_ft":219,"depth_m":66.7}},{"type":"Feature","geometry":{"type":"Point","coordinates":[-118.44767,33.7701]},"properties":{"depth_ft":175,"depth_m":53.3}},{"type":"Feature","geometry":{"type":"Point","coordinates":[-118.44107,33.7701]},"properties":{"depth_ft":108,"depth_m":32.8}},{"type":"Feature","geometry":{"type":"Point","coordinates":[-118.43448,33.7701]},"properties":{"depth_ft":66,"depth_m":20.0}},{"type":"Feature","geometry":{"type":"Point","coordinates":[-118.42789,33.7701]},"properties":{"depth_ft":29,"depth_m":8.8}},{"type":"Feature","geometry":{"type":"Point","coordinates":[-118.45426,33.76461]},"properties":{"depth_ft":256,"depth_m":78.1}},{"type":"Feature","geometry":{"type":"Point","coordinates":[-118.44767,33.76461]},"properties":{"depth_ft":199,"depth_m":60.6}},{"type":"Feature","geometry":{"type":"Point","coordinates":[-118.44107,33.76461]},"properties":{"depth_ft":153,"depth_m":46.6}},{"type":"Feature","geometry":{"type":"Point","coordinates":[-118.43448,33.76461]},"properties":{"depth_ft":101,"depth_m":30.7}},{"type":"Feature","geometry":{"type":"Point","coordinates":[-118.42789,33.76461]},"properties":{"depth_ft":45,"depth_m":13.8}},{"type":"Feature","geometry":{"type":"Point","coordinates":[-118.44767,33.75913]},"properties":{"depth_ft":241,"depth_m":73.5}},{"type":"Feature","geometry":{"type":"Point","coordinates":[-118.44107,33.75913]},"properties":{"depth_ft":187,"depth_m":56.9}},{"type":"Feature","geometry":{"type":"Point","coordinates":[-118.43448,33.75913]},"properties":{"depth_ft":149,"depth_m":45.4}},{"type":"Feature","geometry":{"type":"Point","coordinates":[-118.42789,33.75913]},"properties":{"depth_ft":91,"depth_m":27.6}},{"type":"Feature","geometry":{"type":"Point","coordinates":[-118.4213,33.75913]},"properties":{"depth_ft":57,"depth_m":17.3}},{"type":"Feature","geometry":{"type":"Point","coordinates":[-118.44767,33.75364]},"properties":{"depth_ft":289,"depth_m":88.1}},{"type":"Feature","geometry":{"type":"Point","coordinates":[-118.44107,33.75364]},"properties":{"depth_ft":229,"depth_m":69.9}},{"type":"Feature","geometry":{"type":"Point","coordinates":[-118.43448,33.75364]},"properties":{"depth_ft":178,"depth_m":54.4}},{"type":"Feature","geometry":{"type":"Point","coordinates":[-118.42789,33.75364]},"properties":{"depth_ft":120,"depth_m":36.6}},{"type":"Feature","geometry":{"type":"Point","coordinates":[-118.4213,33.75364]},"properties":{"depth_ft":69,"depth_m":20.9}},{"type":"Feature","geometry":{"type":"Point","coordinates":[-118.4147,33.75364]},"properties":{"depth_ft":6,"depth_m":1.8}},{"type":"Feature","geometry":{"type":"Point","coordinates":[-118.44107,33.74816]},"properties":{"depth_ft":295,"depth_m":90.0}},{"type":"Feature","geometry":{"type":"Point","coordinates":[-118.43448,33.74816]},"properties":{"depth_ft":220,"depth_m":67.2}},{"type":"Feature","geometry":{"type":"Point","coordinates":[-118.42789,33.74816]},"properties":{"depth_ft":154,"depth_m":46.8}},{"type":"Feature","geometry":{"type":"Point","coordinates":[-118.4213,33.74816]},"properties":{"depth_ft":76,"depth_m":23.2}},{"type":"Feature","geometry":{"type":"Point","coordinates":[-118.4147,33.74816]},"properties":{"depth_ft":11,"depth_m":3.2}},{"type":"Feature","geometry":{"type":"Point","coordinates":[-118.42789,33.74268]},"properties":{"depth_ft":204,"depth_m":62.0}},{"type":"Feature","geometry":{"type":"Point","coordinates":[-118.4213,33.74268]},"properties":{"depth_ft":94,"depth_m":28.7}},{"type":"Feature","geometry":{"type":"Point","coordinates":[-118.4147,33.74268]},"properties":{"depth_ft":57,"depth_m":17.5}},{"type":"Feature","geometry":{"type":"Point","coordinates":[-118.4213,33.73719]},"properties":{"depth_ft":179,"depth_m":54.6}},{"type":"Feature","geometry":{"type":"Point","coordinates":[-118.4147,33.73719]},"properties":{"depth_ft":98,"depth_m":29.7}},{"type":"Feature","geometry":{"type":"Point","coordinates":[-118.40811,33.73719]},"properties":{"depth_ft":58,"depth_m":17.7}},{"type":"Feature","geometry":{"type":"Point","coordinates":[-118.40152,33.73719]},"properties":{"depth_ft":14,"depth_m":4.2}},{"type":"Feature","geometry":{"type":"Point","coordinates":[-118.39493,33.73719]},"properties":{"depth_ft":23,"depth_m":7.1}},{"type":"Feature","geometry":{"type":"Point","coordinates":[-118.38833,33.73719]},"properties":{"depth_ft":51,"depth_m":15.4}},{"type":"Feature","geometry":{"type":"Point","coordinates":[-118.38174,33.73719]},"properties":{"depth_ft":50,"depth_m":15.2}},{"type":"Feature","geometry":{"type":"Point","coordinates":[-118.37515,33.73719]},"properties":{"depth_ft":16,"depth_m":5.0}},{"type":"Feature","geometry":{"type":"Point","coordinates":[-118.36196,33.73719]},"properties":{"depth_ft":5,"depth_m":1.4}},{"type":"Feature","geometry":{"type":"Point","coordinates":[-118.4213,33.73171]},"properties":{"depth_ft":321,"depth_m":97.7}},{"type":"Feature","geometry":{"type":"Point","coordinates":[-118.4147,33.73171]},"properties":{"depth_ft":228,"depth_m":69.5}},{"type":"Feature","geometry":{"type":"Point","coordinates":[-118.40811,33.73171]},"properties":{"depth_ft":183,"depth_m":55.7}},{"type":"Feature","geometry":{"type":"Point","coordinates":[-118.40152,33.73171]},"properties":{"depth_ft":162,"depth_m":49.2}},{"type":"Feature","geometry":{"type":"Point","coordinates":[-118.39493,33.73171]},"properties":{"depth_ft":151,"depth_m":45.9}},{"type":"Feature","geometry":{"type":"Point","coordinates":[-118.38833,33.73171]},"properties":{"depth_ft":128,"depth_m":39.1}},{"type":"Feature","geometry":{"type":"Point","coordinates":[-118.38174,33.73171]},"properties":{"depth_ft":103,"depth_m":31.4}},{"type":"Feature","geometry":{"type":"Point","coordinates":[-118.37515,33.73171]},"properties":{"depth_ft":86,"depth_m":26.2}},{"type":"Feature","geometry":{"type":"Point","coordinates":[-118.36855,33.73171]},"properties":{"depth_ft":63,"depth_m":19.3}},{"type":"Feature","geometry":{"type":"Point","coordinates":[-118.36196,33.73171]},"properties":{"depth_ft":35,"depth_m":10.6}},{"type":"Feature","geometry":{"type":"Point","coordinates":[-118.35537,33.73171]},"properties":{"depth_ft":4,"depth_m":1.2}},{"type":"Feature","geometry":{"type":"Point","coordinates":[-118.40811,33.72623]},"properties":{"depth_ft":298,"depth_m":90.7}},{"type":"Feature","geometry":{"type":"Point","coordinates":[-118.40152,33.72623]},"properties":{"depth_ft":238,"depth_m":72.4}},{"type":"Feature","geometry":{"type":"Point","coordinates":[-118.39493,33.72623]},"properties":{"depth_ft":212,"depth_m":64.7}},{"type":"Feature","geometry":{"type":"Point","coordinates":[-118.38833,33.72623]},"properties":{"depth_ft":180,"depth_m":54.8}},{"type":"Feature","geometry":{"type":"Point","coordinates":[-118.38174,33.72623]},"properties":{"depth_ft":157,"depth_m":47.7}},{"type":"Feature","geometry":{"type":"Point","coordinates":[-118.37515,33.72623]},"properties":{"depth_ft":128,"depth_m":39.0}},{"type":"Feature","geometry":{"type":"Point","coordinates":[-118.36855,33.72623]},"properties":{"depth_ft":96,"depth_m":29.2}},{"type":"Feature","geometry":{"type":"Point","coordinates":[-118.36196,33.72623]},"properties":{"depth_ft":71,"depth_m":21.7}},{"type":"Feature","geometry":{"type":"Point","coordinates":[-118.35537,33.72623]},"properties":{"depth_ft":35,"depth_m":10.7}},{"type":"Feature","geometry":{"type":"Point","coordinates":[-118.34878,33.72623]},"properties":{"depth_ft":8,"depth_m":2.6}},{"type":"Feature","geometry":{"type":"Point","coordinates":[-118.39493,33.72074]},"properties":{"depth_ft":294,"depth_m":89.7}},{"type":"Feature","geometry":{"type":"Point","coordinates":[-118.38833,33.72074]},"properties":{"depth_ft":259,"depth_m":78.9}},{"type":"Feature","geometry":{"type":"Point","coordinates":[-118.38174,33.72074]},"properties":{"depth_ft":218,"depth_m":66.5}},{"type":"Feature","geometry":{"type":"Point","coordinates":[-118.37515,33.72074]},"properties":{"depth_ft":182,"depth_m":55.6}},{"type":"Feature","geometry":{"type":"Point","coordinates":[-118.36855,33.72074]},"properties":{"depth_ft":149,"depth_m":45.4}},{"type":"Feature","geometry":{"type":"Point","coordinates":[-118.36196,33.72074]},"properties":{"depth_ft":121,"depth_m":37.0}},{"type":"Feature","geometry":{"type":"Point","coordinates":[-118.35537,33.72074]},"properties":{"depth_ft":81,"depth_m":24.6}},{"type":"Feature","geometry":{"type":"Point","coordinates":[-118.34878,33.72074]},"properties":{"depth_ft":72,"depth_m":21.8}},{"type":"Feature","geometry":{"type":"Point","coordinates":[-118.34218,33.72074]},"properties":{"depth_ft":49,"depth_m":14.9}},{"type":"Feature","geometry":{"type":"Point","coordinates":[-118.36855,33.71526]},"properties":{"depth_ft":213,"depth_m":65.1}},{"type":"Feature","geometry":{"type":"Point","coordinates":[-118.36196,33.71526]},"properties":{"depth_ft":169,"depth_m":51.6}},{"type":"Feature","geometry":{"type":"Point","coordinates":[-118.35537,33.71526]},"properties":{"depth_ft":134,"depth_m":41.0}},{"type":"Feature","geometry":{"type":"Point","coordinates":[-118.34878,33.71526]},"properties":{"depth_ft":110,"depth_m":33.4}},{"type":"Feature","geometry":{"type":"Point","coordinates":[-118.34218,33.71526]},"properties":{"depth_ft":81,"depth_m":24.7}},{"type":"Feature","geometry":{"type":"Point","coordinates":[-118.36196,33.70977]},"properties":{"depth_ft":240,"depth_m":73.1}},{"type":"Feature","geometry":{"type":"Point","coordinates":[-118.35537,33.70977]},"properties":{"depth_ft":187,"depth_m":56.9}},{"type":"Feature","geometry":{"type":"Point","coordinates":[-118.34878,33.70977]},"properties":{"depth_ft":145,"depth_m":44.1}},{"type":"Feature","geometry":{"type":"Point","coordinates":[-118.34218,33.70977]},"properties":{"depth_ft":120,"depth_m":36.7}},{"type":"Feature","geometry":{"type":"Point","coordinates":[-118.35537,33.70429]},"properties":{"depth_ft":321,"depth_m":97.9}},{"type":"Feature","geometry":{"type":"Point","coordinates":[-118.34878,33.70429]},"properties":{"depth_ft":208,"depth_m":63.4}},{"type":"Feature","geometry":{"type":"Point","coordinates":[-118.34218,33.70429]},"properties":{"depth_ft":169,"depth_m":51.4}},{"type":"Feature","geometry":{"type":"Point","coordinates":[-118.34218,33.69881]},"properties":{"depth_ft":239,"depth_m":72.8}}]}