{"type":"FeatureCollection","features":[{"type":"Feature","geometry":{"type":"Polygon","coordinates":[[[-121.94018,36.5631],[-121.93961,36.56309],[-121.93934,36.56418],[-121.93994,36.565],[-121.94056,36.56552],[-121.94241,36.56627],[-121.94296,36.56638],[-121.9442,36.56621],[-121.94409,36.56595],[-121.94444,36.5659],[-121.94454,36.5656],[-121.945,36.56533],[-121.94469,36.56504],[-121.94476,36.56488],[-121.94508,36.56513],[-121.94495,36.56484],[-121.94524,36.56476],[-121.94544,36.56579],[-121.94562,36.56578],[-121.9463,36.56646],[-121.94897,36.56741],[-121.95022,36.56729],[-121.95095,36.56684],[-121.9511,36.56646],[-121.95077,36.56587],[-121.95101,36.56562],[-121.95091,36.56545],[-121.95124,36.56537],[-121.95136,36.56506],[-121.95105,36.56454],[-121.95105,36.56413],[-121.95152,36.56406],[-121.95162,36.56385],[-121.95148399186797,36.56294594594594],[-121.95671198565913,36.56294594594594],[-121.95679,36.56324],[-121.95743,36.56349],[-121.95737,36.56444],[-121.95824,36.56468],[-121.95833,36.56515],[-121.95895,36.56537],[-121.95899,36.56557],[-121.95921,36.56553],[-121.9604,36.56598],[-121.96086,36.56557],[-121.96094,36.56606],[-121.96126,36.5661],[-121.96163,36.56684],[-121.96185,36.56674],[-121.96207,36.56702],[-121.96233,36.56699],[-121.96249,36.56731],[-121.96294,36.56732],[-121.96329,36.5671],[-121.96338,36.56683],[-121.96358,36.56698],[-121.96356,36.5672],[-121.96405,36.56707],[-121.96421,36.56758],[-121.96397,36.56794],[-121.96421,36.56844],[-121.96539,36.56849],[-121.96508,36.56892],[-121.96579,36.56898],[-121.96648,36.56934],[-121.96694,36.56892],[-121.96784,36.56902],[-121.96812,36.5689],[-121.96866,36.56909],[-121.96952,36.56899],[-121.96999,36.56937],[-121.97025,36.56921],[-121.97039,36.56931],[-121.97036,36.56954],[-121.97056,36.56965],[-121.97076,36.5695],[-121.97098,36.5696],[-121.97114,36.56973],[-121.9709,36.56993],[-121.97119,36.57004],[-121.97098,36.57045],[-121.97042,36.57044],[-121.97047,36.57062],[-121.97028,36.5708],[-121.97092,36.57096],[-121.97095,36.57123],[-121.97076,36.57132],[-121.97051,36.5712],[-121.97035,36.5715],[-121.97054,36.57159],[-121.97038,36.57184],[-121.97117,36.57219],[-121.97131,36.57236],[-121.9711,36.57257],[-121.97164,36.5731],[-121.9718,36.573],[-121.97257,36.5734],[-121.973,36.5744],[-121.97246,36.57481],[-121.97234,36.57509],[-121.97279,36.57538],[-121.97305,36.57587],[-121.97351,36.57615],[-121.97357,36.57663],[-121.97398,36.57662],[-121.974,36.5765],[-121.97437,36.57684],[-121.9749,36.57681],[-121.97591,36.5771],[-121.97593,36.57754],[-121.97577,36.57771],[-121.97643,36.57837],[-121.97687,36.57958],[-121.97714,36.5796],[-121.97756,36.57924],[-121.97845,36.57944],[-121.97846,36.57989],[-121.97885,36.58011],[-121.97843,36.58018],[-121.97808,36.57968],[-121.97801,36.58016],[-121.97763,36.58018],[-121.9777,36.5804],[-121.97866,36.58118],[-121.97839,36.58121],[-121.97853,36.58147],[-121.97845,36.58158],[-121.97817,36.58131],[-121.97747,36.58132],[-121.97688,36.581],[-121.97694,36.58051],[-121.97679,36.58039],[-121.97631,36.58033],[-121.97612,36.58051],[-121.97537,36.5801],[-121.97506,36.58046],[-121.97522,36.58079],[-121.97501,36.58098],[-121.97527,36.5818],[-121.97506,36.58203],[-121.97553,36.58234],[-121.97499,36.58228],[-121.97477,36.58243],[-121.97428,36.58213],[-121.97466,36.58291],[-121.97461,36.58337],[-121.97359,36.58312],[-121.97345,36.58326],[-121.9726,36.58334],[-121.9724,36.58381],[-121.97202,36.58379],[-121.97152,36.58345],[-121.97148,36.58281],[-121.97103,36.58248],[-121.97046,36.58234],[-121.96857,36.5824],[-121.96795,36.58273],[-121.96776,36.58313],[-121.96758,36.58314],[-121.96768,36.58354],[-121.96728,36.58412],[-121.96645,36.58454],[-121.96669,36.5848],[-121.96567,36.58541],[-121.96385,36.58902],[-121.96397,36.5894],[-121.96473,36.5902],[-121.96516,36.59036],[-121.96506,36.59078],[-121.96537,36.591],[-121.96471,36.59211],[-121.96442,36.59211],[-121.96442,36.59229],[-121.96412,36.59244],[-121.96383,36.59242],[-121.96322,36.59272],[-121.96277,36.5935],[-121.96282,36.59414],[-121.96222,36.59447],[-121.96171,36.59588],[-121.96138,36.59638],[-121.96143,36.59702],[-121.96194,36.59789],[-121.9623,36.59821],[-121.96232,36.59854],[-121.96265,36.59871],[-121.96232,36.59953],[-121.96232,36.6003],[-121.96199,36.60097],[-121.96152,36.60131],[-121.96121,36.60187],[-121.96128,36.6021],[-121.96154,36.6022],[-121.96147,36.60282],[-121.96112,36.6031],[-121.96115,36.6033],[-121.96088,36.60369],[-121.95957,36.6045],[-121.95975,36.60562],[-121.95897,36.60721],[-121.95893,36.60774],[-121.95911,36.60799],[-121.95886,36.60831],[-121.95918,36.60891],[-121.95899,36.60927],[-121.95863,36.60923],[-121.95751,36.60967],[-121.95733,36.61003],[-121.95721,36.61009],[-121.95713,36.6099],[-121.9569,36.61016],[-121.9566,36.60992],[-121.95596,36.61011],[-121.95496,36.60962],[-121.95406,36.60893],[-121.95305,36.60863],[-121.95116,36.60897],[-121.95013,36.60934],[-121.94791,36.61113],[-121.94741,36.61209],[-121.9466,36.61305],[-121.94656,36.61362],[-121.94627,36.61424],[-121.94499,36.61515],[-121.94364,36.6164],[-121.94219,36.61835],[-121.94181,36.61974],[-121.94186,36.62015],[-121.9426,36.6205],[-121.94254,36.62111],[-121.94276,36.62122],[-121.94261,36.62132],[-121.94236,36.6212],[-121.9421,36.62139],[-121.94231,36.62146],[-121.94225,36.62169],[-121.94253,36.62179],[-121.94247,36.62196],[-121.9417,36.62188],[-121.94184,36.62219],[-121.94163,36.62227],[-121.9416,36.62252],[-121.94183,36.62271],[-121.94169,36.62289],[-121.94181,36.6232],[-121.94143,36.62354],[-121.94166,36.62372],[-121.94036,36.624],[-121.94043,36.62469],[-121.94063,36.62469],[-121.94062,36.6249],[-121.94097,36.62477],[-121.94082,36.62521],[-121.9404,36.62507],[-121.9399,36.62529],[-121.93979,36.62583],[-121.94026,36.62616],[-121.94043,36.62656],[-121.94038,36.62681],[-121.93972,36.62709],[-121.93875,36.62696],[-121.93832,36.62727],[-121.93835,36.62767],[-121.93849,36.62778],[-121.9383,36.62792],[-121.93825,36.62832],[-121.93846,36.62848],[-121.93814,36.62866],[-121.93796,36.62914],[-121.93842,36.62948],[-121.93822,36.62962],[-121.93798,36.62955],[-121.93801,36.62981],[-121.93771,36.62985],[-121.93765,36.63002],[-121.93805,36.63052],[-121.9385,36.63064],[-121.93841,36.63075],[-121.93793,36.63065],[-121.93809,36.63077],[-121.93804,36.63102],[-121.93828,36.63155],[-121.938,36.63164],[-121.93832,36.63205],[-121.9387,36.63196],[-121.93886,36.63211],[-121.93876,36.63249],[-121.939,36.63291],[-121.93876,36.63384],[-121.93904,36.63433],[-121.93826,36.63474],[-121.93774,36.63552],[-121.93795,36.63623],[-121.93704,36.63613],[-121.9366,36.63664],[-121.93633,36.63735],[-121.93494,36.63743],[-121.93464,36.63781],[-121.93445,36.63749],[-121.93412,36.63755],[-121.93407,36.63775],[-121.93386,36.63755],[-121.93365,36.63763],[-121.93364,36.63737],[-121.93321,36.63688],[-121.93237,36.63701],[-121.93221,36.63747],[-121.93194,36.63715],[-121.93149,36.63706],[-121.93146,36.63726],[-121.93127,36.63733],[-121.93094,36.63708],[-121.93014,36.63722],[-121.92938,36.63658],[-121.92782,36.63628],[-121.92803,36.63581],[-121.92769,36.6355],[-121.92555,36.63553],[-121.92518,36.63537],[-121.92517,36.63514],[-121.92488,36.63493],[-121.92426,36.63482],[-121.92444,36.63468],[-121.92426,36.63434],[-121.92395,36.63399],[-121.92352,36.63396],[-121.92356,36.63367],[-121.92317,36.63331],[-121.92279,36.63253],[-121.92187,36.63218],[-121.92214,36.63196],[-121.92212,36.63091],[-121.92227,36.6307],[-121.92174,36.63029],[-121.92155,36.63043],[-121.9217,36.63008],[-121.9214,36.62963],[-121.92161,36.62955],[-121.92178,36.62905],[-121.92146,36.62839],[-121.92054,36.62797],[-121.92025,36.62799],[-121.92035,36.62791],[-121.92018,36.62776],[-121.91951,36.62743],[-121.9192,36.62761],[-121.91928,36.62729],[-121.91813,36.62695],[-121.91782,36.62669],[-121.91687,36.62666],[-121.9164,36.62696],[-121.91638,36.6267],[-121.91623,36.62683],[-121.9159,36.62664],[-121.9156,36.62681],[-121.91558,36.62703],[-121.91545,36.62689],[-121.91531,36.62702],[-121.91526,36.62664],[-121.91582,36.62627],[-121.91615,36.62554],[-121.91596,36.62538],[-121.91639,36.62547],[-121.91643,36.62518],[-121.91614,36.62465],[-121.91485,36.62416],[-121.91466,36.62381],[-121.9147,36.62355],[-121.91434,36.62309],[-121.91366,36.62287],[-121.91331,36.62297],[-121.91313,36.62274],[-121.91263,36.62283],[-121.91231,36.62306],[-121.9124,36.62319],[-121.91202,36.62331],[-121.91211,36.62319],[-121.91199,36.6232],[-121.91199,36.62299],[-121.91182,36.62308],[-121.91123,36.62242],[-121.91081,36.62241],[-121.91084,36.62227],[-121.91054,36.62219],[-121.91023,36.62224],[-121.91016,36.62156],[-121.90956,36.62102],[-121.90903,36.62113],[-121.90846,36.62097],[-121.90776,36.62119],[-121.90656,36.621],[-121.90644,36.62077],[-121.90608,36.62068],[-121.90571,36.62083],[-121.90545,36.62121],[-121.90593,36.62163],[-121.90558,36.62179],[-121.90565,36.62194],[-121.90407,36.62167],[-121.9039,36.62126],[-121.90341,36.62096],[-121.90325,36.62051],[-121.90337,36.62025],[-121.90306,36.62006],[-121.90345,36.61958],[-121.90226,36.61878],[-121.90169,36.61899],[-121.90146,36.61889],[-121.90164,36.61844],[-121.90151,36.61833],[-121.90131,36.61849],[-121.90095,36.61808],[-121.90111,36.61791],[-121.90056,36.61756],[-121.90079,36.61737],[-121.90065,36.61744],[-121.8999,36.61668],[-121.89971,36.61678],[-121.89948,36.61648],[-121.89962,36.61641],[-121.89958,36.61611],[-121.89928,36.61562],[-121.89811,36.61516],[-121.89824,36.61479],[-121.89791,36.61444],[-121.89797,36.61408],[-121.89752,36.61379],[-121.89715,36.61375],[-121.8973,36.61365],[-121.89717,36.61358],[-121.89731,36.61328],[-121.89757,36.61314],[-121.89739,36.61287],[-121.89758,36.61265],[-121.89747,36.61238],[-121.89771,36.61226],[-121.89713,36.61171],[-121.89696,36.6118],[-121.89668,36.61162],[-121.89624,36.61114],[-121.89647,36.611],[-121.89633,36.6104],[-121.89549,36.60992],[-121.89507,36.60944],[-121.89268,36.60944],[-121.8896,36.60848],[-121.89284,36.60935],[-121.89383,36.60936],[-121.89393,36.60858],[-121.89494,36.60847],[-121.89452,36.60831],[-121.89487,36.60825],[-121.8945,36.6078],[-121.89413,36.60764],[-121.89427,36.60736],[-121.89402,36.6069],[-121.89417,36.60666],[-121.89398,36.60656],[-121.89422,36.60641],[-121.89422,36.60594],[-121.89444,36.6057],[-121.89432,36.60531],[-121.89441,36.60509],[-121.89419,36.60463],[-121.89366,36.60426],[-121.89316,36.6036],[-121.89321,36.60339],[-121.89299,36.60305],[-121.89249,36.60304],[-121.89127,36.60249],[-121.89134,36.6024],[-121.89102,36.60225],[-121.89101,36.6021],[-121.88912,36.60177],[-121.88718,36.60114],[-121.8851,36.60099],[-121.88251,36.60119],[-121.87994,36.60157],[-121.87655,36.60239],[-121.8726,36.60393],[-121.86722,36.60651],[-121.86172,36.61006],[-121.8565,36.61399],[-121.85246,36.61792],[-121.8496520964208,36.62117084048183],[-121.8496520964208,36.56294594594594],[-121.9402686977887,36.56294594594594],[-121.94018,36.5631]]]},"properties":{"name":"ca-mainland"}}]}