{"type":"FeatureCollection","features":[{"type":"Feature","properties":{"id":"monterey-kelp-canopy","name":"Monterey recent kelp canopy","className":"Kelp Canopy"},"geometry":{"type":"MultiPolygon","coordinates":[[[[-121.97674,36.57203],[-121.97741,36.5723],[-121.97674,36.5723],[-121.97674,36.57203]]],[[[-121.97874,36.57204],[-121.97841,36.57232],[-121.97841,36.57204],[-121.97874,36.57204]]],[[[-121.97571,36.57391],[-121.97537,36.57418],[-121.97537,36.57391],[-121.97571,36.57391]]],[[[-121.97503,36.57472],[-121.9757,36.57445],[-121.9757,36.57473],[-121.97503,36.57472]]],[[[-121.97536,36.57499],[-121.97502,36.57526],[-121.97502,36.57499],[-121.97536,36.57499]]],[[[-121.97569,36.57499],[-121.97602,36.57554],[-121.97569,36.57554],[-121.97569,36.57499]]],[[[-121.97602,36.57581],[-121.97669,36.57554],[-121.97669,36.57581],[-121.97602,36.57581]]],[[[-121.9787,36.57556],[-121.97869,36.57637],[-121.97735,36.5769],[-121.97769,36.57582],[-121.97703,36.57582],[-121.97736,36.57501],[-121.9767,36.57446],[-121.9787,36.57556]],[[-121.97836,36.5761],[-121.97803,36.57637],[-121.97836,36.57637],[-121.97836,36.5761]]],[[[-121.97835,36.57718],[-121.97902,36.57691],[-121.97901,36.57773],[-121.97868,36.57773],[-121.97835,36.57718]]],[[[-121.98002,36.57746],[-121.97968,36.57774],[-121.97968,36.57746],[-121.98002,36.57746]]],[[[-121.97633,36.57798],[-121.97668,36.57635],[-121.97734,36.5769],[-121.97701,36.57717],[-121.97767,36.57771],[-121.97731,36.57934],[-121.97633,36.57798]],[[-121.97733,36.57771],[-121.977,36.57798],[-121.97733,36.57798],[-121.97733,36.57771]]],[[[-121.98035,36.57801],[-121.98001,36.57828],[-121.98001,36.57801],[-121.98035,36.57801]]],[[[-121.97866,36.57854],[-121.979,36.57881],[-121.97866,36.57881],[-121.97866,36.57854]]],[[[-121.98033,36.57882],[-121.97932,36.57936],[-121.97967,36.57854],[-121.98033,36.57882]]],[[[-121.97899,36.57907],[-121.97865,36.57935],[-121.97865,36.57907],[-121.97899,36.57907]]],[[[-121.98132,36.57991],[-121.98099,36.58018],[-121.98099,36.57991],[-121.98132,36.57991]]],[[[-121.97681499999999,36.58041],[-121.97694,36.58051],[-121.9768885540423,36.58093014198782],[-121.97629,36.58068],[-121.97595,36.58095],[-121.97629,36.58041],[-121.97681499999999,36.58041]]],[[[-121.97561,36.58121],[-121.97594,36.58149],[-121.97561,36.58149],[-121.97561,36.58121]]],[[[-121.97662,36.58122],[-121.97694,36.58177],[-121.97661,36.58177],[-121.97662,36.58122]]],[[[-121.97762,36.5815],[-121.97728,36.58177],[-121.97728,36.5815],[-121.97762,36.5815]]],[[[-121.97997,36.58152],[-121.97963,36.58179],[-121.97963,36.58152],[-121.97997,36.58152]]],[[[-121.98264,36.58154],[-121.98231,36.58182],[-121.98231,36.58154],[-121.98264,36.58154]]],[[[-121.98063,36.58207],[-121.9803,36.58152],[-121.98096,36.58207],[-121.98063,36.58207]]],[[[-121.97594,36.58175],[-121.9756,36.58203],[-121.9756,36.58175],[-121.97594,36.58175]]],[[[-121.98096,36.58289],[-121.98163,36.58261],[-121.98163,36.58289],[-121.98096,36.58289]]],[[[-121.97525,36.58283],[-121.97491,36.5831],[-121.97491,36.58283],[-121.97525,36.58283]]],[[[-121.97592,36.58284],[-121.97559,36.58311],[-121.97559,36.58284],[-121.97592,36.58284]]],[[[-121.97726,36.58285],[-121.97693,36.58312],[-121.97693,36.58285],[-121.97726,36.58285]]],[[[-121.98095,36.58315],[-121.98061,36.58342],[-121.98061,36.58315],[-121.98095,36.58315]]],[[[-121.97927,36.58341],[-121.97961,36.58368],[-121.97927,36.58368],[-121.97927,36.58341]]],[[[-121.97726,36.58366],[-121.97692,36.58393],[-121.97692,36.58366],[-121.97726,36.58366]]],[[[-121.97792,36.58367],[-121.97826,36.58367],[-121.97792,36.58394],[-121.97792,36.58367]]],[[[-121.97556,36.58446],[-121.97623,36.58446],[-121.97623,36.58474],[-121.97556,36.585],[-121.97556,36.58446]]],[[[-121.97454,36.58607],[-121.97521,36.5858],[-121.97521,36.58608],[-121.97454,36.58607]]],[[[-121.96877,36.56601],[-121.96843,36.56655],[-121.96777,36.566],[-121.96877,36.56601]]],[[[-121.9691,36.56655],[-121.96877,36.56683],[-121.96877,36.56655],[-121.9691,36.56655]]],[[[-121.96842,36.56681],[-121.96708,36.56708],[-121.96708,36.56681],[-121.96842,36.56681]]],[[[-121.96976,36.56683],[-121.96943,36.5671],[-121.96943,36.56683],[-121.96976,36.56683]]],[[[-121.96976,36.56737],[-121.96942,36.56764],[-121.96942,36.56737],[-121.96976,36.56737]]],[[[-121.96807,36.56789],[-121.96774,36.56817],[-121.96774,36.56789],[-121.96807,36.56789]]],[[[-121.96841,36.56817],[-121.96807,36.56844],[-121.96807,36.56817],[-121.96841,36.56817]]],[[[-121.97008,36.569],[-121.96873,36.56872],[-121.96874,36.56817],[-121.97009,36.56818],[-121.97042,36.56764],[-121.97143,36.56792],[-121.97208,36.56874],[-121.97008,36.569]]],[[[-121.96806,36.56871],[-121.96706,36.56843],[-121.96806,36.56844],[-121.96806,36.56871]]],[[[-121.97375,36.56929],[-121.97342,36.56957],[-121.97342,36.56929],[-121.97375,36.56929]]],[[[-121.97208,36.56955],[-121.97141,36.56982],[-121.97141,36.56955],[-121.97208,36.56955]]],[[[-121.97408,36.57038],[-121.97375,36.56984],[-121.97441,36.57038],[-121.97408,36.57038]]],[[[-121.97106,36.57036],[-121.97106,36.570293809523825],[-121.97116439024391,36.57009],[-121.9714,36.57009],[-121.97106,36.57036]]],[[[-121.97105,36.57063],[-121.97341,36.56983],[-121.97308,36.57037],[-121.97474,36.57066],[-121.97507,36.57148],[-121.97473,36.57174],[-121.97506,36.57228],[-121.97438,36.57255],[-121.97504,36.57309],[-121.97471,36.57337],[-121.97504,36.57391],[-121.97403,36.57417],[-121.97437,36.57309],[-121.97371,36.57282],[-121.97372,36.57227],[-121.97304,36.57281],[-121.97204,36.5728],[-121.97105,36.57144],[-121.97139,36.57117],[-121.97105,36.57063]],[[-121.97405,36.57227],[-121.97406,36.57146],[-121.97272,36.57119],[-121.97305,36.57173],[-121.97271,36.57227],[-121.97372,36.57227],[-121.97405,36.57227]],[[-121.97205,36.57145],[-121.97172,36.57118],[-121.97172,36.57145],[-121.97205,36.57145]],[[-121.97407,36.57093],[-121.9734,36.57119],[-121.97407,36.57119],[-121.97407,36.57093]],[[-121.97239,36.57091],[-121.97272,36.57118],[-121.97272,36.57091],[-121.97239,36.57091]]],[[[-121.97304,36.57281],[-121.97404,36.57335],[-121.97336,36.57389],[-121.97304,36.57281]]],[[[-121.97335,36.57443],[-121.97369,36.57443],[-121.97335,36.57471],[-121.97335,36.57443]]],[[[-121.97402,36.57471],[-121.97369,36.57498],[-121.97369,36.57471],[-121.97402,36.57471]]],[[[-121.97368,36.57524],[-121.97334,36.57552],[-121.97334,36.57524],[-121.97368,36.57524]]],[[[-121.97501,36.57526],[-121.97468,36.57553],[-121.97468,36.57526],[-121.97501,36.57526]]],[[[-121.97401,36.57552],[-121.97501,36.5758],[-121.97501,36.57661],[-121.97467,36.57607],[-121.97367,36.57606],[-121.97401,36.57552]]],[[[-121.96922,36.58278],[-121.96989,36.58306],[-121.96922,36.58306],[-121.96922,36.58278]]],[[[-121.97122,36.58334],[-121.97055,36.58334],[-121.97056,36.58279],[-121.97123,36.58279],[-121.97122,36.58334]]],[[[-121.97155,36.58361],[-121.97121,36.58389],[-121.97121,36.58361],[-121.97155,36.58361]]],[[[-121.97289,36.58362],[-121.97256,36.5839],[-121.97256,36.58362],[-121.97289,36.58362]]],[[[-121.97088,36.58387],[-121.97054,36.58415],[-121.97054,36.58387],[-121.97088,36.58387]]],[[[-121.97323,36.5839],[-121.9739,36.5839],[-121.97323,36.58417],[-121.97323,36.5839]]],[[[-121.97087,36.58442],[-121.97054,36.58469],[-121.97054,36.58442],[-121.97087,36.58442]]],[[[-121.97388,36.58499],[-121.97322,36.58444],[-121.97389,36.58444],[-121.97388,36.58499]]],[[[-121.97184,36.5874],[-121.9705,36.58712],[-121.97051,36.58604],[-121.97086,36.58604],[-121.97053,36.58523],[-121.97221,36.58524],[-121.97153,36.58524],[-121.97219,36.58632],[-121.97152,36.58632],[-121.97118,36.58686],[-121.97184,36.5874]]],[[[-121.97015,36.5882],[-121.96982,36.58847],[-121.96982,36.5882],[-121.97015,36.5882]]],[[[-121.96914,36.58873],[-121.96981,36.58874],[-121.96914,36.589],[-121.96914,36.58873]]],[[[-121.96778,36.59007],[-121.96812,36.59007],[-121.96778,36.59034],[-121.96778,36.59007]]],[[[-121.96844,36.59089],[-121.96877,36.59089],[-121.96844,36.59116],[-121.96844,36.59089]]],[[[-121.97099,36.60064],[-121.97066,36.60092],[-121.97066,36.60064],[-121.97099,36.60064]]],[[[-121.96307,36.56596],[-121.96274,36.56623],[-121.96274,36.56596],[-121.96307,36.56596]]],[[[-121.96743,36.56599],[-121.96709,36.56627],[-121.96709,36.56599],[-121.96743,36.56599]]],[[[-121.94363,36.56606],[-121.94329,36.56633],[-121.94329,36.56606],[-121.94363,36.56606]]],[[[-121.96206,36.56622],[-121.96172,36.56649],[-121.96172,36.56622],[-121.96206,36.56622]]],[[[-121.96675,36.56626],[-121.96642,36.56654],[-121.96642,36.56626],[-121.96675,36.56626]]],[[[-121.94998,36.5672],[-121.94835256356336,36.56719031287835],[-121.94798933881691,36.56706107560901],[-121.9463,36.56636],[-121.94598,36.56581],[-121.94898,36.56665],[-121.94933,36.56611],[-121.94865,36.56583],[-121.95067,36.56585],[-121.951,36.56667],[-121.94998,36.5672]],[[-121.94999,36.56612],[-121.94966,36.56638],[-121.94999,36.56638],[-121.94999,36.56612]]],[[[-121.96374,36.56651],[-121.9634,36.56678],[-121.9634,36.56651],[-121.96374,36.56651]]],[[[-121.96306,36.56704],[-121.96239,36.56649],[-121.96307,36.5665],[-121.96306,36.56704]]],[[[-121.96741,36.56762],[-121.96707,36.56789],[-121.96707,36.56762],[-121.96741,36.56762]]],[[[-121.96439,36.56705],[-121.96507,36.56705],[-121.96638,36.56897],[-121.96472,36.56814],[-121.96439,36.56705]]],[[[-121.96581,36.58735],[-121.96647,36.58762],[-121.9658,36.58789],[-121.96545,36.58843],[-121.96581,36.58735]]],[[[-121.96477,36.58951],[-121.9651,36.58923],[-121.9651,36.58951],[-121.96477,36.58951]]],[[[-121.96507,36.59248],[-121.96573,36.59303],[-121.96506,36.59303],[-121.96439,36.59248],[-121.96541,36.59221],[-121.96528708480317,36.591139448285574],[-121.96537,36.591],[-121.9652622983871,36.590923566597304],[-121.9651,36.58951],[-121.96577,36.58978],[-121.96642,36.59087],[-121.96641,36.59249],[-121.96507,36.59248]]],[[[-121.96659,36.60358],[-121.96626,36.60386],[-121.96626,36.60358],[-121.96659,36.60358]]],[[[-121.96558,36.60384],[-121.96592,36.60384],[-121.96558,36.60412],[-121.96558,36.60384]]],[[[-121.96585,36.60899],[-121.96619,36.60899],[-121.96585,36.60926],[-121.96585,36.60899]]],[[[-121.95176,36.60941],[-121.95243,36.60913],[-121.95243,36.60941],[-121.95176,36.60941]]],[[[-121.95374,36.61159],[-121.95374,36.61104],[-121.95242,36.61049],[-121.95275,36.60995],[-121.95209,36.60995],[-121.95276,36.60968],[-121.95277,36.60914],[-121.95377,36.60915],[-121.95276,36.60995],[-121.95476,36.61078],[-121.95475,36.61159],[-121.95374,36.61159]]],[[[-121.9524,36.6113],[-121.95206,36.61103],[-121.9524,36.61103],[-121.9524,36.6113]]],[[[-121.95979,36.61109],[-121.95945,36.61137],[-121.95945,36.61109],[-121.95979,36.61109]]],[[[-121.96514,36.61168],[-121.96481,36.61195],[-121.96447,36.61168],[-121.96514,36.61168]]],[[[-121.95106,36.61156],[-121.95274,36.6113],[-121.95306,36.61185],[-121.95407,36.61185],[-121.95339,36.61212],[-121.95338,36.61293],[-121.95271,36.61293],[-121.95304,36.61401],[-121.95203,36.61428],[-121.95106,36.61156]]],[[[-121.96445,36.61357],[-121.96411,36.61384],[-121.96411,36.61357],[-121.96445,36.61357]]],[[[-121.95101,36.6148],[-121.95068,36.61507],[-121.95068,36.6148],[-121.95101,36.6148]]],[[[-121.96107,36.61516],[-121.96073,36.61543],[-121.96073,36.61516],[-121.96107,36.61516]]],[[[-121.95469,36.61592],[-121.95435,36.61619],[-121.95435,36.61592],[-121.95469,36.61592]]],[[[-121.96442,36.616],[-121.96408,36.61628],[-121.96408,36.616],[-121.96442,36.616]]],[[[-121.95126,36.62075],[-121.95093,36.62103],[-121.95093,36.62075],[-121.95126,36.62075]]],[[[-121.9563,36.62107],[-121.95563,36.6208],[-121.9563,36.6208],[-121.9563,36.62107]]],[[[-121.95528,36.62106],[-121.95495,36.62133],[-121.95495,36.62106],[-121.95528,36.62106]]],[[[-121.94173,36.63121],[-121.94139,36.63149],[-121.94139,36.63121],[-121.94173,36.63121]]],[[[-121.94408,36.63124],[-121.94441,36.63124],[-121.94408,36.63152],[-121.94408,36.63124]]],[[[-121.94272,36.63231],[-121.94305,36.63231],[-121.94272,36.63258],[-121.94272,36.63231]]],[[[-121.94163,36.63879],[-121.94096,36.63906],[-121.94096,36.63852],[-121.94163,36.63879]]],[[[-121.87904,36.60388],[-121.87904,36.60442],[-121.87837,36.60414],[-121.87971,36.6036],[-121.87904,36.60388]]],[[[-121.88004,36.60469],[-121.87937,36.60442],[-121.88004,36.60415],[-121.88004,36.60469]]],[[[-121.87836,36.6044],[-121.87803,36.60468],[-121.87803,36.6044],[-121.87836,36.6044]]],[[[-121.87465,36.60627],[-121.87498,36.606],[-121.87498,36.60627],[-121.87465,36.60627]]],[[[-121.87297,36.60652],[-121.87263,36.60679],[-121.87263,36.60652],[-121.87297,36.60652]]],[[[-121.87598,36.60709],[-121.87665,36.60709],[-121.87698,36.60764],[-121.8763,36.60791],[-121.87498,36.60681],[-121.87498,36.60627],[-121.87566,36.60627],[-121.87598,36.60709]]],[[[-121.89737,36.61242],[-121.89737,36.61297],[-121.89669,36.61324],[-121.89702,36.61405],[-121.89668,36.61432],[-121.89468,36.61295],[-121.89469,36.61213],[-121.89403,36.61186],[-121.89437,36.61105],[-121.8937,36.61105],[-121.89371,36.61023],[-121.89472,36.6097],[-121.89538,36.61106],[-121.89605,36.61079],[-121.89637,36.61215],[-121.89737,36.61242]]],[[[-121.90031,36.61787],[-121.90031,36.61759],[-121.90060714285714,36.61759],[-121.90063131868132,36.61760538461538],[-121.90031,36.61787]]],[[[-121.89734,36.61513],[-121.897,36.6154],[-121.89832,36.61595],[-121.89832,36.61649],[-121.89933,36.61596],[-121.89865,36.61703],[-121.89998,36.61813],[-121.90098,36.61814],[-121.90064,36.61868],[-121.9023,36.6195],[-121.90327,36.62222],[-121.9063,36.62197],[-121.90695,36.62279],[-121.90192,36.62275],[-121.9006,36.62112],[-121.90162,36.62004],[-121.89927,36.62056],[-121.89862,36.61866],[-121.89629,36.61783],[-121.89597,36.61701],[-121.89631,36.61647],[-121.89564,36.61647],[-121.896,36.61485],[-121.897,36.61458],[-121.89734,36.61513]]],[[[-121.90297,36.61978],[-121.90263,36.62005],[-121.90263,36.61978],[-121.90297,36.61978]]],[[[-121.9073,36.62171],[-121.90764,36.62199],[-121.9073,36.62199],[-121.9073,36.62171]]],[[[-121.91132,36.62283],[-121.91098,36.6231],[-121.91098,36.62283],[-121.91132,36.62283]]],[[[-121.91096,36.62391],[-121.91129,36.62445],[-121.91096,36.62445],[-121.91096,36.62391]]],[[[-121.91628,36.6272],[-121.91562,36.62693],[-121.91639804855703,36.62693463124141],[-121.9164,36.62696],[-121.91643935915077,36.6269348771378],[-121.9173,36.62694],[-121.91763,36.62776],[-121.9183,36.62722],[-121.91896,36.62804],[-121.91996,36.62804],[-121.91962,36.62832],[-121.91995,36.62913],[-121.92094,36.62968],[-121.92096,36.62887],[-121.9203,36.62832],[-121.9213,36.6286],[-121.92128,36.62996],[-121.9206,36.63049],[-121.91993,36.63049],[-121.91927,36.62939],[-121.91827,36.62966],[-121.91861,36.62885],[-121.91795,36.62857],[-121.91829,36.62804],[-121.91628,36.62802],[-121.91628,36.6272]]],[[[-121.91959,36.63102],[-121.91992,36.63102],[-121.91959,36.63129],[-121.91959,36.63102]]],[[[-121.92088,36.63401],[-121.92122,36.63401],[-121.92088,36.63428],[-121.92088,36.63401]]],[[[-121.92354,36.63646],[-121.92387,36.63701],[-121.92353,36.63701],[-121.92354,36.63646]]],[[[-121.92622,36.63676],[-121.92588,36.63703],[-121.92588,36.63676],[-121.92622,36.63676]]],[[[-121.92756,36.63677],[-121.92722,36.63704],[-121.92722,36.63677],[-121.92756,36.63677]]],[[[-121.93797,36.63659],[-121.93829,36.63741],[-121.93796,36.63741],[-121.93797,36.63659]]],[[[-121.92521,36.63702],[-121.92554,36.63729],[-121.92521,36.63729],[-121.92521,36.63702]]],[[[-121.93762,36.63713],[-121.93729,36.6374],[-121.93729,36.63713],[-121.93762,36.63713]]],[[[-121.93359,36.63763],[-121.93325,36.63791],[-121.93325,36.63763],[-121.93359,36.63763]]],[[[-121.92486,36.6381],[-121.92553,36.63783],[-121.92553,36.63811],[-121.92486,36.6381]]],[[[-121.94096,36.63797],[-121.94029,36.63824],[-121.94029,36.63797],[-121.94096,36.63797]]],[[[-121.92419,36.63809],[-121.92451,36.63864],[-121.92385,36.63809],[-121.92419,36.63809]]],[[[-121.93324,36.63926],[-121.93358,36.63845],[-121.93526,36.63846],[-121.93558,36.63955],[-121.93324,36.63926]]],[[[-121.92686,36.6392],[-121.92753,36.63893],[-121.92753,36.63921],[-121.92686,36.6392]]],[[[-121.93961,36.63904],[-121.93927,36.63931],[-121.93927,36.63904],[-121.93961,36.63904]]],[[[-121.93623,36.6409],[-121.93589,36.64118],[-121.93589,36.6409],[-121.93623,36.6409]]],[[[-121.9369,36.64118],[-121.93656,36.64145],[-121.93656,36.64118],[-121.9369,36.64118]]],[[[-121.93219,36.64141],[-121.93253,36.64141],[-121.93219,36.64169],[-121.93219,36.64141]]],[[[-121.93286,36.64141],[-121.9332,36.64141],[-121.93286,36.64169],[-121.93286,36.64141]]]]}}]}