{"type":"FeatureCollection","features":[{"type":"Feature","geometry":{"type":"Point","coordinates":[-121.894,36.6055]},"properties":{"name":"Monterey Harbor","importance":"marquee"}},{"type":"Feature","geometry":{"type":"Point","coordinates":[-121.891,36.6048]},"properties":{"name":"Coast Guard Pier","importance":"major"}},{"type":"Feature","geometry":{"type":"Point","coordinates":[-121.916,36.624]},"properties":{"name":"Lover's Point","importance":"major"}},{"type":"Feature","geometry":{"type":"Point","coordinates":[-121.946,36.633]},"properties":{"name":"Point Pinos","importance":"major"}},{"type":"Feature","geometry":{"type":"Point","coordinates":[-121.942,36.622]},"properties":{"name":"Asilomar Beach","importance":"minor"}},{"type":"Feature","geometry":{"type":"Point","coordinates":[-121.953,36.621]},"properties":{"name":"Pinnacles (Pt. Pinos)","importance":"minor"}},{"type":"Feature","geometry":{"type":"Point","coordinates":[-121.895,36.6055]},"properties":{"name":"San Carlos Beach","importance":"major"}},{"type":"Feature","geometry":{"type":"Point","coordinates":[-121.892,36.6045]},"properties":{"name":"Breakwater Cove","importance":"marquee"}}]}