{"type":"FeatureCollection","features":[{"type":"Feature","geometry":{"type":"Polygon","coordinates":[[[-121.902,36.618],[-121.896,36.621],[-121.89,36.608],[-121.891,36.609],[-121.891,36.609],[-121.891,36.609],[-121.893,36.609],[-121.893,36.609],[-121.893,36.609],[-121.893,36.609],[-121.893,36.609],[-121.893,36.609],[-121.894,36.609],[-121.894,36.609],[-121.895,36.609],[-121.896,36.61],[-121.896,36.61],[-121.896,36.61],[-121.896,36.61],[-121.896,36.61],[-121.896,36.61],[-121.896,36.61],[-121.896,36.61],[-121.896,36.61],[-121.896,36.611],[-121.896,36.611],[-121.896,36.611],[-121.896,36.611],[-121.897,36.611],[-121.897,36.611],[-121.897,36.611],[-121.897,36.611],[-121.896,36.611],[-121.896,36.611],[-121.896,36.611],[-121.896,36.611],[-121.896,36.611],[-121.896,36.611],[-121.896,36.611],[-121.896,36.611],[-121.897,36.611],[-121.897,36.612],[-121.897,36.612],[-121.897,36.612],[-121.897,36.612],[-121.897,36.612],[-121.897,36.612],[-121.897,36.612],[-121.897,36.612],[-121.897,36.612],[-121.897,36.612],[-121.897,36.612],[-121.897,36.612],[-121.898,36.612],[-121.898,36.612],[-121.898,36.612],[-121.898,36.612],[-121.898,36.612],[-121.898,36.612],[-121.898,36.612],[-121.898,36.612],[-121.897,36.612],[-121.898,36.612],[-121.898,36.613],[-121.898,36.613],[-121.898,36.613],[-121.898,36.613],[-121.898,36.613],[-121.897,36.613],[-121.898,36.613],[-121.897,36.613],[-121.897,36.613],[-121.897,36.613],[-121.898,36.613],[-121.898,36.613],[-121.898,36.613],[-121.897,36.613],[-121.897,36.613],[-121.897,36.613],[-121.897,36.614],[-121.897,36.614],[-121.897,36.614],[-121.897,36.614],[-121.897,36.614],[-121.897,36.614],[-121.897,36.614],[-121.898,36.614],[-121.898,36.614],[-121.898,36.614],[-121.898,36.614],[-121.898,36.614],[-121.898,36.614],[-121.898,36.614],[-121.898,36.614],[-121.898,36.614],[-121.898,36.614],[-121.898,36.614],[-121.898,36.614],[-121.898,36.614],[-121.898,36.614],[-121.898,36.614],[-121.898,36.615],[-121.898,36.615],[-121.898,36.615],[-121.898,36.615],[-121.898,36.615],[-121.898,36.615],[-121.898,36.615],[-121.898,36.615],[-121.898,36.615],[-121.898,36.615],[-121.898,36.615],[-121.898,36.615],[-121.898,36.615],[-121.899,36.615],[-121.899,36.615],[-121.899,36.615],[-121.899,36.615],[-121.899,36.615],[-121.899,36.615],[-121.899,36.615],[-121.899,36.615],[-121.899,36.615],[-121.899,36.615],[-121.899,36.615],[-121.899,36.616],[-121.9,36.616],[-121.9,36.616],[-121.9,36.616],[-121.9,36.616],[-121.9,36.616],[-121.9,36.616],[-121.9,36.616],[-121.9,36.616],[-121.9,36.616],[-121.899,36.617],[-121.899,36.617],[-121.9,36.617],[-121.9,36.617],[-121.9,36.617],[-121.9,36.617],[-121.9,36.617],[-121.9,36.617],[-121.9,36.617],[-121.9,36.617],[-121.9,36.617],[-121.9,36.617],[-121.9,36.617],[-121.9,36.617],[-121.901,36.617],[-121.901,36.618],[-121.901,36.618],[-121.901,36.618],[-121.901,36.618],[-121.901,36.618],[-121.901,36.618],[-121.901,36.618],[-121.901,36.618],[-121.901,36.618],[-121.901,36.618],[-121.901,36.618],[-121.901,36.618],[-121.901,36.618],[-121.901,36.618],[-121.901,36.618],[-121.901,36.618],[-121.901,36.618],[-121.901,36.618],[-121.901,36.618],[-121.901,36.618],[-121.901,36.618],[-121.901,36.618],[-121.901,36.618],[-121.901,36.618],[-121.901,36.618],[-121.901,36.618],[-121.902,36.618],[-121.902,36.618]]]},"properties":{"id":"edward-f-ricketts-state-marine-conservation-area","name":"Edward F. Ricketts State Marine Conservation Area","type":"SMCA","shortName":"Edward F. Ricketts","areaKm2":null,"ccrCitation":null}},{"type":"Feature","geometry":{"type":"Polygon","coordinates":[[[-121.913,36.627],[-121.898,36.623],[-121.896,36.621],[-121.902,36.618],[-121.902,36.618],[-121.902,36.618],[-121.902,36.619],[-121.902,36.619],[-121.901,36.619],[-121.902,36.619],[-121.901,36.619],[-121.902,36.619],[-121.901,36.619],[-121.902,36.619],[-121.902,36.619],[-121.902,36.619],[-121.902,36.619],[-121.902,36.619],[-121.902,36.619],[-121.902,36.619],[-121.902,36.619],[-121.902,36.619],[-121.902,36.619],[-121.902,36.619],[-121.903,36.619],[-121.903,36.619],[-121.903,36.619],[-121.903,36.619],[-121.903,36.619],[-121.903,36.619],[-121.904,36.619],[-121.904,36.62],[-121.904,36.62],[-121.903,36.62],[-121.903,36.62],[-121.903,36.62],[-121.903,36.62],[-121.904,36.62],[-121.904,36.62],[-121.903,36.621],[-121.903,36.621],[-121.904,36.621],[-121.904,36.621],[-121.903,36.621],[-121.903,36.621],[-121.903,36.621],[-121.904,36.621],[-121.904,36.621],[-121.904,36.621],[-121.904,36.621],[-121.904,36.621],[-121.904,36.621],[-121.904,36.621],[-121.904,36.621],[-121.904,36.621],[-121.904,36.621],[-121.904,36.621],[-121.904,36.621],[-121.904,36.621],[-121.904,36.622],[-121.904,36.622],[-121.904,36.622],[-121.904,36.622],[-121.905,36.622],[-121.905,36.622],[-121.904,36.622],[-121.905,36.622],[-121.905,36.622],[-121.905,36.622],[-121.905,36.622],[-121.905,36.622],[-121.905,36.622],[-121.905,36.622],[-121.905,36.622],[-121.905,36.622],[-121.905,36.622],[-121.905,36.622],[-121.905,36.622],[-121.906,36.622],[-121.906,36.622],[-121.906,36.622],[-121.906,36.622],[-121.906,36.622],[-121.906,36.622],[-121.906,36.622],[-121.906,36.622],[-121.906,36.622],[-121.906,36.621],[-121.906,36.621],[-121.905,36.621],[-121.905,36.621],[-121.906,36.621],[-121.906,36.621],[-121.906,36.621],[-121.906,36.621],[-121.906,36.621],[-121.906,36.621],[-121.907,36.621],[-121.907,36.621],[-121.907,36.621],[-121.907,36.621],[-121.907,36.621],[-121.908,36.621],[-121.908,36.621],[-121.908,36.621],[-121.908,36.621],[-121.908,36.621],[-121.908,36.621],[-121.908,36.621],[-121.908,36.621],[-121.908,36.621],[-121.908,36.621],[-121.908,36.621],[-121.909,36.621],[-121.909,36.621],[-121.909,36.621],[-121.909,36.621],[-121.909,36.621],[-121.909,36.621],[-121.909,36.621],[-121.909,36.621],[-121.909,36.621],[-121.909,36.621],[-121.909,36.621],[-121.909,36.621],[-121.909,36.621],[-121.909,36.621],[-121.909,36.621],[-121.909,36.621],[-121.909,36.621],[-121.909,36.621],[-121.909,36.621],[-121.909,36.621],[-121.909,36.621],[-121.91,36.621],[-121.91,36.621],[-121.91,36.621],[-121.91,36.621],[-121.91,36.621],[-121.91,36.621],[-121.91,36.621],[-121.91,36.621],[-121.91,36.621],[-121.91,36.621],[-121.91,36.621],[-121.91,36.621],[-121.91,36.621],[-121.91,36.621],[-121.91,36.621],[-121.91,36.621],[-121.91,36.621],[-121.91,36.621],[-121.91,36.621],[-121.91,36.621],[-121.91,36.621],[-121.91,36.621],[-121.91,36.621],[-121.91,36.622],[-121.91,36.622],[-121.91,36.622],[-121.91,36.622],[-121.91,36.622],[-121.91,36.622],[-121.91,36.622],[-121.91,36.622],[-121.91,36.622],[-121.91,36.622],[-121.91,36.622],[-121.91,36.622],[-121.91,36.622],[-121.91,36.622],[-121.91,36.622],[-121.91,36.622],[-121.91,36.622],[-121.911,36.622],[-121.911,36.622],[-121.911,36.622],[-121.911,36.622],[-121.911,36.622],[-121.911,36.622],[-121.911,36.622],[-121.911,36.622],[-121.911,36.622],[-121.911,36.622],[-121.911,36.622],[-121.911,36.622],[-121.911,36.622],[-121.911,36.622],[-121.911,36.622],[-121.911,36.622],[-121.911,36.622],[-121.911,36.622],[-121.911,36.622],[-121.911,36.622],[-121.911,36.622],[-121.911,36.622],[-121.911,36.622],[-121.911,36.622],[-121.911,36.622],[-121.911,36.622],[-121.911,36.622],[-121.911,36.622],[-121.911,36.622],[-121.911,36.622],[-121.911,36.622],[-121.911,36.623],[-121.911,36.623],[-121.912,36.623],[-121.912,36.623],[-121.912,36.623],[-121.912,36.623],[-121.912,36.623],[-121.912,36.623],[-121.912,36.623],[-121.912,36.623],[-121.912,36.623],[-121.912,36.623],[-121.912,36.623],[-121.912,36.623],[-121.912,36.623],[-121.912,36.623],[-121.912,36.623],[-121.912,36.623],[-121.912,36.623],[-121.912,36.623],[-121.912,36.623],[-121.912,36.623],[-121.912,36.623],[-121.912,36.623],[-121.912,36.623],[-121.912,36.623],[-121.912,36.623],[-121.912,36.623],[-121.912,36.623],[-121.912,36.623],[-121.912,36.623],[-121.912,36.623],[-121.912,36.623],[-121.912,36.623],[-121.912,36.623],[-121.912,36.623],[-121.912,36.623],[-121.912,36.623],[-121.912,36.623],[-121.912,36.623],[-121.912,36.623],[-121.912,36.623],[-121.913,36.623],[-121.913,36.623],[-121.913,36.623],[-121.913,36.623],[-121.913,36.623],[-121.913,36.623],[-121.913,36.623],[-121.913,36.623],[-121.913,36.623],[-121.913,36.623],[-121.913,36.623],[-121.913,36.623],[-121.913,36.623],[-121.913,36.623],[-121.913,36.623],[-121.913,36.623],[-121.913,36.623],[-121.914,36.623],[-121.914,36.623],[-121.914,36.623],[-121.914,36.623],[-121.914,36.623],[-121.914,36.623],[-121.914,36.623],[-121.914,36.623],[-121.914,36.623],[-121.914,36.623],[-121.915,36.623],[-121.915,36.623],[-121.915,36.623],[-121.915,36.623],[-121.915,36.623],[-121.915,36.623],[-121.915,36.623],[-121.915,36.623],[-121.915,36.624],[-121.915,36.624],[-121.915,36.624],[-121.915,36.624],[-121.915,36.624],[-121.915,36.624],[-121.915,36.624],[-121.915,36.624],[-121.915,36.624],[-121.915,36.624],[-121.915,36.624],[-121.915,36.624],[-121.915,36.624],[-121.915,36.624],[-121.915,36.624],[-121.915,36.624],[-121.915,36.624],[-121.915,36.624],[-121.915,36.624],[-121.915,36.624],[-121.915,36.624],[-121.915,36.624],[-121.915,36.624],[-121.915,36.624],[-121.915,36.624],[-121.915,36.624],[-121.915,36.624],[-121.915,36.624],[-121.915,36.624],[-121.915,36.624],[-121.915,36.624],[-121.915,36.624],[-121.915,36.624],[-121.915,36.624],[-121.915,36.624],[-121.916,36.624],[-121.916,36.624],[-121.916,36.625],[-121.916,36.625],[-121.917,36.625],[-121.917,36.625],[-121.917,36.625],[-121.917,36.626],[-121.916,36.625],[-121.916,36.625],[-121.916,36.625],[-121.916,36.626],[-121.916,36.626],[-121.916,36.626],[-121.916,36.626],[-121.916,36.626],[-121.916,36.626],[-121.916,36.626],[-121.916,36.626],[-121.916,36.626],[-121.916,36.626],[-121.916,36.626],[-121.916,36.626],[-121.916,36.626],[-121.915,36.627],[-121.915,36.627],[-121.915,36.627],[-121.915,36.627],[-121.913,36.627]]]},"properties":{"id":"lovers-point-julia-platt-state-marine-reserve","name":"Lovers Point - Julia Platt State Marine Reserve","type":"SMR","shortName":"Lovers Point - Julia Platt","areaKm2":null,"ccrCitation":null}},{"type":"Feature","geometry":{"type":"Polygon","coordinates":[[[-121.923,36.645],[-121.913,36.627],[-121.915,36.627],[-121.915,36.627],[-121.915,36.627],[-121.915,36.627],[-121.915,36.627],[-121.915,36.627],[-121.915,36.627],[-121.915,36.627],[-121.915,36.627],[-121.915,36.627],[-121.915,36.627],[-121.915,36.627],[-121.915,36.627],[-121.915,36.627],[-121.915,36.627],[-121.915,36.627],[-121.915,36.627],[-121.915,36.627],[-121.915,36.627],[-121.915,36.627],[-121.915,36.627],[-121.915,36.627],[-121.915,36.627],[-121.916,36.627],[-121.916,36.627],[-121.916,36.627],[-121.916,36.627],[-121.916,36.627],[-121.916,36.627],[-121.916,36.627],[-121.916,36.627],[-121.916,36.627],[-121.916,36.627],[-121.916,36.627],[-121.916,36.627],[-121.916,36.627],[-121.916,36.627],[-121.916,36.627],[-121.916,36.627],[-121.916,36.627],[-121.916,36.627],[-121.916,36.627],[-121.916,36.627],[-121.916,36.627],[-121.916,36.627],[-121.916,36.627],[-121.916,36.627],[-121.916,36.627],[-121.916,36.627],[-121.916,36.627],[-121.916,36.627],[-121.916,36.627],[-121.916,36.627],[-121.916,36.627],[-121.916,36.627],[-121.916,36.627],[-121.917,36.627],[-121.917,36.627],[-121.917,36.627],[-121.917,36.627],[-121.917,36.627],[-121.917,36.627],[-121.917,36.627],[-121.917,36.627],[-121.917,36.627],[-121.917,36.627],[-121.917,36.627],[-121.917,36.627],[-121.917,36.627],[-121.917,36.627],[-121.917,36.627],[-121.917,36.627],[-121.917,36.627],[-121.917,36.627],[-121.917,36.627],[-121.918,36.627],[-121.918,36.627],[-121.918,36.627],[-121.918,36.627],[-121.918,36.627],[-121.919,36.627],[-121.919,36.627],[-121.919,36.627],[-121.919,36.627],[-121.919,36.627],[-121.919,36.627],[-121.919,36.627],[-121.919,36.627],[-121.919,36.627],[-121.919,36.627],[-121.919,36.627],[-121.919,36.627],[-121.919,36.627],[-121.919,36.627],[-121.92,36.627],[-121.92,36.627],[-121.92,36.627],[-121.92,36.628],[-121.92,36.628],[-121.92,36.628],[-121.92,36.628],[-121.92,36.628],[-121.92,36.628],[-121.92,36.628],[-121.92,36.628],[-121.92,36.628],[-121.92,36.628],[-121.92,36.628],[-121.92,36.628],[-121.92,36.628],[-121.921,36.628],[-121.921,36.628],[-121.921,36.628],[-121.921,36.628],[-121.921,36.628],[-121.921,36.628],[-121.921,36.628],[-121.921,36.628],[-121.921,36.628],[-121.921,36.628],[-121.922,36.628],[-121.922,36.629],[-121.922,36.629],[-121.922,36.629],[-121.922,36.629],[-121.922,36.629],[-121.922,36.629],[-121.922,36.629],[-121.922,36.629],[-121.922,36.629],[-121.922,36.63],[-121.922,36.63],[-121.922,36.63],[-121.922,36.63],[-121.922,36.63],[-121.922,36.63],[-121.922,36.63],[-121.922,36.63],[-121.922,36.63],[-121.922,36.63],[-121.922,36.63],[-121.922,36.63],[-121.922,36.63],[-121.922,36.63],[-121.922,36.631],[-121.922,36.631],[-121.922,36.631],[-121.922,36.631],[-121.922,36.631],[-121.922,36.631],[-121.922,36.631],[-121.922,36.631],[-121.922,36.632],[-121.922,36.632],[-121.922,36.632],[-121.922,36.632],[-121.922,36.632],[-121.922,36.632],[-121.922,36.632],[-121.923,36.632],[-121.923,36.632],[-121.923,36.633],[-121.923,36.633],[-121.923,36.633],[-121.923,36.633],[-121.923,36.633],[-121.924,36.633],[-121.924,36.634],[-121.924,36.634],[-121.924,36.634],[-121.924,36.634],[-121.924,36.634],[-121.924,36.634],[-121.925,36.635],[-121.925,36.635],[-121.925,36.635],[-121.925,36.635],[-121.925,36.635],[-121.925,36.635],[-121.925,36.635],[-121.926,36.635],[-121.926,36.635],[-121.926,36.635],[-121.926,36.635],[-121.927,36.635],[-121.927,36.635],[-121.927,36.635],[-121.927,36.635],[-121.928,36.635],[-121.928,36.635],[-121.928,36.635],[-121.928,36.636],[-121.928,36.636],[-121.928,36.636],[-121.928,36.636],[-121.928,36.636],[-121.928,36.636],[-121.928,36.636],[-121.928,36.636],[-121.928,36.636],[-121.928,36.636],[-121.928,36.636],[-121.928,36.636],[-121.928,36.636],[-121.928,36.636],[-121.928,36.636],[-121.928,36.636],[-121.928,36.636],[-121.928,36.636],[-121.929,36.636],[-121.929,36.636],[-121.929,36.636],[-121.929,36.636],[-121.929,36.637],[-121.929,36.637],[-121.929,36.637],[-121.929,36.637],[-121.929,36.637],[-121.929,36.636],[-121.929,36.636],[-121.929,36.637],[-121.929,36.637],[-121.929,36.637],[-121.929,36.637],[-121.929,36.637],[-121.929,36.637],[-121.929,36.637],[-121.929,36.637],[-121.929,36.637],[-121.929,36.637],[-121.93,36.637],[-121.93,36.637],[-121.93,36.637],[-121.93,36.637],[-121.93,36.637],[-121.93,36.637],[-121.931,36.637],[-121.931,36.637],[-121.931,36.637],[-121.931,36.637],[-121.931,36.637],[-121.931,36.637],[-121.931,36.637],[-121.931,36.637],[-121.931,36.637],[-121.931,36.637],[-121.931,36.637],[-121.931,36.637],[-121.931,36.637],[-121.931,36.637],[-121.931,36.637],[-121.931,36.637],[-121.931,36.637],[-121.931,36.637],[-121.931,36.637],[-121.931,36.637],[-121.931,36.637],[-121.932,36.637],[-121.932,36.637],[-121.932,36.637],[-121.932,36.637],[-121.932,36.637],[-121.933,36.637],[-121.933,36.637],[-121.933,36.637],[-121.934,36.637],[-121.934,36.637],[-121.934,36.637],[-121.934,36.637],[-121.934,36.637],[-121.934,36.637],[-121.934,36.637],[-121.934,36.637],[-121.934,36.637],[-121.934,36.638],[-121.934,36.637],[-121.934,36.637],[-121.934,36.637],[-121.934,36.637],[-121.935,36.637],[-121.935,36.638],[-121.935,36.638],[-121.935,36.638],[-121.935,36.638],[-121.935,36.637],[-121.935,36.637],[-121.935,36.637],[-121.935,36.637],[-121.935,36.637],[-121.935,36.637],[-121.935,36.637],[-121.935,36.637],[-121.935,36.637],[-121.935,36.637],[-121.936,36.637],[-121.936,36.637],[-121.936,36.637],[-121.936,36.637],[-121.938,36.639],[-121.943,36.648],[-121.923,36.645]]]},"properties":{"id":"pacific-grove-marine-gardens-state-marine-conservation-area","name":"Pacific Grove Marine Gardens State Marine Conservation Area","type":"SMCA","shortName":"Pacific Grove Marine Gardens","areaKm2":null,"ccrCitation":null}},{"type":"Feature","geometry":{"type":"Polygon","coordinates":[[[-121.936,36.637],[-121.936,36.637],[-121.936,36.637],[-121.936,36.637],[-121.936,36.637],[-121.936,36.637],[-121.936,36.637],[-121.936,36.637],[-121.936,36.637],[-121.936,36.637],[-121.936,36.637],[-121.936,36.637],[-121.936,36.637],[-121.936,36.637],[-121.936,36.637],[-121.936,36.637],[-121.936,36.637],[-121.937,36.637],[-121.936,36.637],[-121.936,36.637],[-121.936,36.637],[-121.937,36.637],[-121.937,36.637],[-121.937,36.636],[-121.937,36.636],[-121.937,36.636],[-121.937,36.636],[-121.937,36.636],[-121.937,36.636],[-121.937,36.636],[-121.937,36.636],[-121.937,36.636],[-121.937,36.636],[-121.937,36.636],[-121.937,36.636],[-121.937,36.636],[-121.937,36.636],[-121.937,36.636],[-121.937,36.636],[-121.937,36.636],[-121.937,36.636],[-121.937,36.636],[-121.937,36.636],[-121.937,36.636],[-121.938,36.636],[-121.938,36.636],[-121.938,36.636],[-121.938,36.636],[-121.938,36.636],[-121.938,36.636],[-121.938,36.636],[-121.938,36.636],[-121.938,36.636],[-121.938,36.636],[-121.938,36.636],[-121.938,36.636],[-121.938,36.636],[-121.938,36.636],[-121.938,36.635],[-121.938,36.635],[-121.938,36.635],[-121.938,36.635],[-121.938,36.635],[-121.938,36.635],[-121.938,36.635],[-121.938,36.635],[-121.938,36.635],[-121.938,36.635],[-121.938,36.635],[-121.938,36.635],[-121.938,36.635],[-121.938,36.635],[-121.938,36.634],[-121.938,36.634],[-121.939,36.634],[-121.939,36.634],[-121.939,36.634],[-121.939,36.634],[-121.939,36.634],[-121.939,36.634],[-121.938,36.634],[-121.939,36.633],[-121.939,36.633],[-121.939,36.633],[-121.939,36.633],[-121.939,36.633],[-121.939,36.633],[-121.939,36.633],[-121.939,36.633],[-121.939,36.633],[-121.939,36.632],[-121.939,36.632],[-121.939,36.632],[-121.939,36.632],[-121.938,36.632],[-121.938,36.632],[-121.938,36.632],[-121.938,36.632],[-121.938,36.632],[-121.938,36.632],[-121.938,36.632],[-121.938,36.632],[-121.938,36.632],[-121.938,36.632],[-121.938,36.632],[-121.938,36.632],[-121.938,36.632],[-121.938,36.632],[-121.938,36.632],[-121.938,36.632],[-121.938,36.632],[-121.938,36.632],[-121.938,36.632],[-121.938,36.632],[-121.938,36.632],[-121.938,36.632],[-121.938,36.632],[-121.938,36.632],[-121.938,36.632],[-121.938,36.631],[-121.938,36.631],[-121.938,36.631],[-121.938,36.631],[-121.938,36.631],[-121.938,36.631],[-121.938,36.631],[-121.938,36.631],[-121.938,36.63],[-121.938,36.63],[-121.938,36.63],[-121.938,36.63],[-121.938,36.63],[-121.938,36.63],[-121.938,36.63],[-121.938,36.63],[-121.938,36.63],[-121.938,36.63],[-121.938,36.63],[-121.938,36.629],[-121.938,36.629],[-121.938,36.629],[-121.938,36.629],[-121.938,36.629],[-121.938,36.629],[-121.938,36.628],[-121.938,36.628],[-121.938,36.628],[-121.938,36.628],[-121.938,36.628],[-121.938,36.627],[-121.938,36.627],[-121.938,36.627],[-121.938,36.627],[-121.939,36.627],[-121.939,36.627],[-121.939,36.627],[-121.939,36.627],[-121.939,36.627],[-121.939,36.627],[-121.94,36.627],[-121.94,36.627],[-121.94,36.627],[-121.94,36.627],[-121.94,36.627],[-121.94,36.627],[-121.94,36.627],[-121.94,36.627],[-121.94,36.627],[-121.94,36.627],[-121.94,36.627],[-121.94,36.627],[-121.94,36.627],[-121.94,36.627],[-121.94,36.626],[-121.94,36.627],[-121.94,36.627],[-121.94,36.626],[-121.94,36.626],[-121.94,36.626],[-121.94,36.626],[-121.94,36.626],[-121.94,36.626],[-121.94,36.626],[-121.94,36.626],[-121.94,36.626],[-121.94,36.626],[-121.94,36.626],[-121.94,36.626],[-121.94,36.625],[-121.94,36.625],[-121.94,36.625],[-121.94,36.625],[-121.94,36.625],[-121.94,36.625],[-121.94,36.625],[-121.94,36.625],[-121.94,36.625],[-121.94,36.625],[-121.94,36.625],[-121.94,36.625],[-121.94,36.625],[-121.94,36.625],[-121.94,36.625],[-121.94,36.625],[-121.94,36.625],[-121.94,36.625],[-121.94,36.625],[-121.94,36.625],[-121.94,36.625],[-121.94,36.625],[-121.94,36.625],[-121.94,36.625],[-121.94,36.625],[-121.94,36.624],[-121.94,36.624],[-121.94,36.624],[-121.94,36.624],[-121.94,36.624],[-121.94,36.624],[-121.94,36.624],[-121.94,36.624],[-121.94,36.624],[-121.94,36.624],[-121.94,36.624],[-121.941,36.624],[-121.941,36.624],[-121.941,36.623],[-121.941,36.624],[-121.941,36.624],[-121.941,36.624],[-121.941,36.624],[-121.941,36.624],[-121.941,36.624],[-121.941,36.624],[-121.941,36.624],[-121.941,36.624],[-121.941,36.624],[-121.941,36.623],[-121.941,36.623],[-121.942,36.623],[-121.942,36.623],[-121.942,36.623],[-121.942,36.623],[-121.942,36.623],[-121.942,36.623],[-121.942,36.623],[-121.942,36.623],[-121.942,36.623],[-121.942,36.623],[-121.942,36.623],[-121.942,36.623],[-121.942,36.623],[-121.942,36.623],[-121.942,36.623],[-121.941,36.623],[-121.941,36.623],[-121.941,36.623],[-121.941,36.623],[-121.941,36.623],[-121.941,36.623],[-121.941,36.623],[-121.941,36.622],[-121.941,36.622],[-121.941,36.622],[-121.942,36.622],[-121.942,36.622],[-121.941,36.622],[-121.941,36.622],[-121.942,36.622],[-121.942,36.622],[-121.942,36.622],[-121.942,36.622],[-121.941,36.622],[-121.942,36.622],[-121.942,36.622],[-121.941,36.622],[-121.941,36.622],[-121.942,36.622],[-121.942,36.622],[-121.942,36.622],[-121.942,36.622],[-121.942,36.621],[-121.942,36.621],[-121.942,36.621],[-121.942,36.621],[-121.942,36.621],[-121.942,36.621],[-121.942,36.621],[-121.942,36.621],[-121.942,36.62],[-121.942,36.62],[-121.942,36.62],[-121.942,36.62],[-121.942,36.62],[-121.942,36.62],[-121.941,36.62],[-121.941,36.62],[-121.942,36.62],[-121.941,36.62],[-121.941,36.619],[-121.941,36.619],[-121.941,36.619],[-121.941,36.619],[-121.941,36.618],[-121.941,36.618],[-121.942,36.618],[-121.942,36.617],[-121.942,36.617],[-121.942,36.617],[-121.942,36.617],[-121.943,36.617],[-121.943,36.616],[-121.943,36.616],[-121.944,36.615],[-121.944,36.615],[-121.944,36.615],[-121.944,36.615],[-121.945,36.615],[-121.945,36.615],[-121.945,36.615],[-121.945,36.615],[-121.945,36.615],[-121.945,36.615],[-121.945,36.615],[-121.945,36.615],[-121.945,36.614],[-121.945,36.614],[-121.946,36.614],[-121.946,36.614],[-121.946,36.614],[-121.946,36.614],[-121.946,36.614],[-121.946,36.614],[-121.946,36.614],[-121.946,36.614],[-121.946,36.614],[-121.946,36.614],[-121.946,36.614],[-121.946,36.614],[-121.946,36.614],[-121.946,36.614],[-121.946,36.614],[-121.946,36.614],[-121.946,36.613],[-121.946,36.613],[-121.946,36.613],[-121.946,36.613],[-121.946,36.613],[-121.946,36.613],[-121.946,36.613],[-121.946,36.613],[-121.946,36.613],[-121.946,36.613],[-121.946,36.613],[-121.946,36.613],[-121.946,36.613],[-121.946,36.613],[-121.947,36.613],[-121.947,36.612],[-121.947,36.612],[-121.947,36.612],[-121.947,36.612],[-121.947,36.612],[-121.947,36.612],[-121.947,36.612],[-121.947,36.611],[-121.947,36.611],[-121.948,36.61],[-121.948,36.61],[-121.948,36.61],[-121.949,36.609],[-121.949,36.609],[-121.95,36.609],[-121.95,36.609],[-121.951,36.609],[-121.952,36.609],[-121.952,36.608],[-121.952,36.608],[-121.953,36.609],[-121.953,36.609],[-121.954,36.609],[-121.954,36.609],[-121.954,36.609],[-121.954,36.609],[-121.955,36.609],[-121.955,36.609],[-121.955,36.61],[-121.955,36.61],[-121.956,36.61],[-121.956,36.61],[-121.956,36.61],[-121.956,36.61],[-121.956,36.61],[-121.956,36.61],[-121.957,36.61],[-121.957,36.61],[-121.957,36.61],[-121.957,36.61],[-121.957,36.61],[-121.957,36.61],[-121.957,36.61],[-121.957,36.61],[-121.957,36.61],[-121.957,36.61],[-121.957,36.61],[-121.957,36.61],[-121.957,36.61],[-121.957,36.61],[-121.957,36.61],[-121.957,36.61],[-121.957,36.61],[-121.957,36.61],[-121.957,36.61],[-121.957,36.61],[-121.958,36.61],[-121.958,36.609],[-121.958,36.609],[-121.959,36.609],[-121.943,36.648],[-121.938,36.639],[-121.936,36.637]]]},"properties":{"id":"asilomar-state-marine-reserve","name":"Asilomar State Marine Reserve","type":"SMR","shortName":"Asilomar","areaKm2":null,"ccrCitation":null}},{"type":"Feature","geometry":{"type":"Polygon","coordinates":[[[-121.95,36.567],[-121.95,36.567],[-121.95,36.567],[-121.949,36.567],[-121.949,36.567],[-121.949,36.567],[-121.948,36.567],[-121.948,36.567],[-121.948,36.567],[-121.948,36.567],[-121.948,36.567],[-121.948,36.567],[-121.948,36.567],[-121.947,36.567],[-121.947,36.567],[-121.947,36.567],[-121.947,36.567],[-121.947,36.567],[-121.947,36.567],[-121.947,36.567],[-121.947,36.567],[-121.947,36.567],[-121.947,36.567],[-121.947,36.567],[-121.947,36.567],[-121.947,36.567],[-121.946,36.567],[-121.946,36.566],[-121.946,36.566],[-121.946,36.566],[-121.946,36.566],[-121.946,36.566],[-121.946,36.566],[-121.946,36.566],[-121.945,36.566],[-121.945,36.566],[-121.945,36.566],[-121.945,36.566],[-121.945,36.566],[-121.945,36.566],[-121.945,36.566],[-121.945,36.566],[-121.945,36.565],[-121.945,36.565],[-121.945,36.565],[-121.945,36.565],[-121.945,36.565],[-121.945,36.566],[-121.945,36.566],[-121.945,36.565],[-121.945,36.566],[-121.945,36.566],[-121.945,36.566],[-121.945,36.566],[-121.945,36.566],[-121.945,36.566],[-121.944,36.566],[-121.944,36.566],[-121.944,36.566],[-121.944,36.566],[-121.944,36.566],[-121.944,36.566],[-121.944,36.566],[-121.944,36.566],[-121.944,36.566],[-121.944,36.566],[-121.944,36.566],[-121.944,36.566],[-121.944,36.566],[-121.944,36.566],[-121.944,36.566],[-121.944,36.566],[-121.944,36.566],[-121.944,36.566],[-121.943,36.566],[-121.943,36.567],[-121.943,36.567],[-121.943,36.567],[-121.943,36.567],[-121.943,36.567],[-121.943,36.566],[-121.942,36.566],[-121.942,36.566],[-121.942,36.566],[-121.942,36.566],[-121.942,36.566],[-121.942,36.566],[-121.942,36.566],[-121.942,36.566],[-121.941,36.566],[-121.941,36.566],[-121.941,36.566],[-121.941,36.566],[-121.94,36.566],[-121.94,36.565],[-121.94,36.565],[-121.94,36.565],[-121.94,36.565],[-121.94,36.565],[-121.94,36.565],[-121.94,36.565],[-121.94,36.565],[-121.94,36.565],[-121.94,36.565],[-121.939,36.565],[-121.939,36.564],[-121.939,36.564],[-121.939,36.564],[-121.939,36.564],[-121.939,36.564],[-121.939,36.564],[-121.939,36.564],[-121.939,36.564],[-121.939,36.564],[-121.939,36.564],[-121.939,36.564],[-121.939,36.564],[-121.939,36.564],[-121.939,36.564],[-121.939,36.564],[-121.939,36.564],[-121.939,36.564],[-121.939,36.564],[-121.939,36.564],[-121.939,36.564],[-121.939,36.564],[-121.939,36.564],[-121.939,36.564],[-121.939,36.564],[-121.939,36.564],[-121.939,36.564],[-121.939,36.564],[-121.939,36.563],[-121.939,36.563],[-121.939,36.563],[-121.939,36.563],[-121.939,36.563],[-121.939,36.563],[-121.939,36.563],[-121.939,36.563],[-121.939,36.563],[-121.94,36.563],[-121.94,36.563],[-121.94,36.563],[-121.94,36.563],[-121.94,36.563],[-121.94,36.563],[-121.94,36.563],[-121.94,36.563],[-121.94,36.563],[-121.94,36.563],[-121.94,36.563],[-121.94,36.563],[-121.94,36.563],[-121.94,36.563],[-121.94,36.563],[-121.94,36.563],[-121.94,36.563],[-121.94,36.563],[-121.94,36.563],[-121.94,36.563],[-121.94,36.563],[-121.94,36.563],[-121.94,36.563],[-121.94,36.563],[-121.94,36.563],[-121.94,36.563],[-121.94,36.563],[-121.94,36.563],[-121.94,36.563],[-121.94,36.563],[-121.94,36.563],[-121.94,36.563],[-121.94,36.563],[-121.94,36.563],[-121.94,36.563],[-121.94,36.563],[-121.94,36.563],[-121.94,36.563],[-121.94,36.563],[-121.94,36.563],[-121.94,36.563],[-121.94,36.563],[-121.94,36.563],[-121.94,36.563],[-121.94,36.563],[-121.94,36.563],[-121.94,36.563],[-121.94,36.563],[-121.94,36.563],[-121.94,36.563],[-121.94,36.563],[-121.94,36.563],[-121.94,36.563],[-121.94,36.563],[-121.94,36.563],[-121.94,36.563],[-121.94,36.563],[-121.94,36.563],[-121.94,36.562],[-121.94,36.562],[-121.94,36.562],[-121.94,36.562],[-121.94,36.562],[-121.94,36.562],[-121.94,36.562],[-121.94,36.562],[-121.941,36.562],[-121.941,36.562],[-121.941,36.562],[-121.941,36.562],[-121.941,36.562],[-121.941,36.562],[-121.941,36.562],[-121.941,36.562],[-121.941,36.562],[-121.941,36.562],[-121.941,36.562],[-121.941,36.562],[-121.941,36.562],[-121.941,36.562],[-121.941,36.562],[-121.941,36.562],[-121.941,36.562],[-121.941,36.562],[-121.941,36.562],[-121.941,36.562],[-121.941,36.562],[-121.941,36.562],[-121.941,36.562],[-121.941,36.562],[-121.941,36.562],[-121.941,36.562],[-121.941,36.562],[-121.941,36.562],[-121.941,36.562],[-121.941,36.562],[-121.941,36.562],[-121.941,36.562],[-121.941,36.561],[-121.941,36.561],[-121.941,36.561],[-121.941,36.561],[-121.941,36.561],[-121.94,36.561],[-121.94,36.561],[-121.94,36.561],[-121.94,36.561],[-121.94,36.561],[-121.94,36.561],[-121.94,36.561],[-121.94,36.561],[-121.94,36.561],[-121.94,36.561],[-121.94,36.561],[-121.94,36.561],[-121.94,36.561],[-121.94,36.561],[-121.94,36.561],[-121.94,36.561],[-121.94,36.561],[-121.94,36.561],[-121.94,36.561],[-121.94,36.561],[-121.94,36.561],[-121.94,36.561],[-121.94,36.561],[-121.94,36.561],[-121.94,36.561],[-121.94,36.561],[-121.94,36.561],[-121.94,36.561],[-121.94,36.561],[-121.94,36.561],[-121.939,36.561],[-121.939,36.561],[-121.939,36.561],[-121.939,36.561],[-121.939,36.561],[-121.939,36.561],[-121.939,36.561],[-121.939,36.561],[-121.939,36.562],[-121.939,36.562],[-121.939,36.562],[-121.939,36.562],[-121.939,36.562],[-121.939,36.562],[-121.939,36.562],[-121.939,36.562],[-121.939,36.562],[-121.939,36.562],[-121.939,36.562],[-121.939,36.562],[-121.939,36.561],[-121.939,36.561],[-121.939,36.561],[-121.939,36.561],[-121.939,36.561],[-121.939,36.561],[-121.939,36.562],[-121.939,36.562],[-121.939,36.562],[-121.939,36.562],[-121.939,36.562],[-121.939,36.562],[-121.939,36.562],[-121.939,36.562],[-121.939,36.562],[-121.939,36.562],[-121.939,36.562],[-121.939,36.562],[-121.939,36.562],[-121.939,36.562],[-121.939,36.562],[-121.939,36.562],[-121.939,36.562],[-121.939,36.562],[-121.939,36.562],[-121.939,36.562],[-121.939,36.562],[-121.939,36.562],[-121.939,36.562],[-121.938,36.562],[-121.938,36.562],[-121.938,36.562],[-121.938,36.562],[-121.938,36.562],[-121.938,36.562],[-121.938,36.562],[-121.938,36.562],[-121.938,36.562],[-121.938,36.562],[-121.938,36.562],[-121.938,36.562],[-121.938,36.562],[-121.938,36.562],[-121.938,36.562],[-121.938,36.562],[-121.938,36.562],[-121.938,36.562],[-121.938,36.562],[-121.938,36.562],[-121.938,36.562],[-121.938,36.562],[-121.938,36.562],[-121.938,36.562],[-121.938,36.563],[-121.938,36.563],[-121.938,36.563],[-121.938,36.563],[-121.938,36.563],[-121.938,36.563],[-121.938,36.563],[-121.938,36.563],[-121.938,36.563],[-121.938,36.563],[-121.938,36.563],[-121.938,36.563],[-121.938,36.563],[-121.938,36.563],[-121.938,36.563],[-121.938,36.563],[-121.938,36.563],[-121.938,36.563],[-121.938,36.563],[-121.938,36.563],[-121.938,36.563],[-121.938,36.563],[-121.938,36.563],[-121.938,36.563],[-121.938,36.563],[-121.938,36.563],[-121.938,36.563],[-121.938,36.563],[-121.938,36.563],[-121.938,36.563],[-121.938,36.563],[-121.938,36.563],[-121.938,36.563],[-121.938,36.563],[-121.938,36.563],[-121.938,36.563],[-121.938,36.563],[-121.938,36.563],[-121.938,36.563],[-121.938,36.563],[-121.938,36.563],[-121.938,36.563],[-121.938,36.563],[-121.937,36.563],[-121.937,36.563],[-121.937,36.563],[-121.937,36.563],[-121.937,36.563],[-121.937,36.563],[-121.937,36.563],[-121.937,36.563],[-121.937,36.563],[-121.937,36.563],[-121.937,36.563],[-121.937,36.563],[-121.937,36.563],[-121.937,36.563],[-121.937,36.563],[-121.937,36.563],[-121.937,36.563],[-121.937,36.563],[-121.936,36.563],[-121.936,36.563],[-121.936,36.562],[-121.936,36.562],[-121.936,36.562],[-121.936,36.562],[-121.936,36.562],[-121.936,36.562],[-121.936,36.562],[-121.936,36.562],[-121.936,36.562],[-121.936,36.562],[-121.936,36.562],[-121.936,36.562],[-121.936,36.562],[-121.936,36.562],[-121.935,36.562],[-121.935,36.562],[-121.935,36.562],[-121.935,36.562],[-121.935,36.562],[-121.935,36.562],[-121.935,36.562],[-121.935,36.562],[-121.935,36.562],[-121.935,36.562],[-121.935,36.562],[-121.935,36.562],[-121.935,36.562],[-121.935,36.562],[-121.935,36.562],[-121.935,36.562],[-121.935,36.562],[-121.935,36.561],[-121.935,36.561],[-121.935,36.561],[-121.935,36.561],[-121.935,36.561],[-121.935,36.561],[-121.935,36.561],[-121.935,36.561],[-121.935,36.561],[-121.934,36.561],[-121.934,36.561],[-121.934,36.561],[-121.934,36.561],[-121.934,36.561],[-121.934,36.561],[-121.934,36.561],[-121.934,36.561],[-121.934,36.561],[-121.934,36.561],[-121.934,36.561],[-121.934,36.561],[-121.934,36.561],[-121.934,36.561],[-121.934,36.561],[-121.934,36.561],[-121.933,36.56],[-121.934,36.56],[-121.933,36.56],[-121.933,36.56],[-121.933,36.56],[-121.933,36.56],[-121.933,36.56],[-121.933,36.56],[-121.933,36.56],[-121.932,36.56],[-121.932,36.559],[-121.932,36.559],[-121.932,36.559],[-121.932,36.559],[-121.932,36.559],[-121.932,36.559],[-121.932,36.559],[-121.932,36.558],[-121.932,36.559],[-121.932,36.559],[-121.932,36.558],[-121.932,36.558],[-121.932,36.558],[-121.932,36.558],[-121.932,36.557],[-121.931,36.557],[-121.931,36.556],[-121.931,36.556],[-121.93,36.555],[-121.93,36.555],[-121.93,36.554],[-121.93,36.553],[-121.93,36.553],[-121.93,36.552],[-121.93,36.551],[-121.929,36.551],[-121.929,36.55],[-121.929,36.55],[-121.929,36.549],[-121.929,36.548],[-121.929,36.548],[-121.929,36.547],[-121.929,36.546],[-121.929,36.546],[-121.93,36.546],[-121.93,36.546],[-121.93,36.545],[-121.931,36.545],[-121.931,36.545],[-121.931,36.545],[-121.931,36.545],[-121.931,36.545],[-121.932,36.545],[-121.932,36.545],[-121.932,36.545],[-121.932,36.545],[-121.932,36.545],[-121.932,36.545],[-121.932,36.545],[-121.932,36.545],[-121.932,36.545],[-121.932,36.545],[-121.932,36.545],[-121.932,36.545],[-121.932,36.545],[-121.932,36.544],[-121.932,36.544],[-121.932,36.544],[-121.932,36.544],[-121.932,36.544],[-121.932,36.544],[-121.932,36.544],[-121.932,36.544],[-121.932,36.544],[-121.932,36.544],[-121.932,36.544],[-121.932,36.544],[-121.932,36.544],[-121.932,36.544],[-121.932,36.544],[-121.932,36.544],[-121.933,36.544],[-121.933,36.544],[-121.933,36.544],[-121.933,36.544],[-121.933,36.544],[-121.933,36.544],[-121.933,36.544],[-121.933,36.544],[-121.933,36.544],[-121.933,36.544],[-121.933,36.545],[-121.934,36.545],[-121.934,36.545],[-121.934,36.544],[-121.933,36.544],[-121.933,36.544],[-121.933,36.544],[-121.933,36.544],[-121.933,36.544],[-121.933,36.544],[-121.933,36.544],[-121.933,36.544],[-121.933,36.544],[-121.933,36.544],[-121.933,36.544],[-121.933,36.544],[-121.933,36.544],[-121.933,36.544],[-121.933,36.544],[-121.933,36.544],[-121.933,36.544],[-121.933,36.544],[-121.933,36.544],[-121.933,36.544],[-121.933,36.544],[-121.933,36.544],[-121.934,36.544],[-121.934,36.544],[-121.934,36.544],[-121.934,36.544],[-121.934,36.544],[-121.934,36.544],[-121.934,36.544],[-121.934,36.544],[-121.934,36.543],[-121.934,36.543],[-121.934,36.543],[-121.933,36.543],[-121.933,36.543],[-121.933,36.543],[-121.933,36.543],[-121.933,36.543],[-121.933,36.543],[-121.933,36.543],[-121.933,36.543],[-121.933,36.543],[-121.933,36.542],[-121.933,36.542],[-121.933,36.542],[-121.933,36.542],[-121.933,36.542],[-121.933,36.542],[-121.933,36.542],[-121.933,36.542],[-121.933,36.542],[-121.933,36.542],[-121.933,36.542],[-121.933,36.542],[-121.933,36.542],[-121.933,36.542],[-121.933,36.542],[-121.933,36.542],[-121.933,36.542],[-121.933,36.542],[-121.933,36.542],[-121.933,36.542],[-121.933,36.542],[-121.933,36.542],[-121.933,36.542],[-121.933,36.542],[-121.933,36.542],[-121.933,36.542],[-121.933,36.542],[-121.933,36.542],[-121.933,36.542],[-121.933,36.542],[-121.933,36.542],[-121.933,36.542],[-121.933,36.542],[-121.933,36.542],[-121.933,36.542],[-121.933,36.542],[-121.933,36.542],[-121.933,36.542],[-121.933,36.542],[-121.933,36.542],[-121.933,36.542],[-121.933,36.542],[-121.933,36.542],[-121.933,36.542],[-121.933,36.542],[-121.933,36.542],[-121.933,36.542],[-121.933,36.542],[-121.933,36.542],[-121.933,36.542],[-121.933,36.542],[-121.933,36.542],[-121.933,36.542],[-121.933,36.542],[-121.933,36.542],[-121.933,36.542],[-121.933,36.541],[-121.933,36.541],[-121.933,36.541],[-121.933,36.541],[-121.933,36.541],[-121.933,36.541],[-121.933,36.541],[-121.933,36.541],[-121.933,36.541],[-121.933,36.541],[-121.933,36.541],[-121.933,36.541],[-121.933,36.541],[-121.933,36.541],[-121.933,36.541],[-121.933,36.541],[-121.933,36.541],[-121.933,36.541],[-121.933,36.541],[-121.933,36.541],[-121.933,36.541],[-121.933,36.541],[-121.933,36.541],[-121.933,36.541],[-121.933,36.541],[-121.933,36.541],[-121.933,36.541],[-121.933,36.541],[-121.933,36.541],[-121.933,36.541],[-121.933,36.541],[-121.933,36.541],[-121.933,36.541],[-121.933,36.541],[-121.933,36.541],[-121.933,36.541],[-121.933,36.541],[-121.933,36.541],[-121.933,36.541],[-121.933,36.541],[-121.933,36.541],[-121.933,36.541],[-121.933,36.541],[-121.933,36.541],[-121.933,36.541],[-121.933,36.54],[-121.933,36.54],[-121.933,36.54],[-121.933,36.54],[-121.933,36.54],[-121.933,36.54],[-121.933,36.54],[-121.933,36.54],[-121.933,36.54],[-121.933,36.54],[-121.933,36.54],[-121.933,36.54],[-121.933,36.54],[-121.933,36.54],[-121.933,36.54],[-121.933,36.54],[-121.933,36.54],[-121.933,36.54],[-121.933,36.54],[-121.933,36.54],[-121.933,36.54],[-121.933,36.54],[-121.933,36.54],[-121.933,36.54],[-121.933,36.54],[-121.933,36.54],[-121.933,36.54],[-121.933,36.54],[-121.933,36.54],[-121.933,36.54],[-121.933,36.54],[-121.933,36.54],[-121.933,36.54],[-121.933,36.54],[-121.933,36.54],[-121.933,36.54],[-121.933,36.54],[-121.933,36.54],[-121.933,36.54],[-121.933,36.54],[-121.933,36.54],[-121.933,36.54],[-121.933,36.54],[-121.933,36.54],[-121.933,36.54],[-121.933,36.54],[-121.933,36.54],[-121.933,36.54],[-121.933,36.54],[-121.933,36.54],[-121.933,36.54],[-121.933,36.54],[-121.933,36.54],[-121.933,36.54],[-121.932,36.54],[-121.932,36.54],[-121.932,36.54],[-121.932,36.54],[-121.932,36.54],[-121.932,36.54],[-121.932,36.54],[-121.932,36.54],[-121.932,36.54],[-121.932,36.539],[-121.932,36.539],[-121.932,36.54],[-121.932,36.54],[-121.932,36.54],[-121.933,36.54],[-121.933,36.54],[-121.933,36.539],[-121.933,36.539],[-121.933,36.539],[-121.933,36.539],[-121.932,36.539],[-121.932,36.539],[-121.932,36.539],[-121.932,36.539],[-121.932,36.539],[-121.932,36.539],[-121.932,36.539],[-121.932,36.539],[-121.932,36.539],[-121.932,36.539],[-121.932,36.539],[-121.932,36.539],[-121.932,36.539],[-121.932,36.539],[-121.932,36.539],[-121.932,36.539],[-121.932,36.539],[-121.932,36.539],[-121.932,36.539],[-121.932,36.539],[-121.932,36.539],[-121.932,36.539],[-121.932,36.539],[-121.932,36.539],[-121.932,36.539],[-121.932,36.54],[-121.932,36.54],[-121.931,36.54],[-121.931,36.54],[-121.93,36.54],[-121.93,36.54],[-121.929,36.539],[-121.929,36.538],[-121.928,36.537],[-121.928,36.537],[-121.928,36.536],[-121.928,36.536],[-121.928,36.535],[-121.928,36.535],[-121.928,36.534],[-121.928,36.534],[-121.928,36.534],[-121.928,36.533],[-121.927,36.533],[-121.927,36.533],[-121.927,36.533],[-121.927,36.533],[-121.927,36.532],[-121.927,36.532],[-121.927,36.532],[-121.927,36.532],[-121.926,36.531],[-121.926,36.531],[-121.926,36.531],[-121.926,36.531],[-121.925,36.531],[-121.925,36.53],[-121.925,36.529],[-121.925,36.529],[-121.926,36.529],[-121.926,36.528],[-121.926,36.528],[-121.926,36.528],[-121.938,36.528],[-121.952,36.561],[-121.952,36.561],[-121.952,36.561],[-121.952,36.561],[-121.952,36.561],[-121.952,36.561],[-121.952,36.561],[-121.952,36.561],[-121.952,36.562],[-121.952,36.562],[-121.952,36.562],[-121.952,36.562],[-121.952,36.562],[-121.952,36.562],[-121.952,36.562],[-121.952,36.562],[-121.952,36.562],[-121.952,36.562],[-121.952,36.562],[-121.952,36.562],[-121.952,36.562],[-121.952,36.562],[-121.952,36.562],[-121.952,36.562],[-121.952,36.562],[-121.952,36.563],[-121.952,36.563],[-121.952,36.563],[-121.951,36.563],[-121.951,36.563],[-121.951,36.563],[-121.952,36.563],[-121.952,36.563],[-121.952,36.563],[-121.952,36.563],[-121.952,36.563],[-121.952,36.563],[-121.952,36.563],[-121.952,36.564],[-121.952,36.564],[-121.952,36.564],[-121.952,36.564],[-121.952,36.564],[-121.952,36.564],[-121.952,36.564],[-121.952,36.564],[-121.952,36.564],[-121.952,36.564],[-121.952,36.564],[-121.951,36.564],[-121.951,36.564],[-121.951,36.564],[-121.951,36.564],[-121.951,36.564],[-121.951,36.564],[-121.951,36.564],[-121.951,36.564],[-121.951,36.564],[-121.951,36.564],[-121.951,36.564],[-121.951,36.564],[-121.951,36.564],[-121.951,36.564],[-121.951,36.564],[-121.951,36.564],[-121.951,36.565],[-121.951,36.565],[-121.951,36.565],[-121.951,36.565],[-121.951,36.565],[-121.951,36.565],[-121.951,36.565],[-121.951,36.565],[-121.951,36.565],[-121.951,36.565],[-121.951,36.565],[-121.952,36.565],[-121.952,36.565],[-121.952,36.565],[-121.952,36.565],[-121.952,36.565],[-121.952,36.565],[-121.951,36.565],[-121.951,36.565],[-121.951,36.565],[-121.951,36.566],[-121.951,36.566],[-121.951,36.566],[-121.951,36.566],[-121.951,36.566],[-121.951,36.566],[-121.951,36.566],[-121.951,36.566],[-121.951,36.566],[-121.951,36.566],[-121.951,36.566],[-121.951,36.566],[-121.951,36.566],[-121.951,36.566],[-121.951,36.566],[-121.951,36.566],[-121.951,36.566],[-121.951,36.566],[-121.951,36.566],[-121.951,36.566],[-121.951,36.566],[-121.951,36.566],[-121.951,36.566],[-121.951,36.566],[-121.951,36.566],[-121.951,36.566],[-121.951,36.566],[-121.951,36.566],[-121.951,36.566],[-121.951,36.566],[-121.951,36.566],[-121.951,36.566],[-121.951,36.566],[-121.951,36.567],[-121.951,36.567],[-121.951,36.567],[-121.951,36.567],[-121.951,36.567],[-121.951,36.567],[-121.951,36.567],[-121.951,36.567],[-121.951,36.567],[-121.951,36.567],[-121.95,36.567],[-121.95,36.567],[-121.95,36.567],[-121.95,36.567],[-121.95,36.567],[-121.95,36.567],[-121.95,36.567]]]},"properties":{"id":"carmel-bay-state-marine-conservation-area","name":"Carmel Bay State Marine Conservation Area","type":"SMCA","shortName":"Carmel Bay","areaKm2":null,"ccrCitation":null}}]}