{"type":"FeatureCollection","features":[{"type":"Feature","geometry":{"type":"Point","coordinates":[-121.98735,36.67405]},"properties":{"depth_ft":249,"depth_m":75.9}},{"type":"Feature","geometry":{"type":"Point","coordinates":[-121.98149,36.67405]},"properties":{"depth_ft":190,"depth_m":58.0}},{"type":"Feature","geometry":{"type":"Point","coordinates":[-121.97564,36.67405]},"properties":{"depth_ft":152,"depth_m":46.2}},{"type":"Feature","geometry":{"type":"Point","coordinates":[-121.96978,36.67405]},"properties":{"depth_ft":72,"depth_m":22.0}},{"type":"Feature","geometry":{"type":"Point","coordinates":[-121.96392,36.67405]},"properties":{"depth_ft":19,"depth_m":5.7}},{"type":"Feature","geometry":{"type":"Point","coordinates":[-121.94635,36.67405]},"properties":{"depth_ft":3,"depth_m":0.8}},{"type":"Feature","geometry":{"type":"Point","coordinates":[-121.98735,36.66935]},"properties":{"depth_ft":213,"depth_m":64.9}},{"type":"Feature","geometry":{"type":"Point","coordinates":[-121.98149,36.66935]},"properties":{"depth_ft":118,"depth_m":35.8}},{"type":"Feature","geometry":{"type":"Point","coordinates":[-121.97564,36.66935]},"properties":{"depth_ft":105,"depth_m":31.9}},{"type":"Feature","geometry":{"type":"Point","coordinates":[-121.98735,36.66465]},"properties":{"depth_ft":188,"depth_m":57.2}},{"type":"Feature","geometry":{"type":"Point","coordinates":[-121.98149,36.66465]},"properties":{"depth_ft":91,"depth_m":27.7}},{"type":"Feature","geometry":{"type":"Point","coordinates":[-121.97564,36.66465]},"properties":{"depth_ft":15,"depth_m":4.6}},{"type":"Feature","geometry":{"type":"Point","coordinates":[-121.98735,36.65995]},"properties":{"depth_ft":175,"depth_m":53.3}},{"type":"Feature","geometry":{"type":"Point","coordinates":[-121.98149,36.65995]},"properties":{"depth_ft":44,"depth_m":13.4}},{"type":"Feature","geometry":{"type":"Point","coordinates":[-121.98735,36.65525]},"properties":{"depth_ft":153,"depth_m":46.6}},{"type":"Feature","geometry":{"type":"Point","coordinates":[-121.98149,36.65525]},"properties":{"depth_ft":44,"depth_m":13.5}},{"type":"Feature","geometry":{"type":"Point","coordinates":[-121.97564,36.65525]},"properties":{"depth_ft":20,"depth_m":6.2}},{"type":"Feature","geometry":{"type":"Point","coordinates":[-121.96978,36.65525]},"properties":{"depth_ft":1,"depth_m":0.2}},{"type":"Feature","geometry":{"type":"Point","coordinates":[-121.98735,36.65055]},"properties":{"depth_ft":174,"depth_m":53.0}},{"type":"Feature","geometry":{"type":"Point","coordinates":[-121.98149,36.65055]},"properties":{"depth_ft":101,"depth_m":30.8}},{"type":"Feature","geometry":{"type":"Point","coordinates":[-121.97564,36.65055]},"properties":{"depth_ft":68,"depth_m":20.6}},{"type":"Feature","geometry":{"type":"Point","coordinates":[-121.96978,36.65055]},"properties":{"depth_ft":38,"depth_m":11.7}},{"type":"Feature","geometry":{"type":"Point","coordinates":[-121.98735,36.64585]},"properties":{"depth_ft":171,"depth_m":52.2}},{"type":"Feature","geometry":{"type":"Point","coordinates":[-121.98149,36.64585]},"properties":{"depth_ft":128,"depth_m":39.1}},{"type":"Feature","geometry":{"type":"Point","coordinates":[-121.97564,36.64585]},"properties":{"depth_ft":96,"depth_m":29.2}},{"type":"Feature","geometry":{"type":"Point","coordinates":[-121.96978,36.64585]},"properties":{"depth_ft":56,"depth_m":17.1}},{"type":"Feature","geometry":{"type":"Point","coordinates":[-121.96392,36.64585]},"properties":{"depth_ft":3,"depth_m":0.8}},{"type":"Feature","geometry":{"type":"Point","coordinates":[-121.98735,36.64115]},"properties":{"depth_ft":183,"depth_m":55.7}},{"type":"Feature","geometry":{"type":"Point","coordinates":[-121.98149,36.64115]},"properties":{"depth_ft":129,"depth_m":39.3}},{"type":"Feature","geometry":{"type":"Point","coordinates":[-121.97564,36.64115]},"properties":{"depth_ft":103,"depth_m":31.2}},{"type":"Feature","geometry":{"type":"Point","coordinates":[-121.96978,36.64115]},"properties":{"depth_ft":59,"depth_m":18.1}},{"type":"Feature","geometry":{"type":"Point","coordinates":[-121.96392,36.64115]},"properties":{"depth_ft":8,"depth_m":2.3}},{"type":"Feature","geometry":{"type":"Point","coordinates":[-121.98735,36.63645]},"properties":{"depth_ft":154,"depth_m":47.0}},{"type":"Feature","geometry":{"type":"Point","coordinates":[-121.98149,36.63645]},"properties":{"depth_ft":125,"depth_m":38.1}},{"type":"Feature","geometry":{"type":"Point","coordinates":[-121.97564,36.63645]},"properties":{"depth_ft":102,"depth_m":31.1}},{"type":"Feature","geometry":{"type":"Point","coordinates":[-121.96978,36.63645]},"properties":{"depth_ft":67,"depth_m":20.3}},{"type":"Feature","geometry":{"type":"Point","coordinates":[-121.96392,36.63645]},"properties":{"depth_ft":14,"depth_m":4.3}},{"type":"Feature","geometry":{"type":"Point","coordinates":[-121.88779,36.63645]},"properties":{"depth_ft":2,"depth_m":0.5}},{"type":"Feature","geometry":{"type":"Point","coordinates":[-121.88193,36.63645]},"properties":{"depth_ft":19,"depth_m":5.8}},{"type":"Feature","geometry":{"type":"Point","coordinates":[-121.87608,36.63645]},"properties":{"depth_ft":3,"depth_m":0.9}},{"type":"Feature","geometry":{"type":"Point","coordinates":[-121.98735,36.63175]},"properties":{"depth_ft":166,"depth_m":50.5}},{"type":"Feature","geometry":{"type":"Point","coordinates":[-121.98149,36.63175]},"properties":{"depth_ft":134,"depth_m":40.8}},{"type":"Feature","geometry":{"type":"Point","coordinates":[-121.97564,36.63175]},"properties":{"depth_ft":125,"depth_m":38.2}},{"type":"Feature","geometry":{"type":"Point","coordinates":[-121.96978,36.63175]},"properties":{"depth_ft":81,"depth_m":24.7}},{"type":"Feature","geometry":{"type":"Point","coordinates":[-121.96392,36.63175]},"properties":{"depth_ft":20,"depth_m":6.2}},{"type":"Feature","geometry":{"type":"Point","coordinates":[-121.89365,36.63175]},"properties":{"depth_ft":3,"depth_m":0.9}},{"type":"Feature","geometry":{"type":"Point","coordinates":[-121.88779,36.63175]},"properties":{"depth_ft":18,"depth_m":5.4}},{"type":"Feature","geometry":{"type":"Point","coordinates":[-121.88193,36.63175]},"properties":{"depth_ft":53,"depth_m":16.1}},{"type":"Feature","geometry":{"type":"Point","coordinates":[-121.87608,36.63175]},"properties":{"depth_ft":47,"depth_m":14.4}},{"type":"Feature","geometry":{"type":"Point","coordinates":[-121.87022,36.63175]},"properties":{"depth_ft":34,"depth_m":10.4}},{"type":"Feature","geometry":{"type":"Point","coordinates":[-121.98735,36.62705]},"properties":{"depth_ft":201,"depth_m":61.4}},{"type":"Feature","geometry":{"type":"Point","coordinates":[-121.98149,36.62705]},"properties":{"depth_ft":149,"depth_m":45.6}},{"type":"Feature","geometry":{"type":"Point","coordinates":[-121.97564,36.62705]},"properties":{"depth_ft":142,"depth_m":43.3}},{"type":"Feature","geometry":{"type":"Point","coordinates":[-121.96978,36.62705]},"properties":{"depth_ft":106,"depth_m":32.2}},{"type":"Feature","geometry":{"type":"Point","coordinates":[-121.96392,36.62705]},"properties":{"depth_ft":46,"depth_m":13.9}},{"type":"Feature","geometry":{"type":"Point","coordinates":[-121.95807,36.62705]},"properties":{"depth_ft":17,"depth_m":5.3}},{"type":"Feature","geometry":{"type":"Point","coordinates":[-121.95221,36.62705]},"properties":{"depth_ft":5,"depth_m":1.6}},{"type":"Feature","geometry":{"type":"Point","coordinates":[-121.89365,36.62705]},"properties":{"depth_ft":42,"depth_m":12.8}},{"type":"Feature","geometry":{"type":"Point","coordinates":[-121.88779,36.62705]},"properties":{"depth_ft":75,"depth_m":22.8}},{"type":"Feature","geometry":{"type":"Point","coordinates":[-121.88193,36.62705]},"properties":{"depth_ft":70,"depth_m":21.3}},{"type":"Feature","geometry":{"type":"Point","coordinates":[-121.87608,36.62705]},"properties":{"depth_ft":67,"depth_m":20.5}},{"type":"Feature","geometry":{"type":"Point","coordinates":[-121.87022,36.62705]},"properties":{"depth_ft":56,"depth_m":16.9}},{"type":"Feature","geometry":{"type":"Point","coordinates":[-121.86436,36.62705]},"properties":{"depth_ft":24,"depth_m":7.3}},{"type":"Feature","geometry":{"type":"Point","coordinates":[-121.85851,36.62705]},"properties":{"depth_ft":2,"depth_m":0.7}},{"type":"Feature","geometry":{"type":"Point","coordinates":[-121.98735,36.62235]},"properties":{"depth_ft":192,"depth_m":58.5}},{"type":"Feature","geometry":{"type":"Point","coordinates":[-121.98149,36.62235]},"properties":{"depth_ft":159,"depth_m":48.5}},{"type":"Feature","geometry":{"type":"Point","coordinates":[-121.97564,36.62235]},"properties":{"depth_ft":158,"depth_m":48.1}},{"type":"Feature","geometry":{"type":"Point","coordinates":[-121.96978,36.62235]},"properties":{"depth_ft":130,"depth_m":39.7}},{"type":"Feature","geometry":{"type":"Point","coordinates":[-121.96392,36.62235]},"properties":{"depth_ft":71,"depth_m":21.8}},{"type":"Feature","geometry":{"type":"Point","coordinates":[-121.95807,36.62235]},"properties":{"depth_ft":59,"depth_m":17.9}},{"type":"Feature","geometry":{"type":"Point","coordinates":[-121.95221,36.62235]},"properties":{"depth_ft":37,"depth_m":11.3}},{"type":"Feature","geometry":{"type":"Point","coordinates":[-121.94635,36.62235]},"properties":{"depth_ft":6,"depth_m":1.8}},{"type":"Feature","geometry":{"type":"Point","coordinates":[-121.8995,36.62235]},"properties":{"depth_ft":10,"depth_m":3.0}},{"type":"Feature","geometry":{"type":"Point","coordinates":[-121.89365,36.62235]},"properties":{"depth_ft":80,"depth_m":24.5}},{"type":"Feature","geometry":{"type":"Point","coordinates":[-121.88779,36.62235]},"properties":{"depth_ft":103,"depth_m":31.4}},{"type":"Feature","geometry":{"type":"Point","coordinates":[-121.88193,36.62235]},"properties":{"depth_ft":105,"depth_m":31.9}},{"type":"Feature","geometry":{"type":"Point","coordinates":[-121.87608,36.62235]},"properties":{"depth_ft":101,"depth_m":30.9}},{"type":"Feature","geometry":{"type":"Point","coordinates":[-121.87022,36.62235]},"properties":{"depth_ft":84,"depth_m":25.7}},{"type":"Feature","geometry":{"type":"Point","coordinates":[-121.86436,36.62235]},"properties":{"depth_ft":62,"depth_m":18.8}},{"type":"Feature","geometry":{"type":"Point","coordinates":[-121.85851,36.62235]},"properties":{"depth_ft":20,"depth_m":6.1}},{"type":"Feature","geometry":{"type":"Point","coordinates":[-121.98735,36.61765]},"properties":{"depth_ft":192,"depth_m":58.4}},{"type":"Feature","geometry":{"type":"Point","coordinates":[-121.98149,36.61765]},"properties":{"depth_ft":169,"depth_m":51.4}},{"type":"Feature","geometry":{"type":"Point","coordinates":[-121.97564,36.61765]},"properties":{"depth_ft":160,"depth_m":48.7}},{"type":"Feature","geometry":{"type":"Point","coordinates":[-121.96978,36.61765]},"properties":{"depth_ft":150,"depth_m":45.8}},{"type":"Feature","geometry":{"type":"Point","coordinates":[-121.96392,36.61765]},"properties":{"depth_ft":97,"depth_m":29.6}},{"type":"Feature","geometry":{"type":"Point","coordinates":[-121.95807,36.61765]},"properties":{"depth_ft":92,"depth_m":28.1}},{"type":"Feature","geometry":{"type":"Point","coordinates":[-121.95221,36.61765]},"properties":{"depth_ft":39,"depth_m":12.0}},{"type":"Feature","geometry":{"type":"Point","coordinates":[-121.94635,36.61765]},"properties":{"depth_ft":17,"depth_m":5.2}},{"type":"Feature","geometry":{"type":"Point","coordinates":[-121.90536,36.61765]},"properties":{"depth_ft":15,"depth_m":4.5}},{"type":"Feature","geometry":{"type":"Point","coordinates":[-121.8995,36.61765]},"properties":{"depth_ft":61,"depth_m":18.5}},{"type":"Feature","geometry":{"type":"Point","coordinates":[-121.89365,36.61765]},"properties":{"depth_ft":129,"depth_m":39.4}},{"type":"Feature","geometry":{"type":"Point","coordinates":[-121.88779,36.61765]},"properties":{"depth_ft":132,"depth_m":40.2}},{"type":"Feature","geometry":{"type":"Point","coordinates":[-121.88193,36.61765]},"properties":{"depth_ft":138,"depth_m":42.0}},{"type":"Feature","geometry":{"type":"Point","coordinates":[-121.87608,36.61765]},"properties":{"depth_ft":119,"depth_m":36.4}},{"type":"Feature","geometry":{"type":"Point","coordinates":[-121.87022,36.61765]},"properties":{"depth_ft":108,"depth_m":32.9}},{"type":"Feature","geometry":{"type":"Point","coordinates":[-121.86436,36.61765]},"properties":{"depth_ft":75,"depth_m":23.0}},{"type":"Feature","geometry":{"type":"Point","coordinates":[-121.85851,36.61765]},"properties":{"depth_ft":61,"depth_m":18.6}},{"type":"Feature","geometry":{"type":"Point","coordinates":[-121.85265,36.61765]},"properties":{"depth_ft":19,"depth_m":5.8}},{"type":"Feature","geometry":{"type":"Point","coordinates":[-121.98735,36.61295]},"properties":{"depth_ft":216,"depth_m":66.0}},{"type":"Feature","geometry":{"type":"Point","coordinates":[-121.98149,36.61295]},"properties":{"depth_ft":189,"depth_m":57.5}},{"type":"Feature","geometry":{"type":"Point","coordinates":[-121.97564,36.61295]},"properties":{"depth_ft":170,"depth_m":51.8}},{"type":"Feature","geometry":{"type":"Point","coordinates":[-121.96978,36.61295]},"properties":{"depth_ft":161,"depth_m":49.0}},{"type":"Feature","geometry":{"type":"Point","coordinates":[-121.96392,36.61295]},"properties":{"depth_ft":149,"depth_m":45.3}},{"type":"Feature","geometry":{"type":"Point","coordinates":[-121.95807,36.61295]},"properties":{"depth_ft":117,"depth_m":35.6}},{"type":"Feature","geometry":{"type":"Point","coordinates":[-121.95221,36.61295]},"properties":{"depth_ft":82,"depth_m":25.0}},{"type":"Feature","geometry":{"type":"Point","coordinates":[-121.94635,36.61295]},"properties":{"depth_ft":48,"depth_m":14.5}},{"type":"Feature","geometry":{"type":"Point","coordinates":[-121.91707,36.61295]},"properties":{"depth_ft":4,"depth_m":1.1}},{"type":"Feature","geometry":{"type":"Point","coordinates":[-121.91122,36.61295]},"properties":{"depth_ft":49,"depth_m":14.8}},{"type":"Feature","geometry":{"type":"Point","coordinates":[-121.90536,36.61295]},"properties":{"depth_ft":61,"depth_m":18.7}},{"type":"Feature","geometry":{"type":"Point","coordinates":[-121.8995,36.61295]},"properties":{"depth_ft":134,"depth_m":40.9}},{"type":"Feature","geometry":{"type":"Point","coordinates":[-121.89365,36.61295]},"properties":{"depth_ft":159,"depth_m":48.6}},{"type":"Feature","geometry":{"type":"Point","coordinates":[-121.88779,36.61295]},"properties":{"depth_ft":158,"depth_m":48.1}},{"type":"Feature","geometry":{"type":"Point","coordinates":[-121.88193,36.61295]},"properties":{"depth_ft":153,"depth_m":46.5}},{"type":"Feature","geometry":{"type":"Point","coordinates":[-121.87608,36.61295]},"properties":{"depth_ft":145,"depth_m":44.2}},{"type":"Feature","geometry":{"type":"Point","coordinates":[-121.87022,36.61295]},"properties":{"depth_ft":131,"depth_m":40.0}},{"type":"Feature","geometry":{"type":"Point","coordinates":[-121.86436,36.61295]},"properties":{"depth_ft":112,"depth_m":34.0}},{"type":"Feature","geometry":{"type":"Point","coordinates":[-121.85851,36.61295]},"properties":{"depth_ft":68,"depth_m":20.8}},{"type":"Feature","geometry":{"type":"Point","coordinates":[-121.85265,36.61295]},"properties":{"depth_ft":63,"depth_m":19.1}},{"type":"Feature","geometry":{"type":"Point","coordinates":[-121.98735,36.60825]},"properties":{"depth_ft":260,"depth_m":79.3}},{"type":"Feature","geometry":{"type":"Point","coordinates":[-121.98149,36.60825]},"properties":{"depth_ft":212,"depth_m":64.7}},{"type":"Feature","geometry":{"type":"Point","coordinates":[-121.97564,36.60825]},"properties":{"depth_ft":181,"depth_m":55.2}},{"type":"Feature","geometry":{"type":"Point","coordinates":[-121.96978,36.60825]},"properties":{"depth_ft":156,"depth_m":47.4}},{"type":"Feature","geometry":{"type":"Point","coordinates":[-121.96392,36.60825]},"properties":{"depth_ft":149,"depth_m":45.3}},{"type":"Feature","geometry":{"type":"Point","coordinates":[-121.95807,36.60825]},"properties":{"depth_ft":129,"depth_m":39.4}},{"type":"Feature","geometry":{"type":"Point","coordinates":[-121.95221,36.60825]},"properties":{"depth_ft":104,"depth_m":31.7}},{"type":"Feature","geometry":{"type":"Point","coordinates":[-121.94635,36.60825]},"properties":{"depth_ft":60,"depth_m":18.3}},{"type":"Feature","geometry":{"type":"Point","coordinates":[-121.9405,36.60825]},"properties":{"depth_ft":9,"depth_m":2.6}},{"type":"Feature","geometry":{"type":"Point","coordinates":[-121.91707,36.60825]},"properties":{"depth_ft":52,"depth_m":15.9}},{"type":"Feature","geometry":{"type":"Point","coordinates":[-121.91122,36.60825]},"properties":{"depth_ft":84,"depth_m":25.6}},{"type":"Feature","geometry":{"type":"Point","coordinates":[-121.90536,36.60825]},"properties":{"depth_ft":157,"depth_m":47.7}},{"type":"Feature","geometry":{"type":"Point","coordinates":[-121.8995,36.60825]},"properties":{"depth_ft":193,"depth_m":58.9}},{"type":"Feature","geometry":{"type":"Point","coordinates":[-121.89365,36.60825]},"properties":{"depth_ft":185,"depth_m":56.3}},{"type":"Feature","geometry":{"type":"Point","coordinates":[-121.88779,36.60825]},"properties":{"depth_ft":181,"depth_m":55.1}},{"type":"Feature","geometry":{"type":"Point","coordinates":[-121.88193,36.60825]},"properties":{"depth_ft":182,"depth_m":55.5}},{"type":"Feature","geometry":{"type":"Point","coordinates":[-121.87608,36.60825]},"properties":{"depth_ft":161,"depth_m":49.1}},{"type":"Feature","geometry":{"type":"Point","coordinates":[-121.87022,36.60825]},"properties":{"depth_ft":155,"depth_m":47.3}},{"type":"Feature","geometry":{"type":"Point","coordinates":[-121.86436,36.60825]},"properties":{"depth_ft":137,"depth_m":41.7}},{"type":"Feature","geometry":{"type":"Point","coordinates":[-121.85851,36.60825]},"properties":{"depth_ft":101,"depth_m":30.7}},{"type":"Feature","geometry":{"type":"Point","coordinates":[-121.85265,36.60825]},"properties":{"depth_ft":69,"depth_m":21.1}},{"type":"Feature","geometry":{"type":"Point","coordinates":[-121.98735,36.60355]},"properties":{"depth_ft":280,"depth_m":85.5}},{"type":"Feature","geometry":{"type":"Point","coordinates":[-121.98149,36.60355]},"properties":{"depth_ft":229,"depth_m":69.8}},{"type":"Feature","geometry":{"type":"Point","coordinates":[-121.97564,36.60355]},"properties":{"depth_ft":200,"depth_m":60.9}},{"type":"Feature","geometry":{"type":"Point","coordinates":[-121.96978,36.60355]},"properties":{"depth_ft":162,"depth_m":49.4}},{"type":"Feature","geometry":{"type":"Point","coordinates":[-121.96392,36.60355]},"properties":{"depth_ft":155,"depth_m":47.4}},{"type":"Feature","geometry":{"type":"Point","coordinates":[-121.95807,36.60355]},"properties":{"depth_ft":151,"depth_m":46.0}},{"type":"Feature","geometry":{"type":"Point","coordinates":[-121.95221,36.60355]},"properties":{"depth_ft":123,"depth_m":37.6}},{"type":"Feature","geometry":{"type":"Point","coordinates":[-121.94635,36.60355]},"properties":{"depth_ft":75,"depth_m":22.9}},{"type":"Feature","geometry":{"type":"Point","coordinates":[-121.9405,36.60355]},"properties":{"depth_ft":20,"depth_m":6.2}},{"type":"Feature","geometry":{"type":"Point","coordinates":[-121.92878,36.60355]},"properties":{"depth_ft":3,"depth_m":1.0}},{"type":"Feature","geometry":{"type":"Point","coordinates":[-121.92293,36.60355]},"properties":{"depth_ft":22,"depth_m":6.8}},{"type":"Feature","geometry":{"type":"Point","coordinates":[-121.91707,36.60355]},"properties":{"depth_ft":73,"depth_m":22.3}},{"type":"Feature","geometry":{"type":"Point","coordinates":[-121.91122,36.60355]},"properties":{"depth_ft":113,"depth_m":34.6}},{"type":"Feature","geometry":{"type":"Point","coordinates":[-121.90536,36.60355]},"properties":{"depth_ft":202,"depth_m":61.6}},{"type":"Feature","geometry":{"type":"Point","coordinates":[-121.8995,36.60355]},"properties":{"depth_ft":209,"depth_m":63.7}},{"type":"Feature","geometry":{"type":"Point","coordinates":[-121.89365,36.60355]},"properties":{"depth_ft":209,"depth_m":63.8}},{"type":"Feature","geometry":{"type":"Point","coordinates":[-121.88779,36.60355]},"properties":{"depth_ft":205,"depth_m":62.6}},{"type":"Feature","geometry":{"type":"Point","coordinates":[-121.88193,36.60355]},"properties":{"depth_ft":194,"depth_m":59.2}},{"type":"Feature","geometry":{"type":"Point","coordinates":[-121.87608,36.60355]},"properties":{"depth_ft":175,"depth_m":53.4}},{"type":"Feature","geometry":{"type":"Point","coordinates":[-121.87022,36.60355]},"properties":{"depth_ft":160,"depth_m":48.9}},{"type":"Feature","geometry":{"type":"Point","coordinates":[-121.86436,36.60355]},"properties":{"depth_ft":152,"depth_m":46.3}},{"type":"Feature","geometry":{"type":"Point","coordinates":[-121.85851,36.60355]},"properties":{"depth_ft":101,"depth_m":30.8}},{"type":"Feature","geometry":{"type":"Point","coordinates":[-121.85265,36.60355]},"properties":{"depth_ft":92,"depth_m":27.9}},{"type":"Feature","geometry":{"type":"Point","coordinates":[-121.98735,36.59885]},"properties":{"depth_ft":299,"depth_m":91.1}},{"type":"Feature","geometry":{"type":"Point","coordinates":[-121.98149,36.59885]},"properties":{"depth_ft":267,"depth_m":81.5}},{"type":"Feature","geometry":{"type":"Point","coordinates":[-121.97564,36.59885]},"properties":{"depth_ft":244,"depth_m":74.3}},{"type":"Feature","geometry":{"type":"Point","coordinates":[-121.96978,36.59885]},"properties":{"depth_ft":191,"depth_m":58.1}},{"type":"Feature","geometry":{"type":"Point","coordinates":[-121.96392,36.59885]},"properties":{"depth_ft":163,"depth_m":49.7}},{"type":"Feature","geometry":{"type":"Point","coordinates":[-121.95807,36.59885]},"properties":{"depth_ft":166,"depth_m":50.7}},{"type":"Feature","geometry":{"type":"Point","coordinates":[-121.95221,36.59885]},"properties":{"depth_ft":169,"depth_m":51.4}},{"type":"Feature","geometry":{"type":"Point","coordinates":[-121.94635,36.59885]},"properties":{"depth_ft":113,"depth_m":34.4}},{"type":"Feature","geometry":{"type":"Point","coordinates":[-121.9405,36.59885]},"properties":{"depth_ft":42,"depth_m":12.7}},{"type":"Feature","geometry":{"type":"Point","coordinates":[-121.93464,36.59885]},"properties":{"depth_ft":31,"depth_m":9.5}},{"type":"Feature","geometry":{"type":"Point","coordinates":[-121.92878,36.59885]},"properties":{"depth_ft":57,"depth_m":17.5}},{"type":"Feature","geometry":{"type":"Point","coordinates":[-121.92293,36.59885]},"properties":{"depth_ft":78,"depth_m":23.8}},{"type":"Feature","geometry":{"type":"Point","coordinates":[-121.91707,36.59885]},"properties":{"depth_ft":109,"depth_m":33.3}},{"type":"Feature","geometry":{"type":"Point","coordinates":[-121.91122,36.59885]},"properties":{"depth_ft":171,"depth_m":52.0}},{"type":"Feature","geometry":{"type":"Point","coordinates":[-121.90536,36.59885]},"properties":{"depth_ft":218,"depth_m":66.5}},{"type":"Feature","geometry":{"type":"Point","coordinates":[-121.8995,36.59885]},"properties":{"depth_ft":224,"depth_m":68.3}},{"type":"Feature","geometry":{"type":"Point","coordinates":[-121.89365,36.59885]},"properties":{"depth_ft":222,"depth_m":67.7}},{"type":"Feature","geometry":{"type":"Point","coordinates":[-121.88779,36.59885]},"properties":{"depth_ft":216,"depth_m":65.8}},{"type":"Feature","geometry":{"type":"Point","coordinates":[-121.88193,36.59885]},"properties":{"depth_ft":211,"depth_m":64.2}},{"type":"Feature","geometry":{"type":"Point","coordinates":[-121.87608,36.59885]},"properties":{"depth_ft":195,"depth_m":59.5}},{"type":"Feature","geometry":{"type":"Point","coordinates":[-121.87022,36.59885]},"properties":{"depth_ft":170,"depth_m":51.9}},{"type":"Feature","geometry":{"type":"Point","coordinates":[-121.86436,36.59885]},"properties":{"depth_ft":160,"depth_m":48.8}},{"type":"Feature","geometry":{"type":"Point","coordinates":[-121.85851,36.59885]},"properties":{"depth_ft":132,"depth_m":40.1}},{"type":"Feature","geometry":{"type":"Point","coordinates":[-121.85265,36.59885]},"properties":{"depth_ft":101,"depth_m":30.7}},{"type":"Feature","geometry":{"type":"Point","coordinates":[-121.98735,36.59415]},"properties":{"depth_ft":310,"depth_m":94.6}},{"type":"Feature","geometry":{"type":"Point","coordinates":[-121.98149,36.59415]},"properties":{"depth_ft":290,"depth_m":88.4}},{"type":"Feature","geometry":{"type":"Point","coordinates":[-121.97564,36.59415]},"properties":{"depth_ft":276,"depth_m":84.1}},{"type":"Feature","geometry":{"type":"Point","coordinates":[-121.96978,36.59415]},"properties":{"depth_ft":241,"depth_m":73.6}},{"type":"Feature","geometry":{"type":"Point","coordinates":[-121.96392,36.59415]},"properties":{"depth_ft":199,"depth_m":60.7}},{"type":"Feature","geometry":{"type":"Point","coordinates":[-121.95807,36.59415]},"properties":{"depth_ft":190,"depth_m":58.0}},{"type":"Feature","geometry":{"type":"Point","coordinates":[-121.95221,36.59415]},"properties":{"depth_ft":195,"depth_m":59.4}},{"type":"Feature","geometry":{"type":"Point","coordinates":[-121.94635,36.59415]},"properties":{"depth_ft":201,"depth_m":61.2}},{"type":"Feature","geometry":{"type":"Point","coordinates":[-121.9405,36.59415]},"properties":{"depth_ft":128,"depth_m":39.0}},{"type":"Feature","geometry":{"type":"Point","coordinates":[-121.93464,36.59415]},"properties":{"depth_ft":111,"depth_m":33.7}},{"type":"Feature","geometry":{"type":"Point","coordinates":[-121.92878,36.59415]},"properties":{"depth_ft":127,"depth_m":38.8}},{"type":"Feature","geometry":{"type":"Point","coordinates":[-121.92293,36.59415]},"properties":{"depth_ft":151,"depth_m":45.9}},{"type":"Feature","geometry":{"type":"Point","coordinates":[-121.91707,36.59415]},"properties":{"depth_ft":165,"depth_m":50.2}},{"type":"Feature","geometry":{"type":"Point","coordinates":[-121.91122,36.59415]},"properties":{"depth_ft":225,"depth_m":68.7}},{"type":"Feature","geometry":{"type":"Point","coordinates":[-121.90536,36.59415]},"properties":{"depth_ft":233,"depth_m":71.2}},{"type":"Feature","geometry":{"type":"Point","coordinates":[-121.8995,36.59415]},"properties":{"depth_ft":231,"depth_m":70.4}},{"type":"Feature","geometry":{"type":"Point","coordinates":[-121.89365,36.59415]},"properties":{"depth_ft":221,"depth_m":67.3}},{"type":"Feature","geometry":{"type":"Point","coordinates":[-121.88779,36.59415]},"properties":{"depth_ft":221,"depth_m":67.3}},{"type":"Feature","geometry":{"type":"Point","coordinates":[-121.88193,36.59415]},"properties":{"depth_ft":220,"depth_m":67.1}},{"type":"Feature","geometry":{"type":"Point","coordinates":[-121.87608,36.59415]},"properties":{"depth_ft":204,"depth_m":62.3}},{"type":"Feature","geometry":{"type":"Point","coordinates":[-121.87022,36.59415]},"properties":{"depth_ft":182,"depth_m":55.5}},{"type":"Feature","geometry":{"type":"Point","coordinates":[-121.86436,36.59415]},"properties":{"depth_ft":168,"depth_m":51.2}},{"type":"Feature","geometry":{"type":"Point","coordinates":[-121.85851,36.59415]},"properties":{"depth_ft":155,"depth_m":47.2}},{"type":"Feature","geometry":{"type":"Point","coordinates":[-121.85265,36.59415]},"properties":{"depth_ft":106,"depth_m":32.2}},{"type":"Feature","geometry":{"type":"Point","coordinates":[-121.98735,36.58945]},"properties":{"depth_ft":323,"depth_m":98.4}},{"type":"Feature","geometry":{"type":"Point","coordinates":[-121.98149,36.58945]},"properties":{"depth_ft":304,"depth_m":92.6}},{"type":"Feature","geometry":{"type":"Point","coordinates":[-121.97564,36.58945]},"properties":{"depth_ft":295,"depth_m":89.8}},{"type":"Feature","geometry":{"type":"Point","coordinates":[-121.96978,36.58945]},"properties":{"depth_ft":281,"depth_m":85.5}},{"type":"Feature","geometry":{"type":"Point","coordinates":[-121.96392,36.58945]},"properties":{"depth_ft":244,"depth_m":74.4}},{"type":"Feature","geometry":{"type":"Point","coordinates":[-121.95807,36.58945]},"properties":{"depth_ft":206,"depth_m":62.8}},{"type":"Feature","geometry":{"type":"Point","coordinates":[-121.95221,36.58945]},"properties":{"depth_ft":206,"depth_m":62.6}},{"type":"Feature","geometry":{"type":"Point","coordinates":[-121.94635,36.58945]},"properties":{"depth_ft":221,"depth_m":67.5}},{"type":"Feature","geometry":{"type":"Point","coordinates":[-121.9405,36.58945]},"properties":{"depth_ft":213,"depth_m":65.0}},{"type":"Feature","geometry":{"type":"Point","coordinates":[-121.93464,36.58945]},"properties":{"depth_ft":192,"depth_m":58.4}},{"type":"Feature","geometry":{"type":"Point","coordinates":[-121.92878,36.58945]},"properties":{"depth_ft":201,"depth_m":61.4}},{"type":"Feature","geometry":{"type":"Point","coordinates":[-121.92293,36.58945]},"properties":{"depth_ft":200,"depth_m":60.9}},{"type":"Feature","geometry":{"type":"Point","coordinates":[-121.91707,36.58945]},"properties":{"depth_ft":235,"depth_m":71.6}},{"type":"Feature","geometry":{"type":"Point","coordinates":[-121.91122,36.58945]},"properties":{"depth_ft":243,"depth_m":74.1}},{"type":"Feature","geometry":{"type":"Point","coordinates":[-121.90536,36.58945]},"properties":{"depth_ft":239,"depth_m":72.8}},{"type":"Feature","geometry":{"type":"Point","coordinates":[-121.8995,36.58945]},"properties":{"depth_ft":237,"depth_m":72.1}},{"type":"Feature","geometry":{"type":"Point","coordinates":[-121.89365,36.58945]},"properties":{"depth_ft":230,"depth_m":70.1}},{"type":"Feature","geometry":{"type":"Point","coordinates":[-121.88779,36.58945]},"properties":{"depth_ft":222,"depth_m":67.7}},{"type":"Feature","geometry":{"type":"Point","coordinates":[-121.88193,36.58945]},"properties":{"depth_ft":223,"depth_m":67.8}},{"type":"Feature","geometry":{"type":"Point","coordinates":[-121.87608,36.58945]},"properties":{"depth_ft":214,"depth_m":65.1}},{"type":"Feature","geometry":{"type":"Point","coordinates":[-121.87022,36.58945]},"properties":{"depth_ft":189,"depth_m":57.7}},{"type":"Feature","geometry":{"type":"Point","coordinates":[-121.86436,36.58945]},"properties":{"depth_ft":178,"depth_m":54.2}},{"type":"Feature","geometry":{"type":"Point","coordinates":[-121.85851,36.58945]},"properties":{"depth_ft":161,"depth_m":49.1}},{"type":"Feature","geometry":{"type":"Point","coordinates":[-121.85265,36.58945]},"properties":{"depth_ft":118,"depth_m":36.0}},{"type":"Feature","geometry":{"type":"Point","coordinates":[-121.98735,36.58475]},"properties":{"depth_ft":340,"depth_m":103.6}},{"type":"Feature","geometry":{"type":"Point","coordinates":[-121.98149,36.58475]},"properties":{"depth_ft":323,"depth_m":98.6}},{"type":"Feature","geometry":{"type":"Point","coordinates":[-121.97564,36.58475]},"properties":{"depth_ft":311,"depth_m":94.9}},{"type":"Feature","geometry":{"type":"Point","coordinates":[-121.96978,36.58475]},"properties":{"depth_ft":303,"depth_m":92.2}},{"type":"Feature","geometry":{"type":"Point","coordinates":[-121.96392,36.58475]},"properties":{"depth_ft":295,"depth_m":89.8}},{"type":"Feature","geometry":{"type":"Point","coordinates":[-121.95807,36.58475]},"properties":{"depth_ft":282,"depth_m":86.0}},{"type":"Feature","geometry":{"type":"Point","coordinates":[-121.95221,36.58475]},"properties":{"depth_ft":286,"depth_m":87.2}},{"type":"Feature","geometry":{"type":"Point","coordinates":[-121.94635,36.58475]},"properties":{"depth_ft":270,"depth_m":82.3}},{"type":"Feature","geometry":{"type":"Point","coordinates":[-121.9405,36.58475]},"properties":{"depth_ft":266,"depth_m":81.1}},{"type":"Feature","geometry":{"type":"Point","coordinates":[-121.93464,36.58475]},"properties":{"depth_ft":246,"depth_m":74.9}},{"type":"Feature","geometry":{"type":"Point","coordinates":[-121.92878,36.58475]},"properties":{"depth_ft":253,"depth_m":77.2}},{"type":"Feature","geometry":{"type":"Point","coordinates":[-121.92293,36.58475]},"properties":{"depth_ft":260,"depth_m":79.2}},{"type":"Feature","geometry":{"type":"Point","coordinates":[-121.91707,36.58475]},"properties":{"depth_ft":259,"depth_m":78.9}},{"type":"Feature","geometry":{"type":"Point","coordinates":[-121.91122,36.58475]},"properties":{"depth_ft":259,"depth_m":78.9}},{"type":"Feature","geometry":{"type":"Point","coordinates":[-121.90536,36.58475]},"properties":{"depth_ft":250,"depth_m":76.1}},{"type":"Feature","geometry":{"type":"Point","coordinates":[-121.8995,36.58475]},"properties":{"depth_ft":241,"depth_m":73.4}},{"type":"Feature","geometry":{"type":"Point","coordinates":[-121.89365,36.58475]},"properties":{"depth_ft":240,"depth_m":73.3}},{"type":"Feature","geometry":{"type":"Point","coordinates":[-121.88779,36.58475]},"properties":{"depth_ft":230,"depth_m":70.0}},{"type":"Feature","geometry":{"type":"Point","coordinates":[-121.88193,36.58475]},"properties":{"depth_ft":228,"depth_m":69.4}},{"type":"Feature","geometry":{"type":"Point","coordinates":[-121.87608,36.58475]},"properties":{"depth_ft":219,"depth_m":66.9}},{"type":"Feature","geometry":{"type":"Point","coordinates":[-121.87022,36.58475]},"properties":{"depth_ft":197,"depth_m":60.1}},{"type":"Feature","geometry":{"type":"Point","coordinates":[-121.86436,36.58475]},"properties":{"depth_ft":189,"depth_m":57.5}},{"type":"Feature","geometry":{"type":"Point","coordinates":[-121.85851,36.58475]},"properties":{"depth_ft":171,"depth_m":52.2}},{"type":"Feature","geometry":{"type":"Point","coordinates":[-121.85265,36.58475]},"properties":{"depth_ft":125,"depth_m":38.0}},{"type":"Feature","geometry":{"type":"Point","coordinates":[-121.98735,36.58005]},"properties":{"depth_ft":341,"depth_m":104.1}},{"type":"Feature","geometry":{"type":"Point","coordinates":[-121.98149,36.58005]},"properties":{"depth_ft":336,"depth_m":102.3}},{"type":"Feature","geometry":{"type":"Point","coordinates":[-121.97564,36.58005]},"properties":{"depth_ft":325,"depth_m":98.9}},{"type":"Feature","geometry":{"type":"Point","coordinates":[-121.96978,36.58005]},"properties":{"depth_ft":317,"depth_m":96.5}},{"type":"Feature","geometry":{"type":"Point","coordinates":[-121.96392,36.58005]},"properties":{"depth_ft":313,"depth_m":95.3}},{"type":"Feature","geometry":{"type":"Point","coordinates":[-121.95807,36.58005]},"properties":{"depth_ft":304,"depth_m":92.8}},{"type":"Feature","geometry":{"type":"Point","coordinates":[-121.95221,36.58005]},"properties":{"depth_ft":295,"depth_m":89.9}},{"type":"Feature","geometry":{"type":"Point","coordinates":[-121.94635,36.58005]},"properties":{"depth_ft":286,"depth_m":87.1}},{"type":"Feature","geometry":{"type":"Point","coordinates":[-121.9405,36.58005]},"properties":{"depth_ft":289,"depth_m":88.0}},{"type":"Feature","geometry":{"type":"Point","coordinates":[-121.93464,36.58005]},"properties":{"depth_ft":284,"depth_m":86.7}},{"type":"Feature","geometry":{"type":"Point","coordinates":[-121.92878,36.58005]},"properties":{"depth_ft":276,"depth_m":84.0}},{"type":"Feature","geometry":{"type":"Point","coordinates":[-121.92293,36.58005]},"properties":{"depth_ft":274,"depth_m":83.6}},{"type":"Feature","geometry":{"type":"Point","coordinates":[-121.91707,36.58005]},"properties":{"depth_ft":272,"depth_m":82.9}},{"type":"Feature","geometry":{"type":"Point","coordinates":[-121.91122,36.58005]},"properties":{"depth_ft":269,"depth_m":81.9}},{"type":"Feature","geometry":{"type":"Point","coordinates":[-121.90536,36.58005]},"properties":{"depth_ft":258,"depth_m":78.6}},{"type":"Feature","geometry":{"type":"Point","coordinates":[-121.8995,36.58005]},"properties":{"depth_ft":251,"depth_m":76.4}},{"type":"Feature","geometry":{"type":"Point","coordinates":[-121.89365,36.58005]},"properties":{"depth_ft":250,"depth_m":76.1}},{"type":"Feature","geometry":{"type":"Point","coordinates":[-121.88779,36.58005]},"properties":{"depth_ft":234,"depth_m":71.5}},{"type":"Feature","geometry":{"type":"Point","coordinates":[-121.88193,36.58005]},"properties":{"depth_ft":233,"depth_m":71.1}},{"type":"Feature","geometry":{"type":"Point","coordinates":[-121.87608,36.58005]},"properties":{"depth_ft":223,"depth_m":68.1}},{"type":"Feature","geometry":{"type":"Point","coordinates":[-121.87022,36.58005]},"properties":{"depth_ft":204,"depth_m":62.1}},{"type":"Feature","geometry":{"type":"Point","coordinates":[-121.86436,36.58005]},"properties":{"depth_ft":195,"depth_m":59.6}},{"type":"Feature","geometry":{"type":"Point","coordinates":[-121.85851,36.58005]},"properties":{"depth_ft":182,"depth_m":55.4}},{"type":"Feature","geometry":{"type":"Point","coordinates":[-121.85265,36.58005]},"properties":{"depth_ft":157,"depth_m":47.7}},{"type":"Feature","geometry":{"type":"Point","coordinates":[-121.98735,36.57535]},"properties":{"depth_ft":345,"depth_m":105.1}},{"type":"Feature","geometry":{"type":"Point","coordinates":[-121.98149,36.57535]},"properties":{"depth_ft":342,"depth_m":104.4}},{"type":"Feature","geometry":{"type":"Point","coordinates":[-121.97564,36.57535]},"properties":{"depth_ft":333,"depth_m":101.6}},{"type":"Feature","geometry":{"type":"Point","coordinates":[-121.96978,36.57535]},"properties":{"depth_ft":326,"depth_m":99.4}},{"type":"Feature","geometry":{"type":"Point","coordinates":[-121.96392,36.57535]},"properties":{"depth_ft":320,"depth_m":97.4}},{"type":"Feature","geometry":{"type":"Point","coordinates":[-121.95807,36.57535]},"properties":{"depth_ft":314,"depth_m":95.6}},{"type":"Feature","geometry":{"type":"Point","coordinates":[-121.95221,36.57535]},"properties":{"depth_ft":309,"depth_m":94.2}},{"type":"Feature","geometry":{"type":"Point","coordinates":[-121.94635,36.57535]},"properties":{"depth_ft":300,"depth_m":91.5}},{"type":"Feature","geometry":{"type":"Point","coordinates":[-121.9405,36.57535]},"properties":{"depth_ft":295,"depth_m":90.0}},{"type":"Feature","geometry":{"type":"Point","coordinates":[-121.93464,36.57535]},"properties":{"depth_ft":294,"depth_m":89.5}},{"type":"Feature","geometry":{"type":"Point","coordinates":[-121.92878,36.57535]},"properties":{"depth_ft":283,"depth_m":86.4}},{"type":"Feature","geometry":{"type":"Point","coordinates":[-121.92293,36.57535]},"properties":{"depth_ft":278,"depth_m":84.8}},{"type":"Feature","geometry":{"type":"Point","coordinates":[-121.91707,36.57535]},"properties":{"depth_ft":274,"depth_m":83.6}},{"type":"Feature","geometry":{"type":"Point","coordinates":[-121.91122,36.57535]},"properties":{"depth_ft":273,"depth_m":83.3}},{"type":"Feature","geometry":{"type":"Point","coordinates":[-121.90536,36.57535]},"properties":{"depth_ft":268,"depth_m":81.8}},{"type":"Feature","geometry":{"type":"Point","coordinates":[-121.8995,36.57535]},"properties":{"depth_ft":263,"depth_m":80.1}},{"type":"Feature","geometry":{"type":"Point","coordinates":[-121.89365,36.57535]},"properties":{"depth_ft":252,"depth_m":76.7}},{"type":"Feature","geometry":{"type":"Point","coordinates":[-121.88779,36.57535]},"properties":{"depth_ft":242,"depth_m":73.7}},{"type":"Feature","geometry":{"type":"Point","coordinates":[-121.88193,36.57535]},"properties":{"depth_ft":239,"depth_m":73.0}},{"type":"Feature","geometry":{"type":"Point","coordinates":[-121.87608,36.57535]},"properties":{"depth_ft":229,"depth_m":69.8}},{"type":"Feature","geometry":{"type":"Point","coordinates":[-121.87022,36.57535]},"properties":{"depth_ft":202,"depth_m":61.6}},{"type":"Feature","geometry":{"type":"Point","coordinates":[-121.86436,36.57535]},"properties":{"depth_ft":198,"depth_m":60.4}},{"type":"Feature","geometry":{"type":"Point","coordinates":[-121.85851,36.57535]},"properties":{"depth_ft":186,"depth_m":56.6}},{"type":"Feature","geometry":{"type":"Point","coordinates":[-121.85265,36.57535]},"properties":{"depth_ft":168,"depth_m":51.3}},{"type":"Feature","geometry":{"type":"Point","coordinates":[-121.98735,36.57065]},"properties":{"depth_ft":354,"depth_m":107.8}},{"type":"Feature","geometry":{"type":"Point","coordinates":[-121.98149,36.57065]},"properties":{"depth_ft":346,"depth_m":105.4}},{"type":"Feature","geometry":{"type":"Point","coordinates":[-121.97564,36.57065]},"properties":{"depth_ft":339,"depth_m":103.2}},{"type":"Feature","geometry":{"type":"Point","coordinates":[-121.96978,36.57065]},"properties":{"depth_ft":328,"depth_m":100.1}},{"type":"Feature","geometry":{"type":"Point","coordinates":[-121.96392,36.57065]},"properties":{"depth_ft":324,"depth_m":98.9}},{"type":"Feature","geometry":{"type":"Point","coordinates":[-121.95807,36.57065]},"properties":{"depth_ft":317,"depth_m":96.6}},{"type":"Feature","geometry":{"type":"Point","coordinates":[-121.95221,36.57065]},"properties":{"depth_ft":314,"depth_m":95.6}},{"type":"Feature","geometry":{"type":"Point","coordinates":[-121.94635,36.57065]},"properties":{"depth_ft":309,"depth_m":94.1}},{"type":"Feature","geometry":{"type":"Point","coordinates":[-121.9405,36.57065]},"properties":{"depth_ft":304,"depth_m":92.5}},{"type":"Feature","geometry":{"type":"Point","coordinates":[-121.93464,36.57065]},"properties":{"depth_ft":303,"depth_m":92.4}},{"type":"Feature","geometry":{"type":"Point","coordinates":[-121.92878,36.57065]},"properties":{"depth_ft":294,"depth_m":89.8}},{"type":"Feature","geometry":{"type":"Point","coordinates":[-121.92293,36.57065]},"properties":{"depth_ft":281,"depth_m":85.6}},{"type":"Feature","geometry":{"type":"Point","coordinates":[-121.91707,36.57065]},"properties":{"depth_ft":277,"depth_m":84.5}},{"type":"Feature","geometry":{"type":"Point","coordinates":[-121.91122,36.57065]},"properties":{"depth_ft":273,"depth_m":83.2}},{"type":"Feature","geometry":{"type":"Point","coordinates":[-121.90536,36.57065]},"properties":{"depth_ft":272,"depth_m":82.8}},{"type":"Feature","geometry":{"type":"Point","coordinates":[-121.8995,36.57065]},"properties":{"depth_ft":264,"depth_m":80.4}},{"type":"Feature","geometry":{"type":"Point","coordinates":[-121.89365,36.57065]},"properties":{"depth_ft":252,"depth_m":76.8}},{"type":"Feature","geometry":{"type":"Point","coordinates":[-121.88779,36.57065]},"properties":{"depth_ft":246,"depth_m":75.1}},{"type":"Feature","geometry":{"type":"Point","coordinates":[-121.88193,36.57065]},"properties":{"depth_ft":244,"depth_m":74.3}},{"type":"Feature","geometry":{"type":"Point","coordinates":[-121.87608,36.57065]},"properties":{"depth_ft":238,"depth_m":72.5}},{"type":"Feature","geometry":{"type":"Point","coordinates":[-121.87022,36.57065]},"properties":{"depth_ft":217,"depth_m":66.0}},{"type":"Feature","geometry":{"type":"Point","coordinates":[-121.86436,36.57065]},"properties":{"depth_ft":199,"depth_m":60.8}},{"type":"Feature","geometry":{"type":"Point","coordinates":[-121.85851,36.57065]},"properties":{"depth_ft":192,"depth_m":58.4}},{"type":"Feature","geometry":{"type":"Point","coordinates":[-121.85265,36.57065]},"properties":{"depth_ft":181,"depth_m":55.2}},{"type":"Feature","geometry":{"type":"Point","coordinates":[-121.98735,36.56595]},"properties":{"depth_ft":358,"depth_m":109.3}},{"type":"Feature","geometry":{"type":"Point","coordinates":[-121.98149,36.56595]},"properties":{"depth_ft":347,"depth_m":105.8}},{"type":"Feature","geometry":{"type":"Point","coordinates":[-121.97564,36.56595]},"properties":{"depth_ft":342,"depth_m":104.2}},{"type":"Feature","geometry":{"type":"Point","coordinates":[-121.96978,36.56595]},"properties":{"depth_ft":335,"depth_m":102.1}},{"type":"Feature","geometry":{"type":"Point","coordinates":[-121.96392,36.56595]},"properties":{"depth_ft":326,"depth_m":99.4}},{"type":"Feature","geometry":{"type":"Point","coordinates":[-121.95807,36.56595]},"properties":{"depth_ft":318,"depth_m":96.8}},{"type":"Feature","geometry":{"type":"Point","coordinates":[-121.95221,36.56595]},"properties":{"depth_ft":314,"depth_m":95.6}},{"type":"Feature","geometry":{"type":"Point","coordinates":[-121.94635,36.56595]},"properties":{"depth_ft":313,"depth_m":95.4}},{"type":"Feature","geometry":{"type":"Point","coordinates":[-121.9405,36.56595]},"properties":{"depth_ft":306,"depth_m":93.3}},{"type":"Feature","geometry":{"type":"Point","coordinates":[-121.93464,36.56595]},"properties":{"depth_ft":301,"depth_m":91.8}},{"type":"Feature","geometry":{"type":"Point","coordinates":[-121.92878,36.56595]},"properties":{"depth_ft":302,"depth_m":92.1}},{"type":"Feature","geometry":{"type":"Point","coordinates":[-121.92293,36.56595]},"properties":{"depth_ft":289,"depth_m":88.2}},{"type":"Feature","geometry":{"type":"Point","coordinates":[-121.91707,36.56595]},"properties":{"depth_ft":281,"depth_m":85.8}},{"type":"Feature","geometry":{"type":"Point","coordinates":[-121.91122,36.56595]},"properties":{"depth_ft":279,"depth_m":85.1}},{"type":"Feature","geometry":{"type":"Point","coordinates":[-121.90536,36.56595]},"properties":{"depth_ft":277,"depth_m":84.4}},{"type":"Feature","geometry":{"type":"Point","coordinates":[-121.8995,36.56595]},"properties":{"depth_ft":264,"depth_m":80.4}},{"type":"Feature","geometry":{"type":"Point","coordinates":[-121.89365,36.56595]},"properties":{"depth_ft":251,"depth_m":76.6}},{"type":"Feature","geometry":{"type":"Point","coordinates":[-121.88779,36.56595]},"properties":{"depth_ft":251,"depth_m":76.4}},{"type":"Feature","geometry":{"type":"Point","coordinates":[-121.88193,36.56595]},"properties":{"depth_ft":248,"depth_m":75.7}},{"type":"Feature","geometry":{"type":"Point","coordinates":[-121.87608,36.56595]},"properties":{"depth_ft":240,"depth_m":73.1}},{"type":"Feature","geometry":{"type":"Point","coordinates":[-121.87022,36.56595]},"properties":{"depth_ft":225,"depth_m":68.5}},{"type":"Feature","geometry":{"type":"Point","coordinates":[-121.86436,36.56595]},"properties":{"depth_ft":209,"depth_m":63.8}},{"type":"Feature","geometry":{"type":"Point","coordinates":[-121.85851,36.56595]},"properties":{"depth_ft":195,"depth_m":59.6}},{"type":"Feature","geometry":{"type":"Point","coordinates":[-121.85265,36.56595]},"properties":{"depth_ft":186,"depth_m":56.6}}]}