{"type":"FeatureCollection","features":[{"type":"Feature","geometry":{"type":"Polygon","coordinates":[[[-110.38629,24.54573],[-110.38494,24.54681],[-110.38262,24.54938],[-110.38217,24.54969],[-110.38179,24.54974],[-110.38183,24.54938],[-110.38147,24.54904],[-110.38019,24.54913],[-110.37701,24.54977],[-110.37658,24.54996],[-110.37465,24.55153],[-110.37467,24.55166],[-110.37524,24.55168],[-110.37565,24.55189],[-110.37593,24.55255],[-110.37623,24.55281],[-110.37779,24.55321],[-110.37906,24.55402],[-110.38034,24.55452],[-110.38158,24.5559],[-110.38282,24.55677],[-110.38366,24.55694],[-110.38612,24.55586],[-110.38688,24.55521],[-110.38793,24.55323],[-110.38846,24.55307],[-110.38962,24.55222],[-110.39197,24.55097],[-110.39314,24.5506],[-110.39435,24.55046],[-110.39564,24.54962],[-110.39678,24.54922],[-110.39706,24.54894],[-110.39823,24.54887],[-110.39995,24.54816],[-110.40373,24.54619],[-110.40416,24.54572],[-110.40606714800515,24.544954954954953],[-110.40790785499786,24.544954954954953],[-110.40712,24.54624],[-110.40744,24.54686],[-110.40801,24.54715],[-110.40867,24.54713],[-110.40976,24.54741],[-110.4095,24.54807],[-110.40889,24.54859],[-110.40862,24.54939],[-110.40786,24.54978],[-110.40674,24.5499],[-110.40443,24.5514],[-110.40389,24.55212],[-110.40412,24.55244],[-110.40435,24.55249],[-110.40656,24.5519],[-110.40648,24.55217],[-110.40608,24.55242],[-110.40561,24.55306],[-110.40585,24.55332],[-110.4076,24.5527],[-110.40866,24.55187],[-110.40963,24.55182],[-110.41078,24.55227],[-110.41131,24.553],[-110.41155,24.55386],[-110.41036,24.55399],[-110.40874,24.55354],[-110.40663,24.55374],[-110.40262,24.55486],[-110.4021,24.55527],[-110.40133,24.5553],[-110.40031,24.5563],[-110.39858,24.55697],[-110.39826,24.55734],[-110.39758,24.55729],[-110.39731,24.55693],[-110.3969,24.55689],[-110.3961,24.55742],[-110.39603,24.55768],[-110.39631,24.55816],[-110.39624,24.55837],[-110.39562,24.55878],[-110.39472,24.55978],[-110.39408,24.56149],[-110.39304,24.56222],[-110.39332,24.56297],[-110.39376,24.56344],[-110.39412,24.56356],[-110.39542,24.56334],[-110.39616,24.56299],[-110.3969,24.56287],[-110.3972,24.56249],[-110.39713,24.56191],[-110.39752,24.56169],[-110.39918,24.56154],[-110.40009,24.56128],[-110.40226,24.56123],[-110.4027,24.56134],[-110.40307,24.56184],[-110.40297,24.56286],[-110.40239,24.56363],[-110.40181,24.56396],[-110.40077,24.56492],[-110.4014,24.56604],[-110.40202,24.56652],[-110.40253,24.56642],[-110.40351,24.56581],[-110.40403,24.56626],[-110.40463,24.56605],[-110.40543,24.56604],[-110.4057,24.56619],[-110.40597,24.56687],[-110.40532,24.56835],[-110.40592,24.56881],[-110.40682,24.56834],[-110.40813,24.56802],[-110.41056,24.56598],[-110.41193,24.56553],[-110.41361,24.56456],[-110.41414,24.56443],[-110.4153,24.56452],[-110.41564,24.56482],[-110.41562,24.56516],[-110.41502,24.56639],[-110.41427,24.56727],[-110.41445,24.568],[-110.41433,24.56844],[-110.41318,24.57],[-110.41188,24.57079],[-110.41175,24.57115],[-110.41184,24.57243],[-110.41093,24.57284],[-110.41004,24.57392],[-110.4094,24.57427],[-110.40884,24.57415],[-110.40817,24.57483],[-110.40618,24.57591],[-110.40419,24.57733],[-110.40272,24.57902],[-110.40211,24.57953],[-110.4015,24.57979],[-110.40118,24.58018],[-110.40051,24.5802],[-110.39987,24.57999],[-110.3993,24.58042],[-110.39639,24.58045],[-110.39627,24.58087],[-110.39663,24.58132],[-110.39749,24.5818],[-110.39822,24.58185],[-110.3988,24.58252],[-110.39914,24.58252],[-110.39956,24.5821],[-110.40051,24.5826],[-110.40084,24.58302],[-110.40092,24.58341],[-110.4008,24.58471],[-110.40108,24.585],[-110.40148,24.58507],[-110.40181,24.58553],[-110.40174,24.58601],[-110.40153,24.58625],[-110.40091,24.58642],[-110.3999,24.58733],[-110.39922,24.58771],[-110.39853,24.58894],[-110.39801,24.58941],[-110.39791,24.58997],[-110.39836,24.59066],[-110.39846,24.59112],[-110.39788,24.59177],[-110.39712,24.59203],[-110.39595,24.59212],[-110.39454,24.59196],[-110.39319,24.59143],[-110.39129,24.59022],[-110.39053,24.59013],[-110.3892,24.59033],[-110.38875,24.59011],[-110.38819,24.58946],[-110.38706,24.58892],[-110.38646,24.58887],[-110.38506,24.58779],[-110.38427,24.5861],[-110.38424,24.58568],[-110.38373,24.58535],[-110.38256,24.58502],[-110.38194,24.58455],[-110.38108,24.5836],[-110.38061,24.58265],[-110.38091,24.58198],[-110.38082,24.58145],[-110.38103,24.58124],[-110.38065,24.58059],[-110.38072,24.57995],[-110.37992,24.57873],[-110.38002,24.57842],[-110.37972,24.57787],[-110.38049,24.57734],[-110.38065,24.57707],[-110.38077,24.57597],[-110.38047,24.57452],[-110.38089,24.57275],[-110.37945,24.57019],[-110.3775,24.56838],[-110.37714,24.56833],[-110.37629,24.56872],[-110.37584,24.56871],[-110.37543,24.56847],[-110.37445,24.56716],[-110.37371,24.56704],[-110.37356,24.56745],[-110.3733,24.56732],[-110.37313,24.56653],[-110.37247,24.56589],[-110.37249,24.56476],[-110.37163,24.56419],[-110.37151,24.56343],[-110.37118,24.5631],[-110.37008,24.56243],[-110.36901,24.56266],[-110.36803,24.56265],[-110.36749,24.56235],[-110.36723,24.56174],[-110.36758,24.56084],[-110.36742,24.55946],[-110.36769,24.55846],[-110.36775,24.55718],[-110.36703,24.55617],[-110.36619,24.55569],[-110.36526,24.55565],[-110.36421,24.55618],[-110.36376,24.55621],[-110.36171,24.55484],[-110.36135,24.55423],[-110.3612,24.55332],[-110.36061,24.5522],[-110.36006,24.5503],[-110.3602,24.54836],[-110.36045,24.54731],[-110.36032,24.54513],[-110.36039610654133,24.544954954954953],[-110.3874295639475,24.544954954954953],[-110.38629,24.54573]]]},"properties":{"name":"unnamed-land"}},{"type":"Feature","geometry":{"type":"Polygon","coordinates":[[[-110.40424,24.5978],[-110.40457,24.59819],[-110.40446,24.59845],[-110.40419,24.59853],[-110.40409,24.59884],[-110.40176,24.59908],[-110.40183,24.59921],[-110.40159,24.59928],[-110.40093,24.59902],[-110.40087,24.59884],[-110.4011,24.59894],[-110.40178,24.59883],[-110.40211,24.59856],[-110.40233,24.59863],[-110.403,24.59837],[-110.40353,24.59799],[-110.40424,24.5978]]]},"properties":{"name":"unnamed-land"}}]}