{"type":"FeatureCollection","features":[{"type":"Feature","geometry":{"type":"Point","coordinates":[-110.40738,24.59888]},"properties":{"depth_ft":307,"depth_m":93.5}},{"type":"Feature","geometry":{"type":"Point","coordinates":[-110.39877,24.59888]},"properties":{"depth_ft":96,"depth_m":29.1}},{"type":"Feature","geometry":{"type":"Point","coordinates":[-110.39446,24.59888]},"properties":{"depth_ft":300,"depth_m":91.3}},{"type":"Feature","geometry":{"type":"Point","coordinates":[-110.416,24.59496]},"properties":{"depth_ft":280,"depth_m":85.2}},{"type":"Feature","geometry":{"type":"Point","coordinates":[-110.41169,24.59496]},"properties":{"depth_ft":222,"depth_m":67.7}},{"type":"Feature","geometry":{"type":"Point","coordinates":[-110.40738,24.59496]},"properties":{"depth_ft":171,"depth_m":52.1}},{"type":"Feature","geometry":{"type":"Point","coordinates":[-110.40308,24.59496]},"properties":{"depth_ft":68,"depth_m":20.7}},{"type":"Feature","geometry":{"type":"Point","coordinates":[-110.39877,24.59496]},"properties":{"depth_ft":39,"depth_m":11.9}},{"type":"Feature","geometry":{"type":"Point","coordinates":[-110.39446,24.59496]},"properties":{"depth_ft":115,"depth_m":35.0}},{"type":"Feature","geometry":{"type":"Point","coordinates":[-110.39015,24.59496]},"properties":{"depth_ft":205,"depth_m":62.6}},{"type":"Feature","geometry":{"type":"Point","coordinates":[-110.38585,24.59496]},"properties":{"depth_ft":330,"depth_m":100.6}},{"type":"Feature","geometry":{"type":"Point","coordinates":[-110.42031,24.59104]},"properties":{"depth_ft":271,"depth_m":82.7}},{"type":"Feature","geometry":{"type":"Point","coordinates":[-110.416,24.59104]},"properties":{"depth_ft":195,"depth_m":59.3}},{"type":"Feature","geometry":{"type":"Point","coordinates":[-110.41169,24.59104]},"properties":{"depth_ft":118,"depth_m":36.0}},{"type":"Feature","geometry":{"type":"Point","coordinates":[-110.40738,24.59104]},"properties":{"depth_ft":43,"depth_m":13.2}},{"type":"Feature","geometry":{"type":"Point","coordinates":[-110.38585,24.59104]},"properties":{"depth_ft":121,"depth_m":36.8}},{"type":"Feature","geometry":{"type":"Point","coordinates":[-110.38154,24.59104]},"properties":{"depth_ft":278,"depth_m":84.7}},{"type":"Feature","geometry":{"type":"Point","coordinates":[-110.42462,24.58712]},"properties":{"depth_ft":294,"depth_m":89.6}},{"type":"Feature","geometry":{"type":"Point","coordinates":[-110.42031,24.58712]},"properties":{"depth_ft":206,"depth_m":62.9}},{"type":"Feature","geometry":{"type":"Point","coordinates":[-110.416,24.58712]},"properties":{"depth_ft":124,"depth_m":37.7}},{"type":"Feature","geometry":{"type":"Point","coordinates":[-110.41169,24.58712]},"properties":{"depth_ft":35,"depth_m":10.7}},{"type":"Feature","geometry":{"type":"Point","coordinates":[-110.38154,24.58712]},"properties":{"depth_ft":86,"depth_m":26.3}},{"type":"Feature","geometry":{"type":"Point","coordinates":[-110.37723,24.58712]},"properties":{"depth_ft":232,"depth_m":70.7}},{"type":"Feature","geometry":{"type":"Point","coordinates":[-110.42462,24.58321]},"properties":{"depth_ft":235,"depth_m":71.6}},{"type":"Feature","geometry":{"type":"Point","coordinates":[-110.42031,24.58321]},"properties":{"depth_ft":153,"depth_m":46.7}},{"type":"Feature","geometry":{"type":"Point","coordinates":[-110.416,24.58321]},"properties":{"depth_ft":70,"depth_m":21.4}},{"type":"Feature","geometry":{"type":"Point","coordinates":[-110.37723,24.58321]},"properties":{"depth_ft":68,"depth_m":20.9}},{"type":"Feature","geometry":{"type":"Point","coordinates":[-110.37292,24.58321]},"properties":{"depth_ft":190,"depth_m":57.8}},{"type":"Feature","geometry":{"type":"Point","coordinates":[-110.42892,24.57929]},"properties":{"depth_ft":281,"depth_m":85.6}},{"type":"Feature","geometry":{"type":"Point","coordinates":[-110.42462,24.57929]},"properties":{"depth_ft":191,"depth_m":58.2}},{"type":"Feature","geometry":{"type":"Point","coordinates":[-110.42031,24.57929]},"properties":{"depth_ft":118,"depth_m":35.9}},{"type":"Feature","geometry":{"type":"Point","coordinates":[-110.416,24.57929]},"properties":{"depth_ft":40,"depth_m":12.1}},{"type":"Feature","geometry":{"type":"Point","coordinates":[-110.37292,24.57929]},"properties":{"depth_ft":40,"depth_m":12.3}},{"type":"Feature","geometry":{"type":"Point","coordinates":[-110.36862,24.57929]},"properties":{"depth_ft":230,"depth_m":70.3}},{"type":"Feature","geometry":{"type":"Point","coordinates":[-110.42892,24.57537]},"properties":{"depth_ft":240,"depth_m":73.2}},{"type":"Feature","geometry":{"type":"Point","coordinates":[-110.42462,24.57537]},"properties":{"depth_ft":162,"depth_m":49.4}},{"type":"Feature","geometry":{"type":"Point","coordinates":[-110.42031,24.57537]},"properties":{"depth_ft":102,"depth_m":31.0}},{"type":"Feature","geometry":{"type":"Point","coordinates":[-110.416,24.57537]},"properties":{"depth_ft":31,"depth_m":9.4}},{"type":"Feature","geometry":{"type":"Point","coordinates":[-110.36862,24.57537]},"properties":{"depth_ft":90,"depth_m":27.5}},{"type":"Feature","geometry":{"type":"Point","coordinates":[-110.36431,24.57537]},"properties":{"depth_ft":324,"depth_m":98.9}},{"type":"Feature","geometry":{"type":"Point","coordinates":[-110.43323,24.57146]},"properties":{"depth_ft":320,"depth_m":97.4}},{"type":"Feature","geometry":{"type":"Point","coordinates":[-110.42892,24.57146]},"properties":{"depth_ft":218,"depth_m":66.5}},{"type":"Feature","geometry":{"type":"Point","coordinates":[-110.42462,24.57146]},"properties":{"depth_ft":152,"depth_m":46.2}},{"type":"Feature","geometry":{"type":"Point","coordinates":[-110.42031,24.57146]},"properties":{"depth_ft":107,"depth_m":32.6}},{"type":"Feature","geometry":{"type":"Point","coordinates":[-110.416,24.57146]},"properties":{"depth_ft":19,"depth_m":5.9}},{"type":"Feature","geometry":{"type":"Point","coordinates":[-110.36431,24.57146]},"properties":{"depth_ft":215,"depth_m":65.6}},{"type":"Feature","geometry":{"type":"Point","coordinates":[-110.43323,24.56754]},"properties":{"depth_ft":309,"depth_m":94.2}},{"type":"Feature","geometry":{"type":"Point","coordinates":[-110.42892,24.56754]},"properties":{"depth_ft":216,"depth_m":65.9}},{"type":"Feature","geometry":{"type":"Point","coordinates":[-110.42462,24.56754]},"properties":{"depth_ft":155,"depth_m":47.3}},{"type":"Feature","geometry":{"type":"Point","coordinates":[-110.42031,24.56754]},"properties":{"depth_ft":115,"depth_m":35.0}},{"type":"Feature","geometry":{"type":"Point","coordinates":[-110.36431,24.56754]},"properties":{"depth_ft":131,"depth_m":40.1}},{"type":"Feature","geometry":{"type":"Point","coordinates":[-110.43323,24.56362]},"properties":{"depth_ft":307,"depth_m":93.5}},{"type":"Feature","geometry":{"type":"Point","coordinates":[-110.42892,24.56362]},"properties":{"depth_ft":215,"depth_m":65.5}},{"type":"Feature","geometry":{"type":"Point","coordinates":[-110.42462,24.56362]},"properties":{"depth_ft":151,"depth_m":46.1}},{"type":"Feature","geometry":{"type":"Point","coordinates":[-110.42031,24.56362]},"properties":{"depth_ft":101,"depth_m":30.8}},{"type":"Feature","geometry":{"type":"Point","coordinates":[-110.36431,24.56362]},"properties":{"depth_ft":60,"depth_m":18.2}},{"type":"Feature","geometry":{"type":"Point","coordinates":[-110.36,24.56362]},"properties":{"depth_ft":240,"depth_m":73.3}},{"type":"Feature","geometry":{"type":"Point","coordinates":[-110.43323,24.55971]},"properties":{"depth_ft":310,"depth_m":94.5}},{"type":"Feature","geometry":{"type":"Point","coordinates":[-110.42892,24.55971]},"properties":{"depth_ft":218,"depth_m":66.3}},{"type":"Feature","geometry":{"type":"Point","coordinates":[-110.42462,24.55971]},"properties":{"depth_ft":151,"depth_m":45.9}},{"type":"Feature","geometry":{"type":"Point","coordinates":[-110.42031,24.55971]},"properties":{"depth_ft":96,"depth_m":29.4}},{"type":"Feature","geometry":{"type":"Point","coordinates":[-110.416,24.55971]},"properties":{"depth_ft":36,"depth_m":11.1}},{"type":"Feature","geometry":{"type":"Point","coordinates":[-110.36,24.55971]},"properties":{"depth_ft":150,"depth_m":45.8}},{"type":"Feature","geometry":{"type":"Point","coordinates":[-110.35569,24.55971]},"properties":{"depth_ft":326,"depth_m":99.3}},{"type":"Feature","geometry":{"type":"Point","coordinates":[-110.43323,24.55579]},"properties":{"depth_ft":325,"depth_m":99.2}},{"type":"Feature","geometry":{"type":"Point","coordinates":[-110.42892,24.55579]},"properties":{"depth_ft":237,"depth_m":72.3}},{"type":"Feature","geometry":{"type":"Point","coordinates":[-110.42462,24.55579]},"properties":{"depth_ft":167,"depth_m":51.0}},{"type":"Feature","geometry":{"type":"Point","coordinates":[-110.42031,24.55579]},"properties":{"depth_ft":106,"depth_m":32.3}},{"type":"Feature","geometry":{"type":"Point","coordinates":[-110.416,24.55579]},"properties":{"depth_ft":45,"depth_m":13.8}},{"type":"Feature","geometry":{"type":"Point","coordinates":[-110.36,24.55579]},"properties":{"depth_ft":85,"depth_m":25.9}},{"type":"Feature","geometry":{"type":"Point","coordinates":[-110.35569,24.55579]},"properties":{"depth_ft":236,"depth_m":72.1}},{"type":"Feature","geometry":{"type":"Point","coordinates":[-110.42892,24.55187]},"properties":{"depth_ft":261,"depth_m":79.6}},{"type":"Feature","geometry":{"type":"Point","coordinates":[-110.42462,24.55187]},"properties":{"depth_ft":192,"depth_m":58.6}},{"type":"Feature","geometry":{"type":"Point","coordinates":[-110.42031,24.55187]},"properties":{"depth_ft":127,"depth_m":38.7}},{"type":"Feature","geometry":{"type":"Point","coordinates":[-110.416,24.55187]},"properties":{"depth_ft":64,"depth_m":19.6}},{"type":"Feature","geometry":{"type":"Point","coordinates":[-110.36,24.55187]},"properties":{"depth_ft":24,"depth_m":7.2}},{"type":"Feature","geometry":{"type":"Point","coordinates":[-110.35569,24.55187]},"properties":{"depth_ft":149,"depth_m":45.5}},{"type":"Feature","geometry":{"type":"Point","coordinates":[-110.42892,24.54795]},"properties":{"depth_ft":290,"depth_m":88.3}},{"type":"Feature","geometry":{"type":"Point","coordinates":[-110.42462,24.54795]},"properties":{"depth_ft":220,"depth_m":67.0}},{"type":"Feature","geometry":{"type":"Point","coordinates":[-110.42031,24.54795]},"properties":{"depth_ft":152,"depth_m":46.3}},{"type":"Feature","geometry":{"type":"Point","coordinates":[-110.416,24.54795]},"properties":{"depth_ft":89,"depth_m":27.2}},{"type":"Feature","geometry":{"type":"Point","coordinates":[-110.35569,24.54795]},"properties":{"depth_ft":134,"depth_m":40.9}},{"type":"Feature","geometry":{"type":"Point","coordinates":[-110.35138,24.54795]},"properties":{"depth_ft":318,"depth_m":96.9}}]}