{"type":"FeatureCollection","features":[{"type":"Feature","geometry":{"type":"Polygon","coordinates":[[[-115.79045,29.79665],[-115.79001,29.79668],[-115.78992,29.79692],[-115.78954,29.79687],[-115.7898,29.79636],[-115.7895,29.79596],[-115.78891,29.79597],[-115.78872,29.79558],[-115.78909,29.79533],[-115.78922,29.79461],[-115.78872,29.79384],[-115.78848,29.79379],[-115.78819,29.79338],[-115.78864,29.79305],[-115.78865,29.79275],[-115.78921,29.79242],[-115.79027,29.79114],[-115.7907,29.79027],[-115.79168,29.78955],[-115.79194,29.78815],[-115.7926,29.78778],[-115.79297,29.78725],[-115.79343,29.78698],[-115.7951,29.78656],[-115.79515,29.78669],[-115.79462,29.78733],[-115.79505,29.78762],[-115.7951,29.78795],[-115.79412,29.78853],[-115.79405,29.78876],[-115.79339,29.78933],[-115.79332,29.78972],[-115.79346,29.79005],[-115.7941,29.79031],[-115.79443,29.79071],[-115.79446,29.79088],[-115.79396,29.79101],[-115.79422,29.79153],[-115.79418,29.79217],[-115.79428,29.79237],[-115.79486,29.79261],[-115.79375,29.79277],[-115.79361,29.79315],[-115.79246,29.79343],[-115.79206,29.79377],[-115.79196,29.79484],[-115.79243,29.79511],[-115.79193,29.79573],[-115.79191,29.79642],[-115.7926,29.79691],[-115.79205,29.7971],[-115.79174,29.79696],[-115.79174,29.79727],[-115.79045,29.79665]]]},"properties":{"name":"unnamed-land"}}]}