{"type":"FeatureCollection","features":[{"type":"Feature","geometry":{"type":"Point","coordinates":[-116.09231,30.59505]},"properties":{"depth_ft":88,"depth_m":26.9}},{"type":"Feature","geometry":{"type":"Point","coordinates":[-116.08776,30.59505]},"properties":{"depth_ft":83,"depth_m":25.3}},{"type":"Feature","geometry":{"type":"Point","coordinates":[-116.08321,30.59505]},"properties":{"depth_ft":77,"depth_m":23.5}},{"type":"Feature","geometry":{"type":"Point","coordinates":[-116.07866,30.59505]},"properties":{"depth_ft":72,"depth_m":22.1}},{"type":"Feature","geometry":{"type":"Point","coordinates":[-116.07411,30.59505]},"properties":{"depth_ft":69,"depth_m":20.9}},{"type":"Feature","geometry":{"type":"Point","coordinates":[-116.06956,30.59505]},"properties":{"depth_ft":65,"depth_m":19.8}},{"type":"Feature","geometry":{"type":"Point","coordinates":[-116.06502,30.59505]},"properties":{"depth_ft":60,"depth_m":18.2}},{"type":"Feature","geometry":{"type":"Point","coordinates":[-116.06047,30.59505]},"properties":{"depth_ft":53,"depth_m":16.2}},{"type":"Feature","geometry":{"type":"Point","coordinates":[-116.05592,30.59505]},"properties":{"depth_ft":46,"depth_m":13.9}},{"type":"Feature","geometry":{"type":"Point","coordinates":[-116.05137,30.59505]},"properties":{"depth_ft":40,"depth_m":12.1}},{"type":"Feature","geometry":{"type":"Point","coordinates":[-116.04682,30.59505]},"properties":{"depth_ft":35,"depth_m":10.5}},{"type":"Feature","geometry":{"type":"Point","coordinates":[-116.04227,30.59505]},"properties":{"depth_ft":29,"depth_m":8.7}},{"type":"Feature","geometry":{"type":"Point","coordinates":[-116.03773,30.59505]},"properties":{"depth_ft":21,"depth_m":6.4}},{"type":"Feature","geometry":{"type":"Point","coordinates":[-116.03318,30.59505]},"properties":{"depth_ft":9,"depth_m":2.8}},{"type":"Feature","geometry":{"type":"Point","coordinates":[-116.09231,30.59113]},"properties":{"depth_ft":90,"depth_m":27.4}},{"type":"Feature","geometry":{"type":"Point","coordinates":[-116.08776,30.59113]},"properties":{"depth_ft":85,"depth_m":25.8}},{"type":"Feature","geometry":{"type":"Point","coordinates":[-116.08321,30.59113]},"properties":{"depth_ft":79,"depth_m":24.1}},{"type":"Feature","geometry":{"type":"Point","coordinates":[-116.07866,30.59113]},"properties":{"depth_ft":74,"depth_m":22.5}},{"type":"Feature","geometry":{"type":"Point","coordinates":[-116.07411,30.59113]},"properties":{"depth_ft":69,"depth_m":21.2}},{"type":"Feature","geometry":{"type":"Point","coordinates":[-116.06956,30.59113]},"properties":{"depth_ft":65,"depth_m":19.8}},{"type":"Feature","geometry":{"type":"Point","coordinates":[-116.06502,30.59113]},"properties":{"depth_ft":60,"depth_m":18.2}},{"type":"Feature","geometry":{"type":"Point","coordinates":[-116.06047,30.59113]},"properties":{"depth_ft":53,"depth_m":16.2}},{"type":"Feature","geometry":{"type":"Point","coordinates":[-116.05592,30.59113]},"properties":{"depth_ft":46,"depth_m":14.0}},{"type":"Feature","geometry":{"type":"Point","coordinates":[-116.05137,30.59113]},"properties":{"depth_ft":40,"depth_m":12.1}},{"type":"Feature","geometry":{"type":"Point","coordinates":[-116.04682,30.59113]},"properties":{"depth_ft":34,"depth_m":10.5}},{"type":"Feature","geometry":{"type":"Point","coordinates":[-116.04227,30.59113]},"properties":{"depth_ft":28,"depth_m":8.6}},{"type":"Feature","geometry":{"type":"Point","coordinates":[-116.03773,30.59113]},"properties":{"depth_ft":20,"depth_m":6.2}},{"type":"Feature","geometry":{"type":"Point","coordinates":[-116.03318,30.59113]},"properties":{"depth_ft":11,"depth_m":3.2}},{"type":"Feature","geometry":{"type":"Point","coordinates":[-116.09231,30.58721]},"properties":{"depth_ft":91,"depth_m":27.9}},{"type":"Feature","geometry":{"type":"Point","coordinates":[-116.08776,30.58721]},"properties":{"depth_ft":86,"depth_m":26.2}},{"type":"Feature","geometry":{"type":"Point","coordinates":[-116.08321,30.58721]},"properties":{"depth_ft":81,"depth_m":24.6}},{"type":"Feature","geometry":{"type":"Point","coordinates":[-116.07866,30.58721]},"properties":{"depth_ft":75,"depth_m":23.0}},{"type":"Feature","geometry":{"type":"Point","coordinates":[-116.07411,30.58721]},"properties":{"depth_ft":70,"depth_m":21.4}},{"type":"Feature","geometry":{"type":"Point","coordinates":[-116.06956,30.58721]},"properties":{"depth_ft":65,"depth_m":19.7}},{"type":"Feature","geometry":{"type":"Point","coordinates":[-116.06502,30.58721]},"properties":{"depth_ft":60,"depth_m":18.2}},{"type":"Feature","geometry":{"type":"Point","coordinates":[-116.06047,30.58721]},"properties":{"depth_ft":53,"depth_m":16.2}},{"type":"Feature","geometry":{"type":"Point","coordinates":[-116.05592,30.58721]},"properties":{"depth_ft":46,"depth_m":14.0}},{"type":"Feature","geometry":{"type":"Point","coordinates":[-116.05137,30.58721]},"properties":{"depth_ft":40,"depth_m":12.2}},{"type":"Feature","geometry":{"type":"Point","coordinates":[-116.04682,30.58721]},"properties":{"depth_ft":35,"depth_m":10.6}},{"type":"Feature","geometry":{"type":"Point","coordinates":[-116.04227,30.58721]},"properties":{"depth_ft":28,"depth_m":8.6}},{"type":"Feature","geometry":{"type":"Point","coordinates":[-116.03773,30.58721]},"properties":{"depth_ft":21,"depth_m":6.3}},{"type":"Feature","geometry":{"type":"Point","coordinates":[-116.03318,30.58721]},"properties":{"depth_ft":13,"depth_m":4.0}},{"type":"Feature","geometry":{"type":"Point","coordinates":[-116.09231,30.58329]},"properties":{"depth_ft":92,"depth_m":28.0}},{"type":"Feature","geometry":{"type":"Point","coordinates":[-116.08776,30.58329]},"properties":{"depth_ft":87,"depth_m":26.6}},{"type":"Feature","geometry":{"type":"Point","coordinates":[-116.08321,30.58329]},"properties":{"depth_ft":82,"depth_m":25.0}},{"type":"Feature","geometry":{"type":"Point","coordinates":[-116.07866,30.58329]},"properties":{"depth_ft":77,"depth_m":23.4}},{"type":"Feature","geometry":{"type":"Point","coordinates":[-116.07411,30.58329]},"properties":{"depth_ft":71,"depth_m":21.8}},{"type":"Feature","geometry":{"type":"Point","coordinates":[-116.06956,30.58329]},"properties":{"depth_ft":66,"depth_m":20.0}},{"type":"Feature","geometry":{"type":"Point","coordinates":[-116.06502,30.58329]},"properties":{"depth_ft":60,"depth_m":18.2}},{"type":"Feature","geometry":{"type":"Point","coordinates":[-116.06047,30.58329]},"properties":{"depth_ft":53,"depth_m":16.2}},{"type":"Feature","geometry":{"type":"Point","coordinates":[-116.05592,30.58329]},"properties":{"depth_ft":47,"depth_m":14.3}},{"type":"Feature","geometry":{"type":"Point","coordinates":[-116.05137,30.58329]},"properties":{"depth_ft":41,"depth_m":12.5}},{"type":"Feature","geometry":{"type":"Point","coordinates":[-116.04682,30.58329]},"properties":{"depth_ft":35,"depth_m":10.6}},{"type":"Feature","geometry":{"type":"Point","coordinates":[-116.04227,30.58329]},"properties":{"depth_ft":28,"depth_m":8.6}},{"type":"Feature","geometry":{"type":"Point","coordinates":[-116.03773,30.58329]},"properties":{"depth_ft":21,"depth_m":6.4}},{"type":"Feature","geometry":{"type":"Point","coordinates":[-116.03318,30.58329]},"properties":{"depth_ft":12,"depth_m":3.8}},{"type":"Feature","geometry":{"type":"Point","coordinates":[-116.09231,30.57938]},"properties":{"depth_ft":93,"depth_m":28.2}},{"type":"Feature","geometry":{"type":"Point","coordinates":[-116.08776,30.57938]},"properties":{"depth_ft":89,"depth_m":27.1}},{"type":"Feature","geometry":{"type":"Point","coordinates":[-116.08321,30.57938]},"properties":{"depth_ft":84,"depth_m":25.5}},{"type":"Feature","geometry":{"type":"Point","coordinates":[-116.07866,30.57938]},"properties":{"depth_ft":78,"depth_m":23.9}},{"type":"Feature","geometry":{"type":"Point","coordinates":[-116.07411,30.57938]},"properties":{"depth_ft":73,"depth_m":22.3}},{"type":"Feature","geometry":{"type":"Point","coordinates":[-116.06956,30.57938]},"properties":{"depth_ft":67,"depth_m":20.5}},{"type":"Feature","geometry":{"type":"Point","coordinates":[-116.06502,30.57938]},"properties":{"depth_ft":60,"depth_m":18.4}},{"type":"Feature","geometry":{"type":"Point","coordinates":[-116.06047,30.57938]},"properties":{"depth_ft":54,"depth_m":16.3}},{"type":"Feature","geometry":{"type":"Point","coordinates":[-116.05592,30.57938]},"properties":{"depth_ft":48,"depth_m":14.7}},{"type":"Feature","geometry":{"type":"Point","coordinates":[-116.05137,30.57938]},"properties":{"depth_ft":42,"depth_m":12.9}},{"type":"Feature","geometry":{"type":"Point","coordinates":[-116.04682,30.57938]},"properties":{"depth_ft":35,"depth_m":10.7}},{"type":"Feature","geometry":{"type":"Point","coordinates":[-116.04227,30.57938]},"properties":{"depth_ft":28,"depth_m":8.6}},{"type":"Feature","geometry":{"type":"Point","coordinates":[-116.03773,30.57938]},"properties":{"depth_ft":21,"depth_m":6.4}},{"type":"Feature","geometry":{"type":"Point","coordinates":[-116.03318,30.57938]},"properties":{"depth_ft":9,"depth_m":2.8}},{"type":"Feature","geometry":{"type":"Point","coordinates":[-116.09231,30.57546]},"properties":{"depth_ft":94,"depth_m":28.6}},{"type":"Feature","geometry":{"type":"Point","coordinates":[-116.08776,30.57546]},"properties":{"depth_ft":90,"depth_m":27.6}},{"type":"Feature","geometry":{"type":"Point","coordinates":[-116.08321,30.57546]},"properties":{"depth_ft":85,"depth_m":26.0}},{"type":"Feature","geometry":{"type":"Point","coordinates":[-116.07866,30.57546]},"properties":{"depth_ft":80,"depth_m":24.4}},{"type":"Feature","geometry":{"type":"Point","coordinates":[-116.07411,30.57546]},"properties":{"depth_ft":75,"depth_m":22.8}},{"type":"Feature","geometry":{"type":"Point","coordinates":[-116.06956,30.57546]},"properties":{"depth_ft":69,"depth_m":21.0}},{"type":"Feature","geometry":{"type":"Point","coordinates":[-116.06502,30.57546]},"properties":{"depth_ft":62,"depth_m":18.8}},{"type":"Feature","geometry":{"type":"Point","coordinates":[-116.06047,30.57546]},"properties":{"depth_ft":55,"depth_m":16.7}},{"type":"Feature","geometry":{"type":"Point","coordinates":[-116.05592,30.57546]},"properties":{"depth_ft":49,"depth_m":14.9}},{"type":"Feature","geometry":{"type":"Point","coordinates":[-116.05137,30.57546]},"properties":{"depth_ft":42,"depth_m":12.9}},{"type":"Feature","geometry":{"type":"Point","coordinates":[-116.04682,30.57546]},"properties":{"depth_ft":35,"depth_m":10.7}},{"type":"Feature","geometry":{"type":"Point","coordinates":[-116.04227,30.57546]},"properties":{"depth_ft":28,"depth_m":8.6}},{"type":"Feature","geometry":{"type":"Point","coordinates":[-116.03773,30.57546]},"properties":{"depth_ft":20,"depth_m":6.1}},{"type":"Feature","geometry":{"type":"Point","coordinates":[-116.03318,30.57546]},"properties":{"depth_ft":8,"depth_m":2.4}},{"type":"Feature","geometry":{"type":"Point","coordinates":[-116.09231,30.57154]},"properties":{"depth_ft":96,"depth_m":29.2}},{"type":"Feature","geometry":{"type":"Point","coordinates":[-116.08776,30.57154]},"properties":{"depth_ft":92,"depth_m":28.1}},{"type":"Feature","geometry":{"type":"Point","coordinates":[-116.08321,30.57154]},"properties":{"depth_ft":87,"depth_m":26.5}},{"type":"Feature","geometry":{"type":"Point","coordinates":[-116.07866,30.57154]},"properties":{"depth_ft":82,"depth_m":24.9}},{"type":"Feature","geometry":{"type":"Point","coordinates":[-116.07411,30.57154]},"properties":{"depth_ft":76,"depth_m":23.3}},{"type":"Feature","geometry":{"type":"Point","coordinates":[-116.06956,30.57154]},"properties":{"depth_ft":71,"depth_m":21.5}},{"type":"Feature","geometry":{"type":"Point","coordinates":[-116.06502,30.57154]},"properties":{"depth_ft":63,"depth_m":19.3}},{"type":"Feature","geometry":{"type":"Point","coordinates":[-116.06047,30.57154]},"properties":{"depth_ft":56,"depth_m":17.1}},{"type":"Feature","geometry":{"type":"Point","coordinates":[-116.05592,30.57154]},"properties":{"depth_ft":49,"depth_m":14.9}},{"type":"Feature","geometry":{"type":"Point","coordinates":[-116.05137,30.57154]},"properties":{"depth_ft":42,"depth_m":12.9}},{"type":"Feature","geometry":{"type":"Point","coordinates":[-116.04682,30.57154]},"properties":{"depth_ft":35,"depth_m":10.7}},{"type":"Feature","geometry":{"type":"Point","coordinates":[-116.04227,30.57154]},"properties":{"depth_ft":28,"depth_m":8.7}},{"type":"Feature","geometry":{"type":"Point","coordinates":[-116.03773,30.57154]},"properties":{"depth_ft":21,"depth_m":6.3}},{"type":"Feature","geometry":{"type":"Point","coordinates":[-116.03318,30.57154]},"properties":{"depth_ft":8,"depth_m":2.5}},{"type":"Feature","geometry":{"type":"Point","coordinates":[-116.09231,30.56763]},"properties":{"depth_ft":96,"depth_m":29.4}},{"type":"Feature","geometry":{"type":"Point","coordinates":[-116.08776,30.56763]},"properties":{"depth_ft":93,"depth_m":28.2}},{"type":"Feature","geometry":{"type":"Point","coordinates":[-116.08321,30.56763]},"properties":{"depth_ft":88,"depth_m":26.8}},{"type":"Feature","geometry":{"type":"Point","coordinates":[-116.07866,30.56763]},"properties":{"depth_ft":83,"depth_m":25.4}},{"type":"Feature","geometry":{"type":"Point","coordinates":[-116.07411,30.56763]},"properties":{"depth_ft":78,"depth_m":23.8}},{"type":"Feature","geometry":{"type":"Point","coordinates":[-116.06956,30.56763]},"properties":{"depth_ft":72,"depth_m":22.0}},{"type":"Feature","geometry":{"type":"Point","coordinates":[-116.06502,30.56763]},"properties":{"depth_ft":65,"depth_m":19.8}},{"type":"Feature","geometry":{"type":"Point","coordinates":[-116.06047,30.56763]},"properties":{"depth_ft":57,"depth_m":17.5}},{"type":"Feature","geometry":{"type":"Point","coordinates":[-116.05592,30.56763]},"properties":{"depth_ft":50,"depth_m":15.3}},{"type":"Feature","geometry":{"type":"Point","coordinates":[-116.05137,30.56763]},"properties":{"depth_ft":43,"depth_m":13.1}},{"type":"Feature","geometry":{"type":"Point","coordinates":[-116.04682,30.56763]},"properties":{"depth_ft":36,"depth_m":10.8}},{"type":"Feature","geometry":{"type":"Point","coordinates":[-116.04227,30.56763]},"properties":{"depth_ft":29,"depth_m":8.7}},{"type":"Feature","geometry":{"type":"Point","coordinates":[-116.03773,30.56763]},"properties":{"depth_ft":21,"depth_m":6.4}},{"type":"Feature","geometry":{"type":"Point","coordinates":[-116.03318,30.56763]},"properties":{"depth_ft":6,"depth_m":1.8}},{"type":"Feature","geometry":{"type":"Point","coordinates":[-116.09231,30.56371]},"properties":{"depth_ft":96,"depth_m":29.3}},{"type":"Feature","geometry":{"type":"Point","coordinates":[-116.08776,30.56371]},"properties":{"depth_ft":92,"depth_m":28.2}},{"type":"Feature","geometry":{"type":"Point","coordinates":[-116.08321,30.56371]},"properties":{"depth_ft":89,"depth_m":27.1}},{"type":"Feature","geometry":{"type":"Point","coordinates":[-116.07866,30.56371]},"properties":{"depth_ft":85,"depth_m":25.9}},{"type":"Feature","geometry":{"type":"Point","coordinates":[-116.07411,30.56371]},"properties":{"depth_ft":80,"depth_m":24.3}},{"type":"Feature","geometry":{"type":"Point","coordinates":[-116.06956,30.56371]},"properties":{"depth_ft":74,"depth_m":22.4}},{"type":"Feature","geometry":{"type":"Point","coordinates":[-116.06502,30.56371]},"properties":{"depth_ft":67,"depth_m":20.3}},{"type":"Feature","geometry":{"type":"Point","coordinates":[-116.06047,30.56371]},"properties":{"depth_ft":59,"depth_m":18.0}},{"type":"Feature","geometry":{"type":"Point","coordinates":[-116.05592,30.56371]},"properties":{"depth_ft":52,"depth_m":15.8}},{"type":"Feature","geometry":{"type":"Point","coordinates":[-116.05137,30.56371]},"properties":{"depth_ft":44,"depth_m":13.5}},{"type":"Feature","geometry":{"type":"Point","coordinates":[-116.04682,30.56371]},"properties":{"depth_ft":36,"depth_m":10.9}},{"type":"Feature","geometry":{"type":"Point","coordinates":[-116.04227,30.56371]},"properties":{"depth_ft":28,"depth_m":8.6}},{"type":"Feature","geometry":{"type":"Point","coordinates":[-116.03773,30.56371]},"properties":{"depth_ft":21,"depth_m":6.5}},{"type":"Feature","geometry":{"type":"Point","coordinates":[-116.09231,30.55979]},"properties":{"depth_ft":96,"depth_m":29.3}},{"type":"Feature","geometry":{"type":"Point","coordinates":[-116.08776,30.55979]},"properties":{"depth_ft":93,"depth_m":28.2}},{"type":"Feature","geometry":{"type":"Point","coordinates":[-116.08321,30.55979]},"properties":{"depth_ft":89,"depth_m":27.2}},{"type":"Feature","geometry":{"type":"Point","coordinates":[-116.07866,30.55979]},"properties":{"depth_ft":86,"depth_m":26.1}},{"type":"Feature","geometry":{"type":"Point","coordinates":[-116.07411,30.55979]},"properties":{"depth_ft":81,"depth_m":24.7}},{"type":"Feature","geometry":{"type":"Point","coordinates":[-116.06956,30.55979]},"properties":{"depth_ft":76,"depth_m":23.0}},{"type":"Feature","geometry":{"type":"Point","coordinates":[-116.06502,30.55979]},"properties":{"depth_ft":69,"depth_m":21.1}},{"type":"Feature","geometry":{"type":"Point","coordinates":[-116.06047,30.55979]},"properties":{"depth_ft":61,"depth_m":18.7}},{"type":"Feature","geometry":{"type":"Point","coordinates":[-116.05592,30.55979]},"properties":{"depth_ft":53,"depth_m":16.3}},{"type":"Feature","geometry":{"type":"Point","coordinates":[-116.05137,30.55979]},"properties":{"depth_ft":45,"depth_m":13.8}},{"type":"Feature","geometry":{"type":"Point","coordinates":[-116.04682,30.55979]},"properties":{"depth_ft":36,"depth_m":10.9}},{"type":"Feature","geometry":{"type":"Point","coordinates":[-116.04227,30.55979]},"properties":{"depth_ft":26,"depth_m":7.8}},{"type":"Feature","geometry":{"type":"Point","coordinates":[-116.03773,30.55979]},"properties":{"depth_ft":16,"depth_m":4.9}},{"type":"Feature","geometry":{"type":"Point","coordinates":[-116.09231,30.55588]},"properties":{"depth_ft":96,"depth_m":29.3}},{"type":"Feature","geometry":{"type":"Point","coordinates":[-116.08776,30.55588]},"properties":{"depth_ft":93,"depth_m":28.3}},{"type":"Feature","geometry":{"type":"Point","coordinates":[-116.08321,30.55588]},"properties":{"depth_ft":89,"depth_m":27.2}},{"type":"Feature","geometry":{"type":"Point","coordinates":[-116.07866,30.55588]},"properties":{"depth_ft":86,"depth_m":26.1}},{"type":"Feature","geometry":{"type":"Point","coordinates":[-116.07411,30.55588]},"properties":{"depth_ft":82,"depth_m":25.0}},{"type":"Feature","geometry":{"type":"Point","coordinates":[-116.06956,30.55588]},"properties":{"depth_ft":78,"depth_m":23.6}},{"type":"Feature","geometry":{"type":"Point","coordinates":[-116.06502,30.55588]},"properties":{"depth_ft":72,"depth_m":22.0}},{"type":"Feature","geometry":{"type":"Point","coordinates":[-116.06047,30.55588]},"properties":{"depth_ft":64,"depth_m":19.6}},{"type":"Feature","geometry":{"type":"Point","coordinates":[-116.05592,30.55588]},"properties":{"depth_ft":54,"depth_m":16.4}},{"type":"Feature","geometry":{"type":"Point","coordinates":[-116.05137,30.55588]},"properties":{"depth_ft":45,"depth_m":13.8}},{"type":"Feature","geometry":{"type":"Point","coordinates":[-116.04682,30.55588]},"properties":{"depth_ft":36,"depth_m":11.1}},{"type":"Feature","geometry":{"type":"Point","coordinates":[-116.04227,30.55588]},"properties":{"depth_ft":22,"depth_m":6.7}},{"type":"Feature","geometry":{"type":"Point","coordinates":[-116.03773,30.55588]},"properties":{"depth_ft":6,"depth_m":1.8}},{"type":"Feature","geometry":{"type":"Point","coordinates":[-116.09231,30.55196]},"properties":{"depth_ft":95,"depth_m":29.0}},{"type":"Feature","geometry":{"type":"Point","coordinates":[-116.08776,30.55196]},"properties":{"depth_ft":91,"depth_m":27.8}},{"type":"Feature","geometry":{"type":"Point","coordinates":[-116.08321,30.55196]},"properties":{"depth_ft":88,"depth_m":26.8}},{"type":"Feature","geometry":{"type":"Point","coordinates":[-116.07866,30.55196]},"properties":{"depth_ft":85,"depth_m":25.9}},{"type":"Feature","geometry":{"type":"Point","coordinates":[-116.07411,30.55196]},"properties":{"depth_ft":82,"depth_m":24.9}},{"type":"Feature","geometry":{"type":"Point","coordinates":[-116.06956,30.55196]},"properties":{"depth_ft":78,"depth_m":23.7}},{"type":"Feature","geometry":{"type":"Point","coordinates":[-116.06502,30.55196]},"properties":{"depth_ft":73,"depth_m":22.2}},{"type":"Feature","geometry":{"type":"Point","coordinates":[-116.06047,30.55196]},"properties":{"depth_ft":65,"depth_m":19.8}},{"type":"Feature","geometry":{"type":"Point","coordinates":[-116.05592,30.55196]},"properties":{"depth_ft":54,"depth_m":16.5}},{"type":"Feature","geometry":{"type":"Point","coordinates":[-116.05137,30.55196]},"properties":{"depth_ft":45,"depth_m":13.8}},{"type":"Feature","geometry":{"type":"Point","coordinates":[-116.04682,30.55196]},"properties":{"depth_ft":36,"depth_m":11.1}},{"type":"Feature","geometry":{"type":"Point","coordinates":[-116.04227,30.55196]},"properties":{"depth_ft":20,"depth_m":6.1}},{"type":"Feature","geometry":{"type":"Point","coordinates":[-116.03773,30.55196]},"properties":{"depth_ft":2,"depth_m":0.7}},{"type":"Feature","geometry":{"type":"Point","coordinates":[-116.09231,30.54804]},"properties":{"depth_ft":93,"depth_m":28.3}},{"type":"Feature","geometry":{"type":"Point","coordinates":[-116.08776,30.54804]},"properties":{"depth_ft":88,"depth_m":26.8}},{"type":"Feature","geometry":{"type":"Point","coordinates":[-116.08321,30.54804]},"properties":{"depth_ft":85,"depth_m":26.0}},{"type":"Feature","geometry":{"type":"Point","coordinates":[-116.07866,30.54804]},"properties":{"depth_ft":83,"depth_m":25.4}},{"type":"Feature","geometry":{"type":"Point","coordinates":[-116.07411,30.54804]},"properties":{"depth_ft":80,"depth_m":24.4}},{"type":"Feature","geometry":{"type":"Point","coordinates":[-116.06956,30.54804]},"properties":{"depth_ft":76,"depth_m":23.2}},{"type":"Feature","geometry":{"type":"Point","coordinates":[-116.06502,30.54804]},"properties":{"depth_ft":71,"depth_m":21.6}},{"type":"Feature","geometry":{"type":"Point","coordinates":[-116.06047,30.54804]},"properties":{"depth_ft":63,"depth_m":19.3}},{"type":"Feature","geometry":{"type":"Point","coordinates":[-116.05592,30.54804]},"properties":{"depth_ft":54,"depth_m":16.4}},{"type":"Feature","geometry":{"type":"Point","coordinates":[-116.05137,30.54804]},"properties":{"depth_ft":45,"depth_m":13.9}},{"type":"Feature","geometry":{"type":"Point","coordinates":[-116.04682,30.54804]},"properties":{"depth_ft":36,"depth_m":11.1}},{"type":"Feature","geometry":{"type":"Point","coordinates":[-116.04227,30.54804]},"properties":{"depth_ft":20,"depth_m":6.1}},{"type":"Feature","geometry":{"type":"Point","coordinates":[-116.03773,30.54804]},"properties":{"depth_ft":3,"depth_m":0.9}},{"type":"Feature","geometry":{"type":"Point","coordinates":[-116.09231,30.54412]},"properties":{"depth_ft":90,"depth_m":27.5}},{"type":"Feature","geometry":{"type":"Point","coordinates":[-116.08776,30.54412]},"properties":{"depth_ft":85,"depth_m":25.9}},{"type":"Feature","geometry":{"type":"Point","coordinates":[-116.08321,30.54412]},"properties":{"depth_ft":83,"depth_m":25.2}},{"type":"Feature","geometry":{"type":"Point","coordinates":[-116.07866,30.54412]},"properties":{"depth_ft":81,"depth_m":24.8}},{"type":"Feature","geometry":{"type":"Point","coordinates":[-116.07411,30.54412]},"properties":{"depth_ft":78,"depth_m":23.8}},{"type":"Feature","geometry":{"type":"Point","coordinates":[-116.06956,30.54412]},"properties":{"depth_ft":74,"depth_m":22.6}},{"type":"Feature","geometry":{"type":"Point","coordinates":[-116.06502,30.54412]},"properties":{"depth_ft":69,"depth_m":21.2}},{"type":"Feature","geometry":{"type":"Point","coordinates":[-116.06047,30.54412]},"properties":{"depth_ft":63,"depth_m":19.1}},{"type":"Feature","geometry":{"type":"Point","coordinates":[-116.05592,30.54412]},"properties":{"depth_ft":54,"depth_m":16.3}},{"type":"Feature","geometry":{"type":"Point","coordinates":[-116.05137,30.54412]},"properties":{"depth_ft":45,"depth_m":13.8}},{"type":"Feature","geometry":{"type":"Point","coordinates":[-116.04682,30.54412]},"properties":{"depth_ft":36,"depth_m":11.0}},{"type":"Feature","geometry":{"type":"Point","coordinates":[-116.04227,30.54412]},"properties":{"depth_ft":20,"depth_m":6.0}},{"type":"Feature","geometry":{"type":"Point","coordinates":[-116.03773,30.54412]},"properties":{"depth_ft":2,"depth_m":0.7}},{"type":"Feature","geometry":{"type":"Point","coordinates":[-116.09231,30.54021]},"properties":{"depth_ft":88,"depth_m":26.9}},{"type":"Feature","geometry":{"type":"Point","coordinates":[-116.08776,30.54021]},"properties":{"depth_ft":83,"depth_m":25.4}},{"type":"Feature","geometry":{"type":"Point","coordinates":[-116.08321,30.54021]},"properties":{"depth_ft":81,"depth_m":24.7}},{"type":"Feature","geometry":{"type":"Point","coordinates":[-116.07866,30.54021]},"properties":{"depth_ft":79,"depth_m":24.2}},{"type":"Feature","geometry":{"type":"Point","coordinates":[-116.07411,30.54021]},"properties":{"depth_ft":76,"depth_m":23.2}},{"type":"Feature","geometry":{"type":"Point","coordinates":[-116.06956,30.54021]},"properties":{"depth_ft":72,"depth_m":22.1}},{"type":"Feature","geometry":{"type":"Point","coordinates":[-116.06502,30.54021]},"properties":{"depth_ft":69,"depth_m":20.9}},{"type":"Feature","geometry":{"type":"Point","coordinates":[-116.06047,30.54021]},"properties":{"depth_ft":63,"depth_m":19.1}},{"type":"Feature","geometry":{"type":"Point","coordinates":[-116.05592,30.54021]},"properties":{"depth_ft":54,"depth_m":16.4}},{"type":"Feature","geometry":{"type":"Point","coordinates":[-116.05137,30.54021]},"properties":{"depth_ft":45,"depth_m":13.7}},{"type":"Feature","geometry":{"type":"Point","coordinates":[-116.04682,30.54021]},"properties":{"depth_ft":35,"depth_m":10.6}},{"type":"Feature","geometry":{"type":"Point","coordinates":[-116.04227,30.54021]},"properties":{"depth_ft":19,"depth_m":5.7}},{"type":"Feature","geometry":{"type":"Point","coordinates":[-116.09231,30.53629]},"properties":{"depth_ft":88,"depth_m":26.9}},{"type":"Feature","geometry":{"type":"Point","coordinates":[-116.08776,30.53629]},"properties":{"depth_ft":83,"depth_m":25.2}},{"type":"Feature","geometry":{"type":"Point","coordinates":[-116.08321,30.53629]},"properties":{"depth_ft":80,"depth_m":24.5}},{"type":"Feature","geometry":{"type":"Point","coordinates":[-116.07866,30.53629]},"properties":{"depth_ft":79,"depth_m":24.0}},{"type":"Feature","geometry":{"type":"Point","coordinates":[-116.07411,30.53629]},"properties":{"depth_ft":75,"depth_m":22.9}},{"type":"Feature","geometry":{"type":"Point","coordinates":[-116.06956,30.53629]},"properties":{"depth_ft":72,"depth_m":21.8}},{"type":"Feature","geometry":{"type":"Point","coordinates":[-116.06502,30.53629]},"properties":{"depth_ft":69,"depth_m":21.0}},{"type":"Feature","geometry":{"type":"Point","coordinates":[-116.06047,30.53629]},"properties":{"depth_ft":63,"depth_m":19.2}},{"type":"Feature","geometry":{"type":"Point","coordinates":[-116.05592,30.53629]},"properties":{"depth_ft":54,"depth_m":16.3}},{"type":"Feature","geometry":{"type":"Point","coordinates":[-116.05137,30.53629]},"properties":{"depth_ft":44,"depth_m":13.4}},{"type":"Feature","geometry":{"type":"Point","coordinates":[-116.04682,30.53629]},"properties":{"depth_ft":33,"depth_m":10.1}},{"type":"Feature","geometry":{"type":"Point","coordinates":[-116.04227,30.53629]},"properties":{"depth_ft":17,"depth_m":5.3}},{"type":"Feature","geometry":{"type":"Point","coordinates":[-116.09231,30.53237]},"properties":{"depth_ft":90,"depth_m":27.3}},{"type":"Feature","geometry":{"type":"Point","coordinates":[-116.08776,30.53237]},"properties":{"depth_ft":85,"depth_m":25.8}},{"type":"Feature","geometry":{"type":"Point","coordinates":[-116.08321,30.53237]},"properties":{"depth_ft":81,"depth_m":24.7}},{"type":"Feature","geometry":{"type":"Point","coordinates":[-116.07866,30.53237]},"properties":{"depth_ft":78,"depth_m":23.9}},{"type":"Feature","geometry":{"type":"Point","coordinates":[-116.07411,30.53237]},"properties":{"depth_ft":75,"depth_m":22.8}},{"type":"Feature","geometry":{"type":"Point","coordinates":[-116.06956,30.53237]},"properties":{"depth_ft":72,"depth_m":21.9}},{"type":"Feature","geometry":{"type":"Point","coordinates":[-116.06502,30.53237]},"properties":{"depth_ft":70,"depth_m":21.3}},{"type":"Feature","geometry":{"type":"Point","coordinates":[-116.06047,30.53237]},"properties":{"depth_ft":64,"depth_m":19.5}},{"type":"Feature","geometry":{"type":"Point","coordinates":[-116.05592,30.53237]},"properties":{"depth_ft":53,"depth_m":16.0}},{"type":"Feature","geometry":{"type":"Point","coordinates":[-116.05137,30.53237]},"properties":{"depth_ft":42,"depth_m":12.8}},{"type":"Feature","geometry":{"type":"Point","coordinates":[-116.04682,30.53237]},"properties":{"depth_ft":31,"depth_m":9.4}},{"type":"Feature","geometry":{"type":"Point","coordinates":[-116.04227,30.53237]},"properties":{"depth_ft":16,"depth_m":4.9}},{"type":"Feature","geometry":{"type":"Point","coordinates":[-116.09231,30.52846]},"properties":{"depth_ft":91,"depth_m":27.8}},{"type":"Feature","geometry":{"type":"Point","coordinates":[-116.08776,30.52846]},"properties":{"depth_ft":86,"depth_m":26.2}},{"type":"Feature","geometry":{"type":"Point","coordinates":[-116.08321,30.52846]},"properties":{"depth_ft":82,"depth_m":25.0}},{"type":"Feature","geometry":{"type":"Point","coordinates":[-116.07866,30.52846]},"properties":{"depth_ft":79,"depth_m":24.0}},{"type":"Feature","geometry":{"type":"Point","coordinates":[-116.07411,30.52846]},"properties":{"depth_ft":75,"depth_m":22.8}},{"type":"Feature","geometry":{"type":"Point","coordinates":[-116.06956,30.52846]},"properties":{"depth_ft":72,"depth_m":22.0}},{"type":"Feature","geometry":{"type":"Point","coordinates":[-116.06502,30.52846]},"properties":{"depth_ft":71,"depth_m":21.8}},{"type":"Feature","geometry":{"type":"Point","coordinates":[-116.06047,30.52846]},"properties":{"depth_ft":65,"depth_m":20.0}},{"type":"Feature","geometry":{"type":"Point","coordinates":[-116.05592,30.52846]},"properties":{"depth_ft":52,"depth_m":15.9}},{"type":"Feature","geometry":{"type":"Point","coordinates":[-116.05137,30.52846]},"properties":{"depth_ft":41,"depth_m":12.5}},{"type":"Feature","geometry":{"type":"Point","coordinates":[-116.04682,30.52846]},"properties":{"depth_ft":30,"depth_m":9.3}},{"type":"Feature","geometry":{"type":"Point","coordinates":[-116.04227,30.52846]},"properties":{"depth_ft":16,"depth_m":4.9}},{"type":"Feature","geometry":{"type":"Point","coordinates":[-116.09231,30.52454]},"properties":{"depth_ft":92,"depth_m":28.0}},{"type":"Feature","geometry":{"type":"Point","coordinates":[-116.08776,30.52454]},"properties":{"depth_ft":86,"depth_m":26.3}},{"type":"Feature","geometry":{"type":"Point","coordinates":[-116.08321,30.52454]},"properties":{"depth_ft":82,"depth_m":25.0}},{"type":"Feature","geometry":{"type":"Point","coordinates":[-116.07866,30.52454]},"properties":{"depth_ft":79,"depth_m":24.0}},{"type":"Feature","geometry":{"type":"Point","coordinates":[-116.07411,30.52454]},"properties":{"depth_ft":75,"depth_m":22.8}},{"type":"Feature","geometry":{"type":"Point","coordinates":[-116.06956,30.52454]},"properties":{"depth_ft":73,"depth_m":22.1}},{"type":"Feature","geometry":{"type":"Point","coordinates":[-116.06502,30.52454]},"properties":{"depth_ft":72,"depth_m":22.1}},{"type":"Feature","geometry":{"type":"Point","coordinates":[-116.06047,30.52454]},"properties":{"depth_ft":67,"depth_m":20.3}},{"type":"Feature","geometry":{"type":"Point","coordinates":[-116.05592,30.52454]},"properties":{"depth_ft":53,"depth_m":16.2}},{"type":"Feature","geometry":{"type":"Point","coordinates":[-116.05137,30.52454]},"properties":{"depth_ft":42,"depth_m":12.7}},{"type":"Feature","geometry":{"type":"Point","coordinates":[-116.04682,30.52454]},"properties":{"depth_ft":32,"depth_m":9.7}},{"type":"Feature","geometry":{"type":"Point","coordinates":[-116.04227,30.52454]},"properties":{"depth_ft":18,"depth_m":5.4}},{"type":"Feature","geometry":{"type":"Point","coordinates":[-116.09231,30.52062]},"properties":{"depth_ft":91,"depth_m":27.9}},{"type":"Feature","geometry":{"type":"Point","coordinates":[-116.08776,30.52062]},"properties":{"depth_ft":86,"depth_m":26.2}},{"type":"Feature","geometry":{"type":"Point","coordinates":[-116.08321,30.52062]},"properties":{"depth_ft":82,"depth_m":25.0}},{"type":"Feature","geometry":{"type":"Point","coordinates":[-116.07866,30.52062]},"properties":{"depth_ft":79,"depth_m":24.0}},{"type":"Feature","geometry":{"type":"Point","coordinates":[-116.07411,30.52062]},"properties":{"depth_ft":75,"depth_m":22.7}},{"type":"Feature","geometry":{"type":"Point","coordinates":[-116.06956,30.52062]},"properties":{"depth_ft":72,"depth_m":22.0}},{"type":"Feature","geometry":{"type":"Point","coordinates":[-116.06502,30.52062]},"properties":{"depth_ft":74,"depth_m":22.4}},{"type":"Feature","geometry":{"type":"Point","coordinates":[-116.06047,30.52062]},"properties":{"depth_ft":68,"depth_m":20.8}},{"type":"Feature","geometry":{"type":"Point","coordinates":[-116.05592,30.52062]},"properties":{"depth_ft":53,"depth_m":16.1}},{"type":"Feature","geometry":{"type":"Point","coordinates":[-116.05137,30.52062]},"properties":{"depth_ft":40,"depth_m":12.3}},{"type":"Feature","geometry":{"type":"Point","coordinates":[-116.04682,30.52062]},"properties":{"depth_ft":32,"depth_m":9.9}},{"type":"Feature","geometry":{"type":"Point","coordinates":[-116.04227,30.52062]},"properties":{"depth_ft":18,"depth_m":5.3}},{"type":"Feature","geometry":{"type":"Point","coordinates":[-116.09231,30.51671]},"properties":{"depth_ft":91,"depth_m":27.6}},{"type":"Feature","geometry":{"type":"Point","coordinates":[-116.08776,30.51671]},"properties":{"depth_ft":86,"depth_m":26.2}},{"type":"Feature","geometry":{"type":"Point","coordinates":[-116.08321,30.51671]},"properties":{"depth_ft":82,"depth_m":24.9}},{"type":"Feature","geometry":{"type":"Point","coordinates":[-116.07866,30.51671]},"properties":{"depth_ft":78,"depth_m":23.8}},{"type":"Feature","geometry":{"type":"Point","coordinates":[-116.07411,30.51671]},"properties":{"depth_ft":75,"depth_m":22.9}},{"type":"Feature","geometry":{"type":"Point","coordinates":[-116.06956,30.51671]},"properties":{"depth_ft":73,"depth_m":22.3}},{"type":"Feature","geometry":{"type":"Point","coordinates":[-116.06502,30.51671]},"properties":{"depth_ft":73,"depth_m":22.2}},{"type":"Feature","geometry":{"type":"Point","coordinates":[-116.06047,30.51671]},"properties":{"depth_ft":66,"depth_m":20.2}},{"type":"Feature","geometry":{"type":"Point","coordinates":[-116.05592,30.51671]},"properties":{"depth_ft":52,"depth_m":15.9}},{"type":"Feature","geometry":{"type":"Point","coordinates":[-116.05137,30.51671]},"properties":{"depth_ft":37,"depth_m":11.3}},{"type":"Feature","geometry":{"type":"Point","coordinates":[-116.04682,30.51671]},"properties":{"depth_ft":23,"depth_m":7.2}},{"type":"Feature","geometry":{"type":"Point","coordinates":[-116.04227,30.51671]},"properties":{"depth_ft":11,"depth_m":3.3}},{"type":"Feature","geometry":{"type":"Point","coordinates":[-116.09231,30.51279]},"properties":{"depth_ft":90,"depth_m":27.3}},{"type":"Feature","geometry":{"type":"Point","coordinates":[-116.08776,30.51279]},"properties":{"depth_ft":86,"depth_m":26.1}},{"type":"Feature","geometry":{"type":"Point","coordinates":[-116.08321,30.51279]},"properties":{"depth_ft":82,"depth_m":25.0}},{"type":"Feature","geometry":{"type":"Point","coordinates":[-116.07866,30.51279]},"properties":{"depth_ft":78,"depth_m":23.9}},{"type":"Feature","geometry":{"type":"Point","coordinates":[-116.07411,30.51279]},"properties":{"depth_ft":77,"depth_m":23.3}},{"type":"Feature","geometry":{"type":"Point","coordinates":[-116.06956,30.51279]},"properties":{"depth_ft":75,"depth_m":22.8}},{"type":"Feature","geometry":{"type":"Point","coordinates":[-116.06502,30.51279]},"properties":{"depth_ft":73,"depth_m":22.2}},{"type":"Feature","geometry":{"type":"Point","coordinates":[-116.06047,30.51279]},"properties":{"depth_ft":65,"depth_m":19.9}},{"type":"Feature","geometry":{"type":"Point","coordinates":[-116.05592,30.51279]},"properties":{"depth_ft":51,"depth_m":15.6}},{"type":"Feature","geometry":{"type":"Point","coordinates":[-116.05137,30.51279]},"properties":{"depth_ft":33,"depth_m":10.1}},{"type":"Feature","geometry":{"type":"Point","coordinates":[-116.04682,30.51279]},"properties":{"depth_ft":13,"depth_m":4.1}},{"type":"Feature","geometry":{"type":"Point","coordinates":[-116.09231,30.50887]},"properties":{"depth_ft":88,"depth_m":26.8}},{"type":"Feature","geometry":{"type":"Point","coordinates":[-116.08776,30.50887]},"properties":{"depth_ft":86,"depth_m":26.2}},{"type":"Feature","geometry":{"type":"Point","coordinates":[-116.08321,30.50887]},"properties":{"depth_ft":84,"depth_m":25.6}},{"type":"Feature","geometry":{"type":"Point","coordinates":[-116.07866,30.50887]},"properties":{"depth_ft":82,"depth_m":25.0}},{"type":"Feature","geometry":{"type":"Point","coordinates":[-116.07411,30.50887]},"properties":{"depth_ft":80,"depth_m":24.4}},{"type":"Feature","geometry":{"type":"Point","coordinates":[-116.06956,30.50887]},"properties":{"depth_ft":78,"depth_m":23.9}},{"type":"Feature","geometry":{"type":"Point","coordinates":[-116.06502,30.50887]},"properties":{"depth_ft":76,"depth_m":23.1}},{"type":"Feature","geometry":{"type":"Point","coordinates":[-116.06047,30.50887]},"properties":{"depth_ft":67,"depth_m":20.5}},{"type":"Feature","geometry":{"type":"Point","coordinates":[-116.05592,30.50887]},"properties":{"depth_ft":51,"depth_m":15.5}},{"type":"Feature","geometry":{"type":"Point","coordinates":[-116.05137,30.50887]},"properties":{"depth_ft":30,"depth_m":9.1}},{"type":"Feature","geometry":{"type":"Point","coordinates":[-116.04682,30.50887]},"properties":{"depth_ft":9,"depth_m":2.7}},{"type":"Feature","geometry":{"type":"Point","coordinates":[-116.09231,30.50495]},"properties":{"depth_ft":86,"depth_m":26.2}},{"type":"Feature","geometry":{"type":"Point","coordinates":[-116.08776,30.50495]},"properties":{"depth_ft":86,"depth_m":26.1}},{"type":"Feature","geometry":{"type":"Point","coordinates":[-116.08321,30.50495]},"properties":{"depth_ft":85,"depth_m":26.0}},{"type":"Feature","geometry":{"type":"Point","coordinates":[-116.07866,30.50495]},"properties":{"depth_ft":85,"depth_m":25.9}},{"type":"Feature","geometry":{"type":"Point","coordinates":[-116.07411,30.50495]},"properties":{"depth_ft":83,"depth_m":25.3}},{"type":"Feature","geometry":{"type":"Point","coordinates":[-116.06956,30.50495]},"properties":{"depth_ft":81,"depth_m":24.8}},{"type":"Feature","geometry":{"type":"Point","coordinates":[-116.06502,30.50495]},"properties":{"depth_ft":79,"depth_m":24.0}},{"type":"Feature","geometry":{"type":"Point","coordinates":[-116.06047,30.50495]},"properties":{"depth_ft":70,"depth_m":21.4}},{"type":"Feature","geometry":{"type":"Point","coordinates":[-116.05592,30.50495]},"properties":{"depth_ft":52,"depth_m":16.0}},{"type":"Feature","geometry":{"type":"Point","coordinates":[-116.05137,30.50495]},"properties":{"depth_ft":29,"depth_m":9.0}},{"type":"Feature","geometry":{"type":"Point","coordinates":[-116.04682,30.50495]},"properties":{"depth_ft":5,"depth_m":1.7}}]}