{"type":"FeatureCollection","features":[{"type":"Feature","geometry":{"type":"Polygon","coordinates":[[[-120.24382,33.99897],[-120.24461,33.99884],[-120.2453,33.99783],[-120.24592,33.99806],[-120.24663,33.99747],[-120.24684,33.99751],[-120.24727,33.99811],[-120.24651,33.99881],[-120.24625,33.99967],[-120.24648,34.00005],[-120.24729,34.00053],[-120.24767,34.00058],[-120.2482,34.00029],[-120.24823,33.99982],[-120.24857,33.99969],[-120.24868,34.00031],[-120.24896,34.00081],[-120.25062,34.00131],[-120.24993,34.00158],[-120.24983,34.00188],[-120.25,34.00223],[-120.24984,34.00255],[-120.24942,34.00242],[-120.24919,34.00203],[-120.24884,34.00199],[-120.24855,34.00226],[-120.24814,34.00173],[-120.24731,34.00179],[-120.2436,34.00331],[-120.24241136359365,34.0040690087896],[-120.24241136359365,33.99863296429541],[-120.24382,33.99897]]]},"properties":{"name":"santa-rosa-island"}},{"type":"Feature","geometry":{"type":"Polygon","coordinates":[[[-120.30665,34.02898],[-120.30681,34.02908],[-120.30707,34.02874],[-120.3078,34.0287],[-120.30829,34.02745],[-120.30835,34.02674],[-120.30818,34.02599],[-120.30689,34.0241],[-120.30678,34.02258],[-120.30632,34.02143],[-120.30545,34.02017],[-120.30569,34.02],[-120.30961,34.02033],[-120.31051,34.02012],[-120.31094,34.01936],[-120.31226,34.01956],[-120.31471,34.01937],[-120.31598,34.01958],[-120.31638,34.01944],[-120.31712,34.01882],[-120.31745,34.01875],[-120.32109,34.01918],[-120.32237,34.01925],[-120.3233,34.01908],[-120.32435,34.01942],[-120.32553,34.01933],[-120.32671,34.0196],[-120.32982,34.01969],[-120.33126,34.01984],[-120.33224,34.02019],[-120.33537,34.02046],[-120.33845,34.02021],[-120.34036,34.01968],[-120.34388,34.02023],[-120.3468,34.02004],[-120.34755,34.02022],[-120.34854,34.01994],[-120.35068,34.01975],[-120.35226,34.0192],[-120.35429,34.01815],[-120.35556,34.01787],[-120.35608,34.01743],[-120.3566,34.01653],[-120.35787,34.01529],[-120.35788,34.01489],[-120.35729,34.01434],[-120.35777,34.01417],[-120.35863,34.01434],[-120.3587,34.0141],[-120.35956,34.01378],[-120.36246,34.01504],[-120.36306,34.01509],[-120.36352,34.01491],[-120.3637,34.0146],[-120.36471,34.0148],[-120.36495,34.01505],[-120.36509,34.01568],[-120.36589,34.01617],[-120.36654,34.01619],[-120.36668,34.01611],[-120.36665,34.01586],[-120.36687,34.01573],[-120.36777,34.01588],[-120.36845,34.01618],[-120.36929,34.01694],[-120.37023,34.01681],[-120.37122,34.01779],[-120.37139,34.0176],[-120.37233,34.01763],[-120.37399,34.01888],[-120.37423,34.01888],[-120.37431,34.01859],[-120.37458,34.01847],[-120.37571,34.01976],[-120.37813,34.02111],[-120.38037,34.023],[-120.38192,34.02406],[-120.38283,34.02447],[-120.3851,34.025],[-120.38612,34.0251],[-120.38689,34.02495],[-120.38809,34.02534],[-120.39068,34.02553],[-120.39171,34.0261],[-120.39409,34.02666],[-120.39501,34.02724],[-120.39593,34.02737],[-120.40107,34.02896],[-120.40346,34.03007],[-120.40503,34.03056],[-120.40828,34.03221],[-120.40927,34.03242],[-120.41334,34.03267],[-120.41593,34.03192],[-120.41678,34.03128],[-120.41712,34.0306],[-120.41824,34.03038],[-120.41857,34.03015],[-120.4184,34.02954],[-120.41886,34.02935],[-120.41934,34.02888],[-120.41889,34.02805],[-120.4191,34.02802],[-120.41897,34.02768],[-120.41976,34.02768],[-120.42035,34.02799],[-120.42081,34.02798],[-120.42231,34.02713],[-120.42244,34.02686],[-120.42192,34.02594],[-120.42212,34.02597],[-120.42284,34.02677],[-120.42457,34.02698],[-120.42598,34.02651],[-120.42594,34.02615],[-120.42612,34.02591],[-120.42711,34.02555],[-120.42729,34.02528],[-120.42781,34.02563],[-120.42841,34.02573],[-120.42863,34.02615],[-120.42902,34.02635],[-120.42928,34.0268],[-120.43,34.02715],[-120.43162,34.02755],[-120.43218,34.02824],[-120.43261,34.02825],[-120.43303,34.02853],[-120.43417,34.02858],[-120.43436,34.02882],[-120.43416,34.02903],[-120.4347,34.02964],[-120.43509,34.02965],[-120.43577,34.02936],[-120.43598,34.02986],[-120.43658,34.02994],[-120.43708,34.02976],[-120.43711,34.02936],[-120.43757,34.0291],[-120.43819,34.02976],[-120.4378,34.03036],[-120.43818,34.03034],[-120.43904,34.03114],[-120.43958,34.03123],[-120.44109,34.03101],[-120.44276,34.0304],[-120.44308,34.03004],[-120.44368,34.02975],[-120.44449,34.03054],[-120.44496,34.03076],[-120.44664,34.03107],[-120.44735,34.03096],[-120.44829,34.03041],[-120.44858,34.02996],[-120.44899,34.02971],[-120.44909,34.02906],[-120.45024,34.02866],[-120.45099,34.02893],[-120.45129,34.02928],[-120.45205,34.02935],[-120.45266,34.0297],[-120.45253,34.02998],[-120.45132,34.03063],[-120.45017,34.03028],[-120.44899,34.0302],[-120.44752,34.03191],[-120.44714,34.0329],[-120.44764,34.03372],[-120.44826,34.0338],[-120.44943,34.03363],[-120.44988,34.03375],[-120.4505,34.0344],[-120.45002,34.03463],[-120.44989,34.03495],[-120.44893,34.03577],[-120.44881,34.03623],[-120.44929,34.03674],[-120.44939,34.03709],[-120.44883,34.03706],[-120.44884,34.03754],[-120.44802,34.0371],[-120.44719,34.03706],[-120.44646,34.03657],[-120.44594,34.03673],[-120.44584,34.03694],[-120.44614,34.03732],[-120.44628,34.03799],[-120.44591,34.03777],[-120.44548,34.03783],[-120.44506,34.03826],[-120.44492,34.03776],[-120.44469,34.03767],[-120.44437,34.03714],[-120.44291,34.03686],[-120.44233,34.03708],[-120.44169,34.03656],[-120.44093,34.03704],[-120.44059,34.03688],[-120.44034,34.03694],[-120.43935,34.03736],[-120.43936,34.03758],[-120.43866,34.0377],[-120.43756,34.03844],[-120.4375,34.03905],[-120.43766,34.03923],[-120.4372,34.03949],[-120.43654,34.04029],[-120.43454,34.04148],[-120.4333,34.04255],[-120.43211,34.04404],[-120.43217,34.04467],[-120.43181,34.04464],[-120.43147,34.04497],[-120.43145,34.04547],[-120.43126,34.04551],[-120.43112,34.04533],[-120.43085,34.04554],[-120.43022,34.0468],[-120.42896,34.0476],[-120.42915,34.04783],[-120.42911,34.04812],[-120.42842,34.0484],[-120.42709,34.04858],[-120.42654,34.04849],[-120.42576,34.049],[-120.42557,34.04907],[-120.42521,34.04888],[-120.42355,34.04966],[-120.42277,34.05018],[-120.42257,34.05048],[-120.42261,34.05086],[-120.42325,34.05164],[-120.42316,34.0517],[-120.42118,34.05172],[-120.42088,34.05117],[-120.4205,34.05113],[-120.41981,34.05175],[-120.41883,34.05205],[-120.41781,34.05337],[-120.41754,34.05408],[-120.41705,34.05446],[-120.41669,34.05521],[-120.41483,34.0554],[-120.41439,34.05618],[-120.41259,34.05593],[-120.41231,34.05559],[-120.41237,34.0553],[-120.4136,34.05514],[-120.41354,34.05455],[-120.41262,34.05376],[-120.41111,34.05286],[-120.41008,34.05251],[-120.40796,34.05267],[-120.40748,34.05241],[-120.40678,34.05246],[-120.4062,34.05188],[-120.40583,34.0518],[-120.40528,34.05132],[-120.40473,34.05123],[-120.40455,34.05096],[-120.40383,34.05055],[-120.40236,34.05072],[-120.40146,34.0502],[-120.40111,34.0505],[-120.40062,34.05056],[-120.40052,34.0508],[-120.40002,34.05097],[-120.39898,34.05053],[-120.39841,34.05068],[-120.39608,34.05025],[-120.39349,34.05142],[-120.39354,34.0517],[-120.39331,34.05194],[-120.39245,34.05207],[-120.39236,34.0523],[-120.39216,34.05235],[-120.39128,34.05206],[-120.3909,34.05209],[-120.38946,34.05296],[-120.38866,34.05306],[-120.38774,34.05347],[-120.38672,34.05409],[-120.38657,34.05428],[-120.38671,34.05467],[-120.38647,34.05503],[-120.38558,34.05472],[-120.38525,34.0548],[-120.3838,34.05628],[-120.38229,34.05699],[-120.38166,34.05803],[-120.38134,34.05828],[-120.38044,34.05871],[-120.37898,34.0598],[-120.37792,34.06015],[-120.37598,34.06184],[-120.37464,34.06247],[-120.37176,34.06524],[-120.3713,34.06598],[-120.3696,34.06718],[-120.36862,34.06766],[-120.36863,34.06882],[-120.3682,34.06955],[-120.36749,34.07011],[-120.36675,34.07041],[-120.36625,34.07103],[-120.36611,34.07148],[-120.36616,34.07177],[-120.36675,34.07216],[-120.36695,34.07247],[-120.36787,34.07278],[-120.36791,34.07336],[-120.3684,34.07417],[-120.37009,34.0748],[-120.36998,34.07536],[-120.36922,34.07639],[-120.36811,34.07662],[-120.36716,34.07625],[-120.36672,34.07566],[-120.36603,34.07546],[-120.3659,34.07526],[-120.366,34.07503],[-120.36577,34.07471],[-120.36577,34.07422],[-120.3653,34.07398],[-120.36499,34.07362],[-120.36425,34.07347],[-120.36338,34.0737],[-120.36346,34.07402],[-120.36331,34.07408],[-120.36187,34.07387],[-120.3618,34.07355],[-120.36232,34.07296],[-120.36208,34.07278],[-120.36221,34.07204],[-120.36155,34.07156],[-120.36135,34.07114],[-120.36202,34.07023],[-120.36227,34.06954],[-120.36195,34.06923],[-120.36116,34.06897],[-120.36177,34.06866],[-120.36129,34.06779],[-120.35938,34.06678],[-120.35866,34.06674],[-120.35814,34.06614],[-120.3582,34.06494],[-120.35782,34.06374],[-120.35847,34.06245],[-120.35838,34.06216],[-120.35753,34.06101],[-120.3568,34.06057],[-120.35576,34.06025],[-120.3551,34.05948],[-120.3556,34.05913],[-120.35567,34.05876],[-120.35613,34.05849],[-120.35601,34.05825],[-120.35609,34.05781],[-120.35687,34.05772],[-120.3581,34.057],[-120.35964,34.05671],[-120.36081,34.05519],[-120.36064,34.05376],[-120.36024,34.0524],[-120.35968,34.05144],[-120.35874,34.05055],[-120.35627,34.04896],[-120.35394,34.04797],[-120.35176,34.04731],[-120.34715,34.04664],[-120.34424,34.04669],[-120.34081,34.04699],[-120.33809,34.04807],[-120.33674,34.04819],[-120.33647,34.04842],[-120.33653,34.04882],[-120.33612,34.04909],[-120.3354,34.04897],[-120.33452,34.04908],[-120.33344,34.04864],[-120.33222,34.04916],[-120.33138,34.04897],[-120.33106,34.04838],[-120.3297,34.04801],[-120.32961,34.04779],[-120.32862,34.04706],[-120.32857,34.04686],[-120.32759,34.04591],[-120.32762,34.04522],[-120.3272,34.04487],[-120.3261,34.04436],[-120.325,34.04445],[-120.32431,34.04305],[-120.32387,34.04272],[-120.32241,34.0425],[-120.32146,34.04264],[-120.32094,34.04255],[-120.32012,34.04239],[-120.32027,34.04209],[-120.32013,34.04199],[-120.31918,34.04189],[-120.31887,34.04157],[-120.31897,34.04124],[-120.31833,34.04074],[-120.31835,34.04038],[-120.31805,34.03991],[-120.31741,34.03998],[-120.3165,34.03956],[-120.31549,34.03863],[-120.31507,34.03788],[-120.31422,34.03696],[-120.3133,34.03628],[-120.31279,34.03613],[-120.31311,34.03565],[-120.31296,34.03463],[-120.31311,34.03424],[-120.31199,34.03352],[-120.31184,34.03316],[-120.31128,34.03278],[-120.31119,34.03238],[-120.31046,34.03201],[-120.31039,34.03177],[-120.31059,34.03158],[-120.30972,34.03055],[-120.30774,34.02956],[-120.3065,34.02937],[-120.30665,34.02898]]]},"properties":{"name":"san-miguel-island"}},{"type":"Feature","geometry":{"type":"Polygon","coordinates":[[[-120.33489,34.05753],[-120.33653,34.05805],[-120.33666,34.05822],[-120.33634,34.05865],[-120.33697,34.0591],[-120.33667,34.0599],[-120.33563,34.05978],[-120.33456,34.06003],[-120.3326,34.06009],[-120.33242,34.05988],[-120.33239,34.05894],[-120.33168,34.05837],[-120.33126,34.05853],[-120.33094,34.05779],[-120.33098,34.05728],[-120.33169,34.05632],[-120.33199,34.05607],[-120.33254,34.05598],[-120.33489,34.05753]]]},"properties":{"name":"unnamed-land"}},{"type":"Feature","geometry":{"type":"Polygon","coordinates":[[[-120.43746,34.0542],[-120.43831,34.05458],[-120.43907,34.05462],[-120.43982,34.05526],[-120.4391,34.05571],[-120.43678,34.05558],[-120.43588,34.05504],[-120.43634,34.05415],[-120.43746,34.0542]]]},"properties":{"name":"unnamed-land"}},{"type":"Feature","geometry":{"type":"Polygon","coordinates":[[[-120.45967,34.03659],[-120.46017,34.03664],[-120.46095,34.03704],[-120.46334,34.03754],[-120.46429,34.03743],[-120.46535,34.03862],[-120.465,34.03867],[-120.46434,34.03821],[-120.46356,34.03808],[-120.46276,34.03766],[-120.46189,34.0376],[-120.46141,34.03728],[-120.46092,34.03737],[-120.45979,34.03679],[-120.45921,34.03667],[-120.45894,34.03705],[-120.45876,34.03706],[-120.45814,34.03644],[-120.45736,34.03613],[-120.4583,34.03614],[-120.4589,34.03647],[-120.45896,34.03624],[-120.45937,34.03632],[-120.45967,34.03659]]]},"properties":{"name":"unnamed-land"}},{"type":"Feature","geometry":{"type":"Polygon","coordinates":[[[-120.44038,34.05588],[-120.4412,34.05644],[-120.44089,34.05688],[-120.44039,34.0569],[-120.44008,34.05715],[-120.43998,34.05679],[-120.4392,34.05629],[-120.43948,34.05577],[-120.44004,34.05545],[-120.44038,34.05588]]]},"properties":{"name":"unnamed-land"}},{"type":"Feature","geometry":{"type":"Polygon","coordinates":[[[-120.41744,34.05606],[-120.41797,34.05622],[-120.41655,34.05703],[-120.41703,34.05706],[-120.41721,34.05729],[-120.41714,34.05772],[-120.41689,34.05793],[-120.41668,34.05775],[-120.41692,34.05748],[-120.41623,34.05754],[-120.41632,34.05699],[-120.41619,34.05676],[-120.41687,34.05627],[-120.41683,34.05592],[-120.41715,34.05577],[-120.41744,34.05606]]]},"properties":{"name":"unnamed-land"}},{"type":"Feature","geometry":{"type":"Polygon","coordinates":[[[-120.4577,34.0407],[-120.4575,34.04031],[-120.45811,34.04026],[-120.45928,34.04045],[-120.45989,34.04066],[-120.45994,34.04101],[-120.45945,34.04114],[-120.4577,34.0407]]]},"properties":{"name":"unnamed-land"}},{"type":"Feature","geometry":{"type":"Polygon","coordinates":[[[-120.45251,34.03711],[-120.45202,34.03715],[-120.45201,34.03703],[-120.45265,34.03691],[-120.45342,34.03714],[-120.45381,34.03746],[-120.45399,34.03799],[-120.45445,34.03838],[-120.45411,34.03835],[-120.45362,34.03787],[-120.45312,34.03777],[-120.45251,34.03711]]]},"properties":{"name":"unnamed-land"}},{"type":"Feature","geometry":{"type":"Polygon","coordinates":[[[-120.46138,34.04336],[-120.46151,34.04304],[-120.46123,34.04272],[-120.46125,34.04247],[-120.46166,34.04226],[-120.46244,34.04231],[-120.46254,34.04276],[-120.46212,34.04288],[-120.4622,34.04323],[-120.46138,34.04336]]]},"properties":{"name":"unnamed-land"}}]}