{"type":"FeatureCollection","features":[{"type":"Feature","properties":{"id":"sanmiguel-kelp-former","name":"San Miguel Is. former kelp extent (pre-decline)","className":"Kelp Former"},"geometry":{"type":"MultiPolygon","coordinates":[[[[-120.25817,34.00388],[-120.25588,34.0065],[-120.25369,34.00688],[-120.25643,34.0085],[-120.25587,34.01179],[-120.25317,34.0145],[-120.25093,34.02011],[-120.24635,34.02135],[-120.24516,34.02033],[-120.24498,34.01415],[-120.25065,34.01109],[-120.25323,34.00724],[-120.24743,34.00816],[-120.24962,34.00943],[-120.24929,34.01109],[-120.24519,34.01177],[-120.24605,34.00905],[-120.24497,34.00641],[-120.24742,34.00412],[-120.2477229539852,34.00176014790468],[-120.24814,34.00173],[-120.24855,34.00226],[-120.24873041300813,34.00209202926829],[-120.24944,34.00286],[-120.25255,34.00235],[-120.24893,33.99962],[-120.24863294216665,34.00004476493929],[-120.24857,33.99969],[-120.24823,33.99982],[-120.2482,34.00029],[-120.24767,34.00058],[-120.24729,34.00053],[-120.24721344224037,34.00048463243873],[-120.24631608576809,33.999451408613254],[-120.24651,33.99881],[-120.24727,33.99811],[-120.24684,33.99751],[-120.24663,33.99747],[-120.24592,33.99806],[-120.2453,33.99783],[-120.24512736199192,33.99808270201182],[-120.24496,33.99789],[-120.24526,33.98624],[-120.25462,33.98893],[-120.25748,33.99332],[-120.25681,33.99579],[-120.25832,33.99796],[-120.25817,34.00388]]],[[[-120.24505,34.02442],[-120.24584,34.02428],[-120.24598,34.02503],[-120.24505,34.02442]]],[[[-120.30028,34.01454],[-120.29918,34.01436],[-120.29936,34.01336],[-120.30028,34.01454]]],[[[-120.46845,34.04751],[-120.46545,34.04624],[-120.46239,34.04848],[-120.45902,34.04858],[-120.45622,34.04604],[-120.45477,34.04736],[-120.45213,34.046],[-120.44711,34.04703],[-120.44543,34.04916],[-120.44596,34.05113],[-120.454,34.05282],[-120.45535,34.05617],[-120.45087,34.0547],[-120.44995,34.0565],[-120.45377,34.05783],[-120.45425,34.05964],[-120.44583,34.05999],[-120.44496,34.0617],[-120.43909,34.06088],[-120.43679,34.06216],[-120.43755,34.06586],[-120.43373,34.06617],[-120.43486,34.06819],[-120.431,34.06588],[-120.42352,34.06577],[-120.41053,34.05828],[-120.40958,34.05995],[-120.40614,34.06033],[-120.39854,34.05862],[-120.39334,34.05553],[-120.39997011103401,34.05094889312977],[-120.40002,34.05097],[-120.40052,34.0508],[-120.40062,34.05056],[-120.40111,34.0505],[-120.40146,34.0502],[-120.40236,34.05072],[-120.40359082191782,34.05057766005032],[-120.40408679617599,34.050696231155776],[-120.40455,34.05096],[-120.40473,34.05123],[-120.40528,34.05132],[-120.40583,34.0518],[-120.4062,34.05188],[-120.40678,34.05246],[-120.40748,34.05241],[-120.40796,34.05267],[-120.41008,34.05251],[-120.41111,34.05286],[-120.41220090213973,34.05351020657335],[-120.4132074066212,34.05519106905741],[-120.41237,34.0553],[-120.41231,34.05559],[-120.41259,34.05593],[-120.41439,34.05618],[-120.41483,34.0554],[-120.41669,34.05521],[-120.41705,34.05446],[-120.41720163608198,34.05434240467112],[-120.4183,34.05389],[-120.42134,34.05469],[-120.42124774272453,34.05171931573006],[-120.42316,34.0517],[-120.42325,34.05164],[-120.4229689109209,34.05129742268485],[-120.42675,34.05092],[-120.43282,34.04666],[-120.43644,34.04045],[-120.4404,34.04081],[-120.44019,34.03936],[-120.44259550960979,34.03697928945836],[-120.44291,34.03686],[-120.44437,34.03714],[-120.44469,34.03767],[-120.44492,34.03776],[-120.44506,34.03826],[-120.44548,34.03783],[-120.44591,34.03777],[-120.44628,34.03799],[-120.44614,34.03732],[-120.44584,34.03694],[-120.44594,34.03673],[-120.44605919505803,34.03669332459753],[-120.44671405925112,34.03674053292198],[-120.44719,34.03706],[-120.44802,34.0371],[-120.44884,34.03754],[-120.44883,34.03706],[-120.44939,34.03709],[-120.44929,34.03674],[-120.44892998143851,34.036357480278426],[-120.45028,34.03471],[-120.45005627981774,34.03461261592066],[-120.4505,34.0344],[-120.44988,34.03375],[-120.44943,34.03363],[-120.44826,34.0338],[-120.44815973977695,34.033787063197025],[-120.44773,34.0336],[-120.44757252674952,34.03184889745464],[-120.44899,34.0302],[-120.45017,34.03028],[-120.45132,34.03063],[-120.45253,34.02998],[-120.45266,34.0297],[-120.45205,34.02935],[-120.45129,34.02928],[-120.45099,34.02893],[-120.45024,34.02866],[-120.44909,34.02906],[-120.44899,34.02971],[-120.44858,34.02996],[-120.44829,34.03041],[-120.44748546224598,34.03088074017523],[-120.44748,34.03082],[-120.44481862433392,34.0306938241563],[-120.44449,34.03054],[-120.44368,34.02975],[-120.44308,34.03004],[-120.44276,34.0304],[-120.44228451049086,34.03057368179675],[-120.43822427494334,34.0303811859938],[-120.43818,34.03034],[-120.4378,34.03036],[-120.43819,34.02976],[-120.43757,34.0291],[-120.43711,34.02936],[-120.43708,34.02976],[-120.43658,34.02994],[-120.43598,34.02986],[-120.43577,34.02936],[-120.43509,34.02965],[-120.4348179382518,34.02964302405774],[-120.43461090177205,34.029539352001756],[-120.43416,34.02903],[-120.43436,34.02882],[-120.43417,34.02858],[-120.43303,34.02853],[-120.43261,34.02825],[-120.43218,34.02824],[-120.43162,34.02755],[-120.43,34.02715],[-120.42930185422259,34.026810623580424],[-120.42826,34.02503],[-120.42749275027236,34.02541646652948],[-120.42729,34.02528],[-120.42711,34.02555],[-120.42612,34.02591],[-120.42594,34.02615],[-120.42594511301637,34.02619601714731],[-120.42442388793754,34.02696226385369],[-120.4242794612423,34.02694473228953],[-120.42538,34.02496],[-120.42347,34.02157],[-120.42817,34.02146],[-120.43148,34.02386],[-120.4323,34.0224],[-120.43698,34.02306],[-120.43619,34.02112],[-120.43848,34.02036],[-120.45071,34.02382],[-120.45798,34.02788],[-120.46126,34.02785],[-120.46714,34.03347],[-120.46727,34.03744],[-120.47109,34.04105],[-120.46845,34.04751]],[[-120.40988,34.05483],[-120.4079,34.0557],[-120.40961,34.05743],[-120.40988,34.05483]],[[-120.43593,34.06197],[-120.43555,34.06162],[-120.43522,34.06199],[-120.43593,34.06197]],[[-120.439148492569,34.05567969214437],[-120.43982,34.05526],[-120.43907,34.05462],[-120.43831,34.05458],[-120.43746,34.0542],[-120.43634,34.05415],[-120.43588,34.05504],[-120.43678,34.05558],[-120.43763731209333,34.05562803903971],[-120.43838,34.05629],[-120.439254453125,34.056188872767855],[-120.4392,34.05629],[-120.43998,34.05679],[-120.44008,34.05715],[-120.44039,34.0569],[-120.44089,34.05688],[-120.44103458687258,34.0566747799228],[-120.44163,34.05618],[-120.44095104504504,34.05626998198198],[-120.44038,34.05588],[-120.44004,34.05545],[-120.43948,34.05577],[-120.43943260550459,34.05585801834862],[-120.439148492569,34.05567969214437]],[[-120.44797,34.05673],[-120.4476,34.05707],[-120.44793,34.05744],[-120.44797,34.05673]],[[-120.44899,34.05353],[-120.44851,34.05451],[-120.45044,34.05483],[-120.44899,34.05353]],[[-120.44921,34.0587],[-120.44928,34.0582],[-120.44876,34.05813],[-120.44921,34.0587]],[[-120.45181,34.03774],[-120.45273,34.03767],[-120.45268659668508,34.0373010718232],[-120.45312,34.03777],[-120.45362,34.03787],[-120.45411,34.03835],[-120.45445,34.03838],[-120.45399,34.03799],[-120.45381,34.03746],[-120.45342,34.03714],[-120.45265,34.03691],[-120.45201,34.03703],[-120.45202,34.03715],[-120.45251,34.03711],[-120.45259990449317,34.03720727371391],[-120.45181,34.03774]],[[-120.4527,34.02799],[-120.45314,34.02831],[-120.45373,34.02772],[-120.4527,34.02799]],[[-120.45668,34.03738],[-120.45676,34.03834],[-120.45748,34.0384],[-120.45668,34.03738]],[[-120.4588,34.03805],[-120.45768,34.03874],[-120.45879,34.0395],[-120.46059,34.03838],[-120.4588,34.03805]],[[-120.46017,34.03664],[-120.45967,34.03659],[-120.45937,34.03632],[-120.45896,34.03624],[-120.4589,34.03647],[-120.4583,34.03614],[-120.45736,34.03613],[-120.45814,34.03644],[-120.45876,34.03706],[-120.45894,34.03705],[-120.45921,34.03667],[-120.45979,34.03679],[-120.46092,34.03737],[-120.46141,34.03728],[-120.46189,34.0376],[-120.46276,34.03766],[-120.46356,34.03808],[-120.46434,34.03821],[-120.465,34.03867],[-120.46535,34.03862],[-120.46429,34.03743],[-120.46334,34.03754],[-120.46095,34.03704],[-120.46017,34.03664]],[[-120.45811,34.04026],[-120.4575,34.04031],[-120.4577,34.0407],[-120.45945,34.04114],[-120.45994,34.04101],[-120.45989,34.04066],[-120.45928,34.04045],[-120.45811,34.04026]],[[-120.46123,34.04272],[-120.46151,34.04304],[-120.46138,34.04336],[-120.4622,34.04323],[-120.46212,34.04288],[-120.46254,34.04276],[-120.46244,34.04231],[-120.46166,34.04226],[-120.46125,34.04247],[-120.46123,34.04272]],[[-120.41655,34.05703],[-120.41797,34.05622],[-120.41744,34.05606],[-120.41715,34.05577],[-120.41683,34.05592],[-120.41687,34.05627],[-120.41619,34.05676],[-120.41632,34.05699],[-120.41623,34.05754],[-120.41692,34.05748],[-120.41668,34.05775],[-120.41689,34.05793],[-120.41714,34.05772],[-120.41721,34.05729],[-120.41703,34.05706],[-120.41655,34.05703]]],[[[-120.42239648,34.026277199999996],[-120.42212,34.02597],[-120.42192,34.02594],[-120.42222268376376,34.02647551742821],[-120.4198,34.02622],[-120.4205,34.02783],[-120.42037055114822,34.02798955323591],[-120.42035,34.02799],[-120.41976,34.02768],[-120.41897,34.02768],[-120.4191,34.02802],[-120.41889,34.02805],[-120.41934,34.02888],[-120.41886,34.02935],[-120.4184,34.02954],[-120.41857,34.03015],[-120.41824,34.03038],[-120.41712,34.0306],[-120.41678,34.03128],[-120.41670532269258,34.03133622761971],[-120.41203712899932,34.03258997106876],[-120.40927,34.03242],[-120.40889844644316,34.032341185609155],[-120.4062,34.02901],[-120.39978,34.02701],[-120.38871,34.02486],[-120.38737360227448,34.025107170739204],[-120.38689,34.02495],[-120.38612,34.0251],[-120.3857912047141,34.025067765168046],[-120.38701,34.02335],[-120.38577,34.02219],[-120.38227,34.02173],[-120.38134,34.0229],[-120.37937877860756,34.02216365695013],[-120.37813,34.02111],[-120.376873685852,34.020409163595126],[-120.37318,34.01725],[-120.36889,34.01616],[-120.36623,34.01386],[-120.36451579677843,34.01476154391652],[-120.3637,34.0146],[-120.36352,34.01491],[-120.36306,34.01509],[-120.36246,34.01504],[-120.35956,34.01378],[-120.3587,34.0141],[-120.35863,34.01434],[-120.35777,34.01417],[-120.35729,34.01434],[-120.35770035982635,34.014722538821175],[-120.35684148729212,34.016294217132106],[-120.3566,34.01653],[-120.3560962044614,34.01740195381683],[-120.34912109725687,34.01988840725289],[-120.34854,34.01994],[-120.3484618937891,34.01996209064551],[-120.33809,34.0184],[-120.33741,34.01978],[-120.32446,34.0185],[-120.32286480502016,34.019159551770514],[-120.32237,34.01925],[-120.32210199632794,34.019235343549184],[-120.31957,34.0181],[-120.31385105247347,34.01943661225716],[-120.31226,34.01956],[-120.31094,34.01936],[-120.31091731871375,34.01940008785477],[-120.30893,34.01812],[-120.30687,34.01952],[-120.30336,34.01846],[-120.30142,34.01359],[-120.30331,34.01215],[-120.3068,34.01361],[-120.31536,34.01157],[-120.32251,34.0146],[-120.3315,34.01599],[-120.33189,34.01409],[-120.33392,34.0149],[-120.33898,34.01351],[-120.33791,34.00851],[-120.34001,34.00658],[-120.35249,34.00818],[-120.35831,34.00553],[-120.36547,34.01016],[-120.37862,34.01502],[-120.38162,34.01865],[-120.38234,34.01704],[-120.38505,34.0177],[-120.38542,34.01455],[-120.38837,34.01529],[-120.39031,34.01881],[-120.3886,34.02199],[-120.3908,34.02251],[-120.3918,34.02061],[-120.39464,34.01995],[-120.40883,34.02684],[-120.41202,34.02567],[-120.41674,34.02663],[-120.41822,34.02577],[-120.4176,34.02339],[-120.42296,34.02299],[-120.42239648,34.026277199999996]],[[-120.31501,34.01794],[-120.31488,34.01841],[-120.31549,34.01855],[-120.31501,34.01794]],[[-120.33233,34.01587],[-120.33178,34.01597],[-120.33193,34.01655],[-120.33233,34.01587]],[[-120.34524,34.01478],[-120.34453,34.01522],[-120.34597,34.01649],[-120.34662,34.01567],[-120.34524,34.01478]]],[[[-120.30625,34.02934],[-120.30388,34.03038],[-120.30294,34.02792],[-120.30409,34.0242],[-120.30212,34.02266],[-120.30579,34.02158],[-120.30625,34.02934]]],[[[-120.3233,34.04527],[-120.31393,34.03937],[-120.31062,34.0388],[-120.31036,34.03263],[-120.31151450831352,34.032939130641324],[-120.31184,34.03316],[-120.31199,34.03352],[-120.31242953022057,34.0338025551418],[-120.31308894201425,34.035681586978626],[-120.31279,34.03613],[-120.31329882257079,34.03627965369729],[-120.31332,34.03634],[-120.3151260492741,34.03798008798944],[-120.31549,34.03863],[-120.3165,34.03956],[-120.31724392923651,34.03990335195532],[-120.31887,34.04138],[-120.31892408432617,34.04139152172362],[-120.31887,34.04157],[-120.31918,34.04189],[-120.32013,34.04199],[-120.32027,34.04209],[-120.32012,34.04239],[-120.32094,34.04255],[-120.32146,34.04264],[-120.32241,34.0425],[-120.32337938134864,34.042646071162125],[-120.32458818357239,34.04361443043673],[-120.325,34.04445],[-120.32557272956822,34.044403140308056],[-120.32653,34.04517],[-120.3233,34.04527]]],[[[-120.34694,34.05737],[-120.34327,34.05566],[-120.34094,34.05615],[-120.33916,34.05331],[-120.33412,34.05225],[-120.33344,34.0533],[-120.33548,34.05444],[-120.33486,34.05601],[-120.33655,34.05751],[-120.33246,34.05594],[-120.33239970239903,34.05600295778925],[-120.33199,34.05607],[-120.33169,34.05632],[-120.33098,34.05728],[-120.33096246231156,34.05750360552764],[-120.33042,34.05807],[-120.33325,34.05326],[-120.3322,34.05124],[-120.33626,34.0507],[-120.33974,34.04767],[-120.34443,34.0473],[-120.34539,34.04947],[-120.34714,34.04781],[-120.34727,34.05003],[-120.35113,34.05466],[-120.34694,34.05737]],[[-120.34478,34.0498],[-120.34432,34.05012],[-120.34466,34.05058],[-120.34478,34.0498]]],[[[-120.33263,34.04906],[-120.33263,34.04983],[-120.33049,34.04932],[-120.33089594502117,34.04833536739547],[-120.33106,34.04838],[-120.33138,34.04897],[-120.33222,34.04916],[-120.33255157363543,34.049018673532444],[-120.33263,34.04906]]],[[[-120.33573,34.04983],[-120.33366,34.04936],[-120.33384039631336,34.04880312442396],[-120.33452,34.04908],[-120.33455390070921,34.04907576241134],[-120.33573,34.04983]]],[[[-120.3512,34.05065],[-120.34972,34.05044],[-120.3493,34.04834],[-120.3512,34.05065]]],[[[-120.35549,34.06011],[-120.35054,34.05714],[-120.35443,34.05539],[-120.35680464480875,34.05772754098361],[-120.35609,34.05781],[-120.35601,34.05825],[-120.35613,34.05849],[-120.35567,34.05876],[-120.3556,34.05913],[-120.3551,34.05948],[-120.3555564556962,34.060012531645576],[-120.35549,34.06011]]],[[[-120.35211,34.0549],[-120.35221,34.05414],[-120.35333,34.05423],[-120.35211,34.0549]]],[[[-120.35471,34.05065],[-120.35434,34.05229],[-120.35325,34.0518],[-120.3547,34.04916],[-120.35746,34.05045],[-120.35471,34.05065]]],[[[-120.36135,34.07259],[-120.36003,34.0693],[-120.35768,34.06946],[-120.35738,34.06753],[-120.35583,34.06697],[-120.35472,34.06433],[-120.35641,34.06187],[-120.3583541041831,34.06212496448303],[-120.35838,34.06216],[-120.35847,34.06245],[-120.35782,34.06374],[-120.3582,34.06494],[-120.35814,34.06614],[-120.35866,34.06674],[-120.35938,34.06678],[-120.36129,34.06779],[-120.36177,34.06866],[-120.36116,34.06897],[-120.36195,34.06923],[-120.36227,34.06954],[-120.36202,34.07023],[-120.36135,34.07114],[-120.36155,34.07156],[-120.36211792385787,34.07197303553299],[-120.36135,34.07259]]],[[[-120.36064910227637,34.05383656620712],[-120.36077361725548,34.05488395691373],[-120.36041200699825,34.05570705073732],[-120.3598801368301,34.05639802736602],[-120.35894,34.05621],[-120.35985,34.05489],[-120.35724,34.05365],[-120.35815,34.05275],[-120.36064910227637,34.05383656620712]]],[[[-120.36549,34.07551],[-120.36363967233399,34.073631350992166],[-120.36425,34.07347],[-120.36499,34.07362],[-120.3653,34.07398],[-120.36533650245441,34.073998639551185],[-120.36549,34.07551]]],[[[-120.36858133694281,34.074237598978684],[-120.36852894797688,34.07421806936417],[-120.36777,34.07246],[-120.36924,34.07262],[-120.36858133694281,34.074237598978684]]],[[[-120.39293,34.06393],[-120.39036,34.06186],[-120.39031,34.0648],[-120.38457,34.06338],[-120.38498,34.06703],[-120.3821,34.06666],[-120.38269,34.06227],[-120.3872,34.05856],[-120.39134,34.05892],[-120.39143,34.05707],[-120.39349,34.05788],[-120.39176,34.06135],[-120.39504,34.06106],[-120.39729,34.06366],[-120.39293,34.06393]]],[[[-120.45252,34.06146],[-120.45142,34.06128],[-120.45192,34.06027],[-120.45252,34.06146]]],[[[-120.45507,34.05135],[-120.45454,34.04926],[-120.45665,34.04935],[-120.4575,34.0508],[-120.45507,34.05135]]]]}},{"type":"Feature","properties":{"id":"sanmiguel-kelp-canopy","name":"San Miguel Is. recent kelp canopy","className":"Kelp Canopy"},"geometry":{"type":"MultiPolygon","coordinates":[[[[-120.44305,34.02272],[-120.44467,34.02269],[-120.44469,34.02322],[-120.44533,34.02294],[-120.44501,34.02349],[-120.44437,34.02351],[-120.44405,34.02351],[-120.44404,34.02297],[-120.44402,34.02297],[-120.44404,34.02352],[-120.4434,34.02353],[-120.44339,34.02299],[-120.44337,34.02299],[-120.44341,34.02381],[-120.44308,34.02381],[-120.44305,34.02272]]],[[[-120.44796,34.02395],[-120.44764,34.02367],[-120.44796,34.02367],[-120.44796,34.02395]]],[[[-120.44148,34.02412],[-120.44148,34.0244],[-120.44116,34.02412],[-120.44148,34.02412]]],[[[-120.44312,34.02434],[-120.44344,34.02434],[-120.44344,34.02462],[-120.44312,34.02434]]],[[[-120.44799,34.02475],[-120.44797,34.02393],[-120.44862,34.02447],[-120.44895,34.02419],[-120.44896,34.02473],[-120.45026,34.02442],[-120.45061,34.02495],[-120.45124,34.02466],[-120.45093,34.02522],[-120.44962,34.02497],[-120.44965,34.02552],[-120.44933,34.02552],[-120.44933,34.02525],[-120.44931,34.02525],[-120.44901,34.0258],[-120.44899,34.02499],[-120.44866,34.02527],[-120.44865,34.02473],[-120.44799,34.02475]],[[-120.44995,34.0247],[-120.44994,34.02497],[-120.44996,34.02497],[-120.44995,34.0247]],[[-120.4493,34.02471],[-120.4493,34.02499],[-120.44931,34.02499],[-120.4493,34.02471]]],[[[-120.44444,34.02513],[-120.44379,34.02514],[-120.44442,34.02459],[-120.44444,34.02513]]],[[[-120.44283,34.02571],[-120.44251,34.02571],[-120.4425,34.02517],[-120.44283,34.02571]]],[[[-120.45197,34.02653],[-120.45229,34.02626],[-120.45229,34.02653],[-120.45197,34.02653]]],[[[-120.45199,34.02735],[-120.45135,34.02736],[-120.45198,34.02681],[-120.45199,34.02735]]],[[[-120.44389,34.02757],[-120.44389,34.02785],[-120.44357,34.02785],[-120.44389,34.02757]]],[[[-120.44357,34.02758],[-120.44357,34.02785],[-120.44357,34.02786],[-120.44324,34.02758],[-120.44357,34.02758]]],[[[-120.44682,34.02804],[-120.4465,34.02804],[-120.44682,34.02776],[-120.44682,34.02804]]],[[[-120.4465,34.02805],[-120.44617,34.02777],[-120.4465,34.02777],[-120.4465,34.02804],[-120.4465,34.02805]]],[[[-120.45203,34.02815],[-120.45235,34.02788],[-120.45235,34.02815],[-120.45203,34.02815]]],[[[-120.45042,34.0282],[-120.45042,34.02848],[-120.4501,34.0282],[-120.45042,34.0282]]],[[[-120.45399,34.02836],[-120.45432,34.02836],[-120.45432,34.02864],[-120.45399,34.02836]]],[[[-120.44913,34.02878],[-120.44881,34.02851],[-120.44913,34.02851],[-120.44913,34.02878]]],[[[-120.45725,34.02854],[-120.45789,34.02853],[-120.45725,34.02882],[-120.45725,34.02854]]],[[[-120.44328,34.02839],[-120.44394,34.02865],[-120.44395,34.02947],[-120.44331,34.02948],[-120.44328,34.02839]]],[[[-120.4446,34.02917],[-120.44494,34.02971],[-120.44429,34.02918],[-120.44396,34.02946],[-120.44395,34.02892],[-120.4446,34.02917]]],[[[-120.44788,34.03016],[-120.44785,34.0288],[-120.44881,34.02879],[-120.4482,34.03016],[-120.44788,34.03016]],[[-120.44817,34.02935],[-120.44818,34.02907],[-120.44817,34.02907],[-120.44817,34.02935]]],[[[-120.44691,34.03019],[-120.44691,34.0302],[-120.44626,34.03022],[-120.44495,34.0297],[-120.44492,34.02889],[-120.44524,34.02889],[-120.44524,34.02916],[-120.44526,34.02916],[-120.44524,34.02861],[-120.44685,34.02857],[-120.44753,34.02937],[-120.44786,34.02935],[-120.44754,34.02964],[-120.44722,34.02964],[-120.44722,34.02937],[-120.4472,34.02937],[-120.44723,34.02991],[-120.44789,34.03044],[-120.44691,34.03019]],[[-120.44559,34.02914],[-120.44557,34.02914],[-120.44559,34.02969],[-120.44559,34.02914]],[[-120.44659,34.02993],[-120.44655,34.02885],[-120.44623,34.0294],[-120.44656,34.02939],[-120.44657,34.02993],[-120.44659,34.02993]],[[-120.44591,34.02914],[-120.4459,34.02887],[-120.44588,34.02887],[-120.44591,34.02914]],[[-120.44688,34.02911],[-120.44687,34.02911],[-120.44688,34.02938],[-120.44688,34.02911]],[[-120.44592,34.0294],[-120.44591,34.0294],[-120.44592,34.02995],[-120.44592,34.0294]],[[-120.44526,34.02943],[-120.44527,34.02943],[-120.44527,34.02942],[-120.44526,34.02943]]],[[[-120.45212,34.03031],[-120.45244,34.03004],[-120.45244,34.03031],[-120.45212,34.03031]]],[[[-120.45279,34.03083],[-120.45342,34.03028],[-120.45343,34.03083],[-120.45279,34.03083]]],[[[-120.45278,34.03057],[-120.45214,34.03085],[-120.45214,34.03058],[-120.45278,34.03057]]],[[[-120.45213,34.03086],[-120.45181,34.03059],[-120.45213,34.03059],[-120.45213,34.03086]]],[[[-120.44830443597077,34.03099749285033],[-120.44833666666666,34.03096],[-120.44858,34.03096],[-120.44858,34.03123],[-120.44830443597077,34.03099749285033]]],[[[-120.45283,34.03165],[-120.4532,34.03326],[-120.45256,34.03327],[-120.45255,34.03273],[-120.45254,34.03273],[-120.45258,34.03382],[-120.45127,34.03358],[-120.45097,34.03413],[-120.45064,34.0336],[-120.45031,34.03388],[-120.45061,34.03306],[-120.45028,34.0328],[-120.44962,34.0331],[-120.4493,34.03255],[-120.44865,34.03284],[-120.44893,34.03148],[-120.44956,34.0312],[-120.4492,34.03039],[-120.45043758937692,34.03036144024515],[-120.45050038056681,34.03038055060729],[-120.45051,34.0309],[-120.45052,34.0309],[-120.45076703778678,34.0304617071525],[-120.4510339229209,34.03054293306288],[-120.4525,34.03193],[-120.45283,34.03165]],[[-120.44994,34.03281],[-120.44995,34.03281],[-120.44994,34.03226],[-120.44992,34.03226],[-120.44994,34.03281]],[[-120.44991,34.03173],[-120.44991,34.032],[-120.44992,34.032],[-120.44991,34.03173]],[[-120.45024,34.03226],[-120.45025,34.03199],[-120.45023,34.03199],[-120.45024,34.03226]],[[-120.45023,34.03145],[-120.45022,34.03172],[-120.45023,34.03172],[-120.45023,34.03145]],[[-120.4502,34.03091],[-120.4502,34.03118],[-120.45021,34.03118],[-120.4502,34.03091]],[[-120.45222,34.03247],[-120.45222,34.03302],[-120.45223,34.03302],[-120.45222,34.03247]],[[-120.4519,34.03275],[-120.45189,34.03276],[-120.4519,34.03276],[-120.4519,34.03275]],[[-120.45157,34.03249],[-120.45157,34.03304],[-120.45158,34.03304],[-120.45157,34.03249]],[[-120.45123,34.03223],[-120.45123,34.03251],[-120.45124,34.03251],[-120.45123,34.03223]],[[-120.45092,34.03251],[-120.4509,34.03251],[-120.45092,34.03305],[-120.45094,34.03305],[-120.45092,34.03251]],[[-120.45058,34.03225],[-120.45058,34.03279],[-120.4506,34.03279],[-120.45058,34.03225]],[[-120.45152,34.03168],[-120.45152,34.03141],[-120.45151,34.03141],[-120.45152,34.03168]],[[-120.45117,34.03115],[-120.45119,34.03143],[-120.45119,34.03115],[-120.45117,34.03115]],[[-120.45087,34.0317],[-120.45087,34.03143],[-120.45086,34.03143],[-120.45087,34.0317]],[[-120.45052,34.03117],[-120.45055,34.03144],[-120.45054,34.03117],[-120.45052,34.03117]],[[-120.45086,34.03116],[-120.45084,34.03089],[-120.45084,34.03116],[-120.45086,34.03116]],[[-120.45252,34.03247],[-120.45253,34.03219],[-120.45251,34.03219],[-120.45252,34.03247]],[[-120.45219,34.03221],[-120.45219,34.03193],[-120.45218,34.03193],[-120.45219,34.03221]],[[-120.45187,34.03249],[-120.45188,34.03221],[-120.45187,34.03221],[-120.45187,34.03249]],[[-120.45154,34.03223],[-120.45155,34.03195],[-120.45153,34.03195],[-120.45154,34.03223]],[[-120.45119,34.03169],[-120.45122,34.03196],[-120.45121,34.03169],[-120.45119,34.03169]],[[-120.45089,34.03224],[-120.4509,34.03197],[-120.45088,34.03197],[-120.45089,34.03224]],[[-120.45055,34.03198],[-120.45056,34.03171],[-120.45055,34.03171],[-120.45055,34.03198]],[[-120.45185,34.03194],[-120.45186,34.03167],[-120.45184,34.03167],[-120.45185,34.03194]],[[-120.45126,34.03331],[-120.45126,34.03304],[-120.45125,34.03304],[-120.45126,34.03331]],[[-120.45125,34.03278],[-120.45124,34.03277],[-120.45124,34.03278],[-120.45125,34.03278]],[[-120.45224,34.03356],[-120.45225,34.03328],[-120.45223,34.03328],[-120.45224,34.03356]],[[-120.45192,34.03329],[-120.4519,34.03302],[-120.4519,34.03329],[-120.45192,34.03329]],[[-120.45159,34.03358],[-120.4516,34.0333],[-120.45158,34.0333],[-120.45159,34.03358]],[[-120.45094,34.03359],[-120.45095,34.03332],[-120.45094,34.03332],[-120.45094,34.03359]],[[-120.45288,34.033],[-120.45287,34.03299],[-120.45287,34.033],[-120.45288,34.033]],[[-120.44988,34.03146],[-120.44989,34.03119],[-120.44987,34.03119],[-120.44988,34.03146]],[[-120.44987,34.03065],[-120.44986,34.03092],[-120.44987,34.03092],[-120.44987,34.03065]],[[-120.4496,34.03201],[-120.4496,34.03255],[-120.44962,34.03255],[-120.4496,34.03201]],[[-120.44927,34.03228],[-120.44928,34.03229],[-120.44928,34.03228],[-120.44927,34.03228]],[[-120.44957,34.03174],[-120.44958,34.03146],[-120.44956,34.03146],[-120.44957,34.03174]],[[-120.44927,34.03202],[-120.44925,34.03175],[-120.44926,34.03202],[-120.44927,34.03202]]],[[[-120.4535,34.03216],[-120.45415,34.03242],[-120.45417,34.03297],[-120.45351,34.03271],[-120.4535,34.03216]]],[[[-120.44802,34.0334],[-120.44834,34.03313],[-120.44834,34.0334],[-120.44802,34.0334]]],[[[-120.44965,34.03363],[-120.44997,34.03335],[-120.44997,34.03363],[-120.44965,34.03363]]],[[[-120.45132,34.03467],[-120.451,34.03439],[-120.45132,34.03439],[-120.45132,34.03467]]],[[[-120.45099,34.0344],[-120.45068,34.03495],[-120.45067,34.0344],[-120.45099,34.0344]]],[[[-120.45133,34.03521],[-120.45101,34.03493],[-120.45133,34.03493],[-120.45133,34.03521]]],[[[-120.46078,34.03576],[-120.46046,34.03548],[-120.46078,34.03548],[-120.46078,34.03576]]],[[[-120.45011,34.03714],[-120.44947,34.03715],[-120.44942,34.03552],[-120.45103,34.03548],[-120.45105,34.03602],[-120.45137,34.03574],[-120.45138,34.03629],[-120.45171,34.036],[-120.45203,34.03627],[-120.45139,34.03656],[-120.45107,34.03656],[-120.45107,34.03629],[-120.45106,34.03629],[-120.45075,34.03685],[-120.45043,34.03685],[-120.45042,34.03631],[-120.45041,34.03631],[-120.45011,34.03714]],[[-120.45009,34.03605],[-120.45008,34.03632],[-120.4501,34.03632],[-120.45009,34.03605]],[[-120.45073,34.0363],[-120.45074,34.03603],[-120.45072,34.03603],[-120.45073,34.0363]],[[-120.45041,34.03604],[-120.45039,34.03577],[-120.45039,34.03604],[-120.45041,34.03604]],[[-120.44978,34.03633],[-120.44978,34.03687],[-120.44979,34.03687],[-120.44978,34.03633]],[[-120.44975,34.03606],[-120.44975,34.03579],[-120.44974,34.03579],[-120.44975,34.03606]]],[[[-120.44654,34.03668],[-120.44662387755102,34.03668],[-120.44686,34.03683849315068],[-120.44686,34.03696],[-120.44654,34.03668]]],[[[-120.4530518223801,34.03703002486679],[-120.45336,34.03677],[-120.45336,34.03704],[-120.45308521739129,34.03704],[-120.4530518223801,34.03703002486679]]],[[[-120.46246,34.03678],[-120.46278,34.03678],[-120.46278,34.03705],[-120.46246,34.03678]]],[[[-120.45985,34.03686],[-120.45985,34.03713],[-120.45953,34.03686],[-120.45985,34.03686]]],[[[-120.44362,34.03705],[-120.44354120300751,34.036981052631575],[-120.44362,34.03699616438356],[-120.44362,34.03705]]],[[[-120.46375,34.03675],[-120.46376,34.03729],[-120.46312,34.0373],[-120.46278,34.03677],[-120.46375,34.03675]]],[[[-120.44622,34.03697],[-120.44622,34.03725],[-120.4459,34.03697],[-120.44622,34.03697]]],[[[-120.44688,34.03722],[-120.4471229612885,34.03701500141282],[-120.44719,34.03706],[-120.4472,34.03706048192771],[-120.4472,34.03722],[-120.44688,34.03722]]],[[[-120.45349962192816,34.03720533081285],[-120.4537,34.03703],[-120.4537,34.03731],[-120.45362718749999,34.03731],[-120.45349962192816,34.03720533081285]]],[[[-120.45371,34.03729],[-120.45403,34.03729],[-120.45385669198633,34.03759748195974],[-120.45381,34.03746],[-120.45371162328443,34.037379280643634],[-120.45371,34.03729]]],[[[-120.44621,34.03669],[-120.44691,34.03831],[-120.44625,34.03778],[-120.44621,34.03669]]],[[[-120.44625,34.037846428571456],[-120.44623616457461,34.03778021617852],[-120.44625,34.03778],[-120.44625,34.037846428571456]]],[[[-120.44625,34.03797216216216],[-120.44625,34.03806],[-120.44564893851133,34.037806427184464],[-120.4457864222874,34.03778724340176],[-120.4459350934256,34.03778492041523],[-120.44625,34.03797216216216]]],[[[-120.4456,34.03807],[-120.44534626430801,34.03796691987513],[-120.44548,34.03783],[-120.44559525773195,34.037813917525774],[-120.4456,34.03807]]],[[[-120.4482,34.03772],[-120.44873733959311,34.03748491392801],[-120.44884,34.03754],[-120.44883793548388,34.0374409032258],[-120.44884,34.03744],[-120.44951,34.03823],[-120.44984,34.03795],[-120.44985,34.03876],[-120.44887,34.03798],[-120.44886,34.03825],[-120.44822,34.03826],[-120.44788,34.03773],[-120.44756,34.03801],[-120.44755,34.03747],[-120.44691,34.03803],[-120.44721,34.0372],[-120.44818,34.03719],[-120.4482,34.03772]],[[-120.44853,34.03771],[-120.44852,34.03771],[-120.44852,34.03799],[-120.44853,34.03771]]],[[[-120.45049,34.0382],[-120.45081,34.03793],[-120.45081,34.0382],[-120.45049,34.0382]]],[[[-120.44986,34.03876],[-120.44985,34.03821],[-120.45049,34.0382],[-120.45051,34.03875],[-120.44986,34.03876]]],[[[-120.44176,34.03899],[-120.44237,34.03788],[-120.44302,34.03814],[-120.44332,34.03759],[-120.44332,34.03786],[-120.44366,34.03785],[-120.44366,34.03812],[-120.44367,34.03812],[-120.44363,34.03704],[-120.44497,34.03836],[-120.44465,34.03836],[-120.44465,34.03809],[-120.44463,34.03809],[-120.44435,34.03919],[-120.4437,34.03893],[-120.44371,34.03947],[-120.44437,34.03946],[-120.44438,34.04],[-120.44471,34.03972],[-120.44477,34.04161],[-120.4438,34.04163],[-120.44379,34.04082],[-120.44347,34.04137],[-120.44345,34.04056],[-120.44345,34.04111],[-120.44281,34.04112],[-120.4428,34.04058],[-120.44279,34.04058],[-120.44248,34.04113],[-120.44247,34.04032],[-120.44215,34.04087],[-120.44182,34.04034],[-120.44149,34.04062],[-120.44115,34.03981],[-120.44082,34.04009],[-120.44081,34.03955],[-120.44176,34.03899]],[[-120.44212,34.04033],[-120.44214,34.04033],[-120.44213,34.04005],[-120.44212,34.04033]],[[-120.4421,34.03979],[-120.44212,34.03979],[-120.44211,34.03952],[-120.4421,34.03979]],[[-120.44208,34.03925],[-120.44209,34.03925],[-120.44209,34.03897],[-120.44208,34.03925]],[[-120.44207,34.0387],[-120.44206,34.0387],[-120.44206,34.03871],[-120.44207,34.0387]],[[-120.44241,34.03897],[-120.44239,34.03843],[-120.44238,34.03843],[-120.44241,34.03897]],[[-120.44399,34.03839],[-120.44401,34.03839],[-120.444,34.03811],[-120.44399,34.03839]],[[-120.44369,34.03839],[-120.44367,34.03839],[-120.44368,34.03867],[-120.44369,34.03839]],[[-120.44334,34.0384],[-120.44336,34.0384],[-120.44335,34.03813],[-120.44334,34.0384]],[[-120.44304,34.03841],[-120.44302,34.03841],[-120.44303,34.03868],[-120.44304,34.03841]],[[-120.4427,34.03842],[-120.44271,34.03842],[-120.4427,34.03815],[-120.4427,34.03842]],[[-120.44398,34.03757],[-120.44396,34.03757],[-120.44397,34.03785],[-120.44398,34.03757]],[[-120.44431,34.03783],[-120.4443,34.03783],[-120.44431,34.03811],[-120.44431,34.03783]],[[-120.44408,34.04],[-120.44406,34.04],[-120.44407,34.04028],[-120.44408,34.04]],[[-120.44375,34.04002],[-120.44374,34.03974],[-120.44373,34.03974],[-120.44375,34.04002]],[[-120.44343,34.04002],[-120.44341,34.04002],[-120.44342,34.04029],[-120.44343,34.04002]],[[-120.4431,34.04003],[-120.44309,34.03976],[-120.44308,34.03976],[-120.4431,34.04003]],[[-120.44278,34.04004],[-120.44276,34.04004],[-120.44277,34.04031],[-120.44278,34.04004]],[[-120.44275,34.03977],[-120.44276,34.03977],[-120.44276,34.0395],[-120.44275,34.03977]],[[-120.44244,34.03978],[-120.44243,34.03978],[-120.44244,34.04005],[-120.44244,34.03978]],[[-120.44337,34.03922],[-120.44339,34.03922],[-120.44337,34.03867],[-120.44337,34.03922]],[[-120.44307,34.03922],[-120.44305,34.03922],[-120.44306,34.03949],[-120.44307,34.03922]],[[-120.44273,34.03923],[-120.44274,34.03923],[-120.44273,34.03869],[-120.44273,34.03923]],[[-120.44402,34.03865],[-120.44401,34.03865],[-120.44402,34.03893],[-120.44402,34.03865]],[[-120.44242,34.03924],[-120.44241,34.03924],[-120.44241,34.03951],[-120.44242,34.03924]],[[-120.44341,34.03948],[-120.44339,34.03948],[-120.4434,34.03975],[-120.44341,34.03948]],[[-120.44444,34.0408],[-120.44442,34.0408],[-120.44444,34.04135],[-120.44444,34.0408]],[[-120.4441,34.04054],[-120.44408,34.04054],[-120.44409,34.04082],[-120.4441,34.04054]],[[-120.44376,34.04028],[-120.44375,34.04028],[-120.44376,34.04055],[-120.44376,34.04028]],[[-120.44312,34.0403],[-120.4431,34.0403],[-120.44311,34.04057],[-120.44312,34.0403]],[[-120.4444,34.04026],[-120.4444,34.04054],[-120.44442,34.04054],[-120.4444,34.04026]],[[-120.44177,34.03925],[-120.44176,34.03925],[-120.44176,34.03953],[-120.44177,34.03925]],[[-120.4418,34.03979],[-120.44178,34.03979],[-120.44179,34.04007],[-120.4418,34.03979]],[[-120.44146,34.03954],[-120.44144,34.03954],[-120.44145,34.03981],[-120.44146,34.03954]]],[[[-120.44477,34.04133],[-120.44509,34.04106],[-120.44509,34.04133],[-120.44477,34.04133]]],[[[-120.44025,34.04174],[-120.44056,34.04145],[-120.44088,34.04145],[-120.44088,34.04172],[-120.4409,34.04172],[-120.4412,34.04116],[-120.44186,34.04142],[-120.44183,34.04087],[-120.44222,34.04277],[-120.44189,34.04222],[-120.44189,34.04277],[-120.44125,34.04279],[-120.44091,34.04198],[-120.4409,34.04226],[-120.43993,34.04201],[-120.43991,34.04147],[-120.44023,34.04147],[-120.44023,34.04174],[-120.44025,34.04174]],[[-120.44186,34.04169],[-120.44186,34.04196],[-120.44187,34.04169],[-120.44186,34.04169]],[[-120.44154,34.04197],[-120.44155,34.04224],[-120.44156,34.04197],[-120.44154,34.04197]],[[-120.44121,34.0417],[-120.44122,34.04198],[-120.44122,34.0417],[-120.44121,34.0417]],[[-120.44152,34.04142],[-120.44153,34.0417],[-120.44154,34.04142],[-120.44152,34.04142]],[[-120.44056,34.04172],[-120.44057,34.042],[-120.44057,34.04172],[-120.44056,34.04172]]],[[[-120.44718,34.04451],[-120.4475,34.04451],[-120.4475,34.04478],[-120.44718,34.04451]]],[[[-120.4255,34.02269],[-120.42518,34.02241],[-120.4255,34.02241],[-120.4255,34.02269]]],[[[-120.42616,34.02293],[-120.42648,34.02238],[-120.42648,34.02293],[-120.42616,34.02293]]],[[[-120.42615,34.02239],[-120.42551,34.02295],[-120.42551,34.0224],[-120.42615,34.02239]]],[[[-120.43908,34.02095],[-120.43942,34.02175],[-120.44137,34.02142],[-120.4417,34.02196],[-120.44203,34.02168],[-120.44204,34.02222],[-120.44237,34.02194],[-120.44239,34.02275],[-120.44206,34.02249],[-120.44175,34.02304],[-120.44109,34.02278],[-120.4405,34.02416],[-120.44018,34.02416],[-120.44018,34.02389],[-120.44016,34.02389],[-120.44019,34.02471],[-120.43955,34.02472],[-120.43987,34.02417],[-120.43953,34.02418],[-120.43951,34.02337],[-120.43918,34.02365],[-120.43886,34.02365],[-120.43886,34.02338],[-120.43884,34.02338],[-120.43887,34.02393],[-120.43822,34.02394],[-120.43821,34.0234],[-120.43788,34.02368],[-120.43754,34.02315],[-120.43786,34.02288],[-120.43784,34.02233],[-120.43752,34.02261],[-120.43682,34.02127],[-120.43714,34.02127],[-120.43714,34.02154],[-120.43716,34.02154],[-120.43713,34.02099],[-120.43908,34.02095]],[[-120.43851,34.02312],[-120.43851,34.0234],[-120.43852,34.02312],[-120.43851,34.02312]],[[-120.43848,34.02231],[-120.43849,34.02286],[-120.43849,34.02231],[-120.43848,34.02231]],[[-120.43879,34.02203],[-120.4388,34.02231],[-120.4388,34.02203],[-120.43879,34.02203]],[[-120.43877,34.02149],[-120.43877,34.02177],[-120.43878,34.02149],[-120.43877,34.02149]],[[-120.44016,34.02362],[-120.44016,34.02335],[-120.44015,34.02362],[-120.44016,34.02362]],[[-120.43983,34.02363],[-120.43983,34.0239],[-120.43984,34.02363],[-120.43983,34.02363]],[[-120.43918,34.02338],[-120.43917,34.02311],[-120.43916,34.02338],[-120.43918,34.02338]],[[-120.44173,34.02222],[-120.44172,34.02222],[-120.44174,34.0225],[-120.44173,34.02222]],[[-120.44141,34.0225],[-120.44141,34.02277],[-120.44142,34.0225],[-120.44141,34.0225]],[[-120.44109,34.02224],[-120.44107,34.02224],[-120.44109,34.02251],[-120.44109,34.02224]],[[-120.44077,34.02252],[-120.44076,34.02252],[-120.44079,34.02306],[-120.44077,34.02252]],[[-120.44044,34.02226],[-120.44042,34.02226],[-120.44044,34.02253],[-120.44044,34.02226]],[[-120.4401,34.022],[-120.44009,34.022],[-120.44011,34.02227],[-120.4401,34.022]],[[-120.43977,34.02228],[-120.43978,34.02255],[-120.43979,34.02228],[-120.43977,34.02228]],[[-120.43945,34.02201],[-120.43944,34.02201],[-120.43946,34.02229],[-120.43945,34.02201]],[[-120.43914,34.02229],[-120.43913,34.02229],[-120.43916,34.02283],[-120.43914,34.02229]],[[-120.4391,34.02176],[-120.43911,34.02203],[-120.43912,34.02176],[-120.4391,34.02176]],[[-120.44106,34.02197],[-120.44107,34.02197],[-120.44105,34.0217],[-120.44106,34.02197]],[[-120.44073,34.02198],[-120.44074,34.02225],[-120.44075,34.02198],[-120.44073,34.02198]],[[-120.4404,34.02172],[-120.44041,34.02199],[-120.44041,34.02172],[-120.4404,34.02172]],[[-120.43975,34.02174],[-120.43976,34.02201],[-120.43977,34.02174],[-120.43975,34.02174]],[[-120.44138,34.02196],[-120.44139,34.02224],[-120.4414,34.02196],[-120.44138,34.02196]],[[-120.44011,34.02254],[-120.44012,34.02308],[-120.44012,34.02254],[-120.44011,34.02254]],[[-120.43948,34.0231],[-120.43949,34.0231],[-120.43948,34.02256],[-120.43946,34.02256],[-120.43948,34.0231]],[[-120.43882,34.02284],[-120.43883,34.02312],[-120.43884,34.02284],[-120.43882,34.02284]],[[-120.44045,34.02307],[-120.44046,34.02334],[-120.44047,34.02307],[-120.44045,34.02307]],[[-120.43981,34.02336],[-120.43983,34.02336],[-120.4398,34.02309],[-120.43981,34.02336]],[[-120.43817,34.02286],[-120.43818,34.02314],[-120.43819,34.02286],[-120.43817,34.02286]],[[-120.43813,34.02179],[-120.43814,34.02179],[-120.43812,34.02151],[-120.43813,34.02179]],[[-120.43781,34.02179],[-120.43781,34.02206],[-120.43782,34.02179],[-120.43781,34.02179]],[[-120.43747,34.02153],[-120.43748,34.0218],[-120.43748,34.02153],[-120.43747,34.02153]],[[-120.43845,34.02177],[-120.43846,34.02205],[-120.43847,34.02177],[-120.43845,34.02177]],[[-120.43845,34.02151],[-120.43845,34.02123],[-120.43844,34.02151],[-120.43845,34.02151]],[[-120.43778,34.02125],[-120.43779,34.02153],[-120.4378,34.02125],[-120.43778,34.02125]],[[-120.43814,34.02205],[-120.43815,34.02233],[-120.43816,34.02205],[-120.43814,34.02205]]],[[[-120.42717,34.02344],[-120.42684,34.02372],[-120.42683,34.02318],[-120.42651,34.02346],[-120.42649,34.02264],[-120.42781,34.02343],[-120.42783,34.02397],[-120.42718,34.02398],[-120.42717,34.02344]]],[[[-120.43331,34.02272],[-120.43364,34.02326],[-120.43429,34.02298],[-120.43462,34.02351],[-120.43495,34.02323],[-120.43496,34.02377],[-120.43561,34.02348],[-120.43595,34.02428],[-120.43531012181195,34.02429999619337],[-120.43532,34.02457],[-120.43467,34.02458],[-120.43465,34.02377],[-120.43465,34.02432],[-120.43336,34.02435],[-120.43269,34.02328],[-120.43331,34.02272]],[[-120.43530987951807,34.024293373493975],[-120.43531,34.0243],[-120.43531012181195,34.02429999619337],[-120.43530987951807,34.024293373493975]],[[-120.4353,34.02375],[-120.43529,34.02375],[-120.43530987951807,34.024293373493975],[-120.4353,34.02375]],[[-120.43433,34.02406],[-120.43432,34.02351],[-120.43432,34.02406],[-120.43433,34.02406]],[[-120.434,34.0238],[-120.434,34.02379],[-120.43399,34.0238],[-120.434,34.0238]],[[-120.43369,34.02407],[-120.43367,34.02353],[-120.43367,34.02407],[-120.43369,34.02407]],[[-120.43399,34.02353],[-120.43398,34.02325],[-120.43398,34.02353],[-120.43399,34.02353]],[[-120.43332,34.02327],[-120.43333,34.02354],[-120.43333,34.02327],[-120.43332,34.02327]],[[-120.43498,34.02404],[-120.43498,34.02403],[-120.43497,34.02404],[-120.43498,34.02404]]],[[[-120.4223,34.02385],[-120.42198,34.02358],[-120.4223,34.02358],[-120.4223,34.02385]]],[[[-120.43922,34.02446],[-120.43922,34.02473],[-120.4389,34.02473],[-120.43922,34.02446]]],[[[-120.41846,34.02476],[-120.4191,34.02475],[-120.41879,34.0253],[-120.41846,34.02476]]],[[[-120.42268,34.0252],[-120.42204,34.02493],[-120.42268,34.02492],[-120.42268,34.0252]]],[[[-120.42171,34.02494],[-120.42203,34.02494],[-120.42203,34.02522],[-120.42171,34.02494]]],[[[-120.4269,34.02507],[-120.4269,34.02535],[-120.42658,34.02507],[-120.4269,34.02507]]],[[[-120.42109,34.02604],[-120.42072,34.0247],[-120.42139,34.02523],[-120.42141,34.02604],[-120.42109,34.02604]]],[[[-120.4292,34.02555],[-120.4292,34.02583],[-120.42888,34.02583],[-120.4292,34.02555]]],[[[-120.41978,34.02554],[-120.41914,34.0261],[-120.41912,34.02528],[-120.41978,34.02554]]],[[[-120.43148,34.02602],[-120.43179,34.02548],[-120.4318,34.02602],[-120.43148,34.02602]]],[[[-120.42564,34.02564],[-120.42596,34.02564],[-120.42596,34.02592],[-120.42564,34.02564]]],[[[-120.43213,34.02601],[-120.43181,34.02574],[-120.43213,34.02574],[-120.43213,34.02601]]],[[[-120.42175,34.0263],[-120.42142,34.0263],[-120.42174,34.02576],[-120.42175,34.0263]]],[[[-120.4219652173913,34.02602],[-120.42207,34.026205384615395],[-120.42207,34.02629],[-120.42175,34.02602],[-120.4219652173913,34.02602]]],[[[-120.42565,34.02647],[-120.42533,34.02619],[-120.42565,34.02619],[-120.42565,34.02647]]],[[[-120.43085,34.02659],[-120.43053,34.02659],[-120.43085,34.02632],[-120.43085,34.02659]]],[[[-120.42988,34.02634],[-120.42988,34.02662],[-120.42956,34.02662],[-120.42988,34.02634]]],[[[-120.42437,34.02676],[-120.42469,34.02649],[-120.42469,34.02676],[-120.42437,34.02676]]],[[[-120.43251,34.02708],[-120.43251,34.02736],[-120.43219,34.02708],[-120.43251,34.02708]]],[[[-120.41985,34.02744],[-120.41930142857144,34.02768],[-120.41921,34.02768],[-120.41921,34.02744],[-120.41985,34.02744]]],[[[-120.42018,34.02742],[-120.42018,34.0277],[-120.41986,34.02742],[-120.42018,34.02742]]],[[[-120.41899037003198,34.02773327546825],[-120.41856,34.02774],[-120.41856,34.02746],[-120.41908148148148,34.02768],[-120.41897,34.02768],[-120.41899037003198,34.02773327546825]]],[[[-120.43352,34.02785],[-120.43416,34.02785],[-120.43416,34.02812],[-120.43352,34.02785]]],[[[-120.43417,34.02838],[-120.43449,34.02811],[-120.43449,34.02838],[-120.43417,34.02838]]],[[[-120.43483,34.02864],[-120.43451,34.02864],[-120.43483,34.02837],[-120.43483,34.02864]]],[[[-120.43875,34.02879],[-120.43907,34.02879],[-120.43907,34.02906],[-120.43875,34.02879]]],[[[-120.43777,34.0291],[-120.43745,34.02883],[-120.43777,34.02883],[-120.43777,34.0291]]],[[[-120.43551,34.02888],[-120.43615,34.02887],[-120.43551,34.02916],[-120.43551,34.02888]]],[[[-120.43681,34.02939],[-120.43713,34.02884],[-120.43713,34.029348695652175],[-120.43711,34.02936],[-120.43710775000001,34.02939],[-120.43681,34.02939]]],[[[-120.43780352350765,34.02934858954041],[-120.43811,34.02909],[-120.43811,34.02936],[-120.43781424242424,34.02936],[-120.43780352350765,34.02934858954041]]],[[[-120.41831,34.02964],[-120.4183,34.02909],[-120.41853623693379,34.029483728223],[-120.4184,34.02954],[-120.41842786885246,34.02964],[-120.41831,34.02964]]],[[[-120.43648393258427,34.02992719101124],[-120.43619,34.02967],[-120.43651,34.02967],[-120.43651,34.029930666666665],[-120.43648393258427,34.02992719101124]]],[[[-120.43922,34.04069],[-120.4389,34.04041],[-120.43922,34.04041],[-120.43922,34.04069]]],[[[-120.43924,34.04095],[-120.43894,34.04205],[-120.43862,34.04205],[-120.43861,34.04124],[-120.43859,34.04124],[-120.43858,34.0407],[-120.43857,34.0407],[-120.43826,34.04125],[-120.43861,34.04179],[-120.43797,34.04179],[-120.43796,34.04126],[-120.43762,34.04126],[-120.43762,34.04099],[-120.43761,34.04099],[-120.43764,34.04181],[-120.43732,34.04181],[-120.43732,34.04154],[-120.4373,34.04154],[-120.43732,34.04209],[-120.43699,34.04182],[-120.43668,34.04238],[-120.43604,34.04239],[-120.43633,34.04129],[-120.43697,34.04102],[-120.43697,34.04156],[-120.43699,34.04156],[-120.4376,34.04045],[-120.43889,34.04042],[-120.43891,34.04123],[-120.43924,34.04095]],[[-120.43793,34.04099],[-120.43793,34.04071],[-120.43792,34.04071],[-120.43793,34.04099]],[[-120.43666,34.04184],[-120.43667,34.04156],[-120.43665,34.04156],[-120.43666,34.04184]],[[-120.4373,34.04128],[-120.43729,34.04127],[-120.43729,34.04128],[-120.4373,34.04128]]],[[[-120.43868,34.0434],[-120.43835,34.04286],[-120.43932,34.04311],[-120.43932,34.04339],[-120.43868,34.0434]]],[[[-120.43543,34.04322],[-120.43543,34.0435],[-120.43512,34.0435],[-120.43511,34.0435],[-120.43543,34.04322]]],[[[-120.4348,34.04378],[-120.43512,34.0435],[-120.43512,34.04378],[-120.4348,34.04378]]],[[[-120.43449,34.04405],[-120.43481,34.04405],[-120.43481,34.04433],[-120.43449,34.04405]]],[[[-120.43201,34.0471],[-120.43171,34.04793],[-120.43137,34.04711],[-120.43201,34.0471]]],[[[-120.42506,34.05189],[-120.42538,34.05161],[-120.42538,34.05189],[-120.42506,34.05189]]],[[[-120.42375,34.05166],[-120.42375,34.05193],[-120.42343,34.05193],[-120.42375,34.05166]]],[[[-120.43585,34.05347],[-120.43649,34.05347],[-120.43585,34.05375],[-120.43585,34.05347]]],[[[-120.42287011317859,34.05384611164397],[-120.42254,34.05358],[-120.42287,34.05384],[-120.42287011317859,34.05384611164397]]],[[[-120.43651,34.054],[-120.4365,34.05346],[-120.43682,34.05346],[-120.43651,34.054]]],[[[-120.42254,34.05413],[-120.42222,34.05413],[-120.42253,34.05359],[-120.42254,34.05413]]],[[[-120.42384,34.0541],[-120.42352,34.05382],[-120.42384,34.05382],[-120.42384,34.0541]]],[[[-120.42352,34.05437],[-120.42288,34.05438],[-120.42287011317859,34.05384611164397],[-120.42352,34.05437]]],[[[-120.42287,34.05439],[-120.42255,34.05439],[-120.42287,34.05412],[-120.42287,34.05439]]],[[[-120.41899,34.05477],[-120.41833,34.05423],[-120.41898,34.05423],[-120.41899,34.05477]]],[[[-120.44013,34.05526],[-120.43981,34.05499],[-120.44013,34.05499],[-120.44013,34.05526]]],[[[-120.43727,34.05696],[-120.43695,34.05669],[-120.43727,34.05669],[-120.43727,34.05696]]],[[[-120.39825,34.02343],[-120.39857,34.02289],[-120.39857,34.02343],[-120.39825,34.02343]]],[[[-120.39891,34.02369],[-120.39859,34.02369],[-120.39891,34.02342],[-120.39891,34.02369]]],[[[-120.39761,34.02345],[-120.39762,34.024],[-120.3973,34.024],[-120.39761,34.02345]]],[[[-120.39762,34.02345],[-120.3986,34.0237],[-120.39861,34.02424],[-120.39927,34.02422],[-120.39928,34.02477],[-120.39796,34.02425],[-120.39796,34.02371],[-120.39764,34.02426],[-120.39762,34.02345]]],[[[-120.40124,34.02498],[-120.40092,34.02471],[-120.40124,34.02471],[-120.40124,34.02498]]],[[[-120.40026,34.02473],[-120.40026,34.02501],[-120.39994,34.02501],[-120.40026,34.02473]]],[[[-120.40091,34.02472],[-120.40028,34.02527],[-120.40027,34.02472],[-120.40091,34.02472]]],[[[-120.40385,34.02517],[-120.40417,34.02489],[-120.40417,34.02517],[-120.40385,34.02517]]],[[[-120.40384,34.02518],[-120.40352,34.02491],[-120.40384,34.02491],[-120.40384,34.02518]]],[[[-120.40157,34.02524],[-120.40125,34.02497],[-120.40157,34.02497],[-120.40157,34.02524]]],[[[-120.40291,34.02573],[-120.40355,34.02572],[-120.40355,34.026],[-120.40291,34.02573]]],[[[-120.40453,34.02597],[-120.40454,34.02651],[-120.4039,34.02652],[-120.40389,34.02598],[-120.40356,34.02626],[-120.40356,34.02571],[-120.40453,34.02597]],[[-120.40422,34.02624],[-120.40421,34.02624],[-120.40422,34.02625],[-120.40422,34.02624]]],[[[-120.40198,34.02711],[-120.40159,34.02523],[-120.40226,34.0263],[-120.40224,34.02521],[-120.40288,34.02547],[-120.40291,34.02629],[-120.40228,34.02657],[-120.40262,34.02711],[-120.40198,34.02711]],[[-120.40257,34.02575],[-120.40258,34.02575],[-120.40257,34.02547],[-120.40257,34.02575]]],[[[-120.39837,34.02641],[-120.39773,34.02615],[-120.39837,34.02614],[-120.39837,34.02641]]],[[[-120.40487,34.0265],[-120.40455,34.0265],[-120.40487,34.02623],[-120.40487,34.0265]]],[[[-120.40131,34.02659],[-120.40163,34.02659],[-120.40163,34.02686],[-120.40131,34.02659]]],[[[-120.40556,34.02729],[-120.40488,34.02676],[-120.40517,34.02567],[-120.40582,34.02566],[-120.40586,34.02701],[-120.40618,34.02646],[-120.40584,34.02592],[-120.40713,34.02589],[-120.40748,34.02642],[-120.40813,34.02641],[-120.40813,34.02695],[-120.40717,34.02697],[-120.40716,34.02643],[-120.40714,34.02643],[-120.4072,34.02779],[-120.40655,34.0278],[-120.40654,34.02726],[-120.40621,34.02754],[-120.4062,34.027],[-120.40556,34.02729]],[[-120.40651,34.02699],[-120.40651,34.02645],[-120.40649,34.02645],[-120.40651,34.02699]],[[-120.40683,34.02644],[-120.40681,34.02617],[-120.40681,34.02644],[-120.40683,34.02644]],[[-120.40685,34.02726],[-120.40685,34.02698],[-120.40684,34.02698],[-120.40685,34.02726]],[[-120.40553,34.02621],[-120.40553,34.02675],[-120.40554,34.02675],[-120.40553,34.02621]]],[[[-120.41821,34.02666],[-120.41853,34.02666],[-120.41853,34.02694],[-120.41821,34.02666]]],[[[-120.41202,34.02629],[-120.413,34.02654],[-120.41302,34.02736],[-120.41238,34.02737],[-120.41237,34.02682],[-120.41204,34.02711],[-120.41202,34.02629]]],[[[-120.41756,34.02668],[-120.4182,34.02667],[-120.41791,34.02776],[-120.41759,34.02776],[-120.41756,34.02668]]],[[[-120.40263,34.02709],[-120.40295,34.02709],[-120.40295,34.02737],[-120.40263,34.02709]]],[[[-120.41598,34.02781],[-120.41631,34.02835],[-120.41566,34.02782],[-120.41533,34.0281],[-120.41532,34.02755],[-120.41598,34.02781]]],[[[-120.40915,34.028],[-120.41013,34.02771],[-120.41047,34.02851],[-120.40981,34.02825],[-120.40984,34.0288],[-120.40919,34.02881],[-120.40918,34.02827],[-120.40916,34.02827],[-120.40886,34.02882],[-120.40786,34.02803],[-120.40784,34.02722],[-120.40881,34.02774],[-120.40914,34.02746],[-120.40915,34.028]],[[-120.40849,34.02774],[-120.4085,34.02802],[-120.40851,34.02774],[-120.40849,34.02774]],[[-120.40818,34.02776],[-120.40817,34.02748],[-120.40816,34.02776],[-120.40818,34.02776]],[[-120.40948,34.02799],[-120.40948,34.02826],[-120.40949,34.02799],[-120.40948,34.02799]],[[-120.40883,34.02801],[-120.40884,34.02828],[-120.40884,34.02801],[-120.40883,34.02801]]],[[[-120.41608,34.03051],[-120.41606,34.02996],[-120.41672,34.03022],[-120.41608,34.03051]]],[[[-120.41705,34.03022],[-120.41673,34.03076],[-120.41673,34.03022],[-120.41705,34.03022]]],[[[-120.41738,34.03054892857143],[-120.41727351724137,34.03056984482759],[-120.41738,34.03048],[-120.41738,34.03054892857143]]],[[[-120.40993,34.03123],[-120.40929,34.03124],[-120.40992,34.03069],[-120.40993,34.03123]]],[[[-120.41026,34.03094],[-120.41026,34.03122],[-120.40993,34.03094],[-120.41026,34.03094]]],[[[-120.40896,34.03125],[-120.40928,34.03097],[-120.40928,34.03125],[-120.40896,34.03125]]],[[[-120.41578,34.03106],[-120.41514,34.03135],[-120.41514,34.03107],[-120.41578,34.03106]]],[[[-120.41029,34.03202],[-120.40965,34.03231],[-120.40965,34.03232],[-120.40932,34.03232],[-120.40965,34.03204],[-120.41029,34.03202]]],[[[-120.41193,34.03252],[-120.41161,34.03225],[-120.41193,34.03225],[-120.41193,34.03252]]],[[[-120.41161,34.03226],[-120.41161,34.03254],[-120.41129,34.03226],[-120.41161,34.03226]]],[[[-120.41096,34.03227],[-120.41128,34.03227],[-120.41128,34.03254],[-120.41096,34.03227]]],[[[-120.40129,34.05066],[-120.40161,34.05038],[-120.40161,34.05066],[-120.40129,34.05066]]],[[[-120.40228,34.050673777777774],[-120.40228,34.05091],[-120.40195,34.05064],[-120.40222153846155,34.05064],[-120.40228,34.050673777777774]]],[[[-120.40357,34.0506],[-120.40358,34.05114],[-120.40294,34.05115],[-120.40357,34.0506]]],[[[-120.40293,34.05116],[-120.40229,34.0509],[-120.40293,34.05089],[-120.40293,34.05116]]],[[[-120.40034,34.05123],[-120.40002844772967,34.05096712777191],[-120.4000494117647,34.05096],[-120.40034,34.05096],[-120.40034,34.05123]]],[[[-120.39969,34.05097],[-120.40001,34.05097],[-120.40001,34.05124],[-120.39969,34.05097]]],[[[-120.40392,34.0514],[-120.40359,34.05113],[-120.40392,34.05113],[-120.40392,34.0514]]],[[[-120.40559,34.05243],[-120.40558,34.05189],[-120.40622,34.05215],[-120.40559,34.05243]]],[[[-120.40790782608697,34.052641739130436],[-120.40788,34.05263],[-120.40788598130841,34.05262990654206],[-120.40790782608697,34.052641739130436]]],[[[-120.41026595390525,34.05257318822023],[-120.41037669789227,34.05261081967213],[-120.40983,34.05285],[-120.40983,34.05258],[-120.41026595390525,34.05257318822023]]],[[[-120.39943,34.05288],[-120.39911,34.0526],[-120.39943,34.0526],[-120.39943,34.05288]]],[[[-120.40885,34.05262],[-120.40885,34.05289],[-120.40853759461193,34.05262640795382],[-120.40862250000002,34.05262],[-120.40885,34.05262]]],[[[-120.3991,34.05262],[-120.3991,34.05289],[-120.39878,34.05262],[-120.3991,34.05262]]],[[[-120.40852,34.0529],[-120.40797256668642,34.05266905157084],[-120.40852,34.05262773584906],[-120.40852,34.0529]]],[[[-120.40755,34.05264],[-120.40788,34.05264],[-120.40788,34.05292],[-120.40755,34.05264]]],[[[-120.41048,34.05283],[-120.41114,34.05309],[-120.4105,34.05338],[-120.41048,34.05283]]],[[[-120.41113230153846,34.0528732923077],[-120.4117935897748,34.05326743761412],[-120.4118,34.05362],[-120.41115,34.05336],[-120.41113230153846,34.0528732923077]]],[[[-120.40304,34.05359],[-120.40304,34.05386],[-120.40272,34.05386],[-120.40304,34.05359]]],[[[-120.41214,34.0536],[-120.41214,34.05388],[-120.41182,34.0536],[-120.41214,34.0536]]],[[[-120.40145,34.05471],[-120.40177,34.05443],[-120.40177,34.05471],[-120.40145,34.05471]]],[[[-120.40244,34.05496],[-120.40211,34.05469],[-120.40244,34.05469],[-120.40244,34.05496]]],[[[-120.41248689804772,34.05580480477224],[-120.41254,34.055869285714294],[-120.41254,34.05603],[-120.41222,34.05603],[-120.41248689804772,34.05580480477224]]],[[[-120.41451670886075,34.055955379746855],[-120.41482,34.05569],[-120.41482,34.05597],[-120.41451,34.05597],[-120.41451,34.05625],[-120.41440213872832,34.056158481345236],[-120.41451670886075,34.055955379746855]]],[[[-120.36199,34.00956],[-120.36169,34.01011],[-120.36167,34.00956],[-120.36199,34.00956]]],[[[-120.36299,34.01007],[-120.36301,34.01089],[-120.36237,34.01117],[-120.36234,34.01009],[-120.36299,34.01007]]],[[[-120.36401,34.01113],[-120.36401,34.01168],[-120.36304,34.01142],[-120.36336,34.01114],[-120.36301,34.01061],[-120.36367,34.01087],[-120.36368,34.01141],[-120.36401,34.01113]]],[[[-120.36402,34.01139],[-120.36466,34.01166],[-120.36402,34.01167],[-120.36402,34.01139]]],[[[-120.36565,34.01163],[-120.36565,34.01162],[-120.36596,34.01135],[-120.36597,34.01189],[-120.36565,34.01189],[-120.36565,34.0119],[-120.36501,34.01163],[-120.36565,34.01163]]],[[[-120.36501,34.01219],[-120.36467,34.01138],[-120.36499,34.01138],[-120.36501,34.01219]]],[[[-120.35207,34.01334],[-120.35205,34.01253],[-120.35238,34.01307],[-120.35271,34.01306],[-120.35207,34.01334]]],[[[-120.35661,34.01295],[-120.35693,34.01295],[-120.35693,34.01322],[-120.35661,34.01295]]],[[[-120.35955,34.01369],[-120.35924,34.01369],[-120.35923,34.01369],[-120.35955,34.01342],[-120.35955,34.01369]]],[[[-120.35597,34.01324],[-120.35568,34.01433],[-120.3556654675862,34.01380198896552],[-120.35567,34.01379],[-120.35566513970483,34.01379007594211],[-120.35565,34.01324],[-120.35597,34.01324]]],[[[-120.36021,34.01394],[-120.36021,34.01366],[-120.36086,34.01365],[-120.36021,34.01394]]],[[[-120.35924,34.01369],[-120.35924,34.01389906976744],[-120.359049375,34.01397],[-120.35892,34.01397],[-120.35924,34.01369]]],[[[-120.35404,34.01411],[-120.35372,34.01411],[-120.35403,34.01357],[-120.35404,34.01411]]],[[[-120.35566513970483,34.01379007594211],[-120.3556654675862,34.01380198896552],[-120.35536,34.01461],[-120.35407,34.01464],[-120.35404,34.01356],[-120.35468,34.01355],[-120.35469,34.01409],[-120.35471,34.01409],[-120.35501,34.01354],[-120.35504,34.01435],[-120.35503,34.0138],[-120.35566513970483,34.01379007594211]],[[-120.35438,34.01437],[-120.35439,34.01437],[-120.35439,34.01409],[-120.35438,34.01437]],[[-120.35436,34.01382],[-120.35436,34.01383],[-120.35437,34.01383],[-120.35436,34.01382]]],[[[-120.35795,34.014205581395345],[-120.35785029246344,34.01418587176603],[-120.35763,34.014],[-120.35795,34.014],[-120.35795,34.014205581395345]]],[[[-120.35805594639866,34.014226524288105],[-120.35796,34.01420755813953],[-120.35796,34.01399],[-120.3586,34.01398],[-120.35805594639866,34.014226524288105]]],[[[-120.36282,34.01387],[-120.36282,34.01441],[-120.3625,34.01441],[-120.36282,34.01387]]],[[[-120.36445,34.01437],[-120.36413,34.01409],[-120.36445,34.01409],[-120.36445,34.01437]]],[[[-120.36412,34.01438],[-120.3638,34.01438],[-120.36412,34.0141],[-120.36412,34.01438]]],[[[-120.37225,34.01414],[-120.37257,34.01414],[-120.37257,34.01442],[-120.37225,34.01414]]],[[[-120.35762,34.01401],[-120.35667,34.01457],[-120.35665,34.01403],[-120.35762,34.01401]]],[[[-120.3716,34.01443],[-120.37192,34.01416],[-120.37192,34.01443],[-120.3716,34.01443]]],[[[-120.36315,34.01413],[-120.36284,34.01467],[-120.36283,34.01413],[-120.36315,34.01413]]],[[[-120.36478,34.01463],[-120.36446,34.01435],[-120.36478,34.01435],[-120.36478,34.01463]]],[[[-120.36349,34.01439],[-120.36349,34.014921739130436],[-120.36346888888889,34.01493],[-120.36317,34.01493],[-120.36349,34.01439]]],[[[-120.35573,34.01569],[-120.35541,34.01569],[-120.35573,34.01541],[-120.35573,34.01569]]],[[[-120.35694657062365,34.01619161608401],[-120.35641,34.0162],[-120.35607,34.01566],[-120.3567,34.01538],[-120.35672,34.01592],[-120.35704,34.01565],[-120.35704819249499,34.016092394729306],[-120.35694657062365,34.01619161608401]]],[[[-120.35188,34.01659],[-120.35219,34.01605],[-120.3522,34.01659],[-120.35188,34.01659]]],[[[-120.35477,34.0157],[-120.3551,34.01597],[-120.35481,34.01706],[-120.35416,34.01707],[-120.35452,34.01788],[-120.35356,34.01817],[-120.35323,34.01791],[-120.35353,34.01709],[-120.35286,34.01684],[-120.35284,34.01602],[-120.35316,34.01602],[-120.35316,34.01656],[-120.35352,34.01683],[-120.35314,34.01548],[-120.35477,34.0157]],[[-120.35415,34.01681],[-120.35416,34.01681],[-120.35415,34.01626],[-120.35415,34.01681]],[[-120.35381,34.01654],[-120.35383,34.01654],[-120.35381,34.016],[-120.35381,34.01654]],[[-120.35411,34.01572],[-120.35412,34.016],[-120.35413,34.016],[-120.35411,34.01572]],[[-120.35346,34.01574],[-120.35347,34.01601],[-120.35349,34.01601],[-120.35346,34.01574]],[[-120.35445,34.01626],[-120.35447,34.01626],[-120.35446,34.01598],[-120.35445,34.01626]],[[-120.35387,34.01735],[-120.35385,34.01735],[-120.35387,34.01789],[-120.35387,34.01735]],[[-120.35383,34.01681],[-120.35384,34.01709],[-120.35385,34.01709],[-120.35383,34.01681]]],[[[-120.35611,34.01675],[-120.35611,34.01703],[-120.35579,34.01675],[-120.35611,34.01675]]],[[[-120.3883,34.01803],[-120.38799,34.01858],[-120.38829,34.01749],[-120.38728,34.01698],[-120.38664,34.01726],[-120.38668,34.01835],[-120.38605,34.01863],[-120.38603,34.01782],[-120.38603,34.01837],[-120.38538,34.01811],[-120.38599,34.01702],[-120.38562,34.01567],[-120.3869,34.01536],[-120.38756,34.01589],[-120.38821,34.0156],[-120.38826,34.01722],[-120.38858,34.01667],[-120.3886,34.01748],[-120.38893,34.01748],[-120.3893,34.01882],[-120.38896,34.01801],[-120.38896,34.01856],[-120.38832,34.01857],[-120.38831,34.01803],[-120.3883,34.01803]],[[-120.38728,34.01643],[-120.38726,34.01643],[-120.38728,34.01698],[-120.38728,34.01643]],[[-120.38862,34.01802],[-120.38863,34.01775],[-120.38861,34.01775],[-120.38862,34.01802]],[[-120.38864,34.0183],[-120.38863,34.01829],[-120.38863,34.0183],[-120.38864,34.0183]],[[-120.38792,34.01642],[-120.38792,34.01696],[-120.38794,34.01696],[-120.38792,34.01642]],[[-120.38663,34.01645],[-120.38663,34.017],[-120.38664,34.017],[-120.38663,34.01645]],[[-120.3863,34.01673],[-120.38631,34.01674],[-120.38631,34.01673],[-120.3863,34.01673]],[[-120.38789,34.01615],[-120.3879,34.01588],[-120.38789,34.01588],[-120.38789,34.01615]],[[-120.38758,34.01643],[-120.38759,34.01616],[-120.38757,34.01616],[-120.38758,34.01643]],[[-120.38725,34.01617],[-120.38725,34.0159],[-120.38724,34.0159],[-120.38725,34.01617]],[[-120.38693,34.01645],[-120.38694,34.01617],[-120.38692,34.01617],[-120.38693,34.01645]],[[-120.3866,34.01619],[-120.3866,34.01591],[-120.38659,34.01591],[-120.3866,34.01619]],[[-120.38628,34.01647],[-120.38629,34.01619],[-120.38628,34.01619],[-120.38628,34.01647]],[[-120.38625,34.01565],[-120.38628,34.01593],[-120.38627,34.01565],[-120.38625,34.01565]],[[-120.38595,34.0162],[-120.38596,34.01593],[-120.38594,34.01593],[-120.38595,34.0162]],[[-120.38692,34.01563],[-120.38691,34.01591],[-120.38692,34.01591],[-120.38692,34.01563]],[[-120.38634,34.01782],[-120.38634,34.01754],[-120.38633,34.01754],[-120.38634,34.01782]],[[-120.38631,34.01728],[-120.38632,34.017],[-120.38631,34.017],[-120.38631,34.01728]],[[-120.386,34.01756],[-120.38601,34.01728],[-120.38599,34.01728],[-120.386,34.01756]],[[-120.38636,34.01808],[-120.38635,34.01809],[-120.38636,34.01809],[-120.38636,34.01808]]],[[[-120.35452,34.01733],[-120.35516,34.01732],[-120.35516,34.0176],[-120.35452,34.01733]]],[[[-120.38344,34.01844],[-120.38312,34.01844],[-120.38343,34.0179],[-120.38344,34.01844]]],[[[-120.37629,34.01809],[-120.37627,34.01754],[-120.37695,34.01807],[-120.37791,34.01805],[-120.37793,34.01859],[-120.37759,34.01832],[-120.37728,34.0186],[-120.3773,34.01915],[-120.37827,34.01885],[-120.3783,34.01994],[-120.37798,34.01939],[-120.37765,34.01967],[-120.37764,34.01913],[-120.37763,34.01941],[-120.37666,34.01916],[-120.37696,34.01834],[-120.37629,34.01809]]],[[[-120.389,34.0191],[-120.38934,34.0199],[-120.38837,34.01992],[-120.38837,34.01938],[-120.38835,34.01938],[-120.38805,34.01993],[-120.38834,34.01883],[-120.389,34.0191]],[[-120.38866,34.0191],[-120.38867,34.01937],[-120.38869,34.01937],[-120.38866,34.0191]],[[-120.38902,34.01936],[-120.389,34.01936],[-120.38901,34.01963],[-120.38902,34.01936]]],[[[-120.38121,34.01931],[-120.38121,34.01958],[-120.38058,34.01986],[-120.38057,34.01932],[-120.38121,34.01931]]],[[[-120.38642,34.01998],[-120.38579,34.02026],[-120.38578,34.01972],[-120.38642,34.01971],[-120.38642,34.01998]]],[[[-120.38,34.02123],[-120.37968,34.02179],[-120.37935,34.02125],[-120.3787,34.02154],[-120.37868,34.02099],[-120.37901,34.02099],[-120.37901,34.02126],[-120.37902,34.02126],[-120.37899,34.02045],[-120.37866,34.02073],[-120.37865,34.01992],[-120.37865,34.02047],[-120.37832,34.0202],[-120.37863,34.01964],[-120.37963,34.02071],[-120.37994,34.02016],[-120.3803,34.02123],[-120.38126,34.02039],[-120.38097,34.02176],[-120.38033,34.02176],[-120.38,34.02123]],[[-120.37997,34.02069],[-120.37996,34.02069],[-120.37997,34.02097],[-120.37997,34.02069]],[[-120.37931,34.02071],[-120.37932,34.02098],[-120.37933,34.02098],[-120.37931,34.02071]],[[-120.37966,34.02097],[-120.37965,34.02097],[-120.37965,34.02124],[-120.37966,34.02097]],[[-120.38065,34.02121],[-120.38063,34.02121],[-120.38064,34.02149],[-120.38065,34.02121]]],[[[-120.38483,34.02029],[-120.38486,34.0211],[-120.38516,34.02055],[-120.38551,34.02136],[-120.38454,34.02138],[-120.38418,34.0203],[-120.38483,34.02029]]],[[[-120.38322,34.02115],[-120.3829,34.02088],[-120.38322,34.02088],[-120.38322,34.02115]]],[[[-120.39527527777777,34.0219],[-120.39528,34.02207],[-120.39528,34.02217],[-120.39496,34.0219],[-120.39527527777777,34.0219]]],[[[-120.39527527777777,34.0219],[-120.39526,34.02135],[-120.39658,34.02186],[-120.39658,34.0224],[-120.3969,34.02185],[-120.39692,34.02266],[-120.39724,34.02211],[-120.39725,34.02292],[-120.3979,34.02264],[-120.39824,34.02317],[-120.39695,34.0232],[-120.39594,34.02242],[-120.39529,34.02243],[-120.39528,34.02207],[-120.39528,34.0219],[-120.39527527777777,34.0219]]],[[[-120.38165,34.02255],[-120.38133,34.02227],[-120.38165,34.02227],[-120.38165,34.02255]]],[[[-120.38695,34.02455],[-120.38727,34.02455],[-120.38727,34.02483],[-120.38695,34.02455]]],[[[-120.38696,34.02483],[-120.38696,34.024972749999996],[-120.38689,34.02495],[-120.386789375,34.02496960227272],[-120.38696,34.02483]]],[[[-120.38663,34.02484],[-120.38663,34.025000649350645],[-120.38638244527829,34.02504887429644],[-120.38663,34.02484]]],[[[-120.38598,34.0250862745098],[-120.38592136400987,34.02508052588332],[-120.38566,34.02486],[-120.38598,34.02486],[-120.38598,34.0250862745098]]],[[[-120.39705,34.02563],[-120.39705,34.02591],[-120.39673,34.02563],[-120.39705,34.02563]]],[[[-120.39706,34.02617],[-120.39738,34.02562],[-120.39738,34.02617],[-120.39706,34.02617]]],[[[-120.35674,34.05756],[-120.35706,34.05729],[-120.35706,34.05756],[-120.35674,34.05756]]],[[[-120.35642,34.05777192307693],[-120.35633859649123,34.05778131578948],[-120.3561,34.05758],[-120.35642,34.05758],[-120.35642,34.05777192307693]]],[[[-120.35825,34.06288661538462],[-120.35823133154001,34.062923665097514],[-120.35793,34.06266],[-120.35825,34.06266],[-120.35825,34.06288661538462]]],[[[-120.36839,34.07266],[-120.36839,34.07293],[-120.36806,34.07266],[-120.36839,34.07266]]],[[[-120.36841,34.0732],[-120.36841,34.07347],[-120.36809,34.0732],[-120.36841,34.0732]]],[[[-120.36842,34.07319],[-120.36906,34.07318],[-120.36908,34.07372],[-120.36842,34.07373],[-120.36842,34.07319]]],[[[-120.36451,34.07358],[-120.36442061923583,34.073504584980235],[-120.36451,34.073522702702704],[-120.36451,34.07358]]],[[[-120.36454,34.07384],[-120.36486,34.07384],[-120.36486,34.07411],[-120.36454,34.07384]]],[[[-120.34112,34.00716],[-120.34112,34.00743],[-120.3408,34.00716],[-120.34112,34.00716]]],[[[-120.34601,34.00783],[-120.34632,34.00729],[-120.34633,34.00783],[-120.34601,34.00783]]],[[[-120.34634,34.00755],[-120.34698,34.00754],[-120.34698,34.00781],[-120.34634,34.00755]]],[[[-120.34274,34.00711],[-120.34276,34.00765],[-120.3447,34.00733],[-120.34506,34.00868],[-120.34442,34.00869],[-120.34408,34.00788],[-120.34375,34.00816],[-120.34374,34.00762],[-120.34343,34.00845],[-120.34279,34.00846],[-120.34278,34.00792],[-120.34245,34.0082],[-120.34245,34.00766],[-120.34146,34.00769],[-120.34113,34.00715],[-120.34274,34.00711]],[[-120.34438,34.00761],[-120.34438,34.00788],[-120.34439,34.00761],[-120.34438,34.00761]],[[-120.34308,34.00764],[-120.34309,34.00792],[-120.34309,34.00764],[-120.34308,34.00764]],[[-120.34311,34.00819],[-120.34311,34.00818],[-120.3431,34.00819],[-120.34311,34.00819]]],[[[-120.34084,34.00851],[-120.34114,34.0077],[-120.34116,34.00851],[-120.34084,34.00851]]],[[[-120.3392,34.00774],[-120.33984,34.00773],[-120.33954,34.00856],[-120.3392,34.00774]]],[[[-120.34539,34.00839],[-120.34539,34.00867],[-120.34507,34.00839],[-120.34539,34.00839]]],[[[-120.33858,34.00885],[-120.33891,34.00857],[-120.33891,34.00885],[-120.33858,34.00885]]],[[[-120.34349,34.00952],[-120.34381,34.00952],[-120.34381,34.00979],[-120.34349,34.00952]]],[[[-120.33863,34.00993],[-120.33863,34.0102],[-120.33831,34.00993],[-120.33863,34.00993]]],[[[-120.35133,34.01094],[-120.35101,34.01067],[-120.35133,34.01067],[-120.35133,34.01094]]],[[[-120.34232,34.01307],[-120.3423,34.01225],[-120.34264,34.01279],[-120.34296,34.01252],[-120.34296,34.01306],[-120.34232,34.01307]]],[[[-120.34725,34.01429],[-120.34724,34.01429],[-120.34693,34.01485],[-120.34661,34.01485],[-120.3466,34.01431],[-120.34659,34.01431],[-120.3466,34.01485],[-120.34596,34.01486],[-120.34658,34.01376],[-120.34755,34.01374],[-120.34753,34.0132],[-120.34721,34.01348],[-120.34618,34.01188],[-120.34586,34.01243],[-120.34585,34.01162],[-120.34553,34.01218],[-120.34521,34.01218],[-120.3452,34.01164],[-120.34518,34.01164],[-120.34522,34.01273],[-120.34361,34.01276],[-120.3436,34.01222],[-120.34295,34.01251],[-120.34295,34.01224],[-120.34228,34.01199],[-120.34227,34.01145],[-120.34225,34.01145],[-120.34229,34.01254],[-120.34197,34.01254],[-120.34196,34.012],[-120.34132,34.01229],[-120.34164,34.01201],[-120.34162,34.01147],[-120.34096,34.01149],[-120.34061,34.01068],[-120.34029,34.01096],[-120.34027,34.01015],[-120.34027,34.0107],[-120.33963,34.01071],[-120.33962,34.01017],[-120.33961,34.01017],[-120.33962,34.01072],[-120.33898,34.01073],[-120.33864,34.00992],[-120.33929,34.01018],[-120.33959,34.00963],[-120.33993,34.01017],[-120.33994,34.00988],[-120.34124,34.01013],[-120.34153,34.0093],[-120.3425,34.00928],[-120.3425,34.00955],[-120.34283,34.00954],[-120.34283,34.00982],[-120.34285,34.00982],[-120.34348,34.00926],[-120.3435,34.01007],[-120.34316,34.0098],[-120.34287,34.01062],[-120.3432,34.01062],[-120.3432,34.01089],[-120.34322,34.01089],[-120.34384,34.01033],[-120.34385,34.01087],[-120.34418,34.01086],[-120.34418,34.01113],[-120.3442,34.01113],[-120.34418,34.01059],[-120.34385,34.01059],[-120.34383,34.01005],[-120.34448,34.01004],[-120.3445,34.01085],[-120.34451,34.01085],[-120.3445,34.0103],[-120.34515,34.01056],[-120.34641,34.00945],[-120.34675,34.01025],[-120.34609,34.00999],[-120.34613,34.01108],[-120.34613,34.01053],[-120.3468,34.0116],[-120.34679,34.01105],[-120.34744,34.01104],[-120.34779,34.01184],[-120.34811,34.01157],[-120.34813,34.01237],[-120.34813,34.01183],[-120.34845,34.01183],[-120.34845,34.0121],[-120.34878,34.01209],[-120.34878,34.01236],[-120.34879,34.01236],[-120.3491,34.01181],[-120.34911,34.01262],[-120.34911,34.01207],[-120.34975,34.01206],[-120.34976,34.0126],[-120.34978,34.0126],[-120.34974,34.01152],[-120.34939,34.01125],[-120.34938,34.01071],[-120.3497,34.01071],[-120.34971,34.01125],[-120.34972,34.01125],[-120.34969,34.01043],[-120.35035,34.01069],[-120.35038,34.01177],[-120.3507,34.01122],[-120.35135,34.0112],[-120.35264,34.01117],[-120.35297,34.01143],[-120.35167,34.01146],[-120.35143,34.01364],[-120.35276,34.01414],[-120.35272,34.01305],[-120.35304,34.01304],[-120.3537,34.01358],[-120.35304,34.01332],[-120.35308,34.01441],[-120.3518,34.01471],[-120.35149,34.01525],[-120.35153,34.01634],[-120.35121,34.01634],[-120.35088,34.01581],[-120.35088,34.01609],[-120.3499,34.01584],[-120.34988,34.01503],[-120.34955,34.0153],[-120.34984745762713,34.01448694915253],[-120.34984,34.0145],[-120.3492,34.0145],[-120.3492,34.01424],[-120.34886,34.01424],[-120.34886,34.01397],[-120.34853,34.01398],[-120.34853,34.01371],[-120.34851,34.01371],[-120.34758,34.01483],[-120.34726,34.01483],[-120.34725,34.01429]],[[-120.34985142857143,34.01448],[-120.34985,34.01448],[-120.34984745762713,34.01448694915253],[-120.34985142857143,34.01448]],[[-120.35017,34.01448],[-120.35018,34.01502],[-120.3502,34.01502],[-120.35016,34.01394],[-120.34985142857143,34.01448],[-120.35017,34.01448]],[[-120.34223,34.01091],[-120.34224,34.01118],[-120.34225,34.01091],[-120.34223,34.01091]],[[-120.3422,34.0101],[-120.34221,34.01037],[-120.34222,34.0101],[-120.3422,34.0101]],[[-120.34218,34.00956],[-120.34219,34.00983],[-120.34219,34.00956],[-120.34218,34.00956]],[[-120.3495,34.01423],[-120.34952,34.01423],[-120.34949,34.01395],[-120.3495,34.01423]],[[-120.34946,34.01315],[-120.34948,34.01369],[-120.34948,34.01315],[-120.34946,34.01315]],[[-120.34945,34.01288],[-120.34946,34.01288],[-120.34944,34.0126],[-120.34945,34.01288]],[[-120.35245,34.01442],[-120.35244,34.01414],[-120.35243,34.01442],[-120.35245,34.01442]],[[-120.35113,34.01392],[-120.35111,34.01337],[-120.35111,34.01392],[-120.35113,34.01392]],[[-120.35048,34.01394],[-120.35046,34.01339],[-120.35046,34.01394],[-120.35048,34.01394]],[[-120.34983,34.01395],[-120.34982,34.0134],[-120.34982,34.01395],[-120.34983,34.01395]],[[-120.35139,34.01228],[-120.35138,34.01228],[-120.35141,34.01282],[-120.35139,34.01228]],[[-120.35107,34.01257],[-120.35106,34.01202],[-120.35106,34.01257],[-120.35107,34.01257]],[[-120.35043,34.01258],[-120.35041,34.01204],[-120.35041,34.01258],[-120.35043,34.01258]],[[-120.35004,34.01124],[-120.35004,34.01151],[-120.35005,34.01124],[-120.35004,34.01124]],[[-120.35103,34.01175],[-120.35104,34.01175],[-120.35102,34.01148],[-120.35103,34.01175]],[[-120.35136,34.01174],[-120.35136,34.01202],[-120.35137,34.01174],[-120.35136,34.01174]],[[-120.35072,34.01204],[-120.35073,34.01204],[-120.35071,34.01176],[-120.35072,34.01204]],[[-120.35008,34.01205],[-120.35007,34.01178],[-120.35007,34.01205],[-120.35008,34.01205]],[[-120.35107,34.01283],[-120.35108,34.0131],[-120.35109,34.01283],[-120.35107,34.01283]],[[-120.35074,34.01257],[-120.35075,34.01284],[-120.35075,34.01257],[-120.35074,34.01257]],[[-120.35043,34.01285],[-120.35043,34.01312],[-120.35044,34.01285],[-120.35043,34.01285]],[[-120.35009,34.01259],[-120.3501,34.01286],[-120.35011,34.01259],[-120.35009,34.01259]],[[-120.34978,34.01287],[-120.34978,34.01314],[-120.34979,34.01287],[-120.34978,34.01287]],[[-120.35076,34.01311],[-120.35077,34.01339],[-120.35078,34.01311],[-120.35076,34.01311]],[[-120.35012,34.0134],[-120.35014,34.0134],[-120.35011,34.01313],[-120.35012,34.0134]],[[-120.35149,34.01499],[-120.35146,34.0139],[-120.35083,34.015],[-120.35117,34.015],[-120.35117,34.01527],[-120.35118,34.01527],[-120.35149,34.01499]],[[-120.35085,34.01527],[-120.35085,34.01554],[-120.35086,34.01527],[-120.35085,34.01527]],[[-120.35052,34.01501],[-120.35051,34.01501],[-120.35053,34.01529],[-120.35052,34.01501]],[[-120.3502,34.01529],[-120.3502,34.01556],[-120.35021,34.01529],[-120.3502,34.01529]],[[-120.35081,34.01392],[-120.35079,34.01392],[-120.35081,34.01419],[-120.35081,34.01392]],[[-120.35048,34.0142],[-120.35049,34.01447],[-120.35049,34.0142],[-120.35048,34.0142]],[[-120.35178,34.01416],[-120.35178,34.01444],[-120.35179,34.01416],[-120.35178,34.01416]],[[-120.35118,34.01553],[-120.35119,34.01581],[-120.3512,34.01553],[-120.35118,34.01553]],[[-120.35054,34.01582],[-120.35056,34.01582],[-120.35053,34.01555],[-120.35054,34.01582]],[[-120.34518,34.01138],[-120.34518,34.0111],[-120.34517,34.01138],[-120.34518,34.01138]],[[-120.34879,34.01262],[-120.3488,34.0129],[-120.34881,34.01262],[-120.34879,34.01262]],[[-120.34848,34.01263],[-120.34847,34.01236],[-120.34846,34.01263],[-120.34848,34.01263]],[[-120.34814,34.01264],[-120.34815,34.01292],[-120.34816,34.01264],[-120.34814,34.01264]],[[-120.34783,34.01265],[-120.34782,34.01238],[-120.34782,34.01265],[-120.34783,34.01265]],[[-120.3475,34.01266],[-120.3475,34.01293],[-120.34751,34.01266],[-120.3475,34.01266]],[[-120.34718,34.01267],[-120.34718,34.0124],[-120.34717,34.01267],[-120.34718,34.01267]],[[-120.34683,34.01241],[-120.34685,34.01241],[-120.34682,34.01187],[-120.34683,34.01241]],[[-120.34648,34.0116],[-120.34649,34.01188],[-120.3465,34.0116],[-120.34648,34.0116]],[[-120.34616,34.01134],[-120.34615,34.01134],[-120.34617,34.01162],[-120.34616,34.01134]],[[-120.34551,34.01136],[-120.3455,34.01136],[-120.34552,34.01163],[-120.34551,34.01136]],[[-120.34579,34.01027],[-120.34578,34.01027],[-120.3458,34.01055],[-120.34579,34.01027]],[[-120.34547,34.01055],[-120.34548,34.01109],[-120.34548,34.01055],[-120.34547,34.01055]],[[-120.34581,34.01108],[-120.34582,34.01136],[-120.34583,34.01108],[-120.34581,34.01108]],[[-120.34713,34.01159],[-120.34714,34.01186],[-120.34715,34.01159],[-120.34713,34.01159]],[[-120.34748,34.01239],[-120.3475,34.01239],[-120.34748,34.01185],[-120.34747,34.01185],[-120.34748,34.01239]],[[-120.34553,34.0119],[-120.34552,34.0119],[-120.34553,34.01191],[-120.34553,34.0119]],[[-120.34917,34.01369],[-120.34916,34.01369],[-120.34918,34.01397],[-120.34917,34.01369]],[[-120.34788,34.01373],[-120.34786,34.01373],[-120.34789,34.014],[-120.34788,34.01373]],[[-120.34755,34.01401],[-120.34756,34.01428],[-120.34756,34.01401],[-120.34755,34.01401]],[[-120.34915,34.01342],[-120.34915,34.01343],[-120.34916,34.01342],[-120.34915,34.01342]],[[-120.34883,34.01371],[-120.34885,34.01371],[-120.34883,34.01316],[-120.34882,34.01316],[-120.34883,34.01371]],[[-120.34817,34.01318],[-120.34818,34.01373],[-120.34851,34.01345],[-120.34849,34.01291],[-120.34817,34.01318]],[[-120.34783,34.01292],[-120.34784,34.0132],[-120.34785,34.01292],[-120.34783,34.01292]],[[-120.34915,34.01316],[-120.34914,34.01288],[-120.34914,34.01316],[-120.34915,34.01316]],[[-120.3469,34.01403],[-120.34691,34.0143],[-120.34692,34.01403],[-120.3469,34.01403]],[[-120.34485,34.01138],[-120.34486,34.01165],[-120.34486,34.01138],[-120.34485,34.01138]],[[-120.34454,34.01139],[-120.34453,34.01112],[-120.34452,34.01139],[-120.34454,34.01139]],[[-120.3442,34.01139],[-120.34421,34.01167],[-120.34422,34.01139],[-120.3442,34.01139]],[[-120.34389,34.01141],[-120.34388,34.01114],[-120.34387,34.01141],[-120.34389,34.01141]],[[-120.34355,34.01141],[-120.34356,34.01169],[-120.34357,34.01141],[-120.34355,34.01141]],[[-120.34324,34.01143],[-120.34323,34.01115],[-120.34322,34.01143],[-120.34324,34.01143]],[[-120.3429,34.01117],[-120.3429,34.01089],[-120.34289,34.01117],[-120.3429,34.01117]],[[-120.34257,34.01117],[-120.34258,34.01144],[-120.34258,34.01117],[-120.34257,34.01117]],[[-120.34251,34.00982],[-120.34252,34.01009],[-120.34253,34.00982],[-120.34251,34.00982]],[[-120.34255,34.0109],[-120.34257,34.0109],[-120.34255,34.01036],[-120.34254,34.01036],[-120.34255,34.0109]],[[-120.34483,34.01111],[-120.34485,34.01111],[-120.34483,34.01057],[-120.34482,34.01057],[-120.34483,34.01111]],[[-120.34353,34.01087],[-120.34354,34.01115],[-120.34354,34.01087],[-120.34353,34.01087]],[[-120.34425,34.01221],[-120.34423,34.01221],[-120.34425,34.01248],[-120.34425,34.01221]],[[-120.3429,34.01143],[-120.34292,34.01197],[-120.34292,34.01143],[-120.3429,34.01143]],[[-120.34455,34.0122],[-120.34457,34.0122],[-120.34455,34.01166],[-120.34454,34.01166],[-120.34455,34.0122]],[[-120.3439,34.01222],[-120.34392,34.01222],[-120.3439,34.01168],[-120.34389,34.01168],[-120.3439,34.01222]],[[-120.34325,34.01224],[-120.34327,34.01224],[-120.34325,34.01169],[-120.34324,34.01169],[-120.34325,34.01224]],[[-120.34489,34.01246],[-120.3449,34.01246],[-120.34488,34.01219],[-120.34489,34.01246]],[[-120.3419,34.01038],[-120.34189,34.01038],[-120.34192,34.01092],[-120.3419,34.01038]],[[-120.34158,34.01066],[-120.34157,34.01012],[-120.34157,34.01066],[-120.34158,34.01066]],[[-120.34093,34.01068],[-120.34092,34.01013],[-120.34092,34.01068],[-120.34093,34.01068]],[[-120.34187,34.00984],[-120.34187,34.01011],[-120.34188,34.00984],[-120.34187,34.00984]],[[-120.34059,34.01042],[-120.3406,34.01042],[-120.34059,34.01041],[-120.34059,34.01042]],[[-120.34158,34.01093],[-120.34159,34.0112],[-120.3416,34.01093],[-120.34158,34.01093]],[[-120.34126,34.01094],[-120.34127,34.01094],[-120.34125,34.01067],[-120.34126,34.01094]],[[-120.34192,34.01119],[-120.34193,34.01146],[-120.34193,34.01119],[-120.34192,34.01119]]],[[[-120.34362,34.01331],[-120.34395,34.01303],[-120.34364,34.01385],[-120.343,34.01386],[-120.34297,34.01278],[-120.34361,34.01277],[-120.34362,34.01331]],[[-120.3433,34.01305],[-120.34329,34.01304],[-120.34329,34.01305],[-120.3433,34.01305]],[[-120.34331,34.01359],[-120.34332,34.01331],[-120.3433,34.01331],[-120.34331,34.01359]]],[[[-120.34623,34.0135],[-120.34655,34.01323],[-120.34655,34.0135],[-120.34623,34.0135]]],[[[-120.34592,34.01406],[-120.34558,34.01325],[-120.3459,34.01325],[-120.34592,34.01406]]],[[[-120.34559,34.0138],[-120.34527,34.01353],[-120.34559,34.01353],[-120.34559,34.0138]]],[[[-120.35147,34.01472],[-120.35115,34.01445],[-120.35147,34.01445],[-120.35147,34.01472]]],[[[-120.34921,34.01477],[-120.34953,34.01477],[-120.34953,34.01505],[-120.34921,34.01477]]],[[[-120.34826,34.01535],[-120.34826,34.01562],[-120.34762,34.01535],[-120.34826,34.01535]]],[[[-120.35217,34.01579],[-120.35184,34.01551],[-120.35217,34.01551],[-120.35217,34.01579]]],[[[-120.3486,34.0156],[-120.34892,34.0156],[-120.34892,34.01587],[-120.3486,34.0156]]],[[[-120.34859,34.01561],[-120.34859,34.01588],[-120.34827,34.01561],[-120.34859,34.01561]]],[[[-120.33852,34.01561],[-120.33918,34.01559],[-120.33953,34.01667],[-120.33788,34.01562],[-120.33786,34.01508],[-120.33851,34.01507],[-120.33852,34.01561]]],[[[-120.35157,34.01688],[-120.35153,34.01579],[-120.35185,34.01579],[-120.35188,34.01687],[-120.35223,34.01713],[-120.35225,34.01794],[-120.3516,34.01796],[-120.35159,34.01714],[-120.35126,34.01769],[-120.35125,34.01688],[-120.35157,34.01688]]],[[[-120.34119,34.01744],[-120.34055,34.01717],[-120.34119,34.01716],[-120.34119,34.01744]]],[[[-120.33894,34.01803],[-120.33926,34.01775],[-120.33927,34.0183],[-120.33863,34.01831],[-120.33829,34.01777],[-120.33893,34.01749],[-120.33894,34.01803]]],[[[-120.33633,34.01756],[-120.33667,34.01783],[-120.33697,34.017],[-120.33762,34.01726],[-120.33732,34.01808],[-120.337,34.01808],[-120.337,34.01781],[-120.33698,34.01781],[-120.33702,34.0189],[-120.33573,34.01893],[-120.33633,34.01756]],[[-120.33667,34.01809],[-120.3367,34.01863],[-120.33669,34.01809],[-120.33667,34.01809]],[[-120.33729,34.01727],[-120.3373,34.01726],[-120.33729,34.01726],[-120.33729,34.01727]]],[[[-120.34446,34.018056666666496],[-120.34446,34.01816],[-120.34414,34.01788],[-120.34445513761469,34.01788],[-120.34446,34.018056666666496]]],[[[-120.34188,34.01822],[-120.34186,34.01767],[-120.34251,34.01767],[-120.34285,34.0182],[-120.34156,34.0185],[-120.34155,34.01795],[-120.34187,34.01795],[-120.34187,34.01822],[-120.34188,34.01822]]],[[[-120.34608,34.01784],[-120.34644,34.01891],[-120.34579,34.01892],[-120.34579,34.01838],[-120.34514,34.01867],[-120.3448,34.01787],[-120.34447,34.01842],[-120.34446,34.018056666666496],[-120.34446,34.01788],[-120.34445513761469,34.01788],[-120.34444,34.01733],[-120.34509,34.01733],[-120.3451,34.01786],[-120.34543,34.01759],[-120.34544,34.0184],[-120.34544,34.01785],[-120.34608,34.01784]],[[-120.34577,34.01811],[-120.34576,34.01811],[-120.34576,34.01812],[-120.34577,34.01811]]],[[[-120.33571,34.01839],[-120.33539,34.01812],[-120.33571,34.01812],[-120.33571,34.01839]]],[[[-120.34123,34.01852],[-120.34091,34.01852],[-120.34123,34.01824],[-120.34123,34.01852]]],[[[-120.34351,34.01845],[-120.34351,34.01872],[-120.34319,34.01872],[-120.34351,34.01845]]],[[[-120.34319,34.01846],[-120.34319,34.01872],[-120.34319,34.01873],[-120.34286,34.01846],[-120.34319,34.01846]]],[[[-120.35196,34.01876],[-120.35164,34.01876],[-120.35196,34.01849],[-120.35196,34.01876]]],[[[-120.34353,34.01871],[-120.34417,34.0187],[-120.34417,34.01898],[-120.34353,34.01871]]],[[[-120.34678,34.01918],[-120.34646,34.0189],[-120.34678,34.0189],[-120.34678,34.01918]]],[[[-120.35002,34.01881],[-120.34939,34.01937],[-120.34937,34.01882],[-120.35002,34.01881]]],[[[-120.35101,34.01906],[-120.35101,34.01933],[-120.35069,34.01906],[-120.35101,34.01906]]],[[[-120.35068,34.01934],[-120.35004,34.01907],[-120.35068,34.01907],[-120.35068,34.01934]]],[[[-120.34938,34.01937],[-120.34906,34.0191],[-120.34938,34.0191],[-120.34938,34.01937]]],[[[-120.34875,34.01939],[-120.34875,34.01966],[-120.34843,34.01966],[-120.34875,34.01939]]],[[[-120.3481,34.01968],[-120.34778,34.01968],[-120.3481,34.01941],[-120.3481,34.01968]]],[[[-120.34744,34.01942],[-120.3468,34.01971],[-120.3468,34.01943],[-120.34744,34.01942]]],[[[-120.34433,34.04763],[-120.34433,34.0479],[-120.34401,34.0479],[-120.34433,34.04763]]],[[[-120.34337,34.0482],[-120.34305,34.0482],[-120.34337,34.04793],[-120.34337,34.0482]]],[[[-120.34143,34.04852],[-120.34111,34.04825],[-120.34143,34.04825],[-120.34143,34.04852]]],[[[-120.34241,34.04822],[-120.34241,34.04877],[-120.34177,34.04877],[-120.34241,34.04822]]],[[[-120.34144,34.04824],[-120.34176,34.04824],[-120.34145,34.04879],[-120.34144,34.04824]]],[[[-120.34339,34.04874],[-120.34307,34.04847],[-120.34339,34.04847],[-120.34339,34.04874]]],[[[-120.34274,34.04847],[-120.34306,34.04847],[-120.34306,34.04875],[-120.34274,34.04847]]],[[[-120.33529,34.04898375],[-120.33529,34.04923],[-120.33503580645161,34.04901552419355],[-120.33529,34.04898375]]],[[[-120.3353,34.04949],[-120.33562,34.04922],[-120.33562,34.04949],[-120.3353,34.04949]]],[[[-120.33897,34.0521],[-120.33865,34.0521],[-120.33897,34.05183],[-120.33897,34.0521]]],[[[-120.33529,34.05706],[-120.33561,34.05706],[-120.33561,34.05733],[-120.33529,34.05706]]],[[[-120.33595,34.05759],[-120.33562,34.05732],[-120.33595,34.05732],[-120.33595,34.05759]]],[[[-120.31516,34.01598],[-120.31483,34.01598],[-120.31516,34.0157],[-120.31516,34.01598]]],[[[-120.31586,34.01731],[-120.31521,34.01732],[-120.31487,34.01679],[-120.31517,34.01596],[-120.31551,34.01677],[-120.31551,34.01622],[-120.31615,34.01622],[-120.31586,34.01731]]],[[[-120.31714,34.01701],[-120.31682,34.01701],[-120.31713,34.01646],[-120.31714,34.01701]]],[[[-120.3061,34.01648],[-120.30708,34.01701],[-120.30611,34.01702],[-120.3061,34.01648]]],[[[-120.31131,34.01743],[-120.31133,34.01743],[-120.31223,34.0155],[-120.31418,34.01573],[-120.31387,34.01655],[-120.31422,34.01681],[-120.31421,34.01626],[-120.31485,34.01625],[-120.31486,34.0168],[-120.31422,34.01709],[-120.3139,34.01709],[-120.3139,34.01682],[-120.31389,34.01682],[-120.31392,34.01763],[-120.3136,34.01763],[-120.31359,34.01709],[-120.31358,34.01709],[-120.31363,34.01845],[-120.3123,34.01767],[-120.31229,34.01713],[-120.31229,34.01768],[-120.31165,34.01768],[-120.31165,34.01715],[-120.31163,34.01715],[-120.31165,34.01769],[-120.31100481344346,34.01769992594702],[-120.311,34.01744],[-120.31099384497901,34.01745072164949],[-120.31098,34.01689],[-120.3113,34.01689],[-120.31131,34.01743]],[[-120.31326,34.01738],[-120.31327,34.01738],[-120.31327,34.01737],[-120.31326,34.01738]],[[-120.31294,34.01711],[-120.31293000544365,34.01711029395754],[-120.31294,34.01765],[-120.31296,34.01765],[-120.31294,34.01711]],[[-120.31293,34.01711],[-120.3126,34.01712],[-120.31293000544365,34.01711029395754],[-120.31293,34.01711]],[[-120.31261,34.0174],[-120.31262,34.0174],[-120.31262,34.01739],[-120.31261,34.0174]],[[-120.31358,34.01683],[-120.31357,34.01655],[-120.31355,34.01655],[-120.31358,34.01683]],[[-120.31322,34.01657],[-120.31324,34.01657],[-120.31322,34.01602],[-120.31322,34.01657]],[[-120.31258,34.01658],[-120.31259,34.01658],[-120.31258,34.01604],[-120.31258,34.01658]],[[-120.31227,34.01659],[-120.31226,34.01659],[-120.31226,34.01686],[-120.31227,34.01659]],[[-120.3129,34.01603],[-120.31289,34.01576],[-120.31287,34.01576],[-120.3129,34.01603]],[[-120.31352,34.01574],[-120.31353,34.01602],[-120.31355,34.01602],[-120.31352,34.01574]],[[-120.31324,34.01683],[-120.31325,34.01711],[-120.31326,34.01711],[-120.31324,34.01683]],[[-120.31196,34.01686],[-120.31194,34.01686],[-120.31195,34.01714],[-120.31196,34.01686]],[[-120.31327,34.01764],[-120.31328,34.01792],[-120.31329,34.01792],[-120.31327,34.01764]]],[[[-120.31812,34.01698],[-120.31718,34.01781],[-120.31715,34.01672],[-120.31812,34.01698]],[[-120.31747,34.01726],[-120.31748,34.01699],[-120.31747,34.01699],[-120.31747,34.01726]]],[[[-120.31652,34.01728],[-120.31716,34.01754],[-120.31652,34.01756],[-120.31652,34.01728]]],[[[-120.32239,34.01822],[-120.32109,34.01824],[-120.32108,34.0177],[-120.32043,34.01799],[-120.3201,34.01746],[-120.31945,34.01775],[-120.31911,34.01722],[-120.31814,34.01751],[-120.31813,34.01696],[-120.31879,34.01723],[-120.31877,34.01668],[-120.31976,34.0172],[-120.31976,34.01747],[-120.31977,34.01747],[-120.31975,34.01692],[-120.32072,34.0169],[-120.32139,34.0177],[-120.32172,34.01742],[-120.32172,34.01796],[-120.32237,34.01767],[-120.32239,34.01822]],[[-120.32074,34.01772],[-120.32075,34.01744],[-120.32073,34.01744],[-120.32074,34.01772]],[[-120.3204,34.01718],[-120.32042,34.01745],[-120.32041,34.01718],[-120.3204,34.01718]]],[[[-120.3149,34.01761],[-120.31458,34.01733],[-120.3149,34.01733],[-120.3149,34.01761]]],[[[-120.31457,34.01762],[-120.31425,34.01762],[-120.31457,34.01734],[-120.31457,34.01762]]],[[[-120.31100481344346,34.01769992594702],[-120.31101,34.01798],[-120.31069,34.01798],[-120.31099384497901,34.01745072164949],[-120.311,34.0177],[-120.31100481344346,34.01769992594702]]],[[[-120.32431,34.01735],[-120.32433,34.01788],[-120.32497,34.0176],[-120.32465,34.01815],[-120.32304,34.01819],[-120.32334,34.01736],[-120.32431,34.01735]],[[-120.32368,34.01791],[-120.32368,34.01763],[-120.32367,34.01791],[-120.32368,34.01791]]],[[[-120.3068,34.01836],[-120.30585,34.01892],[-120.30546,34.01677],[-120.30611,34.01703],[-120.3068,34.01836]],[[-120.30579,34.01731],[-120.3058,34.01731],[-120.30578,34.01703],[-120.30579,34.01731]],[[-120.30614,34.0181],[-120.30615,34.01838],[-120.30616,34.0181],[-120.30614,34.0181]]],[[[-120.32497,34.01759],[-120.32561,34.01758],[-120.32498,34.01814],[-120.32497,34.01759]]],[[[-120.30452,34.01816],[-120.30388,34.01817],[-120.30451,34.01761],[-120.30452,34.01816]]],[[[-120.32853,34.01723],[-120.32854,34.01804],[-120.32857,34.01859],[-120.32824,34.01805],[-120.32792,34.01861],[-120.32759,34.01807],[-120.32565,34.01839],[-120.32562,34.01757],[-120.32628,34.01784],[-120.3269,34.01728],[-120.32691,34.01782],[-120.32789,34.01752],[-120.3279,34.01806],[-120.32791,34.01806],[-120.32788,34.01724],[-120.32853,34.01723]],[[-120.32659,34.01782],[-120.3266,34.0181],[-120.32661,34.01782],[-120.32659,34.01782]],[[-120.32724,34.01781],[-120.32725,34.01808],[-120.32726,34.01781],[-120.32724,34.01781]],[[-120.32594,34.01784],[-120.32595,34.01812],[-120.32596,34.01784],[-120.32594,34.01784]]],[[[-120.30712,34.01781],[-120.30712,34.01809],[-120.3068,34.01781],[-120.30712,34.01781]]],[[[-120.33375,34.01818],[-120.33343,34.01818],[-120.33375,34.0179],[-120.33375,34.01818]]],[[[-120.33504,34.0176],[-120.33505,34.01814],[-120.33537,34.01786],[-120.33538,34.01841],[-120.33441,34.01842],[-120.3344,34.01788],[-120.33439,34.01788],[-120.33442,34.0187],[-120.33376,34.01844],[-120.33407,34.01762],[-120.33504,34.0176]]],[[[-120.33019,34.01827],[-120.33018,34.01772],[-120.33082,34.01771],[-120.33083,34.01825],[-120.33147,34.01796],[-120.33215,34.01876],[-120.32923,34.01883],[-120.32854,34.01749],[-120.32984,34.01774],[-120.32984,34.01801],[-120.33018,34.018],[-120.33018,34.01827],[-120.33019,34.01827]],[[-120.33051,34.01826],[-120.33051,34.01853],[-120.33052,34.01826],[-120.33051,34.01826]],[[-120.32986,34.01828],[-120.32986,34.01855],[-120.32987,34.01828],[-120.32986,34.01828]],[[-120.32954,34.01801],[-120.32952,34.01801],[-120.32954,34.01829],[-120.32954,34.01801]],[[-120.33115,34.01824],[-120.33116,34.01851],[-120.33117,34.01824],[-120.33115,34.01824]]],[[[-120.3172,34.01807],[-120.31784,34.01806],[-120.3172,34.01835],[-120.3172,34.01807]]],[[[-120.31818,34.0186],[-120.31786,34.0186],[-120.31818,34.01833],[-120.31818,34.0186]]],[[[-120.33344,34.01845],[-120.33344,34.01873],[-120.3328,34.01846],[-120.33344,34.01845]]],[[[-120.31689,34.01863],[-120.31689,34.01891],[-120.31657,34.01863],[-120.31689,34.01863]]],[[[-120.33378,34.01899],[-120.33346,34.01899],[-120.33378,34.01871],[-120.33378,34.01899]]],[[[-120.32307,34.01901],[-120.32275,34.01901],[-120.32307,34.01873],[-120.32307,34.01901]]],[[[-120.31138,34.01878],[-120.31138,34.01905],[-120.31106,34.01878],[-120.31138,34.01878]]],[[[-120.31463,34.01924],[-120.31399,34.01925],[-120.31462,34.01869],[-120.31463,34.01924]]],[[[-120.31657,34.01918],[-120.31625,34.01918],[-120.31657,34.01891],[-120.31657,34.01918]]],[[[-120.31464,34.01895],[-120.31528,34.01894],[-120.31464,34.01923],[-120.31464,34.01895]]],[[[-120.31042,34.01907],[-120.31042,34.01935],[-120.3101,34.01907],[-120.31042,34.01907]]],[[[-120.3123588757567,34.019552332084174],[-120.31226,34.01956],[-120.31178053435114,34.01948735368956],[-120.31203,34.01903],[-120.3123588757567,34.019552332084174]]],[[[-120.3054,34.02381],[-120.3054,34.02408],[-120.30508,34.02381],[-120.3054,34.02381]]],[[[-120.30557,34.0284],[-120.30492,34.02814],[-120.30556,34.02786],[-120.30557,34.0284]]],[[[-120.30562,34.02975],[-120.30497,34.02922],[-120.30561,34.02921],[-120.30562,34.02975]]],[[[-120.31095,34.03284],[-120.31127,34.03284],[-120.31127,34.03312],[-120.31095,34.03284]]],[[[-120.31161,34.03338],[-120.31129,34.03338],[-120.31161,34.0331],[-120.31161,34.03338]]],[[[-120.31192778625955,34.03337068702291],[-120.31194,34.03340000000003],[-120.31194,34.03364],[-120.31162,34.03364],[-120.31192778625955,34.03337068702291]]],[[[-120.31204,34.03606],[-120.312,34.03471],[-120.31264,34.0347],[-120.31265,34.03524],[-120.31267,34.03524],[-120.31264,34.03442],[-120.31296,34.03442],[-120.3129670945946,34.03461155405405],[-120.31296,34.03463],[-120.3129703960396,34.03470069306931],[-120.313,34.0355],[-120.31204,34.03606]],[[-120.31235,34.03524],[-120.31233,34.03524],[-120.31234,34.03552],[-120.31235,34.03524]],[[-120.31232,34.03498],[-120.31233,34.03498],[-120.31233,34.03497],[-120.31232,34.03498]]],[[[-120.31403,34.0371],[-120.31371,34.0371],[-120.31403,34.03682],[-120.31403,34.0371]]],[[[-120.31404,34.03709],[-120.31434010869566,34.03709],[-120.31436,34.03711152941175],[-120.31436,34.03736],[-120.31404,34.03709]]],[[[-120.31274,34.03685],[-120.31338,34.03684],[-120.3134,34.03765],[-120.31307,34.03767],[-120.31243,34.03767],[-120.31274,34.03685]]],[[[-120.3121,34.03714],[-120.31242,34.03714],[-120.31211,34.03796],[-120.31178,34.03769],[-120.3121,34.03714]]],[[[-120.31311,34.03847],[-120.31343,34.03819],[-120.31343,34.03847],[-120.31311,34.03847]]],[[[-120.31504,34.03788],[-120.31507,34.03896],[-120.31475,34.03896],[-120.31472,34.03788],[-120.31504,34.03788]]],[[[-120.31642,34.04028],[-120.31578,34.04029],[-120.31609,34.03974],[-120.31642,34.04028]]],[[[-120.3174,34.04025],[-120.31708,34.03998],[-120.3174,34.03998],[-120.3174,34.04025]]],[[[-120.31675,34.03999],[-120.31707,34.03999],[-120.31707,34.04026],[-120.31675,34.03999]]],[[[-120.31808,34.04077],[-120.31808,34.04105],[-120.31776,34.04077],[-120.31808,34.04077]]],[[[-120.31974,34.04208],[-120.3195625389755,34.04193026726058],[-120.31974,34.04194894736842],[-120.31974,34.04208]]],[[[-120.32009,34.04233],[-120.32015,34.04233],[-120.32013173913043,34.04236652173913],[-120.32009,34.04233]]],[[[-120.32041,34.04261],[-120.32016964125559,34.04239968609865],[-120.32041,34.04244658536585],[-120.32041,34.04261]]],[[[-120.32404,34.04386],[-120.32372,34.04386],[-120.32404,34.04358],[-120.32404,34.04386]]],[[[-120.33106,34.04907],[-120.33131379310345,34.04884793103448],[-120.33138,34.04897],[-120.33138,34.04907],[-120.33106,34.04907]]],[[[-120.33399,34.04898],[-120.33427454545455,34.04898],[-120.33431,34.048994444444446],[-120.33431,34.04926],[-120.33399,34.04898]]],[[[-120.33438099009902,34.049023366336634],[-120.33452,34.04908],[-120.33464,34.049065],[-120.33464,34.04925],[-120.33438099009902,34.049023366336634]]],[[[-120.33104846034215,34.05718743390357],[-120.33104656249999,34.05719],[-120.33073,34.05719],[-120.33072,34.05664],[-120.33104846034215,34.05718743390357]]],[[[-120.25244,33.98926],[-120.25212,33.98899],[-120.25244,33.98899],[-120.25244,33.98926]]],[[[-120.25446,33.9911],[-120.25414,33.99083],[-120.25446,33.99083],[-120.25446,33.9911]]],[[[-120.25413,33.99083],[-120.25413,33.99111],[-120.25381,33.99083],[-120.25413,33.99083]]],[[[-120.2467,33.99156],[-120.24702,33.99156],[-120.24702,33.99184],[-120.2467,33.99156]]],[[[-120.24735,33.9921],[-120.24703,33.99183],[-120.24735,33.99183],[-120.24735,33.9921]]],[[[-120.25007,33.995],[-120.25007,33.99527],[-120.24943,33.99501],[-120.25007,33.995]]],[[[-120.2491,33.99501],[-120.24942,33.99501],[-120.24942,33.99529],[-120.2491,33.99501]]],[[[-120.25204,33.99576],[-120.25172,33.99549],[-120.25204,33.99549],[-120.25204,33.99576]]],[[[-120.24689,33.99697],[-120.24689,33.99725],[-120.24657,33.99697],[-120.24689,33.99697]]],[[[-120.2456,33.99701],[-120.2456,33.99728],[-120.24528,33.99728],[-120.2456,33.99701]]],[[[-120.24691,33.99751],[-120.24723,33.99724],[-120.24723,33.99751],[-120.24691,33.99751]]],[[[-120.24626,33.99726],[-120.24626,33.99754],[-120.24594,33.99726],[-120.24626,33.99726]]],[[[-120.24593,33.99754],[-120.24563,33.99781],[-120.24561,33.99727],[-120.24593,33.99727],[-120.24593,33.99754]]],[[[-120.2453,33.99783],[-120.24562,33.99755],[-120.24562,33.99783],[-120.2453,33.99783]]],[[[-120.24986,33.99797],[-120.24986,33.9977],[-120.2505,33.99797],[-120.24986,33.99797]]],[[[-120.24953,33.99771],[-120.24985,33.99771],[-120.24985,33.99798],[-120.24953,33.99771]]],[[[-120.24855,33.99802],[-120.24823,33.99774],[-120.24855,33.99774],[-120.24855,33.99802]]],[[[-120.24921,33.99827],[-120.24889,33.99827],[-120.24921,33.998],[-120.24921,33.99827]]],[[[-120.24791,33.99803],[-120.24791,33.9983],[-120.24759,33.9983],[-120.24791,33.99803]]],[[[-120.24954,33.99853],[-120.24922,33.99826],[-120.24954,33.99826],[-120.24954,33.99853]]],[[[-120.24924,33.99881],[-120.24924,33.99908],[-120.24892,33.99881],[-120.24924,33.99881]]],[[[-120.24925,33.99907],[-120.24957,33.99907],[-120.24957,33.99934],[-120.24925,33.99907]]],[[[-120.2486,33.99937],[-120.24828,33.99909],[-120.2486,33.99909],[-120.2486,33.99937]]],[[[-120.24667,33.99942],[-120.24666554088742,33.99942752475247],[-120.24664270889275,33.9986877681251],[-120.24678582816651,33.998555947741366],[-120.2476,33.99831],[-120.24729,33.99913],[-120.24763,33.99912],[-120.24763,33.99939],[-120.24764,33.99939],[-120.24762,33.99884],[-120.24827,33.99883],[-120.24800225888325,34.00039819796954],[-120.24786875,34.000471250000004],[-120.24720245091832,34.0004781190627],[-120.24702,34.00037],[-120.24702,33.99994],[-120.24672161214953,34.00019317757009],[-120.24668856776898,34.00017359571495],[-120.24667,33.999571999999816],[-120.24667,33.99942]],[[-120.24698,33.9994],[-120.24699,33.99913],[-120.24697,33.99913],[-120.24698,33.9994]],[[-120.24697,33.99887],[-120.24696,33.99886],[-120.24696,33.99887],[-120.24697,33.99887]],[[-120.24766,33.99966],[-120.24766,34.0002],[-120.24767,34.0002],[-120.24766,33.99966]],[[-120.24731,33.99939],[-120.24734,33.99994],[-120.24732,33.99939],[-120.24731,33.99939]],[[-120.247,33.99968],[-120.24699,33.99967],[-120.24699,33.99968],[-120.247,33.99968]]],[[[-120.24638736371034,33.999896948738815],[-120.24666554088742,33.99942752475247],[-120.24667,33.999571999999816],[-120.24667,33.99996],[-120.24642552631579,33.99996],[-120.24638736371034,33.999896948738815]]],[[[-120.25389,34.00138],[-120.25487,34.00163],[-120.25488,34.00217],[-120.25389,34.00165],[-120.25389,34.00138]]],[[[-120.24805,34.00209],[-120.24773,34.00181],[-120.24805,34.00181],[-120.24805,34.00209]]],[[[-120.25488,34.00189],[-120.2552,34.00189],[-120.2552,34.00217],[-120.25488,34.00189]]],[[[-120.25684,34.0024],[-120.25652,34.0024],[-120.25684,34.00212],[-120.25684,34.0024]]],[[[-120.25554,34.00243],[-120.25522,34.00216],[-120.25554,34.00216],[-120.25554,34.00243]]],[[[-120.2562,34.0024],[-120.25652,34.0024],[-120.25652,34.00267],[-120.2562,34.0024]]],[[[-120.2562,34.00241],[-120.2562,34.00268],[-120.25587,34.00241],[-120.2562,34.00241]]],[[[-120.25069,34.0031],[-120.25037,34.00282],[-120.25069,34.00282],[-120.25069,34.0031]]],[[[-120.25005,34.00283],[-120.25037,34.00283],[-120.25037,34.00311],[-120.25005,34.00283]]],[[[-120.25135,34.00307],[-120.25135,34.00335],[-120.25103,34.00307],[-120.25135,34.00307]]],[[[-120.25233,34.00305],[-120.25233,34.0036],[-120.25169,34.0036],[-120.25136,34.00307],[-120.25233,34.00305]]],[[[-120.25462,34.00407],[-120.2543,34.00407],[-120.25462,34.0038],[-120.25462,34.00407]]],[[[-120.24943,34.00367],[-120.24948,34.00529],[-120.24849,34.00477],[-120.24881,34.0045],[-120.24879,34.00395],[-120.24815,34.00424],[-120.24812,34.00316],[-120.2481,34.00316],[-120.2478,34.00371],[-120.24778,34.00289],[-120.24873,34.00261],[-120.24876,34.00368],[-120.24943,34.00367]],[[-120.24844,34.00315],[-120.24843,34.00288],[-120.24842,34.00315],[-120.24844,34.00315]],[[-120.24844,34.00369],[-120.24845,34.00396],[-120.24846,34.00369],[-120.24844,34.00369]],[[-120.24915,34.00476],[-120.24913,34.00421],[-120.24913,34.00476],[-120.24915,34.00476]]],[[[-120.25562,34.00431],[-120.25592,34.00377],[-120.25594,34.00431],[-120.25562,34.00431]]],[[[-120.24815,34.00451],[-120.24848,34.00478],[-120.24784,34.00479],[-120.24782,34.00397],[-120.24814,34.00397],[-120.24815,34.00451]]],[[[-120.24783,34.00452],[-120.24783,34.0048],[-120.24751,34.0048],[-120.24783,34.00452]]],[[[-120.24851,34.00531],[-120.24821,34.00586],[-120.24819,34.00531],[-120.24851,34.00531]]],[[[-120.24694,34.0067],[-120.24691,34.00562],[-120.24626,34.00591],[-120.24657,34.00536],[-120.24722,34.00535],[-120.24755,34.00588],[-120.2482,34.00559],[-120.24789,34.00615],[-120.24723,34.00589],[-120.24726,34.0067],[-120.24694,34.0067]]],[[[-120.24629,34.00645],[-120.24693,34.00644],[-120.24693,34.00671],[-120.24629,34.00645]]],[[[-120.24596,34.00674],[-120.24564,34.00646],[-120.24596,34.00646],[-120.24596,34.00674]]],[[[-120.24535,34.00728],[-120.24567,34.00728],[-120.24536,34.00783],[-120.24535,34.00728]]],[[[-120.25552,34.01027],[-120.25552,34.01054],[-120.2552,34.01054],[-120.25552,34.01027]]],[[[-120.25169,34.01226],[-120.25201,34.01198],[-120.25201,34.01226],[-120.25169,34.01226]]],[[[-120.25337,34.01384],[-120.25305,34.01357],[-120.25337,34.01357],[-120.25337,34.01384]]],[[[-120.25016,34.01474],[-120.24984,34.01447],[-120.25016,34.01447],[-120.25016,34.01474]]],[[[-120.30348,34.01601],[-120.30315,34.01629],[-120.30315,34.01575],[-120.30412,34.01573],[-120.30412,34.01627],[-120.30445,34.01599],[-120.30482,34.01734],[-120.30415,34.01654],[-120.30383,34.01682],[-120.30348,34.01601]]],[[[-120.24899,34.01802],[-120.24866,34.01774],[-120.24899,34.01774],[-120.24899,34.01802]]],[[[-120.25,34.01879],[-120.25032,34.01852],[-120.25032,34.01879],[-120.25,34.01879]]]]}}]}