{"type":"FeatureCollection","features":[{"type":"Feature","geometry":{"type":"Polygon","coordinates":[[[-120.47,34.06],[-120.47,34.037],[-120.522,34.037],[-120.522,34.037],[-120.522,34.038],[-120.522,34.039],[-120.522,34.04],[-120.522,34.04],[-120.522,34.041],[-120.522,34.041],[-120.522,34.041],[-120.522,34.042],[-120.522,34.042],[-120.522,34.043],[-120.522,34.043],[-120.522,34.044],[-120.522,34.045],[-120.522,34.046],[-120.522,34.047],[-120.522,34.048],[-120.522,34.048],[-120.522,34.048],[-120.522,34.048],[-120.522,34.049],[-120.522,34.049],[-120.522,34.05],[-120.522,34.051],[-120.522,34.051],[-120.522,34.051],[-120.522,34.051],[-120.522,34.051],[-120.523,34.051],[-120.523,34.051],[-120.525,34.051],[-120.526,34.051],[-120.526,34.051],[-120.527,34.052],[-120.528,34.052],[-120.529,34.052],[-120.53,34.052],[-120.53,34.052],[-120.53,34.052],[-120.531,34.052],[-120.531,34.052],[-120.532,34.052],[-120.532,34.052],[-120.533,34.053],[-120.534,34.053],[-120.535,34.053],[-120.535,34.053],[-120.535,34.053],[-120.536,34.053],[-120.537,34.054],[-120.538,34.054],[-120.539,34.054],[-120.539,34.054],[-120.539,34.054],[-120.54,34.055],[-120.541,34.055],[-120.541,34.055],[-120.542,34.055],[-120.543,34.056],[-120.544,34.056],[-120.545,34.056],[-120.546,34.057],[-120.547,34.057],[-120.548,34.057],[-120.548,34.057],[-120.548,34.058],[-120.549,34.058],[-120.55,34.058],[-120.551,34.059],[-120.552,34.059],[-120.553,34.06],[-120.553,34.06],[-120.553,34.06],[-120.554,34.061],[-120.555,34.061],[-120.556,34.062],[-120.556,34.062],[-120.557,34.062],[-120.557,34.063],[-120.558,34.063],[-120.558,34.063],[-120.559,34.064],[-120.56,34.064],[-120.561,34.065],[-120.562,34.066],[-120.562,34.066],[-120.563,34.067],[-120.564,34.068],[-120.565,34.068],[-120.565,34.069],[-120.566,34.069],[-120.566,34.07],[-120.567,34.07],[-120.568,34.071],[-120.568,34.072],[-120.568,34.072],[-120.568,34.072],[-120.569,34.073],[-120.569,34.073],[-120.57,34.074],[-120.57,34.074],[-120.571,34.075],[-120.571,34.075],[-120.572,34.076],[-120.572,34.077],[-120.573,34.078],[-120.573,34.078],[-120.573,34.078],[-120.573,34.078],[-120.574,34.079],[-120.574,34.08],[-120.575,34.081],[-120.575,34.082],[-120.576,34.082],[-120.576,34.083],[-120.576,34.084],[-120.576,34.084],[-120.576,34.084],[-120.576,34.084],[-120.577,34.085],[-120.577,34.085],[-120.577,34.086],[-120.577,34.086],[-120.577,34.087],[-120.578,34.087],[-120.578,34.087],[-120.578,34.087],[-120.578,34.088],[-120.578,34.089],[-120.579,34.09],[-120.579,34.091],[-120.579,34.092],[-120.579,34.092],[-120.579,34.092],[-120.579,34.093],[-120.579,34.093],[-120.58,34.094],[-120.58,34.095],[-120.58,34.095],[-120.58,34.096],[-120.58,34.097],[-120.58,34.098],[-120.58,34.099],[-120.58,34.099],[-120.58,34.1],[-120.58,34.1],[-120.58,34.101],[-120.58,34.101],[-120.58,34.101],[-120.58,34.102],[-120.58,34.102],[-120.58,34.103],[-120.58,34.104],[-120.58,34.105],[-120.58,34.106],[-120.58,34.107],[-120.58,34.108],[-120.58,34.108],[-120.58,34.108],[-120.58,34.109],[-120.58,34.109],[-120.58,34.11],[-120.579,34.111],[-120.579,34.112],[-120.579,34.112],[-120.579,34.113],[-120.579,34.114],[-120.579,34.114],[-120.579,34.114],[-120.579,34.115],[-120.578,34.115],[-120.578,34.116],[-120.578,34.117],[-120.578,34.117],[-120.577,34.118],[-120.577,34.118],[-120.577,34.119],[-120.577,34.119],[-120.577,34.12],[-120.576,34.12],[-120.576,34.121],[-120.576,34.121],[-120.576,34.121],[-120.576,34.122],[-120.575,34.123],[-120.575,34.123],[-120.575,34.123],[-120.575,34.124],[-120.574,34.124],[-120.574,34.125],[-120.573,34.126],[-120.573,34.127],[-120.572,34.127],[-120.572,34.128],[-120.571,34.129],[-120.571,34.129],[-120.571,34.13],[-120.57,34.13],[-120.57,34.13],[-120.569,34.131],[-120.569,34.132],[-120.569,34.132],[-120.568,34.133],[-120.568,34.133],[-120.568,34.133],[-120.567,34.133],[-120.567,34.134],[-120.567,34.134],[-120.566,34.135],[-120.566,34.135],[-120.566,34.135],[-120.565,34.136],[-120.564,34.137],[-120.563,34.137],[-120.563,34.138],[-120.563,34.138],[-120.562,34.138],[-120.562,34.139],[-120.561,34.139],[-120.56,34.14],[-120.56,34.14],[-120.56,34.14],[-120.559,34.141],[-120.558,34.141],[-120.558,34.141],[-120.558,34.141],[-120.558,34.142],[-120.557,34.142],[-120.557,34.142],[-120.557,34.142],[-120.556,34.143],[-120.555,34.143],[-120.555,34.143],[-120.554,34.144],[-120.554,34.144],[-120.554,34.144],[-120.553,34.145],[-120.552,34.145],[-120.551,34.145],[-120.55,34.146],[-120.549,34.146],[-120.548,34.147],[-120.548,34.147],[-120.548,34.147],[-120.547,34.147],[-120.547,34.147],[-120.546,34.148],[-120.546,34.148],[-120.545,34.148],[-120.545,34.148],[-120.544,34.148],[-120.544,34.148],[-120.543,34.149],[-120.543,34.149],[-120.542,34.149],[-120.541,34.149],[-120.541,34.149],[-120.541,34.15],[-120.54,34.15],[-120.54,34.15],[-120.539,34.15],[-120.539,34.15],[-120.538,34.15],[-120.537,34.151],[-120.536,34.151],[-120.536,34.151],[-120.535,34.151],[-120.534,34.151],[-120.534,34.151],[-120.533,34.151],[-120.533,34.151],[-120.532,34.152],[-120.532,34.152],[-120.532,34.152],[-120.531,34.152],[-120.53,34.152],[-120.53,34.152],[-120.53,34.152],[-120.529,34.152],[-120.528,34.152],[-120.527,34.152],[-120.526,34.152],[-120.525,34.152],[-120.524,34.153],[-120.523,34.153],[-120.522,34.153],[-120.521,34.153],[-120.52,34.153],[-120.52,34.153],[-120.518,34.153],[-120.517,34.153],[-120.516,34.153],[-120.515,34.153],[-120.514,34.152],[-120.513,34.152],[-120.512,34.152],[-120.511,34.152],[-120.511,34.152],[-120.51,34.152],[-120.51,34.152],[-120.509,34.152],[-120.508,34.152],[-120.507,34.152],[-120.506,34.151],[-120.506,34.151],[-120.506,34.151],[-120.505,34.151],[-120.504,34.151],[-120.504,34.151],[-120.503,34.151],[-120.503,34.151],[-120.502,34.151],[-120.501,34.15],[-120.5,34.15],[-120.5,34.15],[-120.5,34.15],[-120.499,34.15],[-120.498,34.149],[-120.498,34.149],[-120.497,34.149],[-120.496,34.149],[-120.495,34.148],[-120.495,34.148],[-120.494,34.148],[-120.494,34.148],[-120.493,34.148],[-120.492,34.147],[-120.492,34.147],[-120.491,34.147],[-120.49,34.146],[-120.49,34.146],[-120.49,34.146],[-120.489,34.146],[-120.488,34.145],[-120.488,34.145],[-120.488,34.145],[-120.487,34.145],[-120.486,34.145],[-120.486,34.144],[-120.485,34.144],[-120.484,34.143],[-120.483,34.143],[-120.482,34.142],[-120.481,34.142],[-120.48,34.141],[-120.48,34.141],[-120.479,34.14],[-120.479,34.14],[-120.479,34.14],[-120.478,34.14],[-120.478,34.14],[-120.477,34.139],[-120.476,34.139],[-120.476,34.138],[-120.475,34.137],[-120.474,34.137],[-120.473,34.136],[-120.473,34.136],[-120.473,34.135],[-120.472,34.135],[-120.471,34.134],[-120.471,34.134],[-120.47,34.133],[-120.47,34.132],[-120.47,34.06]]]},"properties":{"id":"richardson-rock-state-marine-reserve","name":"Richardson Rock State Marine Reserve","type":"SMR","shortName":"Richardson Rock","areaKm2":null,"ccrCitation":null}},{"type":"Feature","geometry":{"type":"Polygon","coordinates":[[[-120.437,34.04],[-120.437,34.039],[-120.437,34.039],[-120.437,34.039],[-120.437,34.039],[-120.437,34.039],[-120.437,34.039],[-120.437,34.039],[-120.437,34.038],[-120.437,34.038],[-120.437,34.038],[-120.438,34.038],[-120.438,34.038],[-120.438,34.038],[-120.438,34.038],[-120.438,34.038],[-120.438,34.038],[-120.438,34.038],[-120.438,34.038],[-120.438,34.037],[-120.439,34.037],[-120.439,34.037],[-120.439,34.037],[-120.439,34.037],[-120.439,34.037],[-120.439,34.037],[-120.439,34.037],[-120.439,34.037],[-120.439,34.037],[-120.439,34.037],[-120.44,34.037],[-120.44,34.037],[-120.44,34.037],[-120.44,34.037],[-120.44,34.037],[-120.44,34.037],[-120.44,34.037],[-120.441,34.037],[-120.441,34.037],[-120.441,34.037],[-120.441,34.037],[-120.441,34.037],[-120.441,34.037],[-120.441,34.037],[-120.441,34.037],[-120.441,34.037],[-120.441,34.036],[-120.441,34.036],[-120.441,34.036],[-120.442,34.036],[-120.442,34.036],[-120.442,34.036],[-120.442,34.036],[-120.442,34.036],[-120.442,34.037],[-120.442,34.037],[-120.442,34.037],[-120.442,34.037],[-120.442,34.037],[-120.442,34.037],[-120.442,34.037],[-120.442,34.037],[-120.442,34.037],[-120.443,34.037],[-120.443,34.037],[-120.443,34.037],[-120.443,34.037],[-120.443,34.037],[-120.443,34.037],[-120.443,34.037],[-120.443,34.037],[-120.443,34.037],[-120.443,34.037],[-120.443,34.037],[-120.443,34.037],[-120.444,34.037],[-120.444,34.037],[-120.444,34.037],[-120.444,34.037],[-120.444,34.037],[-120.444,34.037],[-120.444,34.037],[-120.444,34.037],[-120.444,34.037],[-120.444,34.037],[-120.444,34.037],[-120.444,34.037],[-120.444,34.037],[-120.445,34.037],[-120.445,34.037],[-120.445,34.037],[-120.445,34.037],[-120.445,34.037],[-120.445,34.037],[-120.445,34.037],[-120.445,34.037],[-120.445,34.037],[-120.446,34.037],[-120.446,34.037],[-120.446,34.037],[-120.446,34.038],[-120.446,34.038],[-120.446,34.038],[-120.446,34.038],[-120.446,34.037],[-120.446,34.037],[-120.446,34.037],[-120.446,34.037],[-120.446,34.037],[-120.446,34.037],[-120.446,34.037],[-120.446,34.037],[-120.446,34.037],[-120.446,34.037],[-120.446,34.037],[-120.446,34.036],[-120.446,34.036],[-120.447,34.036],[-120.447,34.036],[-120.447,34.036],[-120.447,34.037],[-120.447,34.037],[-120.447,34.037],[-120.447,34.037],[-120.447,34.037],[-120.447,34.037],[-120.447,34.037],[-120.447,34.037],[-120.448,34.037],[-120.448,34.037],[-120.448,34.037],[-120.448,34.037],[-120.448,34.037],[-120.448,34.037],[-120.448,34.037],[-120.449,34.037],[-120.449,34.037],[-120.449,34.037],[-120.449,34.037],[-120.449,34.037],[-120.449,34.037],[-120.449,34.037],[-120.449,34.037],[-120.449,34.037],[-120.449,34.037],[-120.449,34.037],[-120.449,34.037],[-120.449,34.037],[-120.449,34.037],[-120.449,34.037],[-120.449,34.037],[-120.449,34.037],[-120.449,34.037],[-120.449,34.037],[-120.449,34.037],[-120.449,34.037],[-120.449,34.037],[-120.449,34.036],[-120.449,34.036],[-120.448,34.036],[-120.449,34.036],[-120.449,34.035],[-120.449,34.035],[-120.449,34.035],[-120.449,34.035],[-120.45,34.035],[-120.45,34.035],[-120.45,34.035],[-120.45,34.035],[-120.45,34.034],[-120.45,34.034],[-120.45,34.034],[-120.45,34.034],[-120.45,34.034],[-120.45,34.034],[-120.45,34.034],[-120.449,34.034],[-120.449,34.034],[-120.449,34.034],[-120.448,34.034],[-120.448,34.034],[-120.447,34.034],[-120.447,34.033],[-120.447,34.033],[-120.447,34.033],[-120.447,34.032],[-120.447,34.032],[-120.448,34.032],[-120.448,34.031],[-120.447,34.031],[-120.447,34.031],[-120.447,34.031],[-120.446,34.031],[-120.445,34.031],[-120.445,34.031],[-120.445,34.031],[-120.444,34.031],[-120.444,34.03],[-120.444,34.03],[-120.444,34.03],[-120.444,34.03],[-120.443,34.03],[-120.443,34.031],[-120.443,34.031],[-120.442,34.031],[-120.441,34.031],[-120.441,34.031],[-120.44,34.031],[-120.44,34.031],[-120.44,34.031],[-120.439,34.031],[-120.439,34.031],[-120.439,34.031],[-120.438,34.031],[-120.438,34.031],[-120.438,34.031],[-120.438,34.031],[-120.438,34.03],[-120.438,34.03],[-120.438,34.03],[-120.438,34.03],[-120.438,34.03],[-120.438,34.03],[-120.438,34.03],[-120.438,34.03],[-120.438,34.03],[-120.438,34.03],[-120.438,34.03],[-120.438,34.03],[-120.438,34.029],[-120.438,34.029],[-120.437,34.029],[-120.437,34.029],[-120.437,34.029],[-120.437,34.029],[-120.437,34.03],[-120.437,34.03],[-120.437,34.03],[-120.437,34.03],[-120.437,34.03],[-120.437,34.03],[-120.437,34.03],[-120.436,34.03],[-120.436,34.03],[-120.436,34.03],[-120.436,34.03],[-120.436,34.03],[-120.436,34.03],[-120.436,34.03],[-120.436,34.029],[-120.436,34.029],[-120.436,34.029],[-120.436,34.029],[-120.436,34.029],[-120.435,34.029],[-120.435,34.029],[-120.435,34.03],[-120.435,34.03],[-120.435,34.03],[-120.435,34.03],[-120.435,34.03],[-120.435,34.03],[-120.435,34.03],[-120.435,34.03],[-120.435,34.03],[-120.434,34.029],[-120.434,34.029],[-120.434,34.029],[-120.434,34.029],[-120.434,34.029],[-120.434,34.029],[-120.434,34.029],[-120.434,34.029],[-120.434,34.029],[-120.434,34.029],[-120.434,34.029],[-120.434,34.028],[-120.434,34.028],[-120.434,34.028],[-120.434,34.028],[-120.433,34.028],[-120.433,34.028],[-120.433,34.028],[-120.433,34.028],[-120.433,34.029],[-120.433,34.028],[-120.433,34.028],[-120.433,34.028],[-120.433,34.028],[-120.433,34.028],[-120.433,34.028],[-120.433,34.028],[-120.432,34.028],[-120.432,34.028],[-120.432,34.028],[-120.432,34.028],[-120.432,34.028],[-120.432,34.028],[-120.432,34.028],[-120.432,34.028],[-120.432,34.028],[-120.432,34.027],[-120.432,34.027],[-120.431,34.027],[-120.431,34.027],[-120.431,34.027],[-120.431,34.027],[-120.431,34.027],[-120.431,34.027],[-120.431,34.027],[-120.431,34.027],[-120.431,34.027],[-120.431,34.027],[-120.43,34.027],[-120.43,34.027],[-120.43,34.027],[-120.43,34.027],[-120.43,34.027],[-120.43,34.027],[-120.43,34.027],[-120.43,34.027],[-120.43,34.027],[-120.43,34.027],[-120.43,34.027],[-120.43,34.027],[-120.43,34.027],[-120.429,34.027],[-120.429,34.027],[-120.429,34.027],[-120.429,34.027],[-120.429,34.027],[-120.429,34.027],[-120.429,34.027],[-120.429,34.027],[-120.429,34.026],[-120.429,34.026],[-120.429,34.026],[-120.429,34.026],[-120.428,34.026],[-120.428,34.026],[-120.428,34.026],[-120.428,34.026],[-120.428,34.026],[-120.428,34.026],[-120.428,34.026],[-120.428,34.026],[-120.428,34.026],[-120.428,34.026],[-120.428,34.026],[-120.428,34.026],[-120.427,34.026],[-120.427,34.026],[-120.427,34.026],[-120.426,34.026],[-120.426,34.026],[-120.426,34.026],[-120.426,34.026],[-120.426,34.026],[-120.426,34.027],[-120.426,34.027],[-120.425,34.027],[-120.425,34.027],[-120.425,34.027],[-120.425,34.027],[-120.424,34.027],[-120.424,34.027],[-120.424,34.027],[-120.423,34.027],[-120.423,34.027],[-120.423,34.027],[-120.423,34.027],[-120.422,34.026],[-120.422,34.026],[-120.422,34.026],[-120.422,34.025],[-120.421,34.024],[-120.421,34.023],[-120.421,34.023],[-120.422,34.023],[-120.422,34.023],[-120.422,34.023],[-120.422,34.023],[-120.422,34.023],[-120.422,34.023],[-120.423,34.023],[-120.423,34.023],[-120.423,34.024],[-120.423,34.024],[-120.423,34.024],[-120.423,34.024],[-120.423,34.024],[-120.424,34.024],[-120.424,34.024],[-120.424,34.024],[-120.424,34.024],[-120.424,34.024],[-120.424,34.024],[-120.424,34.024],[-120.424,34.024],[-120.424,34.024],[-120.425,34.024],[-120.425,34.024],[-120.425,34.024],[-120.425,34.024],[-120.425,34.023],[-120.425,34.023],[-120.425,34.023],[-120.426,34.023],[-120.426,34.023],[-120.426,34.023],[-120.426,34.023],[-120.426,34.023],[-120.426,34.023],[-120.426,34.023],[-120.426,34.023],[-120.427,34.023],[-120.427,34.023],[-120.427,34.023],[-120.427,34.023],[-120.427,34.023],[-120.428,34.023],[-120.428,34.023],[-120.428,34.023],[-120.428,34.023],[-120.428,34.023],[-120.428,34.023],[-120.429,34.023],[-120.429,34.023],[-120.429,34.023],[-120.429,34.023],[-120.429,34.023],[-120.429,34.023],[-120.43,34.023],[-120.43,34.023],[-120.43,34.023],[-120.43,34.024],[-120.43,34.024],[-120.43,34.024],[-120.43,34.024],[-120.43,34.024],[-120.431,34.024],[-120.431,34.024],[-120.431,34.024],[-120.431,34.024],[-120.431,34.024],[-120.431,34.024],[-120.431,34.025],[-120.431,34.025],[-120.431,34.025],[-120.431,34.025],[-120.432,34.025],[-120.432,34.025],[-120.432,34.025],[-120.432,34.025],[-120.432,34.025],[-120.432,34.025],[-120.433,34.025],[-120.433,34.025],[-120.433,34.025],[-120.433,34.025],[-120.433,34.025],[-120.433,34.025],[-120.433,34.025],[-120.433,34.026],[-120.433,34.026],[-120.434,34.026],[-120.434,34.026],[-120.434,34.026],[-120.434,34.026],[-120.434,34.026],[-120.434,34.026],[-120.434,34.026],[-120.434,34.026],[-120.434,34.026],[-120.435,34.026],[-120.435,34.026],[-120.435,34.026],[-120.435,34.026],[-120.435,34.026],[-120.435,34.026],[-120.436,34.026],[-120.436,34.026],[-120.436,34.027],[-120.436,34.027],[-120.436,34.027],[-120.436,34.027],[-120.436,34.027],[-120.436,34.027],[-120.437,34.027],[-120.437,34.027],[-120.437,34.027],[-120.437,34.027],[-120.437,34.027],[-120.437,34.027],[-120.437,34.027],[-120.438,34.027],[-120.438,34.027],[-120.438,34.027],[-120.438,34.027],[-120.438,34.027],[-120.439,34.027],[-120.439,34.027],[-120.439,34.027],[-120.439,34.027],[-120.439,34.027],[-120.439,34.027],[-120.44,34.027],[-120.44,34.027],[-120.44,34.027],[-120.44,34.027],[-120.44,34.028],[-120.44,34.028],[-120.44,34.028],[-120.44,34.028],[-120.44,34.028],[-120.441,34.028],[-120.441,34.028],[-120.441,34.028],[-120.441,34.028],[-120.441,34.029],[-120.441,34.029],[-120.441,34.029],[-120.441,34.029],[-120.441,34.028],[-120.441,34.028],[-120.441,34.028],[-120.441,34.028],[-120.442,34.028],[-120.442,34.028],[-120.442,34.028],[-120.442,34.028],[-120.442,34.028],[-120.442,34.028],[-120.442,34.027],[-120.442,34.027],[-120.443,34.027],[-120.443,34.027],[-120.443,34.027],[-120.443,34.027],[-120.443,34.027],[-120.443,34.027],[-120.444,34.027],[-120.444,34.027],[-120.444,34.027],[-120.444,34.027],[-120.444,34.027],[-120.445,34.027],[-120.445,34.027],[-120.445,34.027],[-120.445,34.027],[-120.445,34.027],[-120.445,34.028],[-120.445,34.028],[-120.446,34.028],[-120.446,34.028],[-120.446,34.028],[-120.446,34.028],[-120.446,34.028],[-120.446,34.028],[-120.446,34.028],[-120.446,34.028],[-120.446,34.028],[-120.446,34.028],[-120.447,34.028],[-120.447,34.028],[-120.447,34.028],[-120.447,34.028],[-120.447,34.028],[-120.447,34.027],[-120.447,34.027],[-120.447,34.027],[-120.447,34.027],[-120.447,34.027],[-120.447,34.027],[-120.448,34.027],[-120.448,34.027],[-120.448,34.027],[-120.448,34.027],[-120.448,34.027],[-120.448,34.027],[-120.449,34.026],[-120.449,34.026],[-120.449,34.026],[-120.449,34.026],[-120.449,34.026],[-120.449,34.026],[-120.449,34.026],[-120.45,34.026],[-120.45,34.026],[-120.45,34.026],[-120.45,34.026],[-120.45,34.026],[-120.45,34.026],[-120.45,34.026],[-120.451,34.026],[-120.451,34.026],[-120.451,34.026],[-120.451,34.026],[-120.451,34.026],[-120.452,34.026],[-120.452,34.026],[-120.452,34.026],[-120.452,34.027],[-120.452,34.027],[-120.452,34.027],[-120.452,34.027],[-120.452,34.027],[-120.453,34.027],[-120.453,34.027],[-120.453,34.027],[-120.453,34.027],[-120.453,34.027],[-120.453,34.027],[-120.453,34.027],[-120.453,34.027],[-120.454,34.027],[-120.454,34.027],[-120.454,34.027],[-120.454,34.027],[-120.454,34.027],[-120.454,34.027],[-120.454,34.027],[-120.454,34.028],[-120.455,34.028],[-120.455,34.028],[-120.455,34.028],[-120.455,34.028],[-120.455,34.028],[-120.455,34.028],[-120.455,34.028],[-120.455,34.028],[-120.455,34.028],[-120.455,34.029],[-120.455,34.029],[-120.456,34.029],[-120.456,34.029],[-120.456,34.029],[-120.456,34.029],[-120.456,34.029],[-120.456,34.03],[-120.456,34.03],[-120.456,34.03],[-120.456,34.03],[-120.456,34.03],[-120.456,34.03],[-120.456,34.03],[-120.456,34.031],[-120.455,34.031],[-120.455,34.031],[-120.455,34.031],[-120.455,34.031],[-120.455,34.031],[-120.455,34.031],[-120.455,34.031],[-120.455,34.031],[-120.455,34.031],[-120.455,34.031],[-120.455,34.032],[-120.455,34.032],[-120.455,34.032],[-120.455,34.032],[-120.455,34.032],[-120.454,34.032],[-120.454,34.032],[-120.454,34.032],[-120.454,34.032],[-120.454,34.032],[-120.454,34.032],[-120.454,34.032],[-120.453,34.032],[-120.453,34.033],[-120.453,34.033],[-120.453,34.033],[-120.453,34.033],[-120.453,34.033],[-120.453,34.033],[-120.453,34.033],[-120.453,34.033],[-120.453,34.033],[-120.453,34.033],[-120.453,34.033],[-120.454,34.034],[-120.454,34.034],[-120.454,34.034],[-120.454,34.034],[-120.454,34.034],[-120.454,34.034],[-120.454,34.035],[-120.454,34.035],[-120.454,34.035],[-120.453,34.035],[-120.453,34.035],[-120.453,34.035],[-120.453,34.035],[-120.453,34.035],[-120.453,34.036],[-120.453,34.036],[-120.453,34.036],[-120.453,34.036],[-120.453,34.036],[-120.453,34.036],[-120.452,34.036],[-120.452,34.036],[-120.452,34.036],[-120.452,34.037],[-120.452,34.037],[-120.452,34.037],[-120.452,34.037],[-120.452,34.037],[-120.452,34.037],[-120.452,34.038],[-120.452,34.038],[-120.452,34.038],[-120.452,34.038],[-120.452,34.038],[-120.452,34.038],[-120.452,34.038],[-120.452,34.039],[-120.452,34.039],[-120.452,34.039],[-120.451,34.039],[-120.451,34.039],[-120.451,34.039],[-120.451,34.039],[-120.451,34.039],[-120.451,34.039],[-120.451,34.039],[-120.451,34.04],[-120.451,34.04],[-120.45,34.04],[-120.45,34.04],[-120.45,34.04],[-120.45,34.04],[-120.45,34.04],[-120.449,34.04],[-120.449,34.04],[-120.449,34.04],[-120.449,34.04],[-120.449,34.04],[-120.448,34.04],[-120.448,34.04],[-120.448,34.04],[-120.448,34.04],[-120.448,34.04],[-120.448,34.04],[-120.448,34.04],[-120.448,34.04],[-120.447,34.04],[-120.447,34.04],[-120.447,34.04],[-120.447,34.04],[-120.447,34.04],[-120.447,34.04],[-120.446,34.041],[-120.446,34.041],[-120.446,34.041],[-120.446,34.041],[-120.446,34.041],[-120.446,34.041],[-120.446,34.041],[-120.445,34.041],[-120.445,34.041],[-120.445,34.041],[-120.445,34.041],[-120.445,34.041],[-120.444,34.041],[-120.444,34.041],[-120.444,34.041],[-120.444,34.04],[-120.444,34.04],[-120.444,34.04],[-120.443,34.04],[-120.443,34.04],[-120.443,34.04],[-120.443,34.04],[-120.443,34.04],[-120.443,34.04],[-120.443,34.04],[-120.443,34.04],[-120.443,34.039],[-120.443,34.039],[-120.442,34.039],[-120.442,34.039],[-120.442,34.039],[-120.442,34.039],[-120.442,34.039],[-120.442,34.039],[-120.442,34.039],[-120.441,34.039],[-120.441,34.039],[-120.441,34.04],[-120.441,34.04],[-120.441,34.04],[-120.441,34.04],[-120.441,34.04],[-120.441,34.04],[-120.441,34.04],[-120.441,34.04],[-120.441,34.04],[-120.44,34.04],[-120.44,34.04],[-120.44,34.04],[-120.44,34.041],[-120.44,34.041],[-120.44,34.041],[-120.44,34.041],[-120.44,34.041],[-120.44,34.041],[-120.439,34.041],[-120.439,34.041],[-120.439,34.041],[-120.439,34.042],[-120.439,34.042],[-120.439,34.042],[-120.439,34.042],[-120.439,34.042],[-120.439,34.042],[-120.438,34.042],[-120.438,34.042],[-120.438,34.042],[-120.438,34.042],[-120.438,34.042],[-120.438,34.042],[-120.438,34.043],[-120.438,34.043],[-120.438,34.043],[-120.438,34.043],[-120.438,34.043],[-120.437,34.043],[-120.437,34.043],[-120.437,34.043],[-120.437,34.043],[-120.437,34.043],[-120.437,34.043],[-120.437,34.043],[-120.436,34.044],[-120.436,34.044],[-120.436,34.044],[-120.436,34.044],[-120.436,34.044],[-120.436,34.044],[-120.436,34.044],[-120.436,34.044],[-120.436,34.044],[-120.436,34.044],[-120.435,34.045],[-120.435,34.045],[-120.435,34.045],[-120.435,34.045],[-120.435,34.045],[-120.435,34.045],[-120.435,34.045],[-120.435,34.045],[-120.435,34.045],[-120.435,34.046],[-120.435,34.046],[-120.435,34.046],[-120.435,34.046],[-120.435,34.046],[-120.435,34.046],[-120.434,34.046],[-120.434,34.046],[-120.434,34.047],[-120.434,34.047],[-120.434,34.047],[-120.434,34.047],[-120.434,34.047],[-120.432,34.043],[-120.432,34.043],[-120.432,34.043],[-120.432,34.043],[-120.432,34.043],[-120.433,34.043],[-120.433,34.042],[-120.433,34.042],[-120.433,34.042],[-120.434,34.042],[-120.434,34.042],[-120.434,34.041],[-120.434,34.041],[-120.435,34.041],[-120.435,34.041],[-120.435,34.041],[-120.435,34.041],[-120.435,34.041],[-120.435,34.041],[-120.436,34.04],[-120.436,34.04],[-120.436,34.04],[-120.436,34.04],[-120.436,34.04],[-120.437,34.04],[-120.437,34.04]],[[-120.452,34.029],[-120.452,34.029],[-120.452,34.029],[-120.452,34.029],[-120.451,34.029],[-120.451,34.029],[-120.451,34.029],[-120.451,34.029],[-120.451,34.029],[-120.451,34.029],[-120.451,34.029],[-120.451,34.029],[-120.45,34.029],[-120.45,34.029],[-120.45,34.029],[-120.45,34.029],[-120.45,34.029],[-120.449,34.029],[-120.449,34.029],[-120.449,34.029],[-120.449,34.029],[-120.449,34.029],[-120.449,34.03],[-120.449,34.03],[-120.449,34.03],[-120.449,34.03],[-120.449,34.03],[-120.449,34.03],[-120.449,34.03],[-120.449,34.03],[-120.449,34.03],[-120.449,34.03],[-120.45,34.03],[-120.45,34.03],[-120.451,34.03],[-120.451,34.03],[-120.451,34.031],[-120.451,34.031],[-120.451,34.03],[-120.452,34.03],[-120.452,34.03],[-120.452,34.03],[-120.452,34.03],[-120.452,34.03],[-120.452,34.03],[-120.452,34.03],[-120.452,34.029]],[[-120.444,34.028],[-120.444,34.028],[-120.444,34.028],[-120.444,34.028],[-120.444,34.028],[-120.444,34.028],[-120.444,34.028],[-120.444,34.028],[-120.444,34.028],[-120.444,34.028],[-120.444,34.029],[-120.444,34.029],[-120.444,34.029],[-120.444,34.029],[-120.444,34.028],[-120.444,34.028]],[[-120.453,34.028],[-120.453,34.028],[-120.453,34.028],[-120.453,34.028],[-120.453,34.028],[-120.452,34.028],[-120.452,34.028],[-120.453,34.028],[-120.453,34.028],[-120.453,34.028],[-120.453,34.028],[-120.453,34.028],[-120.453,34.028],[-120.453,34.028],[-120.453,34.028],[-120.453,34.028],[-120.453,34.028],[-120.453,34.028]]]},"properties":{"id":"san-miguel-island-special-closure","name":"San Miguel Island Special Closure","type":"Special Closure","shortName":"San Miguel Island Special Closure","areaKm2":null,"ccrCitation":null}},{"type":"Feature","geometry":{"type":"Polygon","coordinates":[[[-120.307,34.105],[-120.307,34.054],[-120.307,34.029],[-120.307,34.029],[-120.308,34.029],[-120.309,34.029],[-120.309,34.03],[-120.309,34.03],[-120.31,34.03],[-120.31,34.03],[-120.31,34.031],[-120.311,34.031],[-120.311,34.031],[-120.311,34.031],[-120.311,34.032],[-120.311,34.032],[-120.311,34.032],[-120.311,34.032],[-120.311,34.032],[-120.311,34.032],[-120.311,34.032],[-120.311,34.032],[-120.311,34.032],[-120.311,34.032],[-120.311,34.032],[-120.311,34.032],[-120.311,34.032],[-120.311,34.032],[-120.311,34.032],[-120.311,34.033],[-120.311,34.033],[-120.311,34.033],[-120.312,34.033],[-120.312,34.033],[-120.312,34.033],[-120.312,34.033],[-120.312,34.033],[-120.312,34.033],[-120.312,34.033],[-120.312,34.033],[-120.312,34.033],[-120.312,34.033],[-120.312,34.033],[-120.312,34.033],[-120.312,34.034],[-120.313,34.034],[-120.313,34.034],[-120.313,34.034],[-120.313,34.034],[-120.313,34.034],[-120.313,34.034],[-120.313,34.034],[-120.313,34.034],[-120.313,34.034],[-120.313,34.034],[-120.313,34.034],[-120.313,34.035],[-120.313,34.035],[-120.313,34.035],[-120.313,34.035],[-120.313,34.035],[-120.313,34.035],[-120.313,34.035],[-120.313,34.035],[-120.313,34.035],[-120.313,34.035],[-120.313,34.035],[-120.313,34.036],[-120.313,34.036],[-120.313,34.036],[-120.313,34.036],[-120.313,34.036],[-120.313,34.036],[-120.313,34.036],[-120.313,34.036],[-120.313,34.036],[-120.313,34.036],[-120.313,34.036],[-120.313,34.036],[-120.314,34.036],[-120.314,34.036],[-120.314,34.036],[-120.314,34.037],[-120.314,34.037],[-120.314,34.037],[-120.315,34.037],[-120.315,34.037],[-120.315,34.037],[-120.315,34.038],[-120.315,34.038],[-120.315,34.038],[-120.315,34.038],[-120.315,34.038],[-120.315,34.038],[-120.315,34.038],[-120.316,34.038],[-120.316,34.038],[-120.316,34.038],[-120.316,34.038],[-120.316,34.038],[-120.316,34.038],[-120.316,34.038],[-120.316,34.039],[-120.316,34.039],[-120.316,34.039],[-120.316,34.039],[-120.316,34.039],[-120.316,34.039],[-120.316,34.039],[-120.316,34.039],[-120.316,34.039],[-120.316,34.039],[-120.316,34.039],[-120.316,34.039],[-120.316,34.039],[-120.316,34.039],[-120.317,34.039],[-120.317,34.04],[-120.317,34.04],[-120.317,34.04],[-120.317,34.04],[-120.317,34.04],[-120.317,34.04],[-120.317,34.04],[-120.317,34.04],[-120.317,34.04],[-120.318,34.04],[-120.318,34.04],[-120.318,34.04],[-120.318,34.04],[-120.318,34.04],[-120.318,34.04],[-120.318,34.04],[-120.318,34.04],[-120.318,34.04],[-120.319,34.04],[-120.319,34.04],[-120.319,34.04],[-120.319,34.04],[-120.319,34.04],[-120.319,34.041],[-120.319,34.041],[-120.319,34.041],[-120.319,34.041],[-120.319,34.041],[-120.319,34.041],[-120.319,34.041],[-120.319,34.041],[-120.319,34.041],[-120.319,34.041],[-120.319,34.041],[-120.319,34.041],[-120.319,34.041],[-120.319,34.041],[-120.319,34.041],[-120.319,34.041],[-120.319,34.042],[-120.319,34.042],[-120.32,34.042],[-120.32,34.042],[-120.32,34.042],[-120.32,34.042],[-120.32,34.042],[-120.32,34.042],[-120.32,34.042],[-120.32,34.042],[-120.32,34.042],[-120.321,34.042],[-120.321,34.042],[-120.321,34.042],[-120.321,34.042],[-120.321,34.042],[-120.321,34.042],[-120.322,34.042],[-120.322,34.042],[-120.322,34.042],[-120.322,34.042],[-120.323,34.042],[-120.323,34.042],[-120.323,34.042],[-120.324,34.042],[-120.324,34.043],[-120.324,34.043],[-120.324,34.043],[-120.324,34.043],[-120.325,34.043],[-120.325,34.043],[-120.325,34.043],[-120.325,34.043],[-120.325,34.043],[-120.325,34.043],[-120.325,34.043],[-120.325,34.044],[-120.325,34.044],[-120.325,34.044],[-120.325,34.044],[-120.325,34.044],[-120.325,34.044],[-120.325,34.044],[-120.325,34.044],[-120.325,34.044],[-120.325,34.044],[-120.325,34.044],[-120.325,34.044],[-120.325,34.044],[-120.325,34.044],[-120.325,34.044],[-120.325,34.044],[-120.326,34.044],[-120.326,34.044],[-120.326,34.044],[-120.326,34.044],[-120.326,34.044],[-120.326,34.044],[-120.326,34.044],[-120.326,34.044],[-120.326,34.044],[-120.326,34.044],[-120.326,34.044],[-120.326,34.044],[-120.326,34.044],[-120.326,34.044],[-120.326,34.044],[-120.327,34.044],[-120.327,34.044],[-120.327,34.044],[-120.327,34.044],[-120.327,34.044],[-120.327,34.044],[-120.327,34.044],[-120.327,34.044],[-120.328,34.045],[-120.328,34.045],[-120.328,34.045],[-120.328,34.045],[-120.328,34.045],[-120.328,34.045],[-120.328,34.045],[-120.328,34.045],[-120.328,34.045],[-120.328,34.045],[-120.328,34.045],[-120.328,34.045],[-120.328,34.045],[-120.328,34.045],[-120.328,34.046],[-120.328,34.046],[-120.328,34.046],[-120.328,34.046],[-120.328,34.046],[-120.328,34.046],[-120.328,34.046],[-120.328,34.046],[-120.328,34.046],[-120.328,34.046],[-120.328,34.046],[-120.328,34.046],[-120.328,34.046],[-120.328,34.046],[-120.328,34.046],[-120.328,34.046],[-120.328,34.046],[-120.328,34.046],[-120.328,34.047],[-120.328,34.047],[-120.328,34.047],[-120.328,34.047],[-120.329,34.047],[-120.329,34.047],[-120.329,34.047],[-120.329,34.047],[-120.329,34.047],[-120.329,34.047],[-120.329,34.047],[-120.329,34.047],[-120.329,34.047],[-120.329,34.047],[-120.329,34.047],[-120.329,34.047],[-120.329,34.047],[-120.329,34.047],[-120.329,34.047],[-120.329,34.047],[-120.329,34.047],[-120.329,34.047],[-120.329,34.047],[-120.33,34.048],[-120.33,34.048],[-120.33,34.048],[-120.33,34.048],[-120.33,34.048],[-120.33,34.048],[-120.33,34.048],[-120.33,34.048],[-120.33,34.048],[-120.33,34.048],[-120.33,34.048],[-120.33,34.048],[-120.33,34.048],[-120.33,34.048],[-120.33,34.048],[-120.33,34.048],[-120.33,34.048],[-120.331,34.048],[-120.331,34.048],[-120.331,34.048],[-120.331,34.048],[-120.331,34.048],[-120.331,34.048],[-120.331,34.048],[-120.331,34.048],[-120.331,34.048],[-120.331,34.048],[-120.331,34.048],[-120.332,34.048],[-120.332,34.048],[-120.332,34.049],[-120.332,34.049],[-120.332,34.049],[-120.332,34.049],[-120.332,34.049],[-120.332,34.049],[-120.332,34.049],[-120.332,34.049],[-120.332,34.049],[-120.332,34.049],[-120.332,34.049],[-120.332,34.049],[-120.332,34.049],[-120.333,34.049],[-120.333,34.049],[-120.333,34.049],[-120.333,34.049],[-120.333,34.049],[-120.333,34.049],[-120.333,34.049],[-120.334,34.049],[-120.334,34.049],[-120.334,34.049],[-120.334,34.049],[-120.334,34.049],[-120.334,34.049],[-120.334,34.049],[-120.334,34.049],[-120.334,34.049],[-120.334,34.049],[-120.334,34.049],[-120.335,34.049],[-120.335,34.049],[-120.335,34.049],[-120.335,34.049],[-120.335,34.049],[-120.335,34.049],[-120.335,34.049],[-120.335,34.049],[-120.335,34.049],[-120.335,34.049],[-120.336,34.049],[-120.336,34.049],[-120.336,34.049],[-120.336,34.049],[-120.336,34.049],[-120.336,34.049],[-120.336,34.049],[-120.336,34.049],[-120.336,34.049],[-120.336,34.049],[-120.337,34.049],[-120.355,34.059],[-120.355,34.059],[-120.355,34.059],[-120.355,34.059],[-120.355,34.059],[-120.356,34.059],[-120.356,34.059],[-120.356,34.059],[-120.356,34.059],[-120.356,34.059],[-120.356,34.059],[-120.356,34.06],[-120.356,34.06],[-120.356,34.06],[-120.356,34.06],[-120.356,34.06],[-120.356,34.06],[-120.356,34.06],[-120.356,34.06],[-120.356,34.06],[-120.356,34.06],[-120.356,34.06],[-120.356,34.06],[-120.356,34.06],[-120.356,34.06],[-120.356,34.06],[-120.356,34.06],[-120.356,34.06],[-120.356,34.06],[-120.356,34.06],[-120.356,34.06],[-120.357,34.06],[-120.357,34.06],[-120.357,34.06],[-120.357,34.06],[-120.357,34.06],[-120.357,34.06],[-120.357,34.06],[-120.357,34.06],[-120.357,34.06],[-120.357,34.06],[-120.357,34.06],[-120.357,34.06],[-120.357,34.06],[-120.357,34.06],[-120.357,34.06],[-120.357,34.061],[-120.357,34.061],[-120.357,34.061],[-120.357,34.061],[-120.358,34.061],[-120.358,34.061],[-120.358,34.061],[-120.358,34.061],[-120.358,34.061],[-120.358,34.061],[-120.358,34.061],[-120.358,34.061],[-120.358,34.061],[-120.358,34.061],[-120.358,34.061],[-120.358,34.061],[-120.358,34.061],[-120.359,34.061],[-120.359,34.062],[-120.359,34.062],[-120.359,34.062],[-120.359,34.062],[-120.359,34.062],[-120.359,34.062],[-120.359,34.062],[-120.359,34.062],[-120.359,34.062],[-120.359,34.062],[-120.359,34.063],[-120.359,34.063],[-120.359,34.063],[-120.358,34.063],[-120.358,34.063],[-120.358,34.063],[-120.358,34.063],[-120.358,34.063],[-120.358,34.063],[-120.358,34.063],[-120.358,34.063],[-120.358,34.063],[-120.358,34.063],[-120.358,34.063],[-120.358,34.063],[-120.358,34.063],[-120.358,34.064],[-120.358,34.064],[-120.358,34.064],[-120.358,34.064],[-120.358,34.064],[-120.358,34.064],[-120.358,34.064],[-120.358,34.064],[-120.358,34.064],[-120.358,34.064],[-120.358,34.064],[-120.358,34.064],[-120.358,34.064],[-120.358,34.064],[-120.358,34.064],[-120.358,34.064],[-120.358,34.064],[-120.358,34.064],[-120.358,34.064],[-120.358,34.065],[-120.359,34.065],[-120.359,34.065],[-120.359,34.065],[-120.359,34.065],[-120.359,34.065],[-120.359,34.065],[-120.359,34.065],[-120.359,34.065],[-120.359,34.065],[-120.359,34.065],[-120.359,34.065],[-120.359,34.065],[-120.359,34.065],[-120.358,34.065],[-120.359,34.065],[-120.359,34.065],[-120.359,34.065],[-120.359,34.065],[-120.359,34.065],[-120.359,34.066],[-120.359,34.066],[-120.359,34.066],[-120.358,34.066],[-120.358,34.066],[-120.358,34.066],[-120.359,34.066],[-120.359,34.066],[-120.358,34.066],[-120.358,34.066],[-120.358,34.066],[-120.358,34.066],[-120.358,34.066],[-120.358,34.066],[-120.358,34.066],[-120.359,34.066],[-120.359,34.066],[-120.359,34.066],[-120.359,34.066],[-120.359,34.066],[-120.359,34.066],[-120.359,34.066],[-120.359,34.066],[-120.359,34.066],[-120.359,34.066],[-120.359,34.066],[-120.359,34.066],[-120.359,34.066],[-120.359,34.067],[-120.359,34.066],[-120.359,34.066],[-120.359,34.066],[-120.359,34.066],[-120.359,34.066],[-120.359,34.066],[-120.359,34.066],[-120.359,34.066],[-120.359,34.066],[-120.359,34.066],[-120.359,34.066],[-120.36,34.066],[-120.36,34.066],[-120.36,34.066],[-120.36,34.066],[-120.36,34.066],[-120.36,34.066],[-120.36,34.067],[-120.36,34.067],[-120.36,34.067],[-120.36,34.067],[-120.36,34.067],[-120.36,34.067],[-120.36,34.067],[-120.36,34.067],[-120.36,34.067],[-120.36,34.067],[-120.36,34.067],[-120.36,34.067],[-120.36,34.067],[-120.36,34.067],[-120.36,34.067],[-120.36,34.067],[-120.36,34.067],[-120.36,34.067],[-120.361,34.067],[-120.361,34.067],[-120.361,34.067],[-120.361,34.067],[-120.361,34.067],[-120.361,34.067],[-120.361,34.067],[-120.361,34.067],[-120.361,34.067],[-120.361,34.067],[-120.361,34.067],[-120.361,34.067],[-120.362,34.067],[-120.362,34.067],[-120.362,34.067],[-120.362,34.067],[-120.362,34.067],[-120.362,34.068],[-120.362,34.068],[-120.362,34.068],[-120.362,34.068],[-120.362,34.068],[-120.362,34.068],[-120.362,34.068],[-120.362,34.068],[-120.362,34.068],[-120.362,34.068],[-120.362,34.068],[-120.362,34.068],[-120.362,34.068],[-120.362,34.068],[-120.362,34.068],[-120.362,34.068],[-120.362,34.068],[-120.362,34.068],[-120.362,34.068],[-120.362,34.068],[-120.362,34.068],[-120.362,34.068],[-120.362,34.068],[-120.362,34.069],[-120.362,34.069],[-120.362,34.069],[-120.362,34.069],[-120.362,34.069],[-120.362,34.069],[-120.362,34.069],[-120.362,34.069],[-120.362,34.069],[-120.362,34.069],[-120.362,34.069],[-120.362,34.069],[-120.362,34.069],[-120.361,34.069],[-120.361,34.069],[-120.361,34.069],[-120.361,34.069],[-120.361,34.069],[-120.361,34.069],[-120.362,34.069],[-120.362,34.069],[-120.362,34.069],[-120.362,34.069],[-120.362,34.069],[-120.362,34.069],[-120.362,34.069],[-120.362,34.069],[-120.362,34.069],[-120.362,34.069],[-120.362,34.069],[-120.362,34.069],[-120.362,34.069],[-120.362,34.069],[-120.362,34.069],[-120.362,34.069],[-120.362,34.069],[-120.362,34.069],[-120.362,34.069],[-120.362,34.069],[-120.362,34.069],[-120.362,34.069],[-120.362,34.069],[-120.363,34.069],[-120.363,34.069],[-120.363,34.069],[-120.363,34.069],[-120.363,34.069],[-120.363,34.07],[-120.363,34.07],[-120.363,34.07],[-120.363,34.07],[-120.363,34.07],[-120.363,34.07],[-120.362,34.07],[-120.362,34.07],[-120.362,34.07],[-120.362,34.07],[-120.362,34.07],[-120.362,34.07],[-120.362,34.07],[-120.362,34.07],[-120.362,34.07],[-120.362,34.07],[-120.362,34.07],[-120.362,34.07],[-120.362,34.07],[-120.362,34.07],[-120.362,34.07],[-120.362,34.07],[-120.362,34.071],[-120.362,34.071],[-120.362,34.071],[-120.362,34.071],[-120.362,34.071],[-120.362,34.071],[-120.362,34.071],[-120.362,34.071],[-120.362,34.071],[-120.362,34.071],[-120.362,34.071],[-120.362,34.071],[-120.362,34.071],[-120.362,34.071],[-120.362,34.071],[-120.362,34.071],[-120.362,34.071],[-120.362,34.071],[-120.362,34.071],[-120.362,34.071],[-120.362,34.072],[-120.362,34.072],[-120.362,34.072],[-120.362,34.072],[-120.363,34.072],[-120.363,34.072],[-120.363,34.072],[-120.363,34.072],[-120.363,34.072],[-120.363,34.072],[-120.362,34.072],[-120.362,34.072],[-120.362,34.072],[-120.362,34.072],[-120.362,34.072],[-120.362,34.072],[-120.362,34.072],[-120.362,34.073],[-120.362,34.073],[-120.363,34.073],[-120.363,34.073],[-120.363,34.073],[-120.363,34.073],[-120.363,34.073],[-120.362,34.073],[-120.362,34.073],[-120.362,34.073],[-120.362,34.073],[-120.362,34.073],[-120.362,34.073],[-120.362,34.073],[-120.362,34.074],[-120.362,34.074],[-120.362,34.074],[-120.362,34.074],[-120.362,34.074],[-120.362,34.074],[-120.362,34.073],[-120.362,34.073],[-120.363,34.073],[-120.363,34.073],[-120.363,34.073],[-120.363,34.074],[-120.363,34.074],[-120.363,34.074],[-120.363,34.074],[-120.363,34.074],[-120.363,34.074],[-120.363,34.074],[-120.363,34.074],[-120.363,34.073],[-120.364,34.073],[-120.364,34.073],[-120.364,34.073],[-120.364,34.073],[-120.364,34.073],[-120.365,34.073],[-120.365,34.073],[-120.365,34.073],[-120.365,34.073],[-120.365,34.073],[-120.365,34.073],[-120.365,34.073],[-120.365,34.073],[-120.365,34.073],[-120.365,34.074],[-120.365,34.074],[-120.366,34.074],[-120.366,34.074],[-120.366,34.074],[-120.366,34.074],[-120.366,34.074],[-120.366,34.074],[-120.366,34.074],[-120.366,34.074],[-120.366,34.074],[-120.366,34.074],[-120.366,34.074],[-120.366,34.074],[-120.366,34.074],[-120.366,34.074],[-120.366,34.074],[-120.366,34.074],[-120.366,34.074],[-120.366,34.074],[-120.366,34.074],[-120.366,34.074],[-120.366,34.074],[-120.366,34.074],[-120.366,34.074],[-120.366,34.074],[-120.366,34.075],[-120.366,34.075],[-120.366,34.075],[-120.366,34.075],[-120.366,34.075],[-120.366,34.074],[-120.366,34.074],[-120.366,34.074],[-120.366,34.074],[-120.366,34.075],[-120.366,34.075],[-120.366,34.075],[-120.366,34.075],[-120.366,34.075],[-120.366,34.075],[-120.366,34.075],[-120.367,34.075],[-120.367,34.075],[-120.367,34.075],[-120.367,34.075],[-120.367,34.075],[-120.367,34.075],[-120.367,34.075],[-120.367,34.075],[-120.367,34.075],[-120.367,34.075],[-120.367,34.076],[-120.367,34.076],[-120.367,34.076],[-120.367,34.076],[-120.367,34.076],[-120.368,34.076],[-120.368,34.076],[-120.368,34.076],[-120.368,34.076],[-120.368,34.076],[-120.368,34.076],[-120.368,34.076],[-120.368,34.076],[-120.368,34.076],[-120.368,34.076],[-120.368,34.076],[-120.368,34.076],[-120.369,34.076],[-120.369,34.076],[-120.369,34.076],[-120.369,34.076],[-120.369,34.076],[-120.369,34.076],[-120.369,34.076],[-120.369,34.076],[-120.369,34.076],[-120.369,34.075],[-120.369,34.075],[-120.369,34.075],[-120.369,34.076],[-120.369,34.076],[-120.369,34.076],[-120.369,34.076],[-120.369,34.076],[-120.369,34.076],[-120.369,34.076],[-120.369,34.076],[-120.37,34.075],[-120.37,34.075],[-120.37,34.075],[-120.37,34.075],[-120.37,34.075],[-120.37,34.075],[-120.37,34.075],[-120.37,34.075],[-120.37,34.075],[-120.37,34.075],[-120.37,34.075],[-120.369,34.075],[-120.369,34.075],[-120.369,34.075],[-120.369,34.075],[-120.369,34.075],[-120.369,34.074],[-120.369,34.074],[-120.369,34.074],[-120.369,34.074],[-120.369,34.074],[-120.369,34.074],[-120.369,34.074],[-120.369,34.074],[-120.369,34.074],[-120.369,34.074],[-120.369,34.074],[-120.369,34.074],[-120.369,34.074],[-120.369,34.074],[-120.369,34.074],[-120.369,34.074],[-120.369,34.074],[-120.369,34.074],[-120.368,34.074],[-120.368,34.074],[-120.368,34.074],[-120.368,34.074],[-120.368,34.074],[-120.368,34.074],[-120.368,34.074],[-120.368,34.074],[-120.368,34.074],[-120.368,34.074],[-120.368,34.074],[-120.368,34.074],[-120.368,34.074],[-120.368,34.074],[-120.368,34.074],[-120.368,34.074],[-120.368,34.074],[-120.368,34.074],[-120.368,34.074],[-120.368,34.074],[-120.368,34.074],[-120.368,34.074],[-120.368,34.074],[-120.368,34.074],[-120.368,34.074],[-120.368,34.073],[-120.368,34.073],[-120.368,34.073],[-120.368,34.073],[-120.368,34.073],[-120.368,34.073],[-120.368,34.073],[-120.368,34.073],[-120.368,34.073],[-120.368,34.073],[-120.368,34.073],[-120.368,34.073],[-120.368,34.073],[-120.368,34.073],[-120.368,34.073],[-120.368,34.073],[-120.368,34.073],[-120.368,34.073],[-120.367,34.073],[-120.367,34.072],[-120.367,34.073],[-120.367,34.073],[-120.367,34.073],[-120.367,34.073],[-120.367,34.073],[-120.367,34.073],[-120.367,34.072],[-120.367,34.072],[-120.367,34.072],[-120.367,34.072],[-120.367,34.072],[-120.367,34.072],[-120.367,34.072],[-120.367,34.072],[-120.367,34.072],[-120.367,34.072],[-120.367,34.072],[-120.367,34.072],[-120.367,34.072],[-120.367,34.072],[-120.367,34.072],[-120.367,34.072],[-120.366,34.072],[-120.366,34.072],[-120.366,34.072],[-120.366,34.072],[-120.366,34.072],[-120.366,34.072],[-120.366,34.072],[-120.366,34.071],[-120.366,34.071],[-120.366,34.071],[-120.366,34.071],[-120.366,34.071],[-120.366,34.071],[-120.366,34.071],[-120.366,34.071],[-120.366,34.071],[-120.366,34.071],[-120.366,34.07],[-120.366,34.07],[-120.366,34.07],[-120.367,34.07],[-120.367,34.07],[-120.367,34.07],[-120.367,34.07],[-120.367,34.07],[-120.367,34.07],[-120.367,34.07],[-120.367,34.07],[-120.368,34.07],[-120.368,34.07],[-120.368,34.07],[-120.368,34.07],[-120.368,34.07],[-120.368,34.07],[-120.368,34.07],[-120.368,34.07],[-120.368,34.069],[-120.368,34.069],[-120.368,34.069],[-120.368,34.069],[-120.368,34.069],[-120.368,34.069],[-120.368,34.069],[-120.368,34.069],[-120.368,34.069],[-120.368,34.069],[-120.368,34.069],[-120.368,34.069],[-120.368,34.069],[-120.368,34.069],[-120.368,34.069],[-120.368,34.069],[-120.368,34.069],[-120.369,34.069],[-120.369,34.069],[-120.369,34.069],[-120.369,34.069],[-120.369,34.069],[-120.369,34.068],[-120.369,34.068],[-120.369,34.068],[-120.369,34.068],[-120.369,34.068],[-120.369,34.068],[-120.369,34.068],[-120.369,34.068],[-120.369,34.068],[-120.369,34.068],[-120.368,34.068],[-120.368,34.068],[-120.368,34.068],[-120.368,34.068],[-120.368,34.068],[-120.368,34.068],[-120.368,34.068],[-120.368,34.067],[-120.368,34.067],[-120.368,34.067],[-120.368,34.067],[-120.368,34.067],[-120.368,34.067],[-120.369,34.067],[-120.369,34.067],[-120.369,34.067],[-120.37,34.066],[-120.37,34.066],[-120.37,34.066],[-120.371,34.066],[-120.371,34.066],[-120.371,34.065],[-120.371,34.065],[-120.372,34.065],[-120.372,34.064],[-120.372,34.064],[-120.372,34.064],[-120.373,34.064],[-120.373,34.064],[-120.373,34.064],[-120.373,34.063],[-120.374,34.063],[-120.374,34.063],[-120.374,34.063],[-120.374,34.063],[-120.375,34.062],[-120.375,34.062],[-120.376,34.062],[-120.376,34.061],[-120.376,34.061],[-120.377,34.061],[-120.377,34.061],[-120.377,34.061],[-120.377,34.061],[-120.377,34.06],[-120.377,34.06],[-120.378,34.06],[-120.378,34.06],[-120.378,34.06],[-120.378,34.06],[-120.378,34.06],[-120.378,34.06],[-120.378,34.059],[-120.379,34.059],[-120.379,34.059],[-120.379,34.059],[-120.379,34.059],[-120.379,34.059],[-120.379,34.059],[-120.379,34.059],[-120.379,34.059],[-120.38,34.059],[-120.38,34.059],[-120.38,34.059],[-120.38,34.059],[-120.38,34.058],[-120.38,34.058],[-120.38,34.058],[-120.381,34.058],[-120.381,34.058],[-120.381,34.058],[-120.381,34.058],[-120.381,34.058],[-120.381,34.058],[-120.381,34.058],[-120.381,34.058],[-120.381,34.058],[-120.381,34.058],[-120.381,34.058],[-120.381,34.058],[-120.381,34.058],[-120.381,34.058],[-120.381,34.058],[-120.381,34.058],[-120.381,34.058],[-120.381,34.058],[-120.382,34.058],[-120.382,34.058],[-120.382,34.058],[-120.382,34.058],[-120.382,34.058],[-120.382,34.058],[-120.382,34.058],[-120.382,34.058],[-120.382,34.058],[-120.382,34.058],[-120.381,34.058],[-120.381,34.058],[-120.381,34.058],[-120.381,34.057],[-120.381,34.057],[-120.382,34.057],[-120.382,34.057],[-120.382,34.057],[-120.382,34.057],[-120.382,34.057],[-120.382,34.057],[-120.382,34.057],[-120.382,34.057],[-120.382,34.057],[-120.382,34.057],[-120.382,34.057],[-120.382,34.057],[-120.382,34.057],[-120.382,34.057],[-120.382,34.057],[-120.382,34.057],[-120.382,34.056],[-120.382,34.056],[-120.382,34.056],[-120.382,34.056],[-120.382,34.056],[-120.383,34.056],[-120.383,34.056],[-120.383,34.056],[-120.383,34.056],[-120.383,34.056],[-120.384,34.055],[-120.384,34.055],[-120.384,34.055],[-120.384,34.055],[-120.384,34.055],[-120.384,34.055],[-120.384,34.055],[-120.385,34.055],[-120.385,34.055],[-120.385,34.055],[-120.385,34.055],[-120.385,34.055],[-120.385,34.055],[-120.385,34.055],[-120.385,34.055],[-120.385,34.055],[-120.385,34.055],[-120.385,34.054],[-120.385,34.054],[-120.385,34.054],[-120.385,34.054],[-120.386,34.055],[-120.386,34.055],[-120.386,34.055],[-120.386,34.055],[-120.386,34.055],[-120.386,34.055],[-120.386,34.055],[-120.386,34.055],[-120.386,34.055],[-120.386,34.055],[-120.386,34.055],[-120.386,34.055],[-120.386,34.055],[-120.386,34.055],[-120.386,34.055],[-120.386,34.055],[-120.386,34.055],[-120.386,34.054],[-120.386,34.054],[-120.386,34.054],[-120.386,34.054],[-120.386,34.054],[-120.387,34.054],[-120.387,34.054],[-120.387,34.054],[-120.386,34.054],[-120.386,34.054],[-120.386,34.054],[-120.386,34.054],[-120.386,34.054],[-120.386,34.054],[-120.386,34.054],[-120.386,34.054],[-120.387,34.054],[-120.387,34.054],[-120.387,34.053],[-120.387,34.053],[-120.387,34.053],[-120.388,34.053],[-120.388,34.053],[-120.388,34.053],[-120.388,34.053],[-120.388,34.053],[-120.388,34.053],[-120.388,34.053],[-120.388,34.053],[-120.388,34.053],[-120.388,34.053],[-120.388,34.053],[-120.388,34.053],[-120.388,34.053],[-120.388,34.053],[-120.388,34.053],[-120.388,34.082],[-120.388,34.098],[-120.388,34.155],[-120.388,34.155],[-120.387,34.154],[-120.386,34.154],[-120.385,34.154],[-120.385,34.154],[-120.384,34.154],[-120.384,34.154],[-120.384,34.154],[-120.383,34.154],[-120.382,34.154],[-120.382,34.154],[-120.382,34.154],[-120.381,34.154],[-120.38,34.153],[-120.379,34.153],[-120.379,34.153],[-120.379,34.153],[-120.378,34.153],[-120.377,34.152],[-120.376,34.152],[-120.375,34.152],[-120.374,34.152],[-120.373,34.151],[-120.372,34.151],[-120.371,34.151],[-120.37,34.15],[-120.369,34.15],[-120.369,34.149],[-120.368,34.149],[-120.368,34.149],[-120.367,34.148],[-120.367,34.148],[-120.366,34.148],[-120.366,34.148],[-120.365,34.148],[-120.364,34.147],[-120.364,34.147],[-120.364,34.147],[-120.363,34.147],[-120.362,34.146],[-120.361,34.146],[-120.36,34.145],[-120.36,34.145],[-120.36,34.145],[-120.36,34.145],[-120.359,34.144],[-120.358,34.143],[-120.357,34.143],[-120.357,34.143],[-120.356,34.142],[-120.356,34.142],[-120.356,34.142],[-120.355,34.141],[-120.354,34.14],[-120.353,34.14],[-120.353,34.139],[-120.352,34.139],[-120.351,34.138],[-120.351,34.137],[-120.35,34.137],[-120.35,34.137],[-120.35,34.137],[-120.349,34.136],[-120.349,34.135],[-120.348,34.134],[-120.347,34.134],[-120.347,34.133],[-120.346,34.132],[-120.346,34.132],[-120.345,34.131],[-120.345,34.131],[-120.345,34.13],[-120.345,34.13],[-120.344,34.13],[-120.344,34.129],[-120.344,34.129],[-120.344,34.129],[-120.343,34.128],[-120.343,34.128],[-120.343,34.127],[-120.342,34.126],[-120.342,34.125],[-120.341,34.125],[-120.341,34.124],[-120.34,34.123],[-120.34,34.122],[-120.34,34.121],[-120.34,34.121],[-120.339,34.121],[-120.338,34.121],[-120.337,34.12],[-120.337,34.12],[-120.336,34.119],[-120.335,34.119],[-120.335,34.119],[-120.334,34.118],[-120.333,34.118],[-120.333,34.118],[-120.333,34.118],[-120.332,34.118],[-120.331,34.117],[-120.331,34.117],[-120.331,34.117],[-120.331,34.117],[-120.33,34.117],[-120.329,34.116],[-120.329,34.116],[-120.329,34.116],[-120.328,34.116],[-120.327,34.115],[-120.327,34.115],[-120.327,34.115],[-120.327,34.115],[-120.326,34.115],[-120.326,34.114],[-120.326,34.114],[-120.325,34.114],[-120.325,34.114],[-120.324,34.113],[-120.323,34.113],[-120.323,34.112],[-120.322,34.112],[-120.322,34.112],[-120.322,34.112],[-120.321,34.111],[-120.32,34.111],[-120.32,34.11],[-120.319,34.11],[-120.318,34.109],[-120.318,34.109],[-120.317,34.109],[-120.316,34.108],[-120.315,34.108],[-120.315,34.108],[-120.315,34.108],[-120.314,34.108],[-120.313,34.108],[-120.313,34.108],[-120.312,34.107],[-120.312,34.107],[-120.311,34.107],[-120.31,34.107],[-120.309,34.106],[-120.308,34.106],[-120.308,34.106],[-120.307,34.106],[-120.307,34.105]]]},"properties":{"id":"harris-point-state-marine-reserve","name":"Harris Point State Marine Reserve","type":"SMR","shortName":"Harris Point","areaKm2":null,"ccrCitation":null}},{"type":"Feature","geometry":{"type":"Polygon","coordinates":[[[-120.47,34.173],[-120.47,34.133],[-120.471,34.134],[-120.471,34.134],[-120.472,34.135],[-120.473,34.135],[-120.473,34.136],[-120.473,34.136],[-120.474,34.137],[-120.475,34.137],[-120.476,34.138],[-120.476,34.139],[-120.477,34.139],[-120.478,34.14],[-120.478,34.14],[-120.479,34.14],[-120.479,34.14],[-120.479,34.14],[-120.48,34.141],[-120.48,34.141],[-120.481,34.142],[-120.482,34.142],[-120.483,34.143],[-120.484,34.143],[-120.485,34.144],[-120.486,34.144],[-120.486,34.145],[-120.487,34.145],[-120.488,34.145],[-120.488,34.145],[-120.488,34.145],[-120.489,34.146],[-120.49,34.146],[-120.49,34.146],[-120.49,34.146],[-120.491,34.147],[-120.492,34.147],[-120.492,34.147],[-120.493,34.148],[-120.494,34.148],[-120.494,34.148],[-120.495,34.148],[-120.495,34.148],[-120.496,34.149],[-120.497,34.149],[-120.498,34.149],[-120.498,34.149],[-120.499,34.15],[-120.5,34.15],[-120.5,34.15],[-120.5,34.15],[-120.501,34.15],[-120.502,34.151],[-120.503,34.151],[-120.503,34.151],[-120.504,34.151],[-120.504,34.151],[-120.505,34.151],[-120.506,34.151],[-120.506,34.151],[-120.506,34.151],[-120.507,34.152],[-120.508,34.152],[-120.509,34.152],[-120.51,34.152],[-120.51,34.152],[-120.511,34.152],[-120.511,34.152],[-120.512,34.152],[-120.513,34.152],[-120.514,34.152],[-120.515,34.153],[-120.516,34.153],[-120.517,34.153],[-120.518,34.153],[-120.52,34.153],[-120.52,34.153],[-120.521,34.153],[-120.522,34.153],[-120.523,34.153],[-120.524,34.153],[-120.525,34.152],[-120.526,34.152],[-120.527,34.152],[-120.528,34.152],[-120.529,34.152],[-120.53,34.152],[-120.53,34.152],[-120.53,34.152],[-120.531,34.152],[-120.532,34.152],[-120.532,34.152],[-120.532,34.152],[-120.533,34.151],[-120.533,34.151],[-120.534,34.151],[-120.534,34.151],[-120.535,34.151],[-120.536,34.151],[-120.536,34.151],[-120.537,34.151],[-120.538,34.15],[-120.539,34.15],[-120.539,34.15],[-120.54,34.15],[-120.54,34.15],[-120.541,34.15],[-120.541,34.149],[-120.541,34.149],[-120.542,34.149],[-120.543,34.149],[-120.543,34.149],[-120.544,34.148],[-120.544,34.148],[-120.545,34.148],[-120.545,34.148],[-120.546,34.148],[-120.546,34.148],[-120.547,34.147],[-120.547,34.147],[-120.548,34.147],[-120.548,34.147],[-120.548,34.147],[-120.549,34.146],[-120.55,34.146],[-120.551,34.145],[-120.552,34.145],[-120.553,34.145],[-120.554,34.144],[-120.554,34.144],[-120.554,34.144],[-120.555,34.143],[-120.555,34.143],[-120.556,34.143],[-120.557,34.142],[-120.557,34.142],[-120.557,34.142],[-120.558,34.142],[-120.558,34.141],[-120.558,34.141],[-120.558,34.141],[-120.559,34.141],[-120.56,34.14],[-120.56,34.14],[-120.56,34.14],[-120.561,34.139],[-120.562,34.139],[-120.562,34.138],[-120.563,34.138],[-120.563,34.138],[-120.563,34.137],[-120.564,34.137],[-120.565,34.136],[-120.566,34.135],[-120.566,34.135],[-120.566,34.135],[-120.567,34.134],[-120.567,34.134],[-120.567,34.133],[-120.568,34.133],[-120.568,34.133],[-120.568,34.133],[-120.569,34.132],[-120.569,34.132],[-120.569,34.131],[-120.57,34.13],[-120.57,34.13],[-120.571,34.13],[-120.571,34.129],[-120.571,34.129],[-120.572,34.128],[-120.572,34.127],[-120.573,34.127],[-120.573,34.126],[-120.574,34.125],[-120.574,34.124],[-120.575,34.124],[-120.575,34.123],[-120.575,34.123],[-120.575,34.123],[-120.576,34.122],[-120.576,34.121],[-120.576,34.121],[-120.576,34.121],[-120.576,34.12],[-120.577,34.12],[-120.577,34.119],[-120.577,34.119],[-120.577,34.118],[-120.577,34.118],[-120.578,34.117],[-120.578,34.117],[-120.578,34.116],[-120.578,34.115],[-120.579,34.115],[-120.579,34.114],[-120.579,34.114],[-120.579,34.114],[-120.579,34.113],[-120.579,34.112],[-120.579,34.112],[-120.579,34.111],[-120.58,34.11],[-120.58,34.109],[-120.58,34.109],[-120.58,34.108],[-120.58,34.108],[-120.58,34.108],[-120.58,34.107],[-120.58,34.106],[-120.58,34.105],[-120.58,34.104],[-120.58,34.103],[-120.58,34.102],[-120.58,34.102],[-120.58,34.101],[-120.58,34.101],[-120.58,34.101],[-120.58,34.1],[-120.58,34.1],[-120.58,34.099],[-120.58,34.099],[-120.58,34.098],[-120.58,34.097],[-120.58,34.096],[-120.58,34.095],[-120.58,34.095],[-120.58,34.094],[-120.579,34.093],[-120.579,34.093],[-120.579,34.092],[-120.579,34.092],[-120.579,34.092],[-120.579,34.091],[-120.579,34.09],[-120.578,34.089],[-120.578,34.088],[-120.578,34.087],[-120.578,34.087],[-120.578,34.087],[-120.577,34.087],[-120.577,34.086],[-120.577,34.086],[-120.577,34.085],[-120.577,34.085],[-120.576,34.084],[-120.576,34.084],[-120.576,34.084],[-120.576,34.084],[-120.576,34.083],[-120.576,34.082],[-120.575,34.082],[-120.575,34.081],[-120.574,34.08],[-120.574,34.079],[-120.573,34.078],[-120.573,34.078],[-120.573,34.078],[-120.573,34.078],[-120.572,34.077],[-120.572,34.076],[-120.571,34.075],[-120.571,34.075],[-120.57,34.074],[-120.57,34.074],[-120.569,34.073],[-120.569,34.073],[-120.568,34.072],[-120.568,34.072],[-120.568,34.072],[-120.568,34.071],[-120.567,34.07],[-120.566,34.07],[-120.566,34.069],[-120.565,34.069],[-120.565,34.068],[-120.564,34.068],[-120.563,34.067],[-120.562,34.066],[-120.562,34.066],[-120.561,34.065],[-120.56,34.064],[-120.559,34.064],[-120.558,34.063],[-120.558,34.063],[-120.557,34.063],[-120.557,34.062],[-120.556,34.062],[-120.556,34.062],[-120.555,34.061],[-120.554,34.061],[-120.553,34.06],[-120.553,34.06],[-120.553,34.06],[-120.552,34.059],[-120.551,34.059],[-120.55,34.058],[-120.549,34.058],[-120.548,34.058],[-120.548,34.057],[-120.548,34.057],[-120.547,34.057],[-120.546,34.057],[-120.545,34.056],[-120.544,34.056],[-120.543,34.056],[-120.542,34.055],[-120.541,34.055],[-120.541,34.055],[-120.54,34.055],[-120.539,34.054],[-120.539,34.054],[-120.539,34.054],[-120.538,34.054],[-120.537,34.054],[-120.536,34.053],[-120.535,34.053],[-120.535,34.053],[-120.535,34.053],[-120.534,34.053],[-120.533,34.053],[-120.532,34.052],[-120.532,34.052],[-120.531,34.052],[-120.531,34.052],[-120.53,34.052],[-120.53,34.052],[-120.53,34.052],[-120.529,34.052],[-120.528,34.052],[-120.527,34.052],[-120.526,34.051],[-120.526,34.051],[-120.525,34.051],[-120.523,34.051],[-120.523,34.051],[-120.522,34.051],[-120.522,34.051],[-120.522,34.051],[-120.522,34.051],[-120.522,34.051],[-120.522,34.05],[-120.522,34.049],[-120.522,34.049],[-120.522,34.048],[-120.522,34.048],[-120.522,34.048],[-120.522,34.048],[-120.522,34.047],[-120.522,34.046],[-120.522,34.045],[-120.522,34.044],[-120.522,34.043],[-120.522,34.043],[-120.522,34.042],[-120.522,34.042],[-120.522,34.041],[-120.522,34.041],[-120.522,34.041],[-120.522,34.04],[-120.522,34.04],[-120.522,34.039],[-120.522,34.038],[-120.522,34.037],[-120.522,34.037],[-120.524,34.037],[-120.605,34.037],[-120.605,34.173],[-120.47,34.173]]]},"properties":{"id":"richardson-rock-federal-marine-reserve","name":"Richardson Rock Federal Marine Reserve","type":"FMR","shortName":"Richardson Rock","areaKm2":null,"ccrCitation":null}},{"type":"Feature","geometry":{"type":"Polygon","coordinates":[[[-120.307,34.205],[-120.307,34.105],[-120.307,34.106],[-120.308,34.106],[-120.308,34.106],[-120.309,34.106],[-120.31,34.107],[-120.311,34.107],[-120.312,34.107],[-120.312,34.107],[-120.313,34.108],[-120.313,34.108],[-120.314,34.108],[-120.315,34.108],[-120.315,34.108],[-120.315,34.108],[-120.316,34.108],[-120.317,34.109],[-120.318,34.109],[-120.318,34.109],[-120.319,34.11],[-120.32,34.11],[-120.32,34.111],[-120.321,34.111],[-120.322,34.112],[-120.322,34.112],[-120.322,34.112],[-120.323,34.112],[-120.323,34.113],[-120.324,34.113],[-120.325,34.114],[-120.325,34.114],[-120.326,34.114],[-120.326,34.114],[-120.326,34.115],[-120.327,34.115],[-120.327,34.115],[-120.327,34.115],[-120.327,34.115],[-120.328,34.116],[-120.329,34.116],[-120.329,34.116],[-120.329,34.116],[-120.33,34.117],[-120.331,34.117],[-120.331,34.117],[-120.331,34.117],[-120.331,34.117],[-120.332,34.118],[-120.333,34.118],[-120.333,34.118],[-120.333,34.118],[-120.334,34.118],[-120.335,34.119],[-120.335,34.119],[-120.336,34.119],[-120.337,34.12],[-120.337,34.12],[-120.338,34.121],[-120.339,34.121],[-120.34,34.121],[-120.34,34.121],[-120.34,34.122],[-120.34,34.123],[-120.341,34.124],[-120.341,34.125],[-120.342,34.125],[-120.342,34.126],[-120.343,34.127],[-120.343,34.128],[-120.343,34.128],[-120.344,34.129],[-120.344,34.129],[-120.344,34.129],[-120.344,34.13],[-120.345,34.13],[-120.345,34.13],[-120.345,34.131],[-120.345,34.131],[-120.346,34.132],[-120.346,34.132],[-120.347,34.133],[-120.347,34.134],[-120.348,34.134],[-120.349,34.135],[-120.349,34.136],[-120.35,34.137],[-120.35,34.137],[-120.35,34.137],[-120.351,34.137],[-120.351,34.138],[-120.352,34.139],[-120.353,34.139],[-120.353,34.14],[-120.354,34.14],[-120.355,34.141],[-120.356,34.142],[-120.356,34.142],[-120.356,34.142],[-120.357,34.143],[-120.357,34.143],[-120.358,34.143],[-120.359,34.144],[-120.36,34.145],[-120.36,34.145],[-120.36,34.145],[-120.36,34.145],[-120.361,34.146],[-120.362,34.146],[-120.363,34.147],[-120.364,34.147],[-120.364,34.147],[-120.364,34.147],[-120.365,34.148],[-120.366,34.148],[-120.366,34.148],[-120.367,34.148],[-120.367,34.148],[-120.368,34.149],[-120.368,34.149],[-120.369,34.149],[-120.369,34.15],[-120.37,34.15],[-120.371,34.151],[-120.372,34.151],[-120.373,34.151],[-120.374,34.152],[-120.375,34.152],[-120.376,34.152],[-120.377,34.152],[-120.378,34.153],[-120.379,34.153],[-120.379,34.153],[-120.379,34.153],[-120.38,34.153],[-120.381,34.154],[-120.382,34.154],[-120.382,34.154],[-120.382,34.154],[-120.383,34.154],[-120.384,34.154],[-120.384,34.154],[-120.384,34.154],[-120.385,34.154],[-120.385,34.154],[-120.386,34.154],[-120.387,34.154],[-120.388,34.155],[-120.388,34.155],[-120.388,34.205],[-120.307,34.205]]]},"properties":{"id":"harris-point-federal-marine-reserve","name":"Harris Point Federal Marine Reserve","type":"FMR","shortName":"Harris Point","areaKm2":null,"ccrCitation":null}},{"type":"Feature","geometry":{"type":"Polygon","coordinates":[[[-120.422,33.975],[-120.422,33.975],[-120.424,33.975],[-120.427,33.975],[-120.432,33.975],[-120.434,33.976],[-120.435,33.976],[-120.436,33.976],[-120.437,33.976],[-120.439,33.975],[-120.44,33.975],[-120.442,33.975],[-120.442,33.975],[-120.443,33.975],[-120.443,33.975],[-120.443,34.027],[-120.443,34.03],[-120.443,34.03],[-120.443,34.031],[-120.443,34.031],[-120.442,34.031],[-120.441,34.031],[-120.441,34.031],[-120.44,34.031],[-120.44,34.031],[-120.44,34.031],[-120.439,34.031],[-120.439,34.031],[-120.439,34.031],[-120.438,34.031],[-120.438,34.031],[-120.438,34.031],[-120.438,34.031],[-120.438,34.03],[-120.438,34.03],[-120.438,34.03],[-120.438,34.03],[-120.438,34.03],[-120.438,34.03],[-120.438,34.03],[-120.438,34.03],[-120.438,34.03],[-120.438,34.03],[-120.438,34.03],[-120.438,34.03],[-120.438,34.029],[-120.438,34.029],[-120.437,34.029],[-120.437,34.029],[-120.437,34.029],[-120.437,34.029],[-120.437,34.03],[-120.437,34.03],[-120.437,34.03],[-120.437,34.03],[-120.437,34.03],[-120.437,34.03],[-120.437,34.03],[-120.436,34.03],[-120.436,34.03],[-120.436,34.03],[-120.436,34.03],[-120.436,34.03],[-120.436,34.03],[-120.436,34.03],[-120.436,34.029],[-120.436,34.029],[-120.436,34.029],[-120.436,34.029],[-120.436,34.029],[-120.435,34.029],[-120.435,34.029],[-120.435,34.03],[-120.435,34.03],[-120.435,34.03],[-120.435,34.03],[-120.435,34.03],[-120.435,34.03],[-120.435,34.03],[-120.435,34.03],[-120.435,34.03],[-120.434,34.029],[-120.434,34.029],[-120.434,34.029],[-120.434,34.029],[-120.434,34.029],[-120.434,34.029],[-120.434,34.029],[-120.434,34.029],[-120.434,34.029],[-120.434,34.029],[-120.434,34.029],[-120.434,34.028],[-120.434,34.028],[-120.434,34.028],[-120.434,34.028],[-120.433,34.028],[-120.433,34.028],[-120.433,34.028],[-120.433,34.028],[-120.433,34.029],[-120.433,34.028],[-120.433,34.028],[-120.433,34.028],[-120.433,34.028],[-120.433,34.028],[-120.433,34.028],[-120.433,34.028],[-120.432,34.028],[-120.432,34.028],[-120.432,34.028],[-120.432,34.028],[-120.432,34.028],[-120.432,34.028],[-120.432,34.028],[-120.432,34.028],[-120.432,34.028],[-120.432,34.027],[-120.432,34.027],[-120.431,34.027],[-120.431,34.027],[-120.431,34.027],[-120.431,34.027],[-120.431,34.027],[-120.431,34.027],[-120.431,34.027],[-120.431,34.027],[-120.431,34.027],[-120.431,34.027],[-120.43,34.027],[-120.43,34.027],[-120.43,34.027],[-120.43,34.027],[-120.43,34.027],[-120.43,34.027],[-120.43,34.027],[-120.43,34.027],[-120.43,34.027],[-120.43,34.027],[-120.43,34.027],[-120.43,34.027],[-120.43,34.027],[-120.429,34.027],[-120.429,34.027],[-120.429,34.027],[-120.429,34.027],[-120.429,34.027],[-120.429,34.027],[-120.429,34.027],[-120.429,34.027],[-120.429,34.026],[-120.429,34.026],[-120.429,34.026],[-120.429,34.026],[-120.428,34.026],[-120.428,34.026],[-120.428,34.026],[-120.428,34.026],[-120.428,34.026],[-120.428,34.026],[-120.428,34.026],[-120.428,34.026],[-120.428,34.026],[-120.428,34.026],[-120.428,34.026],[-120.428,34.026],[-120.427,34.026],[-120.427,34.026],[-120.427,34.026],[-120.426,34.026],[-120.426,34.026],[-120.426,34.026],[-120.426,34.026],[-120.426,34.026],[-120.426,34.027],[-120.426,34.027],[-120.425,34.027],[-120.425,34.027],[-120.425,34.027],[-120.425,34.027],[-120.424,34.027],[-120.424,34.027],[-120.424,34.027],[-120.423,34.027],[-120.423,34.027],[-120.423,34.027],[-120.423,34.027],[-120.422,34.026],[-120.422,34.026],[-120.422,34.026],[-120.422,34.026],[-120.422,34.027],[-120.422,34.027],[-120.422,34.027],[-120.422,34.027],[-120.423,34.027],[-120.423,34.027],[-120.423,34.028],[-120.422,34.028],[-120.422,34.028],[-120.422,34.028],[-120.422,34.028],[-120.422,34.027],[-120.422,34.027],[-120.422,34.025],[-120.422,34.023],[-120.422,33.975]]]},"properties":{"id":"judith-rock-state-marine-reserve","name":"Judith Rock State Marine Reserve","type":"SMR","shortName":"Judith Rock","areaKm2":null,"ccrCitation":null}}]}