{"type":"FeatureCollection","features":[{"type":"Feature","geometry":{"type":"Point","coordinates":[-120.48459,34.1371]},"properties":{"depth_ft":300,"depth_m":91.5}},{"type":"Feature","geometry":{"type":"Point","coordinates":[-120.47419,34.1371]},"properties":{"depth_ft":302,"depth_m":92.1}},{"type":"Feature","geometry":{"type":"Point","coordinates":[-120.46379,34.1371]},"properties":{"depth_ft":298,"depth_m":90.8}},{"type":"Feature","geometry":{"type":"Point","coordinates":[-120.45339,34.1371]},"properties":{"depth_ft":292,"depth_m":88.9}},{"type":"Feature","geometry":{"type":"Point","coordinates":[-120.44299,34.1371]},"properties":{"depth_ft":286,"depth_m":87.1}},{"type":"Feature","geometry":{"type":"Point","coordinates":[-120.43259,34.1371]},"properties":{"depth_ft":278,"depth_m":84.7}},{"type":"Feature","geometry":{"type":"Point","coordinates":[-120.42219,34.1371]},"properties":{"depth_ft":285,"depth_m":86.8}},{"type":"Feature","geometry":{"type":"Point","coordinates":[-120.4118,34.1371]},"properties":{"depth_ft":289,"depth_m":88.1}},{"type":"Feature","geometry":{"type":"Point","coordinates":[-120.4014,34.1371]},"properties":{"depth_ft":314,"depth_m":95.7}},{"type":"Feature","geometry":{"type":"Point","coordinates":[-120.391,34.1371]},"properties":{"depth_ft":321,"depth_m":97.9}},{"type":"Feature","geometry":{"type":"Point","coordinates":[-120.3806,34.1371]},"properties":{"depth_ft":330,"depth_m":100.5}},{"type":"Feature","geometry":{"type":"Point","coordinates":[-120.3598,34.1371]},"properties":{"depth_ft":329,"depth_m":100.2}},{"type":"Feature","geometry":{"type":"Point","coordinates":[-120.3182,34.1371]},"properties":{"depth_ft":325,"depth_m":99.1}},{"type":"Feature","geometry":{"type":"Point","coordinates":[-120.30781,34.1371]},"properties":{"depth_ft":328,"depth_m":100.1}},{"type":"Feature","geometry":{"type":"Point","coordinates":[-120.48459,34.12848]},"properties":{"depth_ft":282,"depth_m":86.0}},{"type":"Feature","geometry":{"type":"Point","coordinates":[-120.47419,34.12848]},"properties":{"depth_ft":259,"depth_m":78.9}},{"type":"Feature","geometry":{"type":"Point","coordinates":[-120.46379,34.12848]},"properties":{"depth_ft":206,"depth_m":62.9}},{"type":"Feature","geometry":{"type":"Point","coordinates":[-120.45339,34.12848]},"properties":{"depth_ft":266,"depth_m":81.1}},{"type":"Feature","geometry":{"type":"Point","coordinates":[-120.44299,34.12848]},"properties":{"depth_ft":255,"depth_m":77.6}},{"type":"Feature","geometry":{"type":"Point","coordinates":[-120.43259,34.12848]},"properties":{"depth_ft":264,"depth_m":80.4}},{"type":"Feature","geometry":{"type":"Point","coordinates":[-120.42219,34.12848]},"properties":{"depth_ft":262,"depth_m":79.8}},{"type":"Feature","geometry":{"type":"Point","coordinates":[-120.4118,34.12848]},"properties":{"depth_ft":270,"depth_m":82.2}},{"type":"Feature","geometry":{"type":"Point","coordinates":[-120.4014,34.12848]},"properties":{"depth_ft":274,"depth_m":83.5}},{"type":"Feature","geometry":{"type":"Point","coordinates":[-120.391,34.12848]},"properties":{"depth_ft":299,"depth_m":91.2}},{"type":"Feature","geometry":{"type":"Point","coordinates":[-120.3806,34.12848]},"properties":{"depth_ft":305,"depth_m":93.0}},{"type":"Feature","geometry":{"type":"Point","coordinates":[-120.3702,34.12848]},"properties":{"depth_ft":313,"depth_m":95.5}},{"type":"Feature","geometry":{"type":"Point","coordinates":[-120.3598,34.12848]},"properties":{"depth_ft":315,"depth_m":96.1}},{"type":"Feature","geometry":{"type":"Point","coordinates":[-120.3494,34.12848]},"properties":{"depth_ft":327,"depth_m":99.7}},{"type":"Feature","geometry":{"type":"Point","coordinates":[-120.29741,34.12848]},"properties":{"depth_ft":328,"depth_m":100.0}},{"type":"Feature","geometry":{"type":"Point","coordinates":[-120.28701,34.12848]},"properties":{"depth_ft":321,"depth_m":97.9}},{"type":"Feature","geometry":{"type":"Point","coordinates":[-120.48459,34.11986]},"properties":{"depth_ft":283,"depth_m":86.2}},{"type":"Feature","geometry":{"type":"Point","coordinates":[-120.47419,34.11986]},"properties":{"depth_ft":273,"depth_m":83.2}},{"type":"Feature","geometry":{"type":"Point","coordinates":[-120.46379,34.11986]},"properties":{"depth_ft":263,"depth_m":80.2}},{"type":"Feature","geometry":{"type":"Point","coordinates":[-120.45339,34.11986]},"properties":{"depth_ft":245,"depth_m":74.8}},{"type":"Feature","geometry":{"type":"Point","coordinates":[-120.44299,34.11986]},"properties":{"depth_ft":219,"depth_m":66.8}},{"type":"Feature","geometry":{"type":"Point","coordinates":[-120.43259,34.11986]},"properties":{"depth_ft":231,"depth_m":70.3}},{"type":"Feature","geometry":{"type":"Point","coordinates":[-120.42219,34.11986]},"properties":{"depth_ft":195,"depth_m":59.6}},{"type":"Feature","geometry":{"type":"Point","coordinates":[-120.4118,34.11986]},"properties":{"depth_ft":233,"depth_m":70.9}},{"type":"Feature","geometry":{"type":"Point","coordinates":[-120.4014,34.11986]},"properties":{"depth_ft":237,"depth_m":72.2}},{"type":"Feature","geometry":{"type":"Point","coordinates":[-120.391,34.11986]},"properties":{"depth_ft":262,"depth_m":79.8}},{"type":"Feature","geometry":{"type":"Point","coordinates":[-120.3806,34.11986]},"properties":{"depth_ft":271,"depth_m":82.7}},{"type":"Feature","geometry":{"type":"Point","coordinates":[-120.3702,34.11986]},"properties":{"depth_ft":282,"depth_m":86.0}},{"type":"Feature","geometry":{"type":"Point","coordinates":[-120.3598,34.11986]},"properties":{"depth_ft":288,"depth_m":87.9}},{"type":"Feature","geometry":{"type":"Point","coordinates":[-120.3494,34.11986]},"properties":{"depth_ft":294,"depth_m":89.7}},{"type":"Feature","geometry":{"type":"Point","coordinates":[-120.339,34.11986]},"properties":{"depth_ft":313,"depth_m":95.3}},{"type":"Feature","geometry":{"type":"Point","coordinates":[-120.3286,34.11986]},"properties":{"depth_ft":324,"depth_m":98.7}},{"type":"Feature","geometry":{"type":"Point","coordinates":[-120.28701,34.11986]},"properties":{"depth_ft":330,"depth_m":100.4}},{"type":"Feature","geometry":{"type":"Point","coordinates":[-120.27661,34.11986]},"properties":{"depth_ft":326,"depth_m":99.4}},{"type":"Feature","geometry":{"type":"Point","coordinates":[-120.48459,34.11125]},"properties":{"depth_ft":255,"depth_m":77.8}},{"type":"Feature","geometry":{"type":"Point","coordinates":[-120.47419,34.11125]},"properties":{"depth_ft":250,"depth_m":76.2}},{"type":"Feature","geometry":{"type":"Point","coordinates":[-120.46379,34.11125]},"properties":{"depth_ft":241,"depth_m":73.5}},{"type":"Feature","geometry":{"type":"Point","coordinates":[-120.45339,34.11125]},"properties":{"depth_ft":239,"depth_m":73.0}},{"type":"Feature","geometry":{"type":"Point","coordinates":[-120.44299,34.11125]},"properties":{"depth_ft":217,"depth_m":66.0}},{"type":"Feature","geometry":{"type":"Point","coordinates":[-120.43259,34.11125]},"properties":{"depth_ft":220,"depth_m":67.0}},{"type":"Feature","geometry":{"type":"Point","coordinates":[-120.42219,34.11125]},"properties":{"depth_ft":201,"depth_m":61.1}},{"type":"Feature","geometry":{"type":"Point","coordinates":[-120.4118,34.11125]},"properties":{"depth_ft":98,"depth_m":29.8}},{"type":"Feature","geometry":{"type":"Point","coordinates":[-120.4014,34.11125]},"properties":{"depth_ft":215,"depth_m":65.7}},{"type":"Feature","geometry":{"type":"Point","coordinates":[-120.391,34.11125]},"properties":{"depth_ft":239,"depth_m":72.7}},{"type":"Feature","geometry":{"type":"Point","coordinates":[-120.3806,34.11125]},"properties":{"depth_ft":219,"depth_m":66.9}},{"type":"Feature","geometry":{"type":"Point","coordinates":[-120.3702,34.11125]},"properties":{"depth_ft":258,"depth_m":78.6}},{"type":"Feature","geometry":{"type":"Point","coordinates":[-120.3598,34.11125]},"properties":{"depth_ft":267,"depth_m":81.2}},{"type":"Feature","geometry":{"type":"Point","coordinates":[-120.3494,34.11125]},"properties":{"depth_ft":278,"depth_m":84.8}},{"type":"Feature","geometry":{"type":"Point","coordinates":[-120.339,34.11125]},"properties":{"depth_ft":288,"depth_m":87.9}},{"type":"Feature","geometry":{"type":"Point","coordinates":[-120.3286,34.11125]},"properties":{"depth_ft":302,"depth_m":92.1}},{"type":"Feature","geometry":{"type":"Point","coordinates":[-120.3182,34.11125]},"properties":{"depth_ft":318,"depth_m":96.8}},{"type":"Feature","geometry":{"type":"Point","coordinates":[-120.30781,34.11125]},"properties":{"depth_ft":328,"depth_m":100.0}},{"type":"Feature","geometry":{"type":"Point","coordinates":[-120.28701,34.11125]},"properties":{"depth_ft":324,"depth_m":98.7}},{"type":"Feature","geometry":{"type":"Point","coordinates":[-120.27661,34.11125]},"properties":{"depth_ft":322,"depth_m":98.3}},{"type":"Feature","geometry":{"type":"Point","coordinates":[-120.26621,34.11125]},"properties":{"depth_ft":320,"depth_m":97.6}},{"type":"Feature","geometry":{"type":"Point","coordinates":[-120.48459,34.10263]},"properties":{"depth_ft":250,"depth_m":76.1}},{"type":"Feature","geometry":{"type":"Point","coordinates":[-120.47419,34.10263]},"properties":{"depth_ft":245,"depth_m":74.8}},{"type":"Feature","geometry":{"type":"Point","coordinates":[-120.46379,34.10263]},"properties":{"depth_ft":235,"depth_m":71.5}},{"type":"Feature","geometry":{"type":"Point","coordinates":[-120.45339,34.10263]},"properties":{"depth_ft":225,"depth_m":68.5}},{"type":"Feature","geometry":{"type":"Point","coordinates":[-120.44299,34.10263]},"properties":{"depth_ft":216,"depth_m":65.8}},{"type":"Feature","geometry":{"type":"Point","coordinates":[-120.43259,34.10263]},"properties":{"depth_ft":192,"depth_m":58.5}},{"type":"Feature","geometry":{"type":"Point","coordinates":[-120.42219,34.10263]},"properties":{"depth_ft":178,"depth_m":54.3}},{"type":"Feature","geometry":{"type":"Point","coordinates":[-120.4118,34.10263]},"properties":{"depth_ft":158,"depth_m":48.3}},{"type":"Feature","geometry":{"type":"Point","coordinates":[-120.4014,34.10263]},"properties":{"depth_ft":130,"depth_m":39.8}},{"type":"Feature","geometry":{"type":"Point","coordinates":[-120.391,34.10263]},"properties":{"depth_ft":189,"depth_m":57.7}},{"type":"Feature","geometry":{"type":"Point","coordinates":[-120.3806,34.10263]},"properties":{"depth_ft":207,"depth_m":63.1}},{"type":"Feature","geometry":{"type":"Point","coordinates":[-120.3702,34.10263]},"properties":{"depth_ft":184,"depth_m":56.1}},{"type":"Feature","geometry":{"type":"Point","coordinates":[-120.3598,34.10263]},"properties":{"depth_ft":249,"depth_m":75.8}},{"type":"Feature","geometry":{"type":"Point","coordinates":[-120.3494,34.10263]},"properties":{"depth_ft":257,"depth_m":78.4}},{"type":"Feature","geometry":{"type":"Point","coordinates":[-120.339,34.10263]},"properties":{"depth_ft":266,"depth_m":81.2}},{"type":"Feature","geometry":{"type":"Point","coordinates":[-120.3286,34.10263]},"properties":{"depth_ft":278,"depth_m":84.6}},{"type":"Feature","geometry":{"type":"Point","coordinates":[-120.3182,34.10263]},"properties":{"depth_ft":291,"depth_m":88.6}},{"type":"Feature","geometry":{"type":"Point","coordinates":[-120.30781,34.10263]},"properties":{"depth_ft":302,"depth_m":92.0}},{"type":"Feature","geometry":{"type":"Point","coordinates":[-120.29741,34.10263]},"properties":{"depth_ft":313,"depth_m":95.3}},{"type":"Feature","geometry":{"type":"Point","coordinates":[-120.28701,34.10263]},"properties":{"depth_ft":322,"depth_m":98.2}},{"type":"Feature","geometry":{"type":"Point","coordinates":[-120.27661,34.10263]},"properties":{"depth_ft":322,"depth_m":98.1}},{"type":"Feature","geometry":{"type":"Point","coordinates":[-120.26621,34.10263]},"properties":{"depth_ft":320,"depth_m":97.5}},{"type":"Feature","geometry":{"type":"Point","coordinates":[-120.25581,34.10263]},"properties":{"depth_ft":319,"depth_m":97.3}},{"type":"Feature","geometry":{"type":"Point","coordinates":[-120.24541,34.10263]},"properties":{"depth_ft":326,"depth_m":99.2}},{"type":"Feature","geometry":{"type":"Point","coordinates":[-120.48459,34.09401]},"properties":{"depth_ft":225,"depth_m":68.5}},{"type":"Feature","geometry":{"type":"Point","coordinates":[-120.47419,34.09401]},"properties":{"depth_ft":213,"depth_m":64.9}},{"type":"Feature","geometry":{"type":"Point","coordinates":[-120.46379,34.09401]},"properties":{"depth_ft":216,"depth_m":65.8}},{"type":"Feature","geometry":{"type":"Point","coordinates":[-120.45339,34.09401]},"properties":{"depth_ft":202,"depth_m":61.4}},{"type":"Feature","geometry":{"type":"Point","coordinates":[-120.44299,34.09401]},"properties":{"depth_ft":188,"depth_m":57.2}},{"type":"Feature","geometry":{"type":"Point","coordinates":[-120.43259,34.09401]},"properties":{"depth_ft":185,"depth_m":56.3}},{"type":"Feature","geometry":{"type":"Point","coordinates":[-120.42219,34.09401]},"properties":{"depth_ft":179,"depth_m":54.4}},{"type":"Feature","geometry":{"type":"Point","coordinates":[-120.4118,34.09401]},"properties":{"depth_ft":172,"depth_m":52.3}},{"type":"Feature","geometry":{"type":"Point","coordinates":[-120.4014,34.09401]},"properties":{"depth_ft":152,"depth_m":46.4}},{"type":"Feature","geometry":{"type":"Point","coordinates":[-120.391,34.09401]},"properties":{"depth_ft":171,"depth_m":52.0}},{"type":"Feature","geometry":{"type":"Point","coordinates":[-120.3806,34.09401]},"properties":{"depth_ft":177,"depth_m":54.1}},{"type":"Feature","geometry":{"type":"Point","coordinates":[-120.3702,34.09401]},"properties":{"depth_ft":179,"depth_m":54.7}},{"type":"Feature","geometry":{"type":"Point","coordinates":[-120.3598,34.09401]},"properties":{"depth_ft":203,"depth_m":62.0}},{"type":"Feature","geometry":{"type":"Point","coordinates":[-120.3494,34.09401]},"properties":{"depth_ft":221,"depth_m":67.4}},{"type":"Feature","geometry":{"type":"Point","coordinates":[-120.339,34.09401]},"properties":{"depth_ft":245,"depth_m":74.7}},{"type":"Feature","geometry":{"type":"Point","coordinates":[-120.3286,34.09401]},"properties":{"depth_ft":258,"depth_m":78.6}},{"type":"Feature","geometry":{"type":"Point","coordinates":[-120.3182,34.09401]},"properties":{"depth_ft":266,"depth_m":81.1}},{"type":"Feature","geometry":{"type":"Point","coordinates":[-120.30781,34.09401]},"properties":{"depth_ft":283,"depth_m":86.3}},{"type":"Feature","geometry":{"type":"Point","coordinates":[-120.29741,34.09401]},"properties":{"depth_ft":290,"depth_m":88.4}},{"type":"Feature","geometry":{"type":"Point","coordinates":[-120.28701,34.09401]},"properties":{"depth_ft":297,"depth_m":90.6}},{"type":"Feature","geometry":{"type":"Point","coordinates":[-120.27661,34.09401]},"properties":{"depth_ft":302,"depth_m":92.0}},{"type":"Feature","geometry":{"type":"Point","coordinates":[-120.26621,34.09401]},"properties":{"depth_ft":305,"depth_m":92.9}},{"type":"Feature","geometry":{"type":"Point","coordinates":[-120.25581,34.09401]},"properties":{"depth_ft":301,"depth_m":91.9}},{"type":"Feature","geometry":{"type":"Point","coordinates":[-120.24541,34.09401]},"properties":{"depth_ft":292,"depth_m":88.9}},{"type":"Feature","geometry":{"type":"Point","coordinates":[-120.48459,34.0854]},"properties":{"depth_ft":172,"depth_m":52.4}},{"type":"Feature","geometry":{"type":"Point","coordinates":[-120.47419,34.0854]},"properties":{"depth_ft":153,"depth_m":46.7}},{"type":"Feature","geometry":{"type":"Point","coordinates":[-120.46379,34.0854]},"properties":{"depth_ft":154,"depth_m":46.9}},{"type":"Feature","geometry":{"type":"Point","coordinates":[-120.45339,34.0854]},"properties":{"depth_ft":176,"depth_m":53.8}},{"type":"Feature","geometry":{"type":"Point","coordinates":[-120.44299,34.0854]},"properties":{"depth_ft":154,"depth_m":47.1}},{"type":"Feature","geometry":{"type":"Point","coordinates":[-120.43259,34.0854]},"properties":{"depth_ft":159,"depth_m":48.3}},{"type":"Feature","geometry":{"type":"Point","coordinates":[-120.42219,34.0854]},"properties":{"depth_ft":140,"depth_m":42.5}},{"type":"Feature","geometry":{"type":"Point","coordinates":[-120.4118,34.0854]},"properties":{"depth_ft":131,"depth_m":39.8}},{"type":"Feature","geometry":{"type":"Point","coordinates":[-120.4014,34.0854]},"properties":{"depth_ft":160,"depth_m":48.9}},{"type":"Feature","geometry":{"type":"Point","coordinates":[-120.391,34.0854]},"properties":{"depth_ft":155,"depth_m":47.3}},{"type":"Feature","geometry":{"type":"Point","coordinates":[-120.3806,34.0854]},"properties":{"depth_ft":154,"depth_m":47.0}},{"type":"Feature","geometry":{"type":"Point","coordinates":[-120.3702,34.0854]},"properties":{"depth_ft":162,"depth_m":49.4}},{"type":"Feature","geometry":{"type":"Point","coordinates":[-120.3598,34.0854]},"properties":{"depth_ft":162,"depth_m":49.5}},{"type":"Feature","geometry":{"type":"Point","coordinates":[-120.3494,34.0854]},"properties":{"depth_ft":185,"depth_m":56.3}},{"type":"Feature","geometry":{"type":"Point","coordinates":[-120.339,34.0854]},"properties":{"depth_ft":196,"depth_m":59.8}},{"type":"Feature","geometry":{"type":"Point","coordinates":[-120.3286,34.0854]},"properties":{"depth_ft":222,"depth_m":67.7}},{"type":"Feature","geometry":{"type":"Point","coordinates":[-120.3182,34.0854]},"properties":{"depth_ft":248,"depth_m":75.5}},{"type":"Feature","geometry":{"type":"Point","coordinates":[-120.30781,34.0854]},"properties":{"depth_ft":266,"depth_m":81.0}},{"type":"Feature","geometry":{"type":"Point","coordinates":[-120.29741,34.0854]},"properties":{"depth_ft":277,"depth_m":84.3}},{"type":"Feature","geometry":{"type":"Point","coordinates":[-120.28701,34.0854]},"properties":{"depth_ft":287,"depth_m":87.6}},{"type":"Feature","geometry":{"type":"Point","coordinates":[-120.27661,34.0854]},"properties":{"depth_ft":288,"depth_m":87.9}},{"type":"Feature","geometry":{"type":"Point","coordinates":[-120.26621,34.0854]},"properties":{"depth_ft":284,"depth_m":86.5}},{"type":"Feature","geometry":{"type":"Point","coordinates":[-120.25581,34.0854]},"properties":{"depth_ft":277,"depth_m":84.3}},{"type":"Feature","geometry":{"type":"Point","coordinates":[-120.24541,34.0854]},"properties":{"depth_ft":261,"depth_m":79.6}},{"type":"Feature","geometry":{"type":"Point","coordinates":[-120.48459,34.07678]},"properties":{"depth_ft":190,"depth_m":58.0}},{"type":"Feature","geometry":{"type":"Point","coordinates":[-120.47419,34.07678]},"properties":{"depth_ft":173,"depth_m":52.8}},{"type":"Feature","geometry":{"type":"Point","coordinates":[-120.46379,34.07678]},"properties":{"depth_ft":140,"depth_m":42.7}},{"type":"Feature","geometry":{"type":"Point","coordinates":[-120.45339,34.07678]},"properties":{"depth_ft":140,"depth_m":42.8}},{"type":"Feature","geometry":{"type":"Point","coordinates":[-120.44299,34.07678]},"properties":{"depth_ft":105,"depth_m":31.9}},{"type":"Feature","geometry":{"type":"Point","coordinates":[-120.43259,34.07678]},"properties":{"depth_ft":108,"depth_m":32.9}},{"type":"Feature","geometry":{"type":"Point","coordinates":[-120.42219,34.07678]},"properties":{"depth_ft":123,"depth_m":37.4}},{"type":"Feature","geometry":{"type":"Point","coordinates":[-120.4118,34.07678]},"properties":{"depth_ft":123,"depth_m":37.4}},{"type":"Feature","geometry":{"type":"Point","coordinates":[-120.4014,34.07678]},"properties":{"depth_ft":131,"depth_m":39.8}},{"type":"Feature","geometry":{"type":"Point","coordinates":[-120.391,34.07678]},"properties":{"depth_ft":136,"depth_m":41.6}},{"type":"Feature","geometry":{"type":"Point","coordinates":[-120.3806,34.07678]},"properties":{"depth_ft":134,"depth_m":41.0}},{"type":"Feature","geometry":{"type":"Point","coordinates":[-120.3702,34.07678]},"properties":{"depth_ft":66,"depth_m":20.0}},{"type":"Feature","geometry":{"type":"Point","coordinates":[-120.3598,34.07678]},"properties":{"depth_ft":116,"depth_m":35.3}},{"type":"Feature","geometry":{"type":"Point","coordinates":[-120.3494,34.07678]},"properties":{"depth_ft":151,"depth_m":46.2}},{"type":"Feature","geometry":{"type":"Point","coordinates":[-120.339,34.07678]},"properties":{"depth_ft":168,"depth_m":51.2}},{"type":"Feature","geometry":{"type":"Point","coordinates":[-120.3286,34.07678]},"properties":{"depth_ft":183,"depth_m":55.8}},{"type":"Feature","geometry":{"type":"Point","coordinates":[-120.3182,34.07678]},"properties":{"depth_ft":209,"depth_m":63.7}},{"type":"Feature","geometry":{"type":"Point","coordinates":[-120.30781,34.07678]},"properties":{"depth_ft":242,"depth_m":73.7}},{"type":"Feature","geometry":{"type":"Point","coordinates":[-120.29741,34.07678]},"properties":{"depth_ft":249,"depth_m":75.8}},{"type":"Feature","geometry":{"type":"Point","coordinates":[-120.28701,34.07678]},"properties":{"depth_ft":253,"depth_m":77.1}},{"type":"Feature","geometry":{"type":"Point","coordinates":[-120.27661,34.07678]},"properties":{"depth_ft":253,"depth_m":77.2}},{"type":"Feature","geometry":{"type":"Point","coordinates":[-120.26621,34.07678]},"properties":{"depth_ft":244,"depth_m":74.4}},{"type":"Feature","geometry":{"type":"Point","coordinates":[-120.25581,34.07678]},"properties":{"depth_ft":245,"depth_m":74.7}},{"type":"Feature","geometry":{"type":"Point","coordinates":[-120.24541,34.07678]},"properties":{"depth_ft":232,"depth_m":70.7}},{"type":"Feature","geometry":{"type":"Point","coordinates":[-120.48459,34.06816]},"properties":{"depth_ft":146,"depth_m":44.5}},{"type":"Feature","geometry":{"type":"Point","coordinates":[-120.47419,34.06816]},"properties":{"depth_ft":145,"depth_m":44.2}},{"type":"Feature","geometry":{"type":"Point","coordinates":[-120.46379,34.06816]},"properties":{"depth_ft":129,"depth_m":39.4}},{"type":"Feature","geometry":{"type":"Point","coordinates":[-120.45339,34.06816]},"properties":{"depth_ft":101,"depth_m":30.8}},{"type":"Feature","geometry":{"type":"Point","coordinates":[-120.44299,34.06816]},"properties":{"depth_ft":87,"depth_m":26.6}},{"type":"Feature","geometry":{"type":"Point","coordinates":[-120.43259,34.06816]},"properties":{"depth_ft":67,"depth_m":20.4}},{"type":"Feature","geometry":{"type":"Point","coordinates":[-120.42219,34.06816]},"properties":{"depth_ft":82,"depth_m":25.0}},{"type":"Feature","geometry":{"type":"Point","coordinates":[-120.4118,34.06816]},"properties":{"depth_ft":94,"depth_m":28.5}},{"type":"Feature","geometry":{"type":"Point","coordinates":[-120.4014,34.06816]},"properties":{"depth_ft":89,"depth_m":27.1}},{"type":"Feature","geometry":{"type":"Point","coordinates":[-120.391,34.06816]},"properties":{"depth_ft":78,"depth_m":23.7}},{"type":"Feature","geometry":{"type":"Point","coordinates":[-120.3806,34.06816]},"properties":{"depth_ft":70,"depth_m":21.2}},{"type":"Feature","geometry":{"type":"Point","coordinates":[-120.3702,34.06816]},"properties":{"depth_ft":9,"depth_m":2.9}},{"type":"Feature","geometry":{"type":"Point","coordinates":[-120.3598,34.06816]},"properties":{"depth_ft":8,"depth_m":2.4}},{"type":"Feature","geometry":{"type":"Point","coordinates":[-120.3494,34.06816]},"properties":{"depth_ft":112,"depth_m":34.0}},{"type":"Feature","geometry":{"type":"Point","coordinates":[-120.339,34.06816]},"properties":{"depth_ft":130,"depth_m":39.7}},{"type":"Feature","geometry":{"type":"Point","coordinates":[-120.3286,34.06816]},"properties":{"depth_ft":149,"depth_m":45.3}},{"type":"Feature","geometry":{"type":"Point","coordinates":[-120.3182,34.06816]},"properties":{"depth_ft":183,"depth_m":55.9}},{"type":"Feature","geometry":{"type":"Point","coordinates":[-120.30781,34.06816]},"properties":{"depth_ft":215,"depth_m":65.6}},{"type":"Feature","geometry":{"type":"Point","coordinates":[-120.29741,34.06816]},"properties":{"depth_ft":228,"depth_m":69.5}},{"type":"Feature","geometry":{"type":"Point","coordinates":[-120.28701,34.06816]},"properties":{"depth_ft":228,"depth_m":69.5}},{"type":"Feature","geometry":{"type":"Point","coordinates":[-120.27661,34.06816]},"properties":{"depth_ft":226,"depth_m":68.7}},{"type":"Feature","geometry":{"type":"Point","coordinates":[-120.26621,34.06816]},"properties":{"depth_ft":218,"depth_m":66.5}},{"type":"Feature","geometry":{"type":"Point","coordinates":[-120.25581,34.06816]},"properties":{"depth_ft":205,"depth_m":62.4}},{"type":"Feature","geometry":{"type":"Point","coordinates":[-120.24541,34.06816]},"properties":{"depth_ft":196,"depth_m":59.9}},{"type":"Feature","geometry":{"type":"Point","coordinates":[-120.48459,34.05954]},"properties":{"depth_ft":201,"depth_m":61.3}},{"type":"Feature","geometry":{"type":"Point","coordinates":[-120.47419,34.05954]},"properties":{"depth_ft":148,"depth_m":45.2}},{"type":"Feature","geometry":{"type":"Point","coordinates":[-120.46379,34.05954]},"properties":{"depth_ft":113,"depth_m":34.5}},{"type":"Feature","geometry":{"type":"Point","coordinates":[-120.45339,34.05954]},"properties":{"depth_ft":70,"depth_m":21.4}},{"type":"Feature","geometry":{"type":"Point","coordinates":[-120.44299,34.05954]},"properties":{"depth_ft":42,"depth_m":12.7}},{"type":"Feature","geometry":{"type":"Point","coordinates":[-120.43259,34.05954]},"properties":{"depth_ft":61,"depth_m":18.6}},{"type":"Feature","geometry":{"type":"Point","coordinates":[-120.42219,34.05954]},"properties":{"depth_ft":67,"depth_m":20.4}},{"type":"Feature","geometry":{"type":"Point","coordinates":[-120.4118,34.05954]},"properties":{"depth_ft":71,"depth_m":21.5}},{"type":"Feature","geometry":{"type":"Point","coordinates":[-120.4014,34.05954]},"properties":{"depth_ft":75,"depth_m":22.9}},{"type":"Feature","geometry":{"type":"Point","coordinates":[-120.391,34.05954]},"properties":{"depth_ft":64,"depth_m":19.6}},{"type":"Feature","geometry":{"type":"Point","coordinates":[-120.3806,34.05954]},"properties":{"depth_ft":10,"depth_m":3.1}},{"type":"Feature","geometry":{"type":"Point","coordinates":[-120.3494,34.05954]},"properties":{"depth_ft":73,"depth_m":22.4}},{"type":"Feature","geometry":{"type":"Point","coordinates":[-120.339,34.05954]},"properties":{"depth_ft":64,"depth_m":19.4}},{"type":"Feature","geometry":{"type":"Point","coordinates":[-120.3286,34.05954]},"properties":{"depth_ft":113,"depth_m":34.4}},{"type":"Feature","geometry":{"type":"Point","coordinates":[-120.3182,34.05954]},"properties":{"depth_ft":149,"depth_m":45.3}},{"type":"Feature","geometry":{"type":"Point","coordinates":[-120.30781,34.05954]},"properties":{"depth_ft":183,"depth_m":55.7}},{"type":"Feature","geometry":{"type":"Point","coordinates":[-120.29741,34.05954]},"properties":{"depth_ft":199,"depth_m":60.7}},{"type":"Feature","geometry":{"type":"Point","coordinates":[-120.28701,34.05954]},"properties":{"depth_ft":210,"depth_m":63.9}},{"type":"Feature","geometry":{"type":"Point","coordinates":[-120.27661,34.05954]},"properties":{"depth_ft":204,"depth_m":62.3}},{"type":"Feature","geometry":{"type":"Point","coordinates":[-120.26621,34.05954]},"properties":{"depth_ft":181,"depth_m":55.2}},{"type":"Feature","geometry":{"type":"Point","coordinates":[-120.25581,34.05954]},"properties":{"depth_ft":189,"depth_m":57.5}},{"type":"Feature","geometry":{"type":"Point","coordinates":[-120.24541,34.05954]},"properties":{"depth_ft":176,"depth_m":53.6}},{"type":"Feature","geometry":{"type":"Point","coordinates":[-120.48459,34.05093]},"properties":{"depth_ft":229,"depth_m":69.9}},{"type":"Feature","geometry":{"type":"Point","coordinates":[-120.47419,34.05093]},"properties":{"depth_ft":126,"depth_m":38.3}},{"type":"Feature","geometry":{"type":"Point","coordinates":[-120.46379,34.05093]},"properties":{"depth_ft":96,"depth_m":29.1}},{"type":"Feature","geometry":{"type":"Point","coordinates":[-120.45339,34.05093]},"properties":{"depth_ft":79,"depth_m":24.0}},{"type":"Feature","geometry":{"type":"Point","coordinates":[-120.44299,34.05093]},"properties":{"depth_ft":59,"depth_m":17.9}},{"type":"Feature","geometry":{"type":"Point","coordinates":[-120.43259,34.05093]},"properties":{"depth_ft":39,"depth_m":12.0}},{"type":"Feature","geometry":{"type":"Point","coordinates":[-120.4014,34.05093]},"properties":{"depth_ft":9,"depth_m":2.7}},{"type":"Feature","geometry":{"type":"Point","coordinates":[-120.3494,34.05093]},"properties":{"depth_ft":49,"depth_m":14.8}},{"type":"Feature","geometry":{"type":"Point","coordinates":[-120.339,34.05093]},"properties":{"depth_ft":36,"depth_m":11.0}},{"type":"Feature","geometry":{"type":"Point","coordinates":[-120.3286,34.05093]},"properties":{"depth_ft":61,"depth_m":18.5}},{"type":"Feature","geometry":{"type":"Point","coordinates":[-120.3182,34.05093]},"properties":{"depth_ft":108,"depth_m":33.1}},{"type":"Feature","geometry":{"type":"Point","coordinates":[-120.30781,34.05093]},"properties":{"depth_ft":146,"depth_m":44.6}},{"type":"Feature","geometry":{"type":"Point","coordinates":[-120.29741,34.05093]},"properties":{"depth_ft":155,"depth_m":47.2}},{"type":"Feature","geometry":{"type":"Point","coordinates":[-120.28701,34.05093]},"properties":{"depth_ft":161,"depth_m":48.9}},{"type":"Feature","geometry":{"type":"Point","coordinates":[-120.27661,34.05093]},"properties":{"depth_ft":176,"depth_m":53.5}},{"type":"Feature","geometry":{"type":"Point","coordinates":[-120.26621,34.05093]},"properties":{"depth_ft":147,"depth_m":44.7}},{"type":"Feature","geometry":{"type":"Point","coordinates":[-120.25581,34.05093]},"properties":{"depth_ft":169,"depth_m":51.5}},{"type":"Feature","geometry":{"type":"Point","coordinates":[-120.24541,34.05093]},"properties":{"depth_ft":143,"depth_m":43.6}},{"type":"Feature","geometry":{"type":"Point","coordinates":[-120.48459,34.04231]},"properties":{"depth_ft":235,"depth_m":71.5}},{"type":"Feature","geometry":{"type":"Point","coordinates":[-120.47419,34.04231]},"properties":{"depth_ft":151,"depth_m":45.9}},{"type":"Feature","geometry":{"type":"Point","coordinates":[-120.46379,34.04231]},"properties":{"depth_ft":51,"depth_m":15.6}},{"type":"Feature","geometry":{"type":"Point","coordinates":[-120.45339,34.04231]},"properties":{"depth_ft":36,"depth_m":11.0}},{"type":"Feature","geometry":{"type":"Point","coordinates":[-120.44299,34.04231]},"properties":{"depth_ft":34,"depth_m":10.3}},{"type":"Feature","geometry":{"type":"Point","coordinates":[-120.3182,34.04231]},"properties":{"depth_ft":26,"depth_m":7.8}},{"type":"Feature","geometry":{"type":"Point","coordinates":[-120.30781,34.04231]},"properties":{"depth_ft":107,"depth_m":32.7}},{"type":"Feature","geometry":{"type":"Point","coordinates":[-120.29741,34.04231]},"properties":{"depth_ft":138,"depth_m":42.0}},{"type":"Feature","geometry":{"type":"Point","coordinates":[-120.28701,34.04231]},"properties":{"depth_ft":128,"depth_m":39.1}},{"type":"Feature","geometry":{"type":"Point","coordinates":[-120.27661,34.04231]},"properties":{"depth_ft":135,"depth_m":41.3}},{"type":"Feature","geometry":{"type":"Point","coordinates":[-120.26621,34.04231]},"properties":{"depth_ft":107,"depth_m":32.5}},{"type":"Feature","geometry":{"type":"Point","coordinates":[-120.25581,34.04231]},"properties":{"depth_ft":126,"depth_m":38.4}},{"type":"Feature","geometry":{"type":"Point","coordinates":[-120.24541,34.04231]},"properties":{"depth_ft":100,"depth_m":30.5}},{"type":"Feature","geometry":{"type":"Point","coordinates":[-120.48459,34.03369]},"properties":{"depth_ft":239,"depth_m":73.0}},{"type":"Feature","geometry":{"type":"Point","coordinates":[-120.47419,34.03369]},"properties":{"depth_ft":183,"depth_m":55.7}},{"type":"Feature","geometry":{"type":"Point","coordinates":[-120.46379,34.03369]},"properties":{"depth_ft":67,"depth_m":20.3}},{"type":"Feature","geometry":{"type":"Point","coordinates":[-120.45339,34.03369]},"properties":{"depth_ft":11,"depth_m":3.4}},{"type":"Feature","geometry":{"type":"Point","coordinates":[-120.30781,34.03369]},"properties":{"depth_ft":55,"depth_m":16.9}},{"type":"Feature","geometry":{"type":"Point","coordinates":[-120.29741,34.03369]},"properties":{"depth_ft":114,"depth_m":34.9}},{"type":"Feature","geometry":{"type":"Point","coordinates":[-120.28701,34.03369]},"properties":{"depth_ft":129,"depth_m":39.2}},{"type":"Feature","geometry":{"type":"Point","coordinates":[-120.27661,34.03369]},"properties":{"depth_ft":88,"depth_m":27.0}},{"type":"Feature","geometry":{"type":"Point","coordinates":[-120.26621,34.03369]},"properties":{"depth_ft":110,"depth_m":33.7}},{"type":"Feature","geometry":{"type":"Point","coordinates":[-120.25581,34.03369]},"properties":{"depth_ft":89,"depth_m":27.2}},{"type":"Feature","geometry":{"type":"Point","coordinates":[-120.24541,34.03369]},"properties":{"depth_ft":72,"depth_m":21.8}},{"type":"Feature","geometry":{"type":"Point","coordinates":[-120.48459,34.02507]},"properties":{"depth_ft":265,"depth_m":80.7}},{"type":"Feature","geometry":{"type":"Point","coordinates":[-120.47419,34.02507]},"properties":{"depth_ft":131,"depth_m":40.0}},{"type":"Feature","geometry":{"type":"Point","coordinates":[-120.46379,34.02507]},"properties":{"depth_ft":159,"depth_m":48.5}},{"type":"Feature","geometry":{"type":"Point","coordinates":[-120.45339,34.02507]},"properties":{"depth_ft":116,"depth_m":35.5}},{"type":"Feature","geometry":{"type":"Point","coordinates":[-120.44299,34.02507]},"properties":{"depth_ft":35,"depth_m":10.7}},{"type":"Feature","geometry":{"type":"Point","coordinates":[-120.43259,34.02507]},"properties":{"depth_ft":36,"depth_m":10.9}},{"type":"Feature","geometry":{"type":"Point","coordinates":[-120.42219,34.02507]},"properties":{"depth_ft":7,"depth_m":2.3}},{"type":"Feature","geometry":{"type":"Point","coordinates":[-120.4118,34.02507]},"properties":{"depth_ft":73,"depth_m":22.2}},{"type":"Feature","geometry":{"type":"Point","coordinates":[-120.4014,34.02507]},"properties":{"depth_ft":44,"depth_m":13.4}},{"type":"Feature","geometry":{"type":"Point","coordinates":[-120.391,34.02507]},"properties":{"depth_ft":17,"depth_m":5.2}},{"type":"Feature","geometry":{"type":"Point","coordinates":[-120.29741,34.02507]},"properties":{"depth_ft":52,"depth_m":15.9}},{"type":"Feature","geometry":{"type":"Point","coordinates":[-120.28701,34.02507]},"properties":{"depth_ft":122,"depth_m":37.1}},{"type":"Feature","geometry":{"type":"Point","coordinates":[-120.27661,34.02507]},"properties":{"depth_ft":123,"depth_m":37.4}},{"type":"Feature","geometry":{"type":"Point","coordinates":[-120.26621,34.02507]},"properties":{"depth_ft":107,"depth_m":32.6}},{"type":"Feature","geometry":{"type":"Point","coordinates":[-120.25581,34.02507]},"properties":{"depth_ft":83,"depth_m":25.3}},{"type":"Feature","geometry":{"type":"Point","coordinates":[-120.24541,34.02507]},"properties":{"depth_ft":62,"depth_m":18.9}},{"type":"Feature","geometry":{"type":"Point","coordinates":[-120.48459,34.01646]},"properties":{"depth_ft":320,"depth_m":97.6}},{"type":"Feature","geometry":{"type":"Point","coordinates":[-120.47419,34.01646]},"properties":{"depth_ft":268,"depth_m":81.7}},{"type":"Feature","geometry":{"type":"Point","coordinates":[-120.46379,34.01646]},"properties":{"depth_ft":182,"depth_m":55.4}},{"type":"Feature","geometry":{"type":"Point","coordinates":[-120.45339,34.01646]},"properties":{"depth_ft":226,"depth_m":69.0}},{"type":"Feature","geometry":{"type":"Point","coordinates":[-120.44299,34.01646]},"properties":{"depth_ft":192,"depth_m":58.4}},{"type":"Feature","geometry":{"type":"Point","coordinates":[-120.43259,34.01646]},"properties":{"depth_ft":163,"depth_m":49.6}},{"type":"Feature","geometry":{"type":"Point","coordinates":[-120.42219,34.01646]},"properties":{"depth_ft":176,"depth_m":53.5}},{"type":"Feature","geometry":{"type":"Point","coordinates":[-120.4118,34.01646]},"properties":{"depth_ft":177,"depth_m":53.9}},{"type":"Feature","geometry":{"type":"Point","coordinates":[-120.4014,34.01646]},"properties":{"depth_ft":150,"depth_m":45.7}},{"type":"Feature","geometry":{"type":"Point","coordinates":[-120.391,34.01646]},"properties":{"depth_ft":126,"depth_m":38.5}},{"type":"Feature","geometry":{"type":"Point","coordinates":[-120.3806,34.01646]},"properties":{"depth_ft":93,"depth_m":28.3}},{"type":"Feature","geometry":{"type":"Point","coordinates":[-120.3702,34.01646]},"properties":{"depth_ft":16,"depth_m":4.8}},{"type":"Feature","geometry":{"type":"Point","coordinates":[-120.3494,34.01646]},"properties":{"depth_ft":34,"depth_m":10.4}},{"type":"Feature","geometry":{"type":"Point","coordinates":[-120.339,34.01646]},"properties":{"depth_ft":36,"depth_m":10.9}},{"type":"Feature","geometry":{"type":"Point","coordinates":[-120.3286,34.01646]},"properties":{"depth_ft":50,"depth_m":15.2}},{"type":"Feature","geometry":{"type":"Point","coordinates":[-120.3182,34.01646]},"properties":{"depth_ft":34,"depth_m":10.5}},{"type":"Feature","geometry":{"type":"Point","coordinates":[-120.30781,34.01646]},"properties":{"depth_ft":32,"depth_m":9.9}},{"type":"Feature","geometry":{"type":"Point","coordinates":[-120.29741,34.01646]},"properties":{"depth_ft":45,"depth_m":13.8}},{"type":"Feature","geometry":{"type":"Point","coordinates":[-120.28701,34.01646]},"properties":{"depth_ft":117,"depth_m":35.5}},{"type":"Feature","geometry":{"type":"Point","coordinates":[-120.27661,34.01646]},"properties":{"depth_ft":117,"depth_m":35.6}},{"type":"Feature","geometry":{"type":"Point","coordinates":[-120.26621,34.01646]},"properties":{"depth_ft":110,"depth_m":33.6}},{"type":"Feature","geometry":{"type":"Point","coordinates":[-120.25581,34.01646]},"properties":{"depth_ft":94,"depth_m":28.6}},{"type":"Feature","geometry":{"type":"Point","coordinates":[-120.24541,34.01646]},"properties":{"depth_ft":55,"depth_m":16.7}},{"type":"Feature","geometry":{"type":"Point","coordinates":[-120.46379,34.00784]},"properties":{"depth_ft":329,"depth_m":100.4}},{"type":"Feature","geometry":{"type":"Point","coordinates":[-120.45339,34.00784]},"properties":{"depth_ft":309,"depth_m":94.2}},{"type":"Feature","geometry":{"type":"Point","coordinates":[-120.44299,34.00784]},"properties":{"depth_ft":285,"depth_m":86.9}},{"type":"Feature","geometry":{"type":"Point","coordinates":[-120.43259,34.00784]},"properties":{"depth_ft":259,"depth_m":79.0}},{"type":"Feature","geometry":{"type":"Point","coordinates":[-120.42219,34.00784]},"properties":{"depth_ft":245,"depth_m":74.6}},{"type":"Feature","geometry":{"type":"Point","coordinates":[-120.4118,34.00784]},"properties":{"depth_ft":243,"depth_m":74.1}},{"type":"Feature","geometry":{"type":"Point","coordinates":[-120.4014,34.00784]},"properties":{"depth_ft":210,"depth_m":63.9}},{"type":"Feature","geometry":{"type":"Point","coordinates":[-120.391,34.00784]},"properties":{"depth_ft":191,"depth_m":58.2}},{"type":"Feature","geometry":{"type":"Point","coordinates":[-120.3806,34.00784]},"properties":{"depth_ft":168,"depth_m":51.1}},{"type":"Feature","geometry":{"type":"Point","coordinates":[-120.3702,34.00784]},"properties":{"depth_ft":136,"depth_m":41.5}},{"type":"Feature","geometry":{"type":"Point","coordinates":[-120.3598,34.00784]},"properties":{"depth_ft":63,"depth_m":19.3}},{"type":"Feature","geometry":{"type":"Point","coordinates":[-120.3494,34.00784]},"properties":{"depth_ft":82,"depth_m":24.9}},{"type":"Feature","geometry":{"type":"Point","coordinates":[-120.339,34.00784]},"properties":{"depth_ft":89,"depth_m":27.0}},{"type":"Feature","geometry":{"type":"Point","coordinates":[-120.3286,34.00784]},"properties":{"depth_ft":156,"depth_m":47.5}},{"type":"Feature","geometry":{"type":"Point","coordinates":[-120.3182,34.00784]},"properties":{"depth_ft":161,"depth_m":49.2}},{"type":"Feature","geometry":{"type":"Point","coordinates":[-120.30781,34.00784]},"properties":{"depth_ft":107,"depth_m":32.7}},{"type":"Feature","geometry":{"type":"Point","coordinates":[-120.29741,34.00784]},"properties":{"depth_ft":100,"depth_m":30.5}},{"type":"Feature","geometry":{"type":"Point","coordinates":[-120.28701,34.00784]},"properties":{"depth_ft":118,"depth_m":35.8}},{"type":"Feature","geometry":{"type":"Point","coordinates":[-120.27661,34.00784]},"properties":{"depth_ft":115,"depth_m":35.0}},{"type":"Feature","geometry":{"type":"Point","coordinates":[-120.26621,34.00784]},"properties":{"depth_ft":100,"depth_m":30.4}},{"type":"Feature","geometry":{"type":"Point","coordinates":[-120.25581,34.00784]},"properties":{"depth_ft":70,"depth_m":21.5}},{"type":"Feature","geometry":{"type":"Point","coordinates":[-120.24541,34.00784]},"properties":{"depth_ft":46,"depth_m":14.0}},{"type":"Feature","geometry":{"type":"Point","coordinates":[-120.42219,33.99922]},"properties":{"depth_ft":308,"depth_m":93.9}},{"type":"Feature","geometry":{"type":"Point","coordinates":[-120.4118,33.99922]},"properties":{"depth_ft":290,"depth_m":88.5}},{"type":"Feature","geometry":{"type":"Point","coordinates":[-120.4014,33.99922]},"properties":{"depth_ft":272,"depth_m":82.9}},{"type":"Feature","geometry":{"type":"Point","coordinates":[-120.391,33.99922]},"properties":{"depth_ft":256,"depth_m":78.0}},{"type":"Feature","geometry":{"type":"Point","coordinates":[-120.3806,33.99922]},"properties":{"depth_ft":240,"depth_m":73.0}},{"type":"Feature","geometry":{"type":"Point","coordinates":[-120.3702,33.99922]},"properties":{"depth_ft":219,"depth_m":66.7}},{"type":"Feature","geometry":{"type":"Point","coordinates":[-120.3598,33.99922]},"properties":{"depth_ft":211,"depth_m":64.4}},{"type":"Feature","geometry":{"type":"Point","coordinates":[-120.3494,33.99922]},"properties":{"depth_ft":198,"depth_m":60.2}},{"type":"Feature","geometry":{"type":"Point","coordinates":[-120.339,33.99922]},"properties":{"depth_ft":203,"depth_m":61.8}},{"type":"Feature","geometry":{"type":"Point","coordinates":[-120.3286,33.99922]},"properties":{"depth_ft":195,"depth_m":59.3}},{"type":"Feature","geometry":{"type":"Point","coordinates":[-120.3182,33.99922]},"properties":{"depth_ft":203,"depth_m":61.8}},{"type":"Feature","geometry":{"type":"Point","coordinates":[-120.30781,33.99922]},"properties":{"depth_ft":191,"depth_m":58.3}},{"type":"Feature","geometry":{"type":"Point","coordinates":[-120.29741,33.99922]},"properties":{"depth_ft":91,"depth_m":27.8}},{"type":"Feature","geometry":{"type":"Point","coordinates":[-120.28701,33.99922]},"properties":{"depth_ft":114,"depth_m":34.7}},{"type":"Feature","geometry":{"type":"Point","coordinates":[-120.27661,33.99922]},"properties":{"depth_ft":152,"depth_m":46.4}},{"type":"Feature","geometry":{"type":"Point","coordinates":[-120.26621,33.99922]},"properties":{"depth_ft":106,"depth_m":32.3}},{"type":"Feature","geometry":{"type":"Point","coordinates":[-120.25581,33.99922]},"properties":{"depth_ft":46,"depth_m":14.0}},{"type":"Feature","geometry":{"type":"Point","coordinates":[-120.391,33.9906]},"properties":{"depth_ft":306,"depth_m":93.2}},{"type":"Feature","geometry":{"type":"Point","coordinates":[-120.3806,33.9906]},"properties":{"depth_ft":313,"depth_m":95.3}},{"type":"Feature","geometry":{"type":"Point","coordinates":[-120.3702,33.9906]},"properties":{"depth_ft":293,"depth_m":89.2}},{"type":"Feature","geometry":{"type":"Point","coordinates":[-120.3598,33.9906]},"properties":{"depth_ft":297,"depth_m":90.5}},{"type":"Feature","geometry":{"type":"Point","coordinates":[-120.3494,33.9906]},"properties":{"depth_ft":270,"depth_m":82.4}},{"type":"Feature","geometry":{"type":"Point","coordinates":[-120.339,33.9906]},"properties":{"depth_ft":258,"depth_m":78.5}},{"type":"Feature","geometry":{"type":"Point","coordinates":[-120.3286,33.9906]},"properties":{"depth_ft":253,"depth_m":77.0}},{"type":"Feature","geometry":{"type":"Point","coordinates":[-120.3182,33.9906]},"properties":{"depth_ft":255,"depth_m":77.6}},{"type":"Feature","geometry":{"type":"Point","coordinates":[-120.30781,33.9906]},"properties":{"depth_ft":248,"depth_m":75.4}},{"type":"Feature","geometry":{"type":"Point","coordinates":[-120.29741,33.9906]},"properties":{"depth_ft":232,"depth_m":70.7}},{"type":"Feature","geometry":{"type":"Point","coordinates":[-120.28701,33.9906]},"properties":{"depth_ft":209,"depth_m":63.7}},{"type":"Feature","geometry":{"type":"Point","coordinates":[-120.27661,33.9906]},"properties":{"depth_ft":179,"depth_m":54.4}},{"type":"Feature","geometry":{"type":"Point","coordinates":[-120.26621,33.9906]},"properties":{"depth_ft":141,"depth_m":43.1}},{"type":"Feature","geometry":{"type":"Point","coordinates":[-120.25581,33.9906]},"properties":{"depth_ft":95,"depth_m":29.0}},{"type":"Feature","geometry":{"type":"Point","coordinates":[-120.24541,33.9906]},"properties":{"depth_ft":56,"depth_m":17.2}},{"type":"Feature","geometry":{"type":"Point","coordinates":[-120.3494,33.98199]},"properties":{"depth_ft":330,"depth_m":100.6}},{"type":"Feature","geometry":{"type":"Point","coordinates":[-120.339,33.98199]},"properties":{"depth_ft":309,"depth_m":94.0}},{"type":"Feature","geometry":{"type":"Point","coordinates":[-120.3286,33.98199]},"properties":{"depth_ft":298,"depth_m":90.8}},{"type":"Feature","geometry":{"type":"Point","coordinates":[-120.3182,33.98199]},"properties":{"depth_ft":286,"depth_m":87.1}},{"type":"Feature","geometry":{"type":"Point","coordinates":[-120.30781,33.98199]},"properties":{"depth_ft":271,"depth_m":82.5}},{"type":"Feature","geometry":{"type":"Point","coordinates":[-120.29741,33.98199]},"properties":{"depth_ft":255,"depth_m":77.8}},{"type":"Feature","geometry":{"type":"Point","coordinates":[-120.28701,33.98199]},"properties":{"depth_ft":237,"depth_m":72.1}},{"type":"Feature","geometry":{"type":"Point","coordinates":[-120.27661,33.98199]},"properties":{"depth_ft":211,"depth_m":64.5}},{"type":"Feature","geometry":{"type":"Point","coordinates":[-120.26621,33.98199]},"properties":{"depth_ft":165,"depth_m":50.2}},{"type":"Feature","geometry":{"type":"Point","coordinates":[-120.25581,33.98199]},"properties":{"depth_ft":126,"depth_m":38.5}},{"type":"Feature","geometry":{"type":"Point","coordinates":[-120.24541,33.98199]},"properties":{"depth_ft":89,"depth_m":27.1}},{"type":"Feature","geometry":{"type":"Point","coordinates":[-120.339,33.97337]},"properties":{"depth_ft":324,"depth_m":98.8}},{"type":"Feature","geometry":{"type":"Point","coordinates":[-120.3286,33.97337]},"properties":{"depth_ft":310,"depth_m":94.5}},{"type":"Feature","geometry":{"type":"Point","coordinates":[-120.3182,33.97337]},"properties":{"depth_ft":298,"depth_m":90.7}},{"type":"Feature","geometry":{"type":"Point","coordinates":[-120.30781,33.97337]},"properties":{"depth_ft":286,"depth_m":87.0}},{"type":"Feature","geometry":{"type":"Point","coordinates":[-120.29741,33.97337]},"properties":{"depth_ft":285,"depth_m":87.0}},{"type":"Feature","geometry":{"type":"Point","coordinates":[-120.28701,33.97337]},"properties":{"depth_ft":262,"depth_m":79.8}},{"type":"Feature","geometry":{"type":"Point","coordinates":[-120.27661,33.97337]},"properties":{"depth_ft":231,"depth_m":70.3}},{"type":"Feature","geometry":{"type":"Point","coordinates":[-120.26621,33.97337]},"properties":{"depth_ft":194,"depth_m":59.1}},{"type":"Feature","geometry":{"type":"Point","coordinates":[-120.25581,33.97337]},"properties":{"depth_ft":157,"depth_m":47.7}},{"type":"Feature","geometry":{"type":"Point","coordinates":[-120.24541,33.97337]},"properties":{"depth_ft":131,"depth_m":39.9}},{"type":"Feature","geometry":{"type":"Point","coordinates":[-120.3286,33.96475]},"properties":{"depth_ft":326,"depth_m":99.2}},{"type":"Feature","geometry":{"type":"Point","coordinates":[-120.3182,33.96475]},"properties":{"depth_ft":311,"depth_m":94.8}},{"type":"Feature","geometry":{"type":"Point","coordinates":[-120.30781,33.96475]},"properties":{"depth_ft":309,"depth_m":94.3}},{"type":"Feature","geometry":{"type":"Point","coordinates":[-120.29741,33.96475]},"properties":{"depth_ft":302,"depth_m":91.9}},{"type":"Feature","geometry":{"type":"Point","coordinates":[-120.28701,33.96475]},"properties":{"depth_ft":280,"depth_m":85.4}},{"type":"Feature","geometry":{"type":"Point","coordinates":[-120.27661,33.96475]},"properties":{"depth_ft":257,"depth_m":78.4}},{"type":"Feature","geometry":{"type":"Point","coordinates":[-120.26621,33.96475]},"properties":{"depth_ft":220,"depth_m":67.1}},{"type":"Feature","geometry":{"type":"Point","coordinates":[-120.25581,33.96475]},"properties":{"depth_ft":189,"depth_m":57.6}},{"type":"Feature","geometry":{"type":"Point","coordinates":[-120.24541,33.96475]},"properties":{"depth_ft":154,"depth_m":47.0}},{"type":"Feature","geometry":{"type":"Point","coordinates":[-120.29741,33.95614]},"properties":{"depth_ft":323,"depth_m":98.5}},{"type":"Feature","geometry":{"type":"Point","coordinates":[-120.28701,33.95614]},"properties":{"depth_ft":299,"depth_m":91.1}},{"type":"Feature","geometry":{"type":"Point","coordinates":[-120.27661,33.95614]},"properties":{"depth_ft":282,"depth_m":86.0}},{"type":"Feature","geometry":{"type":"Point","coordinates":[-120.26621,33.95614]},"properties":{"depth_ft":255,"depth_m":77.7}},{"type":"Feature","geometry":{"type":"Point","coordinates":[-120.25581,33.95614]},"properties":{"depth_ft":205,"depth_m":62.6}},{"type":"Feature","geometry":{"type":"Point","coordinates":[-120.24541,33.95614]},"properties":{"depth_ft":179,"depth_m":54.5}},{"type":"Feature","geometry":{"type":"Point","coordinates":[-120.28701,33.94752]},"properties":{"depth_ft":320,"depth_m":97.6}},{"type":"Feature","geometry":{"type":"Point","coordinates":[-120.27661,33.94752]},"properties":{"depth_ft":297,"depth_m":90.6}},{"type":"Feature","geometry":{"type":"Point","coordinates":[-120.26621,33.94752]},"properties":{"depth_ft":272,"depth_m":83.0}},{"type":"Feature","geometry":{"type":"Point","coordinates":[-120.25581,33.94752]},"properties":{"depth_ft":236,"depth_m":71.8}},{"type":"Feature","geometry":{"type":"Point","coordinates":[-120.24541,33.94752]},"properties":{"depth_ft":205,"depth_m":62.5}},{"type":"Feature","geometry":{"type":"Point","coordinates":[-120.26621,33.9389]},"properties":{"depth_ft":311,"depth_m":94.7}},{"type":"Feature","geometry":{"type":"Point","coordinates":[-120.25581,33.9389]},"properties":{"depth_ft":285,"depth_m":86.8}},{"type":"Feature","geometry":{"type":"Point","coordinates":[-120.24541,33.9389]},"properties":{"depth_ft":255,"depth_m":77.7}}]}